{"type":"FeatureCollection","name":"GerbilAtlas plate 41","note":"Region extents cut from the atlas drawing (METHODS.md, Region extents). Coordinates are [ML, DV] in mm, ML positive to the right of the plate as printed, DV negative below the dorsal surface; AP is the plate bregma. traced_fraction is the share of each polygon boundary the atlas actually draws; below 0.5 the boundary is an estimate. no_drawn_outline marks a feature that lies only inside boundaries the atlas draws round more than one name and prints nothing within, so the whole of its outline is where the extraction cut it. Not a segmentation.","plate":41,"ap_bregma_mm":-6.2,"features":[{"type":"Feature","geometry":{"type":"MultiPolygon","coordinates":[[[[0.625,-1.702],[0.576,-1.765],[0.519,-1.807],[0.519,-1.821],[0.421,-1.892],[0.253,-1.969],[0.092,-2.011],[-0.112,-2.025],[-0.259,-2.004],[-0.385,-1.955],[-0.49,-1.885],[-0.673,-1.709],[-0.701,-1.652],[-0.701,-1.547],[-0.673,-1.519],[-0.666,-1.491],[-0.595,-1.42],[-0.518,-1.378],[-0.441,-1.364],[-0.224,-1.35],[0.127,-1.357],[0.351,-1.392],[0.498,-1.434],[0.604,-1.491],[0.653,-1.561],[0.653,-1.645],[0.625,-1.702]]]]},"properties":{"abbr":"4Cb","name":"4th cerebellar lobule","plate":41,"ap_bregma_mm":-6.2,"area_mm2":0.7096,"traced_fraction":[1.0],"n_labels":1,"no_drawn_outline":false}},{"type":"Feature","geometry":{"type":"MultiPolygon","coordinates":[[[[0.961,-4.663],[0.996,-4.663],[1.087,-4.705],[1.073,-4.761],[0.933,-4.916],[0.779,-5.036],[0.674,-5.071],[0.659,-5.0],[0.695,-4.958],[0.793,-4.867],[0.828,-4.81],[0.877,-4.768],[0.884,-4.74],[0.912,-4.726],[0.961,-4.663]]],[[[-0.988,-4.684],[-0.946,-4.733],[-0.904,-4.846],[-0.848,-4.923],[-0.792,-4.972],[-0.659,-5.036],[-0.659,-5.078],[-0.82,-5.014],[-0.974,-4.909],[-1.086,-4.789],[-1.086,-4.747],[-1.107,-4.712],[-1.051,-4.684],[-0.988,-4.684]]]]},"properties":{"abbr":"4n","name":"trochlear nerve","plate":41,"ap_bregma_mm":-6.2,"area_mm2":0.112,"traced_fraction":[1.0,0.994],"n_labels":2,"no_drawn_outline":false}},{"type":"Feature","geometry":{"type":"MultiPolygon","coordinates":[[[[0.085,-5.408],[0.148,-5.429],[0.288,-5.429],[0.288,-5.5],[0.33,-5.633],[0.316,-5.633],[0.316,-5.676],[0.344,-5.844],[0.281,-5.879],[0.162,-5.894],[0.155,-5.887],[0.106,-5.872],[0.057,-5.83],[0.021,-5.746],[0.021,-5.69],[0.043,-5.619],[0.05,-5.457],[0.085,-5.408]]],[[[-0.133,-5.415],[-0.105,-5.472],[-0.084,-5.556],[-0.084,-5.633],[-0.063,-5.69],[-0.07,-5.753],[-0.098,-5.809],[-0.14,-5.851],[-0.21,-5.865],[-0.287,-5.851],[-0.336,-5.816],[-0.406,-5.809],[-0.399,-5.668],[-0.357,-5.486],[-0.336,-5.443],[-0.245,-5.443],[-0.133,-5.415]]]]},"properties":{"abbr":"ATg","name":"anterior tegmental nucleus","plate":41,"ap_bregma_mm":-6.2,"area_mm2":0.2445,"traced_fraction":[0.99,0.985],"n_labels":2,"no_drawn_outline":false}},{"type":"Feature","geometry":{"type":"MultiPolygon","coordinates":[[[[0.169,-3.467],[0.358,-3.594],[0.449,-3.727],[0.477,-3.826],[0.463,-3.945],[0.4,-4.037],[0.386,-4.079],[0.26,-4.213],[0.19,-4.262],[0.099,-4.304],[-0.056,-4.318],[-0.161,-4.297],[-0.245,-4.255],[-0.448,-4.044],[-0.497,-3.917],[-0.497,-3.819],[-0.455,-3.713],[-0.357,-3.573],[-0.252,-3.488],[-0.154,-3.439],[-0.084,-3.425],[0.064,-3.425],[0.169,-3.467]]]]},"properties":{"abbr":"Aq","name":"aqueduct","plate":41,"ap_bregma_mm":-6.2,"area_mm2":0.6482,"traced_fraction":[1.0],"n_labels":1,"no_drawn_outline":false}},{"type":"Feature","geometry":{"type":"MultiPolygon","coordinates":[[[[5.014,-3.144],[5.084,-3.179],[5.315,-3.411],[5.315,-3.425],[5.554,-3.678],[5.568,-3.678],[5.68,-3.798],[5.743,-3.833],[5.743,-3.84],[5.736,-3.861],[5.729,-3.882],[5.722,-3.903],[5.694,-3.995],[5.68,-4.121],[5.28,-4.121],[5.28,-4.269],[5.652,-4.269],[5.596,-4.501],[5.455,-4.796],[5.392,-4.867],[5.357,-4.93],[5.315,-4.965],[5.217,-5.113],[5.133,-5.183],[5.028,-5.085],[5.028,-5.071],[4.621,-5.071],[4.621,-5.472],[4.439,-5.514],[4.172,-5.514],[4.039,-5.464],[3.934,-5.359],[3.878,-5.232],[3.85,-5.113],[3.829,-4.824],[3.759,-4.396],[3.801,-4.381],[3.892,-4.318],[3.962,-4.241],[4.095,-3.769],[4.221,-3.566],[4.333,-3.453],[4.509,-3.355],[4.93,-3.235],[4.986,-3.2],[5.0,-3.151],[5.014,-3.144]]],[[[5.743,-3.833],[5.75,-3.833],[5.743,-3.84],[5.743,-3.833]]],[[[-3.751,-4.473],[-3.744,-4.691],[-3.779,-4.768],[-3.954,-4.824],[-4.038,-4.909],[-4.143,-4.93],[-4.143,-4.473],[-3.751,-4.473]]]]},"properties":{"abbr":"CEnt","name":"caudomedial entothinal cortex","plate":41,"ap_bregma_mm":-6.2,"area_mm2":3.1425,"traced_fraction":[0.767,1.0,0.491],"n_labels":2,"no_drawn_outline":false}},{"type":"Feature","geometry":{"type":"MultiPolygon","coordinates":[[[[-1.626,-2.468],[-1.626,-2.497],[-1.444,-2.89],[-1.353,-3.242],[-1.367,-3.622],[-1.43,-3.847],[-1.507,-3.981],[-1.577,-4.051],[-1.717,-4.121],[-1.822,-4.135],[-1.928,-4.121],[-2.103,-4.051],[-2.25,-3.952],[-2.376,-3.798],[-2.432,-3.657],[-2.447,-3.573],[-2.432,-3.284],[-2.348,-2.968],[-2.159,-2.588],[-2.082,-2.468],[-2.012,-2.398],[-1.9,-2.349],[-1.78,-2.349],[-1.724,-2.377],[-1.64,-2.468],[-1.626,-2.468]]],[[[2.363,-3.945],[2.349,-3.945],[2.237,-4.058],[2.111,-4.121],[1.971,-4.149],[1.788,-4.121],[1.69,-4.079],[1.585,-4.009],[1.466,-3.861],[1.417,-3.622],[1.438,-3.235],[1.55,-2.707],[1.606,-2.707],[1.606,-2.574],[1.62,-2.546],[1.697,-2.44],[1.803,-2.363],[1.929,-2.363],[1.978,-2.391],[2.055,-2.475],[2.16,-2.651],[2.265,-2.883],[2.286,-2.904],[2.384,-3.144],[2.441,-3.362],[2.454,-3.551],[2.426,-3.755],[2.363,-3.945]]]]},"properties":{"abbr":"CIC","name":"central nucleus of the inferior colliculus","plate":41,"ap_bregma_mm":-6.2,"area_mm2":2.8626,"traced_fraction":[1.0,0.978],"n_labels":2,"no_drawn_outline":false}},{"type":"Feature","geometry":{"type":"MultiPolygon","coordinates":[[[[-2.068,-4.599],[-1.865,-4.642],[-1.339,-4.67],[-1.121,-4.705],[-1.107,-4.712],[-1.086,-4.747],[-1.086,-4.789],[-1.227,-4.867],[-1.451,-4.937],[-1.57,-4.958],[-1.703,-4.958],[-1.801,-4.937],[-1.871,-4.909],[-1.991,-4.81],[-2.054,-4.705],[-2.068,-4.599]]],[[[2.013,-4.599],[1.999,-4.635],[1.894,-4.74],[1.88,-4.74],[1.866,-4.768],[1.725,-4.824],[1.704,-4.846],[1.459,-4.881],[1.235,-4.832],[1.129,-4.796],[1.073,-4.761],[1.087,-4.705],[1.164,-4.628],[1.256,-4.649],[1.269,-4.663],[1.438,-4.684],[1.718,-4.663],[1.922,-4.606],[2.013,-4.599]]]]},"properties":{"abbr":"CnF","name":"cuneiform nucleus","plate":41,"ap_bregma_mm":-6.2,"area_mm2":0.3797,"traced_fraction":[1.0,1.0],"n_labels":2,"no_drawn_outline":false}},{"type":"Feature","geometry":{"type":"MultiPolygon","coordinates":[[[[-1.416,-1.842],[-1.367,-1.849],[-1.304,-1.885],[-1.269,-1.885],[-1.269,-1.913],[-1.255,-1.913],[-1.255,-1.934],[-1.212,-1.99],[-1.149,-2.124],[-1.058,-2.222],[-1.051,-2.278],[-0.967,-2.426],[-0.918,-2.588],[-0.911,-2.82],[-0.953,-3.08],[-0.981,-3.151],[-1.016,-3.186],[-1.149,-3.228],[-1.353,-3.242],[-1.444,-2.89],[-1.626,-2.497],[-1.626,-2.468],[-1.549,-2.426],[-1.465,-2.335],[-1.416,-2.117],[-1.416,-1.842]]],[[[1.858,-1.899],[1.845,-1.948],[1.803,-2.004],[1.774,-2.138],[1.781,-2.307],[1.803,-2.363],[1.732,-2.405],[1.62,-2.546],[1.606,-2.574],[1.606,-2.707],[1.55,-2.707],[1.438,-3.235],[1.214,-3.242],[1.073,-3.186],[1.045,-3.193],[1.017,-3.129],[1.031,-3.122],[1.052,-3.066],[1.087,-2.876],[1.185,-2.581],[1.284,-2.37],[1.319,-2.243],[1.354,-2.124],[1.431,-1.99],[1.431,-1.948],[1.718,-1.892],[1.858,-1.899]]]]},"properties":{"abbr":"DCIC","name":"dorsal cortex of the inferior colliculus","plate":41,"ap_bregma_mm":-6.2,"area_mm2":1.1796,"traced_fraction":[0.981,0.973],"n_labels":2,"no_drawn_outline":false}},{"type":"Feature","geometry":{"type":"MultiPolygon","coordinates":[[[[0.989,-3.333],[0.765,-3.46],[0.428,-3.558],[0.358,-3.594],[0.169,-3.467],[0.225,-3.383],[0.267,-3.207],[0.267,-2.947],[0.393,-2.94],[0.547,-2.954],[0.646,-2.975],[0.723,-3.01],[0.884,-3.151],[0.954,-3.249],[0.989,-3.333]]],[[[-0.259,-2.947],[-0.273,-3.207],[-0.245,-3.207],[-0.231,-3.305],[-0.154,-3.439],[-0.252,-3.488],[-0.357,-3.573],[-0.448,-3.523],[-0.476,-3.523],[-0.764,-3.418],[-0.911,-3.319],[-0.904,-3.277],[-0.834,-3.144],[-0.736,-3.024],[-0.68,-2.996],[-0.525,-2.961],[-0.259,-2.947]]]]},"properties":{"abbr":"DLPAG","name":"dorsolateral periaqueductal gray","plate":41,"ap_bregma_mm":-6.2,"area_mm2":0.6559,"traced_fraction":[1.0,0.958],"n_labels":2,"no_drawn_outline":false}},{"type":"Feature","geometry":{"type":"MultiPolygon","coordinates":[[[[-1.016,-3.186],[-1.016,-3.235],[-1.051,-3.298],[-1.079,-3.432],[-1.114,-3.523],[-1.114,-3.58],[-1.149,-3.706],[-1.149,-3.784],[-1.135,-3.791],[-1.156,-3.882],[-1.297,-3.903],[-1.43,-3.847],[-1.367,-3.622],[-1.353,-3.242],[-1.149,-3.228],[-1.016,-3.186]]],[[[1.438,-3.235],[1.417,-3.622],[1.466,-3.861],[1.361,-3.91],[1.199,-3.91],[1.164,-3.882],[1.15,-3.777],[1.129,-3.727],[1.115,-3.657],[1.087,-3.509],[1.094,-3.495],[1.08,-3.495],[1.052,-3.474],[1.045,-3.425],[1.08,-3.411],[1.059,-3.263],[1.038,-3.207],[1.045,-3.193],[1.073,-3.186],[1.214,-3.242],[1.438,-3.235]]]]},"properties":{"abbr":"DMIC","name":"dorsomedial nucleus of the inferior colliculus","plate":41,"ap_bregma_mm":-6.2,"area_mm2":0.4042,"traced_fraction":[0.99,1.0],"n_labels":2,"no_drawn_outline":false}},{"type":"Feature","geometry":{"type":"MultiPolygon","coordinates":[[[[0.267,-2.947],[0.267,-3.207],[0.225,-3.383],[0.169,-3.467],[0.064,-3.425],[-0.084,-3.425],[-0.154,-3.439],[-0.231,-3.305],[-0.245,-3.207],[-0.273,-3.207],[-0.259,-2.947],[0.267,-2.947]]]]},"properties":{"abbr":"DMPAG","name":"dorsomedial periaqueductal gray","plate":41,"ap_bregma_mm":-6.2,"area_mm2":0.2411,"traced_fraction":[0.954],"n_labels":1,"no_drawn_outline":false}},{"type":"Feature","geometry":{"type":"MultiPolygon","coordinates":[[[[-2.601,-4.719],[-2.397,-4.74],[-2.306,-4.775],[-2.236,-4.824],[-2.187,-4.895],[-2.159,-4.972],[-2.145,-5.064],[-2.152,-5.232],[-2.187,-5.387],[-2.313,-5.429],[-2.531,-5.436],[-2.636,-5.415],[-2.692,-5.38],[-2.734,-5.38],[-2.734,-5.352],[-2.783,-5.282],[-2.79,-5.282],[-2.797,-5.282],[-2.811,-5.014],[-2.832,-4.909],[-2.804,-4.909],[-2.769,-4.824],[-2.734,-4.796],[-2.699,-4.74],[-2.601,-4.719]]],[[[-2.846,-4.817],[-2.832,-4.817],[-2.839,-4.867],[-2.846,-4.817]]],[[[2.763,-5.268],[2.749,-5.268],[2.651,-5.359],[2.539,-5.394],[2.391,-5.387],[2.286,-5.331],[2.23,-5.261],[2.202,-5.176],[2.195,-5.085],[2.223,-4.979],[2.293,-4.909],[2.384,-4.867],[2.49,-4.839],[2.602,-4.846],[2.686,-4.874],[2.763,-4.944],[2.798,-5.036],[2.763,-5.268]]]]},"properties":{"abbr":"DNLL","name":"dorsal nucleus of the lateral lemniscus","plate":41,"ap_bregma_mm":-6.2,"area_mm2":0.6765,"traced_fraction":[1.0,1.0,1.0],"n_labels":2,"no_drawn_outline":false}},{"type":"Feature","geometry":{"type":"MultiPolygon","coordinates":[[[[0.162,-4.494],[0.141,-4.501],[0.141,-4.592],[0.169,-4.649],[0.218,-4.698],[0.323,-4.733],[0.365,-4.796],[0.365,-4.916],[0.344,-4.958],[0.302,-5.148],[0.148,-5.141],[0.064,-5.057],[0.036,-5.043],[-0.042,-5.043],[-0.112,-5.078],[-0.175,-5.148],[-0.336,-5.148],[-0.413,-4.916],[-0.406,-4.846],[-0.385,-4.796],[-0.329,-4.726],[-0.259,-4.684],[-0.238,-4.684],[-0.196,-4.649],[-0.161,-4.578],[-0.161,-4.508],[-0.154,-4.452],[-0.126,-4.431],[0.043,-4.417],[0.106,-4.424],[0.162,-4.494]]]]},"properties":{"abbr":"DRD","name":"dorsal raphe nucleus, dorsal part","plate":41,"ap_bregma_mm":-6.2,"area_mm2":0.386,"traced_fraction":[0.992],"n_labels":1,"no_drawn_outline":false}},{"type":"Feature","geometry":{"type":"MultiPolygon","coordinates":[[[[0.47,-4.613],[0.779,-4.628],[0.961,-4.663],[0.947,-4.691],[0.884,-4.74],[0.877,-4.768],[0.828,-4.81],[0.793,-4.867],[0.695,-4.958],[0.625,-4.93],[0.617,-4.916],[0.576,-4.909],[0.505,-4.839],[0.456,-4.698],[0.47,-4.613]]],[[[-0.441,-4.635],[-0.42,-4.719],[-0.462,-4.832],[-0.595,-4.972],[-0.595,-4.986],[-0.659,-5.036],[-0.792,-4.972],[-0.848,-4.923],[-0.904,-4.846],[-0.946,-4.733],[-0.988,-4.684],[-0.939,-4.656],[-0.834,-4.642],[-0.504,-4.649],[-0.441,-4.635]]]]},"properties":{"abbr":"DRL","name":"dorsal raphe nucleus, lateral part","plate":41,"ap_bregma_mm":-6.2,"area_mm2":0.257,"traced_fraction":[1.0,0.995],"n_labels":2,"no_drawn_outline":false}},{"type":"Feature","geometry":{"type":"MultiPolygon","coordinates":[[[[0.148,-5.141],[0.057,-5.253],[0.043,-5.324],[-0.077,-5.324],[-0.084,-5.253],[-0.112,-5.19],[-0.175,-5.148],[-0.112,-5.078],[-0.042,-5.043],[0.036,-5.043],[0.064,-5.057],[0.148,-5.141]]]]},"properties":{"abbr":"DRV","name":"dorsal raphe nucleus, ventral part","plate":41,"ap_bregma_mm":-6.2,"area_mm2":0.0552,"traced_fraction":[0.907],"n_labels":1,"no_drawn_outline":false}},{"type":"Feature","geometry":{"type":"MultiPolygon","coordinates":[[[[-0.091,-2.736],[-0.133,-2.771],[-0.224,-2.813],[-0.715,-2.947],[-0.82,-2.996],[-0.904,-3.066],[-0.953,-3.08],[-0.911,-2.82],[-0.918,-2.588],[-0.729,-2.581],[-0.539,-2.602],[-0.217,-2.672],[-0.133,-2.7],[-0.091,-2.736]]],[[[1.185,-2.581],[1.087,-2.876],[1.052,-3.066],[1.031,-3.122],[1.017,-3.129],[0.975,-3.115],[0.912,-3.066],[0.891,-3.066],[0.884,-3.052],[0.737,-2.982],[0.674,-2.968],[0.638,-2.94],[0.365,-2.862],[0.148,-2.778],[0.113,-2.757],[0.092,-2.722],[0.141,-2.686],[0.274,-2.644],[0.821,-2.609],[0.954,-2.588],[1.185,-2.581]]]]},"properties":{"abbr":"DpG","name":"deep gray layer of the superior colliculus","plate":41,"ap_bregma_mm":-6.2,"area_mm2":0.5473,"traced_fraction":[1.0,1.0],"n_labels":2,"no_drawn_outline":false}},{"type":"Feature","geometry":{"type":"MultiPolygon","coordinates":[[[[0.092,-2.722],[0.092,-2.736],[0.148,-2.778],[0.365,-2.862],[0.638,-2.94],[0.659,-2.961],[0.8,-3.01],[0.807,-3.024],[0.828,-3.024],[1.017,-3.129],[1.045,-3.193],[1.038,-3.207],[1.08,-3.376],[1.08,-3.411],[1.045,-3.425],[0.989,-3.333],[0.954,-3.249],[0.884,-3.151],[0.723,-3.01],[0.646,-2.975],[0.547,-2.954],[0.393,-2.94],[0.267,-2.947],[-0.259,-2.947],[-0.525,-2.961],[-0.68,-2.996],[-0.736,-3.024],[-0.834,-3.144],[-0.904,-3.277],[-0.911,-3.319],[-0.932,-3.341],[-0.995,-3.502],[-1.044,-3.587],[-1.093,-3.734],[-1.135,-3.791],[-1.149,-3.784],[-1.149,-3.706],[-1.114,-3.58],[-1.114,-3.523],[-1.079,-3.432],[-1.051,-3.298],[-1.016,-3.235],[-1.016,-3.186],[-0.981,-3.151],[-0.953,-3.08],[-0.904,-3.066],[-0.82,-2.996],[-0.715,-2.947],[-0.224,-2.813],[-0.133,-2.771],[-0.091,-2.736],[-0.034,-2.686],[-0.007,-2.588],[0.015,-2.588],[0.043,-2.686],[0.071,-2.722],[0.092,-2.722]]]]},"properties":{"abbr":"DpWh","name":"deep white layer of the superior colliculus","plate":41,"ap_bregma_mm":-6.2,"area_mm2":0.3002,"traced_fraction":[0.997],"n_labels":1,"no_drawn_outline":false}},{"type":"Feature","geometry":{"type":"MultiPolygon","coordinates":[[[[-1.416,-1.842],[-1.416,-2.117],[-1.465,-2.335],[-1.549,-2.426],[-1.626,-2.468],[-1.64,-2.468],[-1.724,-2.377],[-1.78,-2.349],[-1.9,-2.349],[-2.012,-2.398],[-2.082,-2.468],[-2.159,-2.588],[-2.348,-2.968],[-2.432,-3.284],[-2.447,-3.573],[-2.432,-3.657],[-2.376,-3.798],[-2.25,-3.952],[-2.271,-3.959],[-2.327,-4.065],[-2.376,-4.269],[-2.411,-4.353],[-2.439,-4.381],[-2.509,-4.402],[-2.531,-4.297],[-2.566,-4.227],[-2.657,-4.149],[-2.748,-4.156],[-2.853,-4.248],[-2.881,-4.248],[-2.888,-4.044],[-2.916,-3.819],[-2.965,-3.622],[-2.965,-3.418],[-2.909,-3.066],[-2.86,-2.911],[-2.776,-2.736],[-2.713,-2.651],[-2.685,-2.588],[-2.657,-2.567],[-2.559,-2.391],[-2.489,-2.314],[-2.447,-2.243],[-2.285,-2.082],[-2.173,-1.997],[-1.921,-1.863],[-1.717,-1.814],[-1.514,-1.814],[-1.416,-1.842]]],[[[1.858,-1.899],[1.901,-1.899],[2.083,-1.948],[2.265,-2.046],[2.496,-2.286],[2.588,-2.419],[2.665,-2.567],[2.819,-2.989],[2.882,-3.235],[2.924,-3.474],[2.966,-3.826],[2.952,-4.353],[2.931,-4.417],[2.91,-4.402],[2.903,-4.339],[2.882,-4.297],[2.826,-4.241],[2.735,-4.184],[2.609,-4.177],[2.518,-4.227],[2.496,-4.206],[2.49,-4.156],[2.426,-4.023],[2.363,-3.945],[2.426,-3.755],[2.454,-3.551],[2.441,-3.362],[2.384,-3.144],[2.286,-2.904],[2.272,-2.897],[2.16,-2.651],[2.055,-2.475],[1.978,-2.391],[1.929,-2.363],[1.803,-2.363],[1.781,-2.307],[1.774,-2.138],[1.803,-2.004],[1.845,-1.948],[1.858,-1.899]]]]},"properties":{"abbr":"ECIC","name":"external cortex of the inferior colliculus","plate":41,"ap_bregma_mm":-6.2,"area_mm2":2.681,"traced_fraction":[0.991,1.0],"n_labels":2,"no_drawn_outline":false}},{"type":"Feature","geometry":{"type":"MultiPolygon","coordinates":[[[[5.701,-2.18],[5.89,-2.384],[5.974,-2.525],[6.002,-2.546],[6.086,-2.672],[6.157,-2.82],[6.17,-2.883],[6.121,-2.904],[5.764,-2.968],[5.575,-3.024],[5.0,-3.101],[4.88,-3.038],[4.866,-2.996],[4.803,-2.94],[4.635,-2.862],[4.523,-2.771],[4.579,-2.75],[4.831,-2.722],[5.105,-2.637],[5.357,-2.489],[5.462,-2.391],[5.476,-2.391],[5.68,-2.18],[5.701,-2.18]]],[[[-5.896,-2.377],[-5.672,-2.595],[-5.454,-2.707],[-5.118,-2.785],[-4.795,-2.799],[-4.809,-2.968],[-4.788,-3.045],[-4.774,-3.045],[-4.781,-3.066],[-4.809,-3.066],[-5.034,-3.172],[-5.237,-3.221],[-5.391,-3.242],[-5.524,-3.249],[-5.854,-3.228],[-6.008,-3.2],[-6.141,-3.207],[-6.149,-2.947],[-6.085,-2.686],[-5.987,-2.489],[-5.896,-2.377]]]]},"properties":{"abbr":"Ect","name":"ectorhinal cortex","plate":41,"ap_bregma_mm":-6.2,"area_mm2":1.4536,"traced_fraction":[1.0,1.0],"n_labels":2,"no_drawn_outline":false}},{"type":"Feature","geometry":{"type":"MultiPolygon","coordinates":[[[[2.763,-5.268],[2.777,-5.275],[2.735,-5.507],[2.63,-5.802],[2.616,-5.802],[2.602,-5.865],[2.539,-5.985],[2.518,-5.999],[2.504,-6.041],[2.447,-6.112],[2.293,-6.069],[2.097,-5.957],[2.16,-5.781],[2.251,-5.514],[2.265,-5.338],[2.286,-5.331],[2.391,-5.387],[2.539,-5.394],[2.651,-5.359],[2.749,-5.268],[2.763,-5.268]]],[[[-2.734,-5.38],[-2.692,-5.38],[-2.636,-5.415],[-2.531,-5.436],[-2.313,-5.429],[-2.187,-5.387],[-2.173,-5.514],[-2.131,-5.823],[-2.061,-6.055],[-2.131,-6.104],[-2.229,-6.133],[-2.439,-6.133],[-2.46,-6.133],[-2.538,-6.083],[-2.58,-6.034],[-2.615,-5.95],[-2.65,-5.929],[-2.65,-5.879],[-2.657,-5.865],[-2.671,-5.83],[-2.65,-5.816],[-2.657,-5.732],[-2.727,-5.472],[-2.734,-5.38]]]]},"properties":{"abbr":"INLL","name":"intermediate nucleus of the lateral lemniscus","plate":41,"ap_bregma_mm":-6.2,"area_mm2":0.6942,"traced_fraction":[1.0,1.0],"n_labels":2,"no_drawn_outline":false}},{"type":"Feature","geometry":{"type":"MultiPolygon","coordinates":[[[[-1.058,-2.222],[-1.009,-2.229],[-0.918,-2.271],[-0.708,-2.314],[-0.497,-2.335],[-0.294,-2.321],[-0.21,-2.37],[-0.056,-2.405],[0.113,-2.405],[0.183,-2.391],[0.253,-2.363],[0.302,-2.321],[0.744,-2.328],[1.108,-2.3],[1.199,-2.278],[1.269,-2.236],[1.319,-2.243],[1.284,-2.37],[1.185,-2.581],[0.954,-2.588],[0.821,-2.609],[0.274,-2.644],[0.141,-2.686],[0.092,-2.722],[0.071,-2.722],[0.043,-2.686],[0.015,-2.588],[-0.007,-2.588],[-0.034,-2.686],[-0.091,-2.736],[-0.105,-2.715],[-0.217,-2.672],[-0.539,-2.602],[-0.729,-2.581],[-0.918,-2.588],[-0.967,-2.426],[-1.051,-2.278],[-1.058,-2.222]]]]},"properties":{"abbr":"InG","name":"intermediate gray layer of the superior colliculus","plate":41,"ap_bregma_mm":-6.2,"area_mm2":0.6614,"traced_fraction":[1.0],"n_labels":3,"no_drawn_outline":false}},{"type":"Feature","geometry":{"type":"MultiPolygon","coordinates":[[[[-3.645,-4.149],[-3.674,-4.227],[-3.681,-4.241],[-3.695,-4.276],[-3.708,-4.311],[-3.737,-4.381],[-3.751,-4.473],[-4.143,-4.473],[-4.143,-4.93],[-4.466,-4.937],[-4.886,-4.909],[-5.146,-4.951],[-5.23,-4.923],[-5.3,-4.853],[-5.44,-4.599],[-5.496,-4.424],[-5.511,-4.417],[-5.581,-4.227],[-5.637,-3.981],[-5.644,-3.952],[-5.651,-3.924],[-5.672,-3.868],[-5.686,-3.854],[-5.714,-3.826],[-5.545,-3.601],[-5.398,-3.446],[-5.279,-3.369],[-5.097,-3.319],[-4.957,-3.263],[-4.851,-3.2],[-4.781,-3.122],[-4.536,-3.115],[-4.445,-3.129],[-4.354,-3.158],[-4.241,-3.228],[-4.164,-3.312],[-4.08,-3.439],[-3.996,-3.615],[-3.919,-3.861],[-3.856,-4.002],[-3.765,-4.107],[-3.645,-4.149]]],[[[5.68,-4.121],[5.652,-4.269],[5.28,-4.269],[5.28,-4.121],[5.68,-4.121]]]]},"properties":{"abbr":"LEnt","name":"lateral entorhinal cortex","plate":41,"ap_bregma_mm":-6.2,"area_mm2":2.6656,"traced_fraction":[0.872,0.212],"n_labels":2,"no_drawn_outline":false}},{"type":"Feature","geometry":{"type":"MultiPolygon","coordinates":[[[[-0.911,-3.319],[-0.764,-3.418],[-0.645,-3.467],[-0.448,-3.523],[-0.357,-3.573],[-0.427,-3.664],[-0.497,-3.819],[-0.497,-3.917],[-0.448,-4.044],[-0.652,-4.121],[-0.897,-4.339],[-1.184,-4.466],[-1.206,-4.367],[-1.212,-4.36],[-1.212,-4.269],[-1.198,-4.227],[-1.219,-4.199],[-1.219,-4.149],[-1.198,-4.1],[-1.198,-4.009],[-1.17,-3.959],[-1.156,-3.882],[-1.135,-3.791],[-1.093,-3.734],[-1.044,-3.587],[-0.995,-3.502],[-0.939,-3.355],[-0.911,-3.319]]],[[[0.989,-3.333],[1.045,-3.425],[1.045,-3.46],[1.066,-3.495],[1.08,-3.495],[1.087,-3.509],[1.115,-3.657],[1.08,-3.657],[1.073,-3.692],[1.087,-3.72],[1.129,-3.727],[1.15,-3.777],[1.164,-3.882],[1.199,-3.91],[1.185,-3.938],[1.185,-4.037],[1.206,-4.107],[1.22,-4.297],[1.235,-4.304],[1.22,-4.325],[1.206,-4.438],[0.968,-4.367],[0.961,-4.353],[0.877,-4.318],[0.702,-4.184],[0.554,-4.093],[0.477,-4.072],[0.386,-4.079],[0.4,-4.037],[0.463,-3.945],[0.477,-3.826],[0.449,-3.727],[0.358,-3.594],[0.428,-3.558],[0.765,-3.46],[0.989,-3.333]]]]},"properties":{"abbr":"LPAG","name":"lateral periaqueductal gray","plate":41,"ap_bregma_mm":-6.2,"area_mm2":1.1388,"traced_fraction":[1.0,0.981],"n_labels":2,"no_drawn_outline":false}},{"type":"Feature","geometry":{"type":"MultiPolygon","coordinates":[[[[5.133,-5.183],[5.112,-5.218],[5.014,-5.31],[4.789,-5.422],[4.621,-5.472],[4.621,-5.071],[5.028,-5.071],[5.028,-5.085],[5.133,-5.183]]]]},"properties":{"abbr":"MEnt","name":"medial entorhinal cortex","plate":41,"ap_bregma_mm":-6.2,"area_mm2":0.1447,"traced_fraction":[0.409],"n_labels":1,"no_drawn_outline":true}},{"type":"Feature","geometry":{"type":"MultiPolygon","coordinates":[[[[-1.85,-5.507],[-1.78,-5.83],[-1.668,-6.133],[-1.647,-6.161],[-1.654,-6.217],[-1.703,-6.203],[-1.787,-6.217],[-1.85,-6.266],[-1.879,-6.323],[-1.935,-6.308],[-1.942,-6.273],[-1.956,-6.266],[-1.97,-6.217],[-2.061,-6.055],[-2.131,-5.823],[-2.173,-5.514],[-1.85,-5.507]]],[[[1.943,-5.774],[2.16,-5.781],[2.097,-5.957],[2.006,-6.182],[1.957,-6.287],[1.943,-6.294],[1.922,-6.379],[1.873,-6.442],[1.858,-6.428],[1.858,-6.351],[1.845,-6.316],[1.774,-6.266],[1.774,-5.985],[1.816,-5.985],[1.866,-5.936],[1.943,-5.774]]]]},"properties":{"abbr":"MPL","name":"paralemniscal nucleus, medial part","plate":41,"ap_bregma_mm":-6.2,"area_mm2":0.3883,"traced_fraction":[0.879,0.718],"n_labels":2,"no_drawn_outline":false}},{"type":"Feature","geometry":{"type":"MultiPolygon","coordinates":[[[[-1.43,-3.847],[-1.297,-3.903],[-1.156,-3.882],[-1.17,-3.959],[-1.198,-4.009],[-1.198,-4.1],[-1.219,-4.149],[-1.219,-4.199],[-1.198,-4.227],[-1.212,-4.269],[-1.212,-4.36],[-1.465,-4.269],[-1.612,-4.262],[-1.703,-4.276],[-1.717,-4.121],[-1.577,-4.051],[-1.507,-3.981],[-1.43,-3.847]]],[[[1.466,-3.861],[1.585,-4.009],[1.69,-4.079],[1.788,-4.121],[1.781,-4.269],[1.613,-4.234],[1.473,-4.227],[1.389,-4.241],[1.235,-4.304],[1.22,-4.297],[1.206,-4.107],[1.185,-4.037],[1.185,-3.938],[1.199,-3.91],[1.361,-3.91],[1.466,-3.861]]]]},"properties":{"abbr":"Me5","name":"mesencephalic trigeminal nucleus","plate":41,"ap_bregma_mm":-6.2,"area_mm2":0.3381,"traced_fraction":[0.94,0.915],"n_labels":2,"no_drawn_outline":false}},{"type":"Feature","geometry":{"type":"MultiPolygon","coordinates":[[[[-0.063,-5.69],[0.021,-5.69],[0.021,-5.746],[0.057,-5.83],[0.106,-5.872],[0.155,-5.887],[0.162,-5.894],[0.211,-6.442],[0.211,-6.716],[0.197,-6.822],[0.183,-6.885],[0.141,-6.97],[0.071,-7.026],[-0.013,-7.04],[-0.084,-7.019],[-0.154,-6.963],[-0.21,-6.815],[-0.231,-6.618],[-0.231,-6.14],[-0.21,-5.865],[-0.168,-5.865],[-0.098,-5.809],[-0.07,-5.753],[-0.063,-5.69]]]]},"properties":{"abbr":"MnR","name":"median raphe nucleus","plate":41,"ap_bregma_mm":-6.2,"area_mm2":0.4896,"traced_fraction":[0.971],"n_labels":1,"no_drawn_outline":false}},{"type":"Feature","geometry":{"type":"MultiPolygon","coordinates":[[[[0.162,-4.494],[0.47,-4.613],[0.456,-4.698],[0.505,-4.839],[0.576,-4.909],[0.617,-4.916],[0.625,-4.93],[0.695,-4.958],[0.659,-5.0],[0.674,-5.071],[0.554,-5.113],[0.449,-5.106],[0.379,-5.148],[0.302,-5.148],[0.302,-5.113],[0.33,-5.057],[0.33,-5.014],[0.365,-4.916],[0.365,-4.796],[0.323,-4.733],[0.218,-4.698],[0.169,-4.649],[0.141,-4.592],[0.141,-4.501],[0.162,-4.494]]],[[[-0.161,-4.508],[-0.161,-4.578],[-0.196,-4.649],[-0.238,-4.684],[-0.259,-4.684],[-0.329,-4.726],[-0.385,-4.796],[-0.406,-4.846],[-0.413,-4.916],[-0.336,-5.148],[-0.518,-5.141],[-0.568,-5.127],[-0.659,-5.078],[-0.659,-5.036],[-0.595,-4.986],[-0.595,-4.972],[-0.462,-4.832],[-0.42,-4.719],[-0.441,-4.635],[-0.343,-4.606],[-0.182,-4.508],[-0.161,-4.508]]]]},"properties":{"abbr":"PDR","name":"posterodorsal raphe nucleus","plate":41,"ap_bregma_mm":-6.2,"area_mm2":0.2466,"traced_fraction":[1.0,0.985],"n_labels":2,"no_drawn_outline":false}},{"type":"Feature","geometry":{"type":"MultiPolygon","coordinates":[[[[2.384,-4.508],[2.384,-4.867],[2.293,-4.909],[2.223,-4.979],[2.195,-5.085],[2.202,-5.176],[2.02,-5.183],[1.992,-5.078],[1.943,-4.902],[1.866,-4.768],[1.866,-4.754],[1.999,-4.635],[2.013,-4.599],[2.048,-4.571],[2.384,-4.508]]],[[[-1.991,-4.81],[-1.914,-4.881],[-1.801,-4.937],[-1.816,-4.979],[-1.844,-5.092],[-1.858,-5.239],[-2.152,-5.232],[-2.145,-5.064],[-2.159,-4.972],[-2.187,-4.895],[-2.236,-4.824],[-1.991,-4.81]]]]},"properties":{"abbr":"PL","name":"paralemniscal nucleus","plate":41,"ap_bregma_mm":-6.2,"area_mm2":0.3542,"traced_fraction":[0.779,0.727],"n_labels":2,"no_drawn_outline":false}},{"type":"Feature","geometry":{"type":"MultiPolygon","coordinates":[[[[-1.486,-6.597],[-1.43,-6.639],[-1.332,-6.808],[-1.191,-6.984],[-1.184,-7.11],[-1.261,-7.174],[-1.297,-7.251],[-1.395,-7.223],[-1.43,-7.146],[-1.528,-7.04],[-1.549,-6.913],[-1.577,-6.85],[-1.619,-6.78],[-1.745,-6.646],[-1.738,-6.604],[-1.64,-6.653],[-1.563,-6.653],[-1.528,-6.639],[-1.486,-6.597]]],[[[1.781,-6.618],[1.746,-6.745],[1.704,-6.801],[1.676,-6.871],[1.655,-6.885],[1.564,-7.089],[1.515,-7.124],[1.459,-7.146],[1.333,-7.286],[1.269,-7.286],[1.157,-7.314],[1.136,-7.258],[1.052,-7.159],[1.052,-7.138],[1.291,-6.934],[1.438,-6.695],[1.606,-6.695],[1.683,-6.667],[1.753,-6.618],[1.781,-6.618]]]]},"properties":{"abbr":"PLV","name":"perilemniscal nucleus, ventral part","plate":41,"ap_bregma_mm":-6.2,"area_mm2":0.383,"traced_fraction":[0.941,0.958],"n_labels":2,"no_drawn_outline":false}},{"type":"Feature","geometry":{"type":"MultiPolygon","coordinates":[[[[-0.406,-5.809],[-0.336,-5.816],[-0.287,-5.851],[-0.21,-5.865],[-0.231,-6.14],[-0.231,-6.618],[-0.21,-6.815],[-0.154,-6.963],[-0.084,-7.019],[-0.013,-7.04],[0.071,-7.026],[0.141,-6.97],[0.183,-6.885],[0.197,-6.822],[0.211,-6.716],[0.211,-6.442],[0.162,-5.894],[0.281,-5.879],[0.344,-5.844],[0.386,-6.034],[0.4,-6.302],[0.393,-6.47],[0.323,-7.005],[0.155,-7.061],[0.085,-7.11],[0.064,-7.146],[0.015,-7.153],[-0.077,-7.075],[-0.126,-7.054],[-0.364,-6.998],[-0.434,-6.716],[-0.462,-6.47],[-0.448,-6.083],[-0.427,-5.879],[-0.406,-5.809]]]]},"properties":{"abbr":"PMnR","name":"paramedian raphe nucleus","plate":41,"ap_bregma_mm":-6.2,"area_mm2":0.4971,"traced_fraction":[0.983],"n_labels":2,"no_drawn_outline":false}},{"type":"Feature","geometry":{"type":"MultiPolygon","coordinates":[[[[6.17,-2.883],[6.241,-3.08],[6.241,-3.298],[6.199,-3.376],[6.115,-3.46],[5.981,-3.551],[5.869,-3.629],[5.848,-3.671],[5.785,-3.734],[5.757,-3.805],[5.75,-3.819],[5.75,-3.833],[5.743,-3.833],[5.68,-3.798],[5.568,-3.678],[5.554,-3.678],[5.315,-3.425],[5.315,-3.411],[5.084,-3.179],[5.014,-3.144],[5.0,-3.101],[5.575,-3.024],[5.764,-2.968],[6.121,-2.904],[6.17,-2.883]]],[[[-4.781,-3.066],[-4.781,-3.122],[-4.851,-3.2],[-4.957,-3.263],[-5.097,-3.319],[-5.279,-3.369],[-5.398,-3.446],[-5.545,-3.601],[-5.714,-3.826],[-5.833,-3.812],[-5.903,-3.777],[-6.001,-3.657],[-6.085,-3.474],[-6.141,-3.207],[-6.008,-3.2],[-5.854,-3.228],[-5.524,-3.249],[-5.391,-3.242],[-5.237,-3.221],[-5.034,-3.172],[-4.809,-3.066],[-4.781,-3.066]]]]},"properties":{"abbr":"PRh","name":"perirhinal cortex","plate":41,"ap_bregma_mm":-6.2,"area_mm2":1.0241,"traced_fraction":[1.0,1.0],"n_labels":2,"no_drawn_outline":false}},{"type":"Feature","geometry":{"type":"MultiPolygon","coordinates":[[[[-1.816,-4.979],[-1.612,-5.014],[-1.353,-5.099],[-1.128,-5.218],[-0.953,-5.345],[-0.946,-5.352],[-0.939,-5.359],[-0.932,-5.359],[-0.96,-5.415],[-0.967,-5.514],[-1.016,-5.528],[-1.114,-5.619],[-1.325,-5.598],[-1.458,-5.57],[-1.675,-5.493],[-1.794,-5.429],[-1.85,-5.422],[-1.858,-5.239],[-1.844,-5.092],[-1.816,-4.979]]],[[[1.992,-5.078],[2.02,-5.183],[2.027,-5.436],[1.999,-5.612],[1.978,-5.654],[1.55,-5.654],[1.354,-5.626],[1.059,-5.549],[1.017,-5.549],[0.919,-5.507],[0.926,-5.443],[0.905,-5.38],[0.926,-5.338],[1.017,-5.261],[1.108,-5.211],[1.242,-5.169],[1.515,-5.127],[1.767,-5.12],[1.992,-5.078]]]]},"properties":{"abbr":"PTg","name":"pedunculopontine tegmental nucleus","plate":41,"ap_bregma_mm":-6.2,"area_mm2":0.8943,"traced_fraction":[0.975,1.0],"n_labels":2,"no_drawn_outline":false}},{"type":"Feature","geometry":{"type":"MultiPolygon","coordinates":[[[[-0.82,-5.014],[-0.659,-5.078],[-0.568,-5.127],[-0.638,-5.19],[-0.645,-5.296],[-0.61,-5.345],[-0.553,-5.38],[-0.553,-5.401],[-0.666,-5.394],[-0.771,-5.331],[-0.869,-5.317],[-0.89,-5.261],[-0.897,-5.183],[-0.869,-5.092],[-0.82,-5.014]]],[[[0.779,-5.036],[0.779,-5.071],[0.814,-5.099],[0.821,-5.134],[0.849,-5.141],[0.849,-5.289],[0.821,-5.296],[0.807,-5.345],[0.526,-5.387],[0.526,-5.366],[0.589,-5.261],[0.589,-5.183],[0.554,-5.113],[0.674,-5.071],[0.779,-5.036]]]]},"properties":{"abbr":"Pa4","name":"paratrochlear nucleus","plate":41,"ap_bregma_mm":-6.2,"area_mm2":0.1568,"traced_fraction":[0.956,0.983],"n_labels":2,"no_drawn_outline":false}},{"type":"Feature","geometry":{"type":"MultiPolygon","coordinates":[[[[-3.414,-2.736],[-3.442,-2.834],[-3.575,-3.896],[-3.631,-4.135],[-3.645,-4.149],[-3.765,-4.107],[-3.856,-4.002],[-3.919,-3.861],[-3.968,-3.685],[-4.031,-3.537],[-4.143,-3.341],[-4.241,-3.228],[-4.354,-3.158],[-4.445,-3.129],[-4.536,-3.115],[-4.781,-3.122],[-4.781,-3.066],[-4.774,-3.045],[-4.48,-2.883],[-4.143,-2.764],[-3.695,-2.722],[-3.435,-2.722],[-3.414,-2.736]]],[[[4.88,-3.038],[5.0,-3.101],[5.014,-3.144],[5.0,-3.151],[4.986,-3.2],[4.93,-3.235],[4.509,-3.355],[4.333,-3.453],[4.221,-3.566],[4.095,-3.769],[3.962,-4.241],[3.892,-4.318],[3.801,-4.381],[3.759,-4.396],[3.738,-4.304],[3.738,-3.889],[3.773,-3.46],[3.766,-3.305],[3.794,-3.298],[3.829,-3.263],[3.899,-3.151],[4.011,-3.031],[4.095,-2.968],[4.214,-2.918],[4.362,-2.911],[4.46,-2.926],[4.782,-3.024],[4.88,-3.038]]]]},"properties":{"abbr":"PaS","name":"parasubiculum","plate":41,"ap_bregma_mm":-6.2,"area_mm2":1.6414,"traced_fraction":[1.0,1.0],"n_labels":2,"no_drawn_outline":false}},{"type":"Feature","geometry":{"type":"MultiPolygon","coordinates":[[[[1.515,-7.124],[1.592,-7.188],[1.62,-7.244],[1.676,-7.483],[1.627,-7.617],[1.494,-7.814],[1.269,-8.081],[1.136,-8.151],[1.073,-8.214],[1.059,-8.25],[1.066,-8.299],[0.961,-8.426],[0.8,-8.51],[0.667,-8.538],[0.491,-8.531],[0.414,-8.51],[0.323,-8.454],[0.267,-8.397],[0.281,-8.39],[0.281,-8.355],[0.225,-8.186],[0.155,-8.074],[0.155,-8.053],[0.141,-8.053],[0.106,-8.011],[0.05,-8.011],[0.021,-8.025],[-0.07,-8.137],[-0.147,-8.313],[-0.147,-8.376],[-0.098,-8.376],[-0.147,-8.397],[-0.217,-8.44],[-0.294,-8.461],[-0.301,-8.475],[-0.476,-8.531],[-0.764,-8.524],[-0.89,-8.489],[-0.953,-8.447],[-0.939,-8.412],[-0.939,-8.32],[-0.967,-8.264],[-1.149,-8.095],[-1.276,-7.919],[-1.409,-7.786],[-1.528,-7.708],[-1.605,-7.631],[-1.654,-7.546],[-1.64,-7.406],[-1.591,-7.307],[-1.507,-7.244],[-1.395,-7.223],[-1.297,-7.251],[-1.261,-7.307],[-1.248,-7.307],[-1.206,-7.406],[-1.198,-7.462],[-1.184,-7.469],[-1.191,-7.525],[-1.142,-7.645],[-1.072,-7.715],[-0.876,-7.835],[-0.799,-7.835],[-0.694,-7.778],[-0.518,-7.743],[-0.329,-7.764],[-0.161,-7.757],[-0.112,-7.743],[-0.063,-7.666],[0.0,-7.61],[0.036,-7.483],[0.057,-7.483],[0.099,-7.589],[0.148,-7.645],[0.211,-7.652],[0.302,-7.694],[0.33,-7.694],[0.414,-7.757],[0.61,-7.807],[0.772,-7.828],[0.982,-7.821],[1.038,-7.807],[1.066,-7.793],[1.15,-7.701],[1.22,-7.518],[1.333,-7.286],[1.459,-7.146],[1.515,-7.124]]]]},"properties":{"abbr":"Pn","name":"pontine nuclei","plate":41,"ap_bregma_mm":-6.2,"area_mm2":2.0185,"traced_fraction":[1.0],"n_labels":2,"no_drawn_outline":false}},{"type":"Feature","geometry":{"type":"MultiPolygon","coordinates":[[[[-1.85,-5.422],[-1.794,-5.429],[-1.675,-5.493],[-1.458,-5.57],[-1.374,-5.591],[-1.114,-5.619],[-1.142,-5.69],[-1.142,-5.788],[-1.107,-5.83],[-0.918,-5.922],[-0.595,-6.013],[-0.595,-6.083],[-0.623,-6.217],[-0.623,-6.386],[-0.546,-6.85],[-0.497,-7.005],[-0.56,-7.033],[-0.736,-7.068],[-1.128,-7.089],[-1.184,-7.11],[-1.191,-6.984],[-1.332,-6.808],[-1.43,-6.639],[-1.486,-6.597],[-1.472,-6.548],[-1.472,-6.449],[-1.507,-6.351],[-1.591,-6.252],[-1.654,-6.217],[-1.647,-6.161],[-1.668,-6.133],[-1.78,-5.83],[-1.85,-5.507],[-1.85,-5.422]]],[[[1.017,-5.549],[1.059,-5.549],[1.354,-5.626],[1.55,-5.654],[1.978,-5.654],[1.943,-5.774],[1.866,-5.936],[1.816,-5.985],[1.774,-5.985],[1.774,-6.266],[1.655,-6.259],[1.641,-6.252],[1.641,-6.266],[1.529,-6.344],[1.438,-6.435],[1.389,-6.519],[1.382,-6.646],[1.438,-6.695],[1.291,-6.934],[1.052,-7.138],[0.898,-7.047],[0.758,-6.998],[0.638,-6.984],[0.477,-6.991],[0.477,-6.92],[0.512,-6.794],[0.561,-6.428],[0.568,-6.238],[0.547,-6.041],[0.554,-5.992],[0.744,-5.915],[0.954,-5.795],[1.017,-5.718],[1.017,-5.549]]]]},"properties":{"abbr":"PnO","name":"pontine reticular nucleus, oral part","plate":41,"ap_bregma_mm":-6.2,"area_mm2":2.654,"traced_fraction":[0.979,0.921],"n_labels":2,"no_drawn_outline":false}},{"type":"Feature","geometry":{"type":"MultiPolygon","coordinates":[[[[1.781,-4.269],[1.873,-4.311],[1.957,-4.381],[1.999,-4.445],[2.048,-4.571],[2.013,-4.599],[1.922,-4.606],[1.718,-4.663],[1.438,-4.684],[1.269,-4.663],[1.256,-4.649],[1.164,-4.628],[1.164,-4.592],[1.206,-4.48],[1.206,-4.438],[1.22,-4.325],[1.235,-4.304],[1.389,-4.241],[1.473,-4.227],[1.613,-4.234],[1.781,-4.269]]],[[[-1.212,-4.36],[-1.206,-4.367],[-1.184,-4.466],[-1.156,-4.613],[-1.121,-4.705],[-1.339,-4.67],[-1.865,-4.642],[-2.068,-4.599],[-2.075,-4.592],[-2.026,-4.473],[-1.956,-4.396],[-1.829,-4.318],[-1.703,-4.276],[-1.612,-4.262],[-1.465,-4.269],[-1.212,-4.36]]]]},"properties":{"abbr":"PrCnF","name":"precuneiform area","plate":41,"ap_bregma_mm":-6.2,"area_mm2":0.6005,"traced_fraction":[1.0,1.0],"n_labels":2,"no_drawn_outline":false}},{"type":"Feature","geometry":{"type":"MultiPolygon","coordinates":[[[[2.363,-3.945],[2.426,-4.023],[2.49,-4.156],[2.496,-4.206],[2.518,-4.227],[2.468,-4.346],[2.462,-4.48],[2.384,-4.508],[2.048,-4.571],[1.999,-4.445],[1.957,-4.381],[1.873,-4.311],[1.781,-4.269],[1.788,-4.121],[1.922,-4.149],[2.111,-4.121],[2.237,-4.058],[2.349,-3.945],[2.363,-3.945]]],[[[-2.25,-3.952],[-2.103,-4.051],[-1.928,-4.121],[-1.85,-4.135],[-1.717,-4.121],[-1.703,-4.276],[-1.829,-4.318],[-1.956,-4.396],[-2.026,-4.473],[-2.075,-4.592],[-2.292,-4.536],[-2.524,-4.529],[-2.509,-4.402],[-2.468,-4.396],[-2.411,-4.353],[-2.376,-4.269],[-2.327,-4.065],[-2.271,-3.959],[-2.25,-3.952]]]]},"properties":{"abbr":"Pta","name":"pericollicular tegmental area","plate":41,"ap_bregma_mm":-6.2,"area_mm2":0.5451,"traced_fraction":[0.958,0.952],"n_labels":2,"no_drawn_outline":false}},{"type":"Feature","geometry":{"type":"MultiPolygon","coordinates":[[[[4.214,-2.426],[4.221,-2.454],[4.249,-2.475],[4.362,-2.637],[4.46,-2.736],[4.523,-2.771],[4.6,-2.841],[4.803,-2.94],[4.866,-2.996],[4.88,-3.038],[4.782,-3.024],[4.46,-2.926],[4.362,-2.911],[4.214,-2.918],[4.095,-2.968],[4.011,-3.031],[3.899,-3.151],[3.829,-3.263],[3.794,-3.298],[3.766,-3.305],[3.759,-3.151],[3.717,-3.003],[3.618,-2.813],[3.478,-2.623],[3.471,-2.609],[3.478,-2.602],[3.464,-2.602],[3.429,-2.553],[3.373,-2.468],[3.247,-2.335],[3.254,-2.328],[3.24,-2.328],[3.029,-2.103],[3.015,-2.103],[2.805,-1.906],[2.959,-1.758],[2.994,-1.744],[3.1,-1.744],[3.212,-1.807],[3.415,-1.969],[3.99,-2.264],[4.214,-2.426]]],[[[-2.503,-1.821],[-2.65,-1.92],[-2.692,-1.948],[-2.713,-1.962],[-2.902,-2.11],[-3.043,-2.307],[-3.134,-2.398],[-3.232,-2.454],[-3.274,-2.511],[-3.33,-2.581],[-3.414,-2.736],[-3.435,-2.722],[-3.695,-2.722],[-4.143,-2.764],[-4.48,-2.883],[-4.774,-3.045],[-4.788,-3.045],[-4.809,-2.968],[-4.795,-2.799],[-4.529,-2.686],[-4.361,-2.602],[-4.312,-2.56],[-4.255,-2.546],[-4.038,-2.426],[-3.947,-2.356],[-3.842,-2.3],[-3.702,-2.18],[-3.484,-2.032],[-3.169,-1.878],[-3.014,-1.821],[-2.86,-1.786],[-2.545,-1.786],[-2.503,-1.821]]]]},"properties":{"abbr":"RSD","name":"retrosplenial dysgranular cortex","plate":41,"ap_bregma_mm":-6.2,"area_mm2":1.839,"traced_fraction":[1.0,1.0],"n_labels":2,"no_drawn_outline":false}},{"type":"Feature","geometry":{"type":"MultiPolygon","coordinates":[[[[1.059,-7.363],[1.017,-7.42],[0.905,-7.427],[0.905,-7.413],[0.856,-7.378],[0.751,-7.342],[0.589,-7.328],[0.477,-7.349],[0.393,-7.399],[0.225,-7.561],[0.204,-7.589],[0.211,-7.652],[0.148,-7.645],[0.099,-7.589],[0.057,-7.483],[0.036,-7.483],[0.0,-7.61],[-0.063,-7.666],[-0.189,-7.518],[-0.308,-7.448],[-0.434,-7.399],[-0.518,-7.385],[-0.757,-7.392],[-0.827,-7.42],[-0.855,-7.448],[-0.918,-7.448],[-1.002,-7.42],[-1.072,-7.42],[-1.184,-7.469],[-1.198,-7.462],[-1.206,-7.406],[-1.248,-7.307],[-1.219,-7.244],[-1.191,-7.216],[-1.065,-7.202],[-0.918,-7.209],[-0.708,-7.181],[-0.694,-7.167],[-0.595,-7.153],[-0.546,-7.124],[-0.392,-7.089],[-0.301,-7.089],[-0.105,-7.153],[0.015,-7.153],[0.064,-7.146],[0.141,-7.138],[0.253,-7.096],[0.358,-7.075],[0.498,-7.075],[0.547,-7.096],[0.681,-7.117],[0.877,-7.188],[0.989,-7.265],[1.059,-7.363]]]]},"properties":{"abbr":"RtTg","name":"reticulotegmental nucleus of the pons","plate":41,"ap_bregma_mm":-6.2,"area_mm2":0.6671,"traced_fraction":[1.0],"n_labels":2,"no_drawn_outline":false}},{"type":"Feature","geometry":{"type":"MultiPolygon","coordinates":[[[[1.052,-7.138],[1.052,-7.159],[1.108,-7.216],[1.157,-7.314],[1.059,-7.363],[0.989,-7.265],[0.877,-7.188],[0.681,-7.117],[0.547,-7.096],[0.498,-7.075],[0.358,-7.075],[0.253,-7.096],[0.141,-7.138],[0.064,-7.146],[0.085,-7.11],[0.155,-7.061],[0.323,-7.005],[0.477,-6.991],[0.638,-6.984],[0.758,-6.998],[0.898,-7.047],[1.052,-7.138]]],[[[-0.364,-6.998],[-0.126,-7.054],[-0.077,-7.075],[0.015,-7.153],[-0.105,-7.153],[-0.301,-7.089],[-0.392,-7.089],[-0.546,-7.124],[-0.595,-7.153],[-0.694,-7.167],[-0.708,-7.181],[-0.918,-7.209],[-1.065,-7.202],[-1.191,-7.216],[-1.219,-7.244],[-1.248,-7.307],[-1.261,-7.307],[-1.297,-7.251],[-1.261,-7.174],[-1.184,-7.11],[-1.128,-7.089],[-0.736,-7.068],[-0.56,-7.033],[-0.497,-7.005],[-0.364,-6.998]]]]},"properties":{"abbr":"RtTgP","name":"reticulotegmental nucleus of the pons, pericentral part","plate":41,"ap_bregma_mm":-6.2,"area_mm2":0.2534,"traced_fraction":[1.0,1.0],"n_labels":2,"no_drawn_outline":false}},{"type":"Feature","geometry":{"type":"MultiPolygon","coordinates":[[[[0.919,-5.507],[1.017,-5.549],[1.017,-5.718],[0.954,-5.795],[0.744,-5.915],[0.554,-5.992],[0.54,-5.992],[0.491,-5.837],[0.484,-5.732],[0.617,-5.718],[0.786,-5.647],[0.856,-5.591],[0.919,-5.507]]],[[[-0.967,-5.514],[-0.925,-5.612],[-0.82,-5.711],[-0.764,-5.732],[-0.645,-5.739],[-0.617,-5.753],[-0.546,-5.746],[-0.574,-5.964],[-0.595,-6.013],[-0.918,-5.922],[-1.107,-5.83],[-1.142,-5.788],[-1.142,-5.69],[-1.114,-5.619],[-1.016,-5.528],[-0.967,-5.514]]]]},"properties":{"abbr":"SPTg","name":"subpeduncular tegmental nucleus","plate":41,"ap_bregma_mm":-6.2,"area_mm2":0.287,"traced_fraction":[1.0,1.0],"n_labels":2,"no_drawn_outline":false}},{"type":"Feature","geometry":{"type":"MultiPolygon","coordinates":[[[[-2.509,-4.402],[-2.524,-4.529],[-2.552,-4.635],[-2.601,-4.719],[-2.699,-4.74],[-2.762,-4.726],[-2.804,-4.691],[-2.839,-4.684],[-2.846,-4.761],[-2.881,-4.248],[-2.853,-4.248],[-2.748,-4.156],[-2.657,-4.149],[-2.566,-4.227],[-2.531,-4.297],[-2.509,-4.402]]],[[[2.931,-4.417],[2.924,-4.508],[2.917,-4.508],[2.889,-4.529],[2.854,-4.628],[2.791,-4.705],[2.749,-4.726],[2.665,-4.733],[2.588,-4.698],[2.546,-4.656],[2.49,-4.564],[2.462,-4.48],[2.468,-4.346],[2.518,-4.227],[2.609,-4.177],[2.735,-4.184],[2.826,-4.241],[2.882,-4.297],[2.903,-4.339],[2.91,-4.402],[2.931,-4.417]]]]},"properties":{"abbr":"Sag","name":"sagulum nucleus","plate":41,"ap_bregma_mm":-6.2,"area_mm2":0.3719,"traced_fraction":[1.0,1.0],"n_labels":2,"no_drawn_outline":false}},{"type":"Feature","geometry":{"type":"MultiPolygon","coordinates":[[[[1.333,-1.892],[1.269,-2.032],[1.143,-2.194],[1.031,-2.236],[0.807,-2.243],[0.751,-2.278],[0.744,-2.328],[0.302,-2.321],[0.281,-2.307],[0.239,-2.208],[0.232,-2.138],[0.246,-2.103],[0.323,-2.039],[0.533,-1.941],[0.631,-1.849],[0.646,-1.849],[0.667,-1.814],[0.716,-1.786],[0.716,-1.772],[0.849,-1.716],[1.038,-1.716],[1.143,-1.744],[1.214,-1.779],[1.333,-1.892]]],[[[-0.666,-1.885],[-0.652,-1.892],[-0.659,-1.899],[-0.645,-1.899],[-0.56,-1.955],[-0.406,-2.096],[-0.42,-2.11],[-0.399,-2.194],[-0.406,-2.243],[-0.462,-2.271],[-0.56,-2.286],[-0.68,-2.271],[-0.806,-2.236],[-0.953,-2.152],[-1.051,-2.039],[-1.051,-1.983],[-1.016,-1.941],[-0.967,-1.913],[-0.897,-1.899],[-0.687,-1.906],[-0.666,-1.885]]]]},"properties":{"abbr":"SuG","name":"superficial gray layer of the superior colliculus","plate":41,"ap_bregma_mm":-6.2,"area_mm2":0.6253,"traced_fraction":[1.0,1.0],"n_labels":2,"no_drawn_outline":false}},{"type":"Feature","geometry":{"type":"MultiPolygon","coordinates":[[[[-2.503,-1.821],[-2.545,-1.786],[-2.86,-1.786],[-3.014,-1.821],[-3.169,-1.878],[-3.484,-2.032],[-3.702,-2.18],[-3.842,-2.3],[-3.947,-2.356],[-4.038,-2.426],[-4.255,-2.546],[-4.312,-2.56],[-4.346,-2.532],[-4.494,-2.497],[-4.599,-2.454],[-4.851,-2.3],[-5.041,-2.11],[-5.244,-1.842],[-5.244,-1.821],[-5.251,-1.814],[-4.992,-1.61],[-4.683,-1.413],[-4.655,-1.378],[-4.34,-1.167],[-3.856,-0.914],[-3.547,-0.801],[-2.846,-0.513],[-2.405,-0.38],[-2.096,-0.316],[-1.816,-0.309],[-1.654,-0.351],[-1.549,-0.429],[-1.507,-0.499],[-1.479,-0.626],[-1.395,-0.766],[-1.388,-0.893],[-1.514,-1.111],[-1.563,-1.223],[-1.661,-1.336],[-1.682,-1.378],[-1.78,-1.47],[-1.794,-1.47],[-1.808,-1.498],[-1.886,-1.568],[-1.935,-1.603],[-2.215,-1.695],[-2.503,-1.821]]],[[[3.738,-0.942],[3.773,-0.956],[3.787,-0.963],[3.808,-0.97],[3.822,-0.977],[3.836,-0.984],[3.857,-0.991],[3.892,-1.005],[4.095,-1.083],[4.831,-1.456],[4.965,-1.547],[5.028,-1.575],[5.14,-1.681],[5.112,-1.695],[4.88,-2.025],[4.663,-2.257],[4.481,-2.37],[4.249,-2.405],[4.214,-2.426],[3.99,-2.264],[3.415,-1.969],[3.212,-1.807],[3.1,-1.744],[2.994,-1.744],[2.959,-1.758],[2.805,-1.906],[2.546,-1.674],[2.384,-1.582],[2.216,-1.512],[2.104,-1.434],[1.915,-1.245],[1.837,-1.104],[1.816,-1.027],[1.816,-0.921],[1.873,-0.801],[1.985,-0.703],[2.202,-0.612],[2.518,-0.562],[2.707,-0.562],[2.819,-0.583],[3.072,-0.675],[3.177,-0.724],[3.45,-0.816],[3.738,-0.942]]]]},"properties":{"abbr":"V1","name":"primary visual cortex","plate":41,"ap_bregma_mm":-6.2,"area_mm2":7.6756,"traced_fraction":[1.0,1.0],"n_labels":2,"no_drawn_outline":false}},{"type":"Feature","geometry":{"type":"MultiPolygon","coordinates":[[[[5.14,-1.681],[5.231,-1.73],[5.547,-2.018],[5.56,-2.018],[5.701,-2.18],[5.68,-2.18],[5.392,-2.461],[5.189,-2.595],[5.105,-2.637],[4.859,-2.715],[4.579,-2.75],[4.523,-2.771],[4.46,-2.736],[4.362,-2.637],[4.32,-2.567],[4.221,-2.454],[4.214,-2.426],[4.249,-2.405],[4.481,-2.37],[4.663,-2.257],[4.88,-2.025],[5.112,-1.695],[5.14,-1.681]]],[[[-5.251,-1.814],[-5.244,-1.821],[-5.244,-1.842],[-5.041,-2.11],[-4.851,-2.3],[-4.599,-2.454],[-4.494,-2.497],[-4.346,-2.532],[-4.312,-2.56],[-4.361,-2.602],[-4.529,-2.686],[-4.795,-2.799],[-5.118,-2.785],[-5.454,-2.707],[-5.672,-2.595],[-5.896,-2.377],[-5.861,-2.321],[-5.665,-2.124],[-5.251,-1.814]]]]},"properties":{"abbr":"V2L","name":"secondary visual cortex, lateral area","plate":41,"ap_bregma_mm":-6.2,"area_mm2":1.5402,"traced_fraction":[1.0,1.0],"n_labels":2,"no_drawn_outline":false}},{"type":"Feature","geometry":{"type":"MultiPolygon","coordinates":[[[[-0.448,-4.044],[-0.245,-4.255],[-0.182,-4.29],[-0.056,-4.318],[0.099,-4.304],[0.19,-4.262],[0.26,-4.213],[0.386,-4.079],[0.477,-4.072],[0.554,-4.093],[0.702,-4.184],[0.877,-4.318],[0.961,-4.353],[0.968,-4.367],[1.206,-4.438],[1.206,-4.48],[1.164,-4.592],[1.164,-4.628],[1.087,-4.705],[1.024,-4.684],[1.017,-4.67],[0.961,-4.663],[0.779,-4.628],[0.47,-4.613],[0.162,-4.494],[0.106,-4.424],[0.043,-4.417],[-0.126,-4.431],[-0.154,-4.452],[-0.161,-4.508],[-0.182,-4.508],[-0.343,-4.606],[-0.441,-4.635],[-0.504,-4.649],[-0.834,-4.642],[-0.939,-4.656],[-0.988,-4.684],[-1.051,-4.684],[-1.107,-4.712],[-1.121,-4.705],[-1.156,-4.613],[-1.184,-4.466],[-0.932,-4.36],[-0.848,-4.304],[-0.652,-4.121],[-0.448,-4.044]]]]},"properties":{"abbr":"VLPAG","name":"ventrolateral periaqueductal gray","plate":41,"ap_bregma_mm":-6.2,"area_mm2":0.8352,"traced_fraction":[1.0],"n_labels":2,"no_drawn_outline":false}},{"type":"Feature","geometry":{"type":"MultiPolygon","coordinates":[[[[-0.666,-1.885],[-0.687,-1.906],[-0.897,-1.899],[-0.967,-1.913],[-1.016,-1.941],[-1.051,-1.983],[-1.051,-2.039],[-0.953,-2.152],[-0.806,-2.236],[-0.68,-2.271],[-0.56,-2.286],[-0.462,-2.271],[-0.406,-2.243],[-0.399,-2.194],[-0.42,-2.138],[-0.42,-2.11],[-0.406,-2.096],[-0.336,-2.145],[-0.301,-2.187],[-0.287,-2.215],[-0.294,-2.321],[-0.497,-2.335],[-0.708,-2.314],[-0.918,-2.271],[-1.009,-2.229],[-1.058,-2.222],[-1.149,-2.124],[-1.212,-1.99],[-1.255,-1.934],[-1.255,-1.913],[-1.248,-1.892],[-1.219,-1.892],[-0.995,-1.8],[-0.834,-1.8],[-0.722,-1.842],[-0.666,-1.885]]],[[[1.333,-1.892],[1.396,-1.941],[1.431,-1.948],[1.431,-1.99],[1.354,-2.124],[1.319,-2.243],[1.269,-2.236],[1.199,-2.278],[1.108,-2.3],[0.744,-2.328],[0.751,-2.278],[0.786,-2.25],[1.031,-2.236],[1.143,-2.194],[1.269,-2.032],[1.333,-1.892]]]]},"properties":{"abbr":"Zo","name":"zonal layer of the superior colliculus","plate":41,"ap_bregma_mm":-6.2,"area_mm2":0.2337,"traced_fraction":[1.0,1.0],"n_labels":2,"no_drawn_outline":false}},{"type":"Feature","geometry":{"type":"MultiPolygon","coordinates":[[[[2.202,-5.176],[2.23,-5.261],[2.286,-5.331],[2.265,-5.338],[2.251,-5.514],[2.16,-5.781],[1.943,-5.774],[1.978,-5.654],[1.999,-5.612],[2.027,-5.436],[2.02,-5.183],[2.202,-5.176]]],[[[-2.152,-5.232],[-1.858,-5.239],[-1.85,-5.422],[-1.85,-5.507],[-2.173,-5.514],[-2.187,-5.387],[-2.152,-5.232]]]]},"properties":{"abbr":"cll","name":"commissure of the lateral lemniscus","plate":41,"ap_bregma_mm":-6.2,"area_mm2":0.2229,"traced_fraction":[0.829,0.581],"n_labels":2,"no_drawn_outline":true}},{"type":"Feature","geometry":{"type":"MultiPolygon","coordinates":[[[[2.097,-5.957],[2.293,-6.069],[2.447,-6.112],[2.405,-6.21],[2.216,-6.498],[2.202,-6.548],[2.055,-6.759],[2.027,-6.822],[1.964,-6.85],[1.936,-6.766],[1.894,-6.723],[1.816,-6.723],[1.746,-6.745],[1.781,-6.618],[1.873,-6.442],[1.922,-6.379],[1.943,-6.294],[1.957,-6.287],[2.006,-6.182],[2.097,-5.957]]],[[[-2.061,-6.055],[-1.984,-6.189],[-1.935,-6.308],[-1.879,-6.323],[-1.858,-6.442],[-1.738,-6.604],[-1.745,-6.646],[-1.85,-6.639],[-1.907,-6.653],[-1.949,-6.688],[-1.977,-6.766],[-2.005,-6.787],[-2.04,-6.752],[-2.138,-6.576],[-2.159,-6.562],[-2.236,-6.435],[-2.264,-6.414],[-2.341,-6.287],[-2.418,-6.203],[-2.439,-6.168],[-2.439,-6.133],[-2.229,-6.133],[-2.131,-6.104],[-2.061,-6.055]]]]},"properties":{"abbr":"dVNLL","name":"ventral nucleus of the lateral lemniscus, dorsal part","plate":41,"ap_bregma_mm":-6.2,"area_mm2":0.5036,"traced_fraction":[1.0,0.997],"n_labels":2,"no_drawn_outline":false}},{"type":"Feature","geometry":{"type":"MultiPolygon","coordinates":[[[[1.073,-4.761],[1.129,-4.796],[1.235,-4.832],[1.459,-4.881],[1.704,-4.846],[1.725,-4.824],[1.866,-4.768],[1.943,-4.902],[1.992,-5.078],[1.767,-5.12],[1.515,-5.127],[1.242,-5.169],[1.108,-5.211],[1.017,-5.261],[0.926,-5.338],[0.905,-5.38],[0.807,-5.345],[0.821,-5.296],[0.849,-5.289],[0.849,-5.141],[0.821,-5.134],[0.814,-5.099],[0.779,-5.071],[0.779,-5.036],[0.933,-4.916],[1.073,-4.761]]],[[[-1.086,-4.789],[-0.974,-4.909],[-0.82,-5.014],[-0.869,-5.092],[-0.897,-5.183],[-0.89,-5.261],[-0.869,-5.317],[-0.932,-5.359],[-0.939,-5.359],[-0.946,-5.352],[-0.953,-5.345],[-1.128,-5.218],[-1.353,-5.099],[-1.612,-5.014],[-1.816,-4.979],[-1.801,-4.937],[-1.703,-4.958],[-1.57,-4.958],[-1.451,-4.937],[-1.227,-4.867],[-1.086,-4.789]]]]},"properties":{"abbr":"isRt","name":"isthmic reticular formation","plate":41,"ap_bregma_mm":-6.2,"area_mm2":0.5886,"traced_fraction":[0.991,0.962],"n_labels":2,"no_drawn_outline":false}},{"type":"Feature","geometry":{"type":"MultiPolygon","coordinates":[[[[1.333,-7.286],[1.22,-7.518],[1.15,-7.701],[1.066,-7.793],[1.038,-7.807],[0.884,-7.828],[0.61,-7.807],[0.414,-7.757],[0.33,-7.694],[0.379,-7.645],[0.484,-7.589],[0.821,-7.448],[0.905,-7.427],[1.017,-7.42],[1.059,-7.363],[1.157,-7.314],[1.269,-7.286],[1.333,-7.286]]],[[[-0.855,-7.448],[-0.82,-7.476],[-0.659,-7.518],[-0.49,-7.589],[-0.301,-7.645],[-0.217,-7.687],[-0.182,-7.729],[-0.168,-7.729],[-0.161,-7.757],[-0.329,-7.764],[-0.518,-7.743],[-0.694,-7.778],[-0.799,-7.835],[-0.876,-7.835],[-1.072,-7.715],[-1.142,-7.645],[-1.191,-7.525],[-1.184,-7.469],[-1.072,-7.42],[-1.002,-7.42],[-0.918,-7.448],[-0.855,-7.448]]]]},"properties":{"abbr":"lfp","name":"longitudinal fasciculus of the pons","plate":41,"ap_bregma_mm":-6.2,"area_mm2":0.5111,"traced_fraction":[1.0,1.0],"n_labels":2,"no_drawn_outline":false}},{"type":"Feature","geometry":{"type":"MultiPolygon","coordinates":[[[[2.462,-4.48],[2.49,-4.564],[2.546,-4.656],[2.588,-4.698],[2.665,-4.733],[2.749,-4.726],[2.791,-4.705],[2.854,-4.628],[2.889,-4.529],[2.917,-4.508],[2.924,-4.508],[2.924,-4.663],[2.875,-5.036],[2.826,-5.275],[2.777,-5.275],[2.763,-5.268],[2.798,-5.085],[2.791,-5.0],[2.763,-4.944],[2.686,-4.874],[2.602,-4.846],[2.49,-4.839],[2.384,-4.867],[2.384,-4.508],[2.462,-4.48]]],[[[-2.524,-4.529],[-2.292,-4.536],[-2.075,-4.592],[-2.068,-4.599],[-2.054,-4.705],[-1.991,-4.81],[-2.236,-4.824],[-2.306,-4.775],[-2.397,-4.74],[-2.601,-4.719],[-2.552,-4.635],[-2.524,-4.529]]],[[[-1.528,-7.04],[-1.43,-7.146],[-1.395,-7.223],[-1.507,-7.244],[-1.591,-7.307],[-1.64,-7.406],[-1.654,-7.546],[-1.71,-7.504],[-1.766,-7.42],[-1.858,-7.223],[-1.935,-7.11],[-1.998,-6.956],[-1.963,-6.927],[-1.928,-6.927],[-1.879,-7.012],[-1.816,-7.075],[-1.703,-7.131],[-1.626,-7.131],[-1.584,-7.11],[-1.556,-7.082],[-1.542,-7.04],[-1.528,-7.04]]],[[[1.95,-7.033],[1.943,-7.075],[1.809,-7.265],[1.739,-7.42],[1.704,-7.469],[1.676,-7.483],[1.62,-7.244],[1.592,-7.188],[1.515,-7.124],[1.564,-7.089],[1.592,-7.146],[1.641,-7.181],[1.767,-7.188],[1.837,-7.146],[1.908,-7.026],[1.95,-7.033]]]]},"properties":{"abbr":"ll","name":"lateral lemniscus","plate":41,"ap_bregma_mm":-6.2,"area_mm2":0.4594,"traced_fraction":[0.888,0.886,0.993,1.0],"n_labels":4,"no_drawn_outline":false}},{"type":"Feature","geometry":{"type":"MultiPolygon","coordinates":[[[[2.637,-5.922],[2.637,-5.936],[2.623,-5.936],[2.623,-5.922],[2.637,-5.922]]],[[[2.637,-5.964],[2.637,-5.992],[2.672,-6.034],[2.721,-6.091],[2.826,-6.112],[2.889,-6.161],[2.875,-6.245],[2.728,-6.435],[2.707,-6.463],[2.7,-6.456],[2.7,-6.47],[2.686,-6.491],[2.672,-6.512],[2.665,-6.506],[2.665,-6.519],[2.651,-6.541],[2.63,-6.569],[2.567,-6.667],[2.475,-6.906],[2.412,-7.033],[2.398,-7.033],[2.356,-7.131],[2.125,-7.441],[2.055,-7.504],[1.957,-7.638],[1.837,-7.75],[1.824,-7.75],[1.641,-7.933],[1.48,-8.053],[1.312,-8.144],[1.277,-8.165],[1.248,-8.179],[1.066,-8.299],[1.059,-8.25],[1.073,-8.214],[1.136,-8.151],[1.269,-8.081],[1.494,-7.814],[1.627,-7.617],[1.676,-7.483],[1.69,-7.483],[1.739,-7.42],[1.809,-7.265],[1.943,-7.075],[1.95,-7.033],[1.964,-6.984],[1.992,-6.963],[2.027,-6.822],[2.055,-6.759],[2.202,-6.548],[2.244,-6.534],[2.314,-6.421],[2.335,-6.407],[2.363,-6.344],[2.447,-6.224],[2.454,-6.189],[2.567,-5.992],[2.602,-5.957],[2.637,-5.964]]],[[[-2.748,-6.041],[-2.741,-6.055],[-2.713,-6.055],[-2.685,-6.034],[-2.657,-6.041],[-2.503,-6.203],[-2.489,-6.238],[-2.327,-6.421],[-2.32,-6.449],[-2.138,-6.695],[-2.012,-6.949],[-1.998,-6.956],[-1.984,-7.012],[-1.858,-7.223],[-1.766,-7.42],[-1.71,-7.504],[-1.654,-7.546],[-1.605,-7.631],[-1.528,-7.708],[-1.409,-7.786],[-1.276,-7.919],[-1.149,-8.095],[-0.967,-8.264],[-0.939,-8.32],[-0.939,-8.412],[-0.953,-8.447],[-1.051,-8.383],[-1.283,-8.137],[-1.276,-8.13],[-1.311,-8.095],[-1.318,-8.102],[-1.381,-8.032],[-1.612,-7.863],[-1.85,-7.638],[-1.886,-7.567],[-2.054,-7.328],[-2.348,-6.723],[-2.411,-6.632],[-2.432,-6.597],[-2.517,-6.47],[-2.538,-6.463],[-2.573,-6.407],[-2.678,-6.308],[-2.965,-6.133],[-2.93,-6.055],[-2.846,-5.992],[-2.818,-5.992],[-2.783,-6.013],[-2.776,-6.034],[-2.748,-6.041]]]]},"properties":{"abbr":"mcp","name":"middle cerebellar peduncle","plate":41,"ap_bregma_mm":-6.2,"area_mm2":1.3875,"traced_fraction":[1.0,1.0,0.999],"n_labels":2,"no_drawn_outline":false}},{"type":"Feature","geometry":{"type":"MultiPolygon","coordinates":[[[[0.905,-7.427],[0.821,-7.448],[0.484,-7.589],[0.379,-7.645],[0.33,-7.694],[0.302,-7.694],[0.211,-7.652],[0.204,-7.589],[0.225,-7.561],[0.393,-7.399],[0.477,-7.349],[0.589,-7.328],[0.751,-7.342],[0.856,-7.378],[0.905,-7.413],[0.905,-7.427]]],[[[-0.063,-7.666],[-0.112,-7.743],[-0.161,-7.757],[-0.168,-7.729],[-0.238,-7.673],[-0.336,-7.631],[-0.49,-7.589],[-0.574,-7.546],[-0.82,-7.476],[-0.855,-7.448],[-0.827,-7.42],[-0.757,-7.392],[-0.518,-7.385],[-0.434,-7.399],[-0.308,-7.448],[-0.189,-7.518],[-0.063,-7.666]]]]},"properties":{"abbr":"ml","name":"medial lemniscus","plate":41,"ap_bregma_mm":-6.2,"area_mm2":0.2419,"traced_fraction":[1.0,1.0],"n_labels":2,"no_drawn_outline":false}},{"type":"Feature","geometry":{"type":"MultiPolygon","coordinates":[[[[0.554,-5.113],[0.589,-5.183],[0.589,-5.261],[0.561,-5.324],[0.533,-5.352],[0.526,-5.387],[0.428,-5.422],[0.288,-5.429],[0.148,-5.429],[0.085,-5.408],[0.05,-5.366],[0.043,-5.324],[0.057,-5.253],[0.148,-5.141],[0.302,-5.148],[0.379,-5.148],[0.449,-5.106],[0.554,-5.113]]],[[[-0.568,-5.127],[-0.518,-5.141],[-0.336,-5.148],[-0.175,-5.148],[-0.112,-5.19],[-0.084,-5.253],[-0.077,-5.324],[-0.091,-5.373],[-0.133,-5.415],[-0.245,-5.443],[-0.336,-5.443],[-0.462,-5.408],[-0.553,-5.401],[-0.553,-5.38],[-0.61,-5.345],[-0.645,-5.296],[-0.638,-5.19],[-0.568,-5.127]]]]},"properties":{"abbr":"mlf","name":"medial longitudinal fasciculus","plate":41,"ap_bregma_mm":-6.2,"area_mm2":0.2847,"traced_fraction":[1.0,0.972],"n_labels":2,"no_drawn_outline":false}},{"type":"Feature","geometry":{"type":"MultiPolygon","coordinates":[[[[-1.654,-6.217],[-1.591,-6.252],[-1.507,-6.351],[-1.472,-6.449],[-1.472,-6.548],[-1.486,-6.597],[-1.528,-6.639],[-1.563,-6.653],[-1.64,-6.653],[-1.738,-6.604],[-1.858,-6.442],[-1.879,-6.323],[-1.85,-6.266],[-1.787,-6.217],[-1.731,-6.203],[-1.654,-6.217]]],[[[1.655,-6.259],[1.774,-6.266],[1.845,-6.316],[1.858,-6.351],[1.858,-6.428],[1.873,-6.442],[1.781,-6.618],[1.753,-6.618],[1.683,-6.667],[1.606,-6.695],[1.438,-6.695],[1.382,-6.646],[1.389,-6.519],[1.438,-6.435],[1.578,-6.302],[1.641,-6.266],[1.655,-6.259]]]]},"properties":{"abbr":"rs","name":"rubrospinal tract","plate":41,"ap_bregma_mm":-6.2,"area_mm2":0.2881,"traced_fraction":[1.0,1.0],"n_labels":2,"no_drawn_outline":false}},{"type":"Feature","geometry":{"type":"MultiPolygon","coordinates":[[[[-0.869,-5.317],[-0.771,-5.331],[-0.666,-5.394],[-0.553,-5.401],[-0.462,-5.408],[-0.336,-5.443],[-0.357,-5.486],[-0.399,-5.668],[-0.497,-5.732],[-0.546,-5.746],[-0.617,-5.753],[-0.645,-5.739],[-0.764,-5.732],[-0.82,-5.711],[-0.925,-5.612],[-0.967,-5.514],[-0.96,-5.415],[-0.932,-5.359],[-0.869,-5.317]]],[[[0.807,-5.345],[0.905,-5.38],[0.926,-5.443],[0.919,-5.507],[0.856,-5.591],[0.786,-5.647],[0.617,-5.718],[0.484,-5.732],[0.4,-5.697],[0.344,-5.633],[0.33,-5.633],[0.288,-5.5],[0.288,-5.429],[0.428,-5.422],[0.526,-5.387],[0.807,-5.345]]]]},"properties":{"abbr":"scp","name":"superior cerebellar peduncle","plate":41,"ap_bregma_mm":-6.2,"area_mm2":0.3698,"traced_fraction":[1.0,1.0],"n_labels":2,"no_drawn_outline":false}},{"type":"Feature","geometry":{"type":"MultiPolygon","coordinates":[[[[0.33,-5.633],[0.344,-5.633],[0.4,-5.697],[0.484,-5.732],[0.491,-5.837],[0.54,-5.992],[0.554,-5.992],[0.547,-6.041],[0.568,-6.238],[0.561,-6.428],[0.512,-6.794],[0.477,-6.92],[0.477,-6.991],[0.323,-7.005],[0.393,-6.47],[0.4,-6.302],[0.386,-6.034],[0.344,-5.844],[0.316,-5.676],[0.316,-5.633],[0.33,-5.633]]],[[[-0.399,-5.668],[-0.406,-5.809],[-0.427,-5.879],[-0.448,-6.083],[-0.462,-6.47],[-0.434,-6.716],[-0.364,-6.998],[-0.497,-7.005],[-0.546,-6.85],[-0.623,-6.386],[-0.623,-6.217],[-0.595,-6.083],[-0.595,-6.013],[-0.574,-5.964],[-0.546,-5.746],[-0.497,-5.732],[-0.399,-5.668]]]]},"properties":{"abbr":"ts","name":"tectospinal tract","plate":41,"ap_bregma_mm":-6.2,"area_mm2":0.4016,"traced_fraction":[1.0,0.998],"n_labels":2,"no_drawn_outline":false}},{"type":"Feature","geometry":{"type":"MultiPolygon","coordinates":[[[[-2.65,-5.929],[-2.615,-5.95],[-2.58,-6.034],[-2.538,-6.083],[-2.475,-6.126],[-2.439,-6.133],[-2.432,-6.182],[-2.341,-6.287],[-2.264,-6.414],[-2.236,-6.435],[-2.208,-6.491],[-2.138,-6.576],[-2.04,-6.752],[-2.005,-6.787],[-1.977,-6.766],[-1.949,-6.688],[-1.907,-6.653],[-1.85,-6.639],[-1.745,-6.646],[-1.619,-6.78],[-1.577,-6.85],[-1.549,-6.913],[-1.528,-7.04],[-1.542,-7.04],[-1.556,-7.082],[-1.584,-7.11],[-1.626,-7.131],[-1.703,-7.131],[-1.816,-7.075],[-1.879,-7.012],[-1.928,-6.927],[-1.963,-6.927],[-1.998,-6.956],[-2.012,-6.949],[-2.138,-6.695],[-2.32,-6.449],[-2.327,-6.421],[-2.489,-6.238],[-2.503,-6.203],[-2.657,-6.041],[-2.685,-6.034],[-2.692,-6.027],[-2.664,-5.971],[-2.65,-5.929]]],[[[1.964,-6.85],[1.964,-6.892],[1.95,-6.913],[1.95,-6.977],[1.964,-6.984],[1.95,-7.033],[1.908,-7.026],[1.837,-7.146],[1.767,-7.188],[1.641,-7.181],[1.592,-7.146],[1.564,-7.089],[1.655,-6.885],[1.676,-6.871],[1.704,-6.801],[1.746,-6.745],[1.816,-6.723],[1.894,-6.723],[1.936,-6.766],[1.964,-6.85]]]]},"properties":{"abbr":"vVNLL","name":"ventral nucleus of the lateral lemniscus, ventral part","plate":41,"ap_bregma_mm":-6.2,"area_mm2":0.3665,"traced_fraction":[0.994,1.0],"n_labels":2,"no_drawn_outline":false}},{"type":"Feature","geometry":{"type":"MultiPolygon","coordinates":[[[[-0.077,-5.324],[0.043,-5.324],[0.05,-5.366],[0.085,-5.408],[0.05,-5.457],[0.043,-5.619],[0.021,-5.69],[-0.063,-5.69],[-0.084,-5.633],[-0.084,-5.556],[-0.105,-5.472],[-0.133,-5.415],[-0.091,-5.373],[-0.077,-5.324]]]]},"properties":{"abbr":"xscp","name":"decussation of the superior cerebellar peduncle","plate":41,"ap_bregma_mm":-6.2,"area_mm2":0.0518,"traced_fraction":[0.925],"n_labels":1,"no_drawn_outline":false}},{"type":"Feature","geometry":{"type":"Polygon","coordinates":[[[0.625,-1.702],[0.667,-1.723],[0.674,-1.744],[0.716,-1.772],[0.716,-1.786],[0.667,-1.814],[0.646,-1.849],[0.631,-1.849],[0.533,-1.941],[0.323,-2.039],[0.246,-2.103],[0.232,-2.138],[0.239,-2.208],[0.281,-2.307],[0.302,-2.321],[0.211,-2.384],[0.113,-2.405],[-0.056,-2.405],[-0.14,-2.391],[-0.21,-2.37],[-0.294,-2.321],[-0.287,-2.215],[-0.329,-2.152],[-0.406,-2.096],[-0.56,-1.955],[-0.49,-1.885],[-0.385,-1.955],[-0.259,-2.004],[-0.112,-2.025],[0.092,-2.011],[0.253,-1.969],[0.421,-1.892],[0.519,-1.821],[0.519,-1.807],[0.533,-1.807],[0.533,-1.793],[0.547,-1.793],[0.547,-1.779],[0.561,-1.779],[0.561,-1.765],[0.576,-1.765],[0.625,-1.702]]]},"properties":{"abbr":null,"name":"unnamed sealed face","plate":41,"ap_bregma_mm":-6.2,"index":0}},{"type":"Feature","geometry":{"type":"Polygon","coordinates":[[[2.777,-5.275],[2.826,-5.275],[2.805,-5.415],[2.721,-5.732],[2.637,-5.922],[2.623,-5.922],[2.623,-5.936],[2.637,-5.936],[2.637,-5.964],[2.602,-5.957],[2.567,-5.992],[2.454,-6.189],[2.447,-6.224],[2.419,-6.252],[2.335,-6.407],[2.314,-6.421],[2.244,-6.534],[2.202,-6.548],[2.216,-6.498],[2.3,-6.386],[2.321,-6.33],[2.405,-6.21],[2.447,-6.112],[2.504,-6.041],[2.518,-5.999],[2.539,-5.985],[2.602,-5.865],[2.616,-5.802],[2.63,-5.802],[2.735,-5.507],[2.777,-5.275]]]},"properties":{"abbr":null,"name":"unnamed sealed face","plate":41,"ap_bregma_mm":-6.2,"index":1}},{"type":"Feature","geometry":{"type":"Polygon","coordinates":[[[-2.797,-5.282],[-2.79,-5.282],[-2.783,-5.282],[-2.748,-5.324],[-2.734,-5.38],[-2.727,-5.472],[-2.657,-5.732],[-2.65,-5.816],[-2.671,-5.83],[-2.713,-5.753],[-2.79,-5.429],[-2.797,-5.282]]]},"properties":{"abbr":null,"name":"unnamed sealed face","plate":41,"ap_bregma_mm":-6.2,"index":2}},{"type":"Feature","geometry":{"type":"Polygon","coordinates":[[[0.267,-8.397],[0.148,-8.285],[0.099,-8.264],[-0.007,-8.299],[-0.042,-8.341],[-0.098,-8.376],[-0.147,-8.376],[-0.147,-8.313],[-0.07,-8.137],[0.021,-8.025],[0.05,-8.011],[0.106,-8.011],[0.141,-8.053],[0.155,-8.053],[0.155,-8.074],[0.225,-8.186],[0.281,-8.355],[0.281,-8.39],[0.267,-8.397]]]},"properties":{"abbr":null,"name":"unnamed sealed face","plate":41,"ap_bregma_mm":-6.2,"index":3}},{"type":"Feature","geometry":{"type":"MultiPolygon","coordinates":[[[[-5.139,-4.944],[-5.23,-4.916],[-5.293,-4.853],[-5.426,-4.621],[-5.581,-4.213],[-5.665,-3.875],[-5.714,-3.819],[-5.833,-3.805],[-5.91,-3.762],[-6.015,-3.629],[-6.085,-3.46],[-6.141,-3.214],[-6.149,-2.961],[-6.085,-2.693],[-5.994,-2.503],[-5.854,-2.314],[-5.672,-2.131],[-4.999,-1.617],[-4.346,-1.174],[-3.884,-0.928],[-2.839,-0.513],[-2.369,-0.372],[-2.082,-0.316],[-1.837,-0.309],[-1.661,-0.351],[-1.563,-0.422],[-1.514,-0.499],[-1.486,-0.619],[-1.409,-0.752],[-1.395,-0.794],[-1.395,-0.886],[-1.577,-1.223],[-1.703,-1.385],[-1.928,-1.589],[-2.208,-1.688],[-2.503,-1.814],[-2.769,-1.99],[-2.923,-2.124],[-3.056,-2.307],[-3.134,-2.384],[-3.239,-2.454],[-3.33,-2.574],[-3.428,-2.75],[-3.442,-2.806],[-3.589,-3.917],[-3.638,-4.121],[-3.744,-4.388],[-3.758,-4.494],[-3.751,-4.67],[-3.765,-4.726],[-3.793,-4.768],[-3.954,-4.817],[-4.045,-4.902],[-4.178,-4.93],[-4.41,-4.93],[-4.865,-4.902],[-5.111,-4.937],[-5.139,-4.944]]],[[[4.418,-5.507],[4.186,-5.507],[4.102,-5.486],[4.032,-5.451],[3.934,-5.352],[3.878,-5.218],[3.85,-5.092],[3.829,-4.846],[3.738,-4.276],[3.738,-3.938],[3.773,-3.404],[3.759,-3.158],[3.71,-2.989],[3.611,-2.806],[3.366,-2.461],[3.051,-2.124],[2.546,-1.674],[2.447,-1.61],[2.23,-1.512],[2.097,-1.42],[1.922,-1.245],[1.845,-1.111],[1.816,-1.012],[1.816,-0.928],[1.873,-0.801],[1.985,-0.703],[2.209,-0.612],[2.539,-0.562],[2.679,-0.562],[2.805,-0.583],[3.436,-0.816],[4.081,-1.083],[4.831,-1.463],[5.028,-1.582],[5.133,-1.674],[5.231,-1.737],[5.581,-2.046],[5.876,-2.377],[6.086,-2.686],[6.149,-2.827],[6.234,-3.087],[6.234,-3.284],[6.192,-3.369],[6.115,-3.446],[5.869,-3.622],[5.771,-3.748],[5.694,-3.966],[5.652,-4.241],[5.589,-4.487],[5.455,-4.775],[5.203,-5.113],[5.007,-5.303],[4.775,-5.415],[4.621,-5.464],[4.446,-5.5],[4.418,-5.507]]],[[[0.646,-8.531],[0.505,-8.524],[0.414,-8.503],[0.316,-8.44],[0.141,-8.278],[0.085,-8.257],[0.008,-8.285],[-0.091,-8.362],[-0.196,-8.418],[-0.406,-8.503],[-0.497,-8.524],[-0.757,-8.517],[-0.883,-8.482],[-0.953,-8.447],[-1.065,-8.362],[-1.381,-8.032],[-1.626,-7.842],[-1.844,-7.638],[-2.061,-7.307],[-2.334,-6.752],[-2.475,-6.527],[-2.587,-6.393],[-2.72,-6.273],[-2.965,-6.126],[-2.93,-6.055],[-2.846,-5.992],[-2.825,-5.992],[-2.762,-6.041],[-2.685,-6.02],[-2.643,-5.901],[-2.713,-5.739],[-2.79,-5.408],[-2.818,-4.951],[-2.839,-4.895],[-2.846,-4.81],[-2.888,-4.072],[-2.923,-3.791],[-2.965,-3.601],[-2.965,-3.439],[-2.916,-3.101],[-2.86,-2.918],[-2.79,-2.764],[-2.552,-2.384],[-2.432,-2.229],[-2.292,-2.089],[-2.18,-2.004],[-1.921,-1.863],[-1.703,-1.814],[-1.535,-1.814],[-1.381,-1.849],[-1.297,-1.885],[-1.233,-1.892],[-1.044,-1.814],[-0.981,-1.8],[-0.848,-1.8],[-0.715,-1.849],[-0.568,-1.955],[-0.49,-1.878],[-0.673,-1.702],[-0.701,-1.638],[-0.701,-1.554],[-0.666,-1.491],[-0.595,-1.42],[-0.511,-1.378],[-0.371,-1.357],[-0.091,-1.35],[0.099,-1.357],[0.337,-1.392],[0.505,-1.442],[0.604,-1.498],[0.646,-1.561],[0.646,-1.631],[0.617,-1.695],[0.716,-1.772],[0.856,-1.716],[1.017,-1.716],[1.129,-1.744],[1.206,-1.779],[1.396,-1.941],[1.438,-1.948],[1.732,-1.892],[1.88,-1.899],[2.076,-1.948],[2.237,-2.032],[2.321,-2.103],[2.483,-2.278],[2.588,-2.433],[2.658,-2.574],[2.812,-2.996],[2.868,-3.214],[2.917,-3.488],[2.959,-3.854],[2.945,-4.332],[2.917,-4.459],[2.924,-4.578],[2.861,-5.057],[2.791,-5.429],[2.707,-5.739],[2.63,-5.922],[2.63,-5.985],[2.693,-6.069],[2.721,-6.091],[2.812,-6.112],[2.868,-6.14],[2.882,-6.168],[2.875,-6.224],[2.581,-6.625],[2.454,-6.927],[2.342,-7.131],[2.237,-7.286],[1.929,-7.652],[1.599,-7.954],[1.48,-8.039],[1.164,-8.222],[1.066,-8.292],[0.961,-8.412],[0.793,-8.503],[0.674,-8.524],[0.646,-8.531]]]]},"properties":{"abbr":"brain_outline","name":"outline of the section","plate":41,"ap_bregma_mm":-6.2}}]}
