{"type":"FeatureCollection","name":"GerbilAtlas plate 42","note":"Region extents cut from the atlas drawing (METHODS.md, Region extents). Coordinates are [ML, DV] in mm, ML positive to the right of the plate as printed, DV negative below the dorsal surface; AP is the plate bregma. traced_fraction is the share of each polygon boundary the atlas actually draws; below 0.5 the boundary is an estimate. no_drawn_outline marks a feature that lies only inside boundaries the atlas draws round more than one name and prints nothing within, so the whole of its outline is where the extraction cut it. Not a segmentation.","plate":42,"ap_bregma_mm":-6.55,"features":[{"type":"Feature","geometry":{"type":"MultiPolygon","coordinates":[[[[0.876,-1.365],[0.525,-1.288],[0.301,-1.288],[0.02,-1.358],[-0.288,-1.393],[-0.288,-1.407],[-0.358,-1.421],[-0.576,-1.435],[-0.884,-1.506],[-0.961,-1.499],[-1.01,-1.513],[-1.101,-1.492],[-1.172,-1.442],[-1.207,-1.393],[-1.221,-1.365],[-1.221,-1.281],[-1.165,-1.203],[-1.088,-1.161],[-0.681,-1.02],[-0.506,-0.978],[-0.267,-0.943],[0.329,-0.936],[0.497,-0.901],[0.637,-0.901],[0.785,-0.971],[0.806,-0.999],[0.883,-1.049],[0.96,-1.14],[0.995,-1.21],[0.995,-1.323],[0.953,-1.358],[0.876,-1.365]]]]},"properties":{"abbr":"5Cb","name":"5th cerebellar lobule","plate":42,"ap_bregma_mm":-6.55,"area_mm2":0.86,"traced_fraction":[1.0],"n_labels":1,"no_drawn_outline":false}},{"type":"Feature","geometry":{"type":"MultiPolygon","coordinates":[[[[-3.612,-2.483],[-3.619,-2.483],[-3.661,-2.483],[-3.738,-2.518],[-4.236,-2.814],[-4.649,-2.919],[-4.748,-2.976],[-4.867,-3.088],[-4.937,-3.06],[-5.063,-3.039],[-5.182,-2.976],[-5.301,-2.863],[-5.358,-2.786],[-5.379,-2.729],[-5.407,-2.708],[-5.407,-2.694],[-5.413,-2.701],[-5.421,-2.701],[-5.386,-2.455],[-5.322,-2.314],[-5.28,-2.258],[-5.245,-2.23],[-5.203,-2.16],[-5.14,-2.097],[-5.126,-2.097],[-5.028,-1.984],[-5.014,-1.984],[-4.951,-1.914],[-4.937,-1.914],[-4.614,-1.639],[-4.509,-1.576],[-4.362,-1.456],[-4.123,-1.316],[-4.102,-1.288],[-4.074,-1.281],[-3.934,-1.182],[-3.549,-0.978],[-3.226,-0.88],[-2.868,-0.809],[-2.686,-0.788],[-2.371,-0.795],[-2.174,-0.838],[-2.048,-0.901],[-1.95,-0.999],[-1.922,-1.091],[-1.929,-1.351],[-1.943,-1.386],[-1.964,-1.428],[-2.083,-1.555],[-2.125,-1.569],[-2.167,-1.604],[-2.707,-1.829],[-3.037,-1.998],[-3.163,-2.089],[-3.247,-2.132],[-3.352,-2.209],[-3.359,-2.23],[-3.457,-2.293],[-3.612,-2.483]]],[[[5.433,-2.392],[5.314,-2.469],[5.23,-2.554],[5.082,-2.807],[4.991,-2.898],[4.914,-2.933],[4.9,-2.954],[4.781,-2.919],[4.641,-2.905],[4.627,-2.863],[4.55,-2.786],[4.536,-2.786],[4.437,-2.694],[4.262,-2.582],[3.975,-2.455],[3.729,-2.385],[3.673,-2.392],[3.666,-2.392],[3.666,-2.399],[3.575,-2.35],[3.498,-2.286],[3.477,-2.272],[3.456,-2.258],[3.463,-2.251],[3.449,-2.251],[3.435,-2.244],[3.442,-2.237],[3.428,-2.237],[3.407,-2.223],[3.414,-2.216],[3.4,-2.216],[3.386,-2.209],[3.393,-2.202],[3.379,-2.202],[3.358,-2.188],[3.14,-2.026],[2.699,-1.759],[2.579,-1.646],[2.474,-1.569],[2.453,-1.52],[2.39,-1.442],[2.376,-1.4],[2.369,-1.316],[2.418,-1.224],[2.446,-1.21],[2.453,-1.189],[2.544,-1.14],[2.636,-1.112],[2.783,-1.091],[3.112,-1.091],[3.512,-1.161],[4.206,-1.365],[4.564,-1.499],[4.872,-1.66],[4.949,-1.717],[4.949,-1.731],[5.019,-1.773],[5.125,-1.878],[5.181,-1.97],[5.223,-2.012],[5.349,-2.279],[5.433,-2.392]]]]},"properties":{"abbr":"V1","name":"primary visual cortex","plate":42,"ap_bregma_mm":-6.55,"area_mm2":6.8655,"traced_fraction":[1.0,1.0],"n_labels":2,"no_drawn_outline":false}},{"type":"Feature","geometry":{"type":"MultiPolygon","coordinates":[[[[1.927,-1.857],[1.885,-1.956],[1.724,-2.167],[1.675,-2.188],[1.563,-2.322],[1.374,-2.631],[1.296,-2.793],[1.184,-2.948],[1.128,-3.053],[0.49,-3.053],[0.476,-3.053],[0.406,-2.962],[0.196,-2.765],[0.153,-2.673],[0.153,-2.603],[0.202,-2.462],[0.196,-2.427],[0.441,-2.279],[0.441,-2.265],[0.56,-2.195],[0.574,-2.174],[0.736,-2.068],[0.736,-2.054],[0.763,-2.047],[0.827,-1.991],[0.855,-1.984],[0.869,-1.963],[1.051,-1.85],[1.163,-1.794],[1.346,-1.745],[1.591,-1.738],[1.822,-1.794],[1.927,-1.857]]],[[[-1.024,-1.921],[-0.884,-2.019],[-0.863,-2.047],[-0.793,-2.075],[-0.66,-2.16],[-0.632,-2.209],[-0.491,-2.286],[-0.344,-2.399],[-0.344,-2.448],[-0.309,-2.568],[-0.316,-2.673],[-0.351,-2.758],[-0.344,-2.793],[-0.393,-2.835],[-0.485,-3.004],[-1.179,-3.004],[-1.34,-2.758],[-1.368,-2.687],[-1.459,-2.547],[-1.557,-2.357],[-1.627,-2.251],[-1.676,-2.202],[-1.859,-1.977],[-1.936,-1.829],[-1.754,-1.759],[-1.669,-1.745],[-1.508,-1.745],[-1.291,-1.787],[-1.165,-1.836],[-1.024,-1.921]]]]},"properties":{"abbr":"DCIC","name":"dorsal cortex of the inferior colliculus","plate":42,"ap_bregma_mm":-6.55,"area_mm2":2.5802,"traced_fraction":[0.874,0.853],"n_labels":2,"no_drawn_outline":false}},{"type":"Feature","geometry":{"type":"MultiPolygon","coordinates":[[[[0.848,-1.428],[0.855,-1.449],[0.953,-1.52],[0.995,-1.604],[1.009,-1.66],[1.009,-1.773],[0.995,-1.801],[0.96,-1.843],[0.918,-1.864],[0.918,-1.878],[0.841,-1.921],[0.841,-1.935],[0.813,-1.942],[0.595,-2.089],[0.378,-2.188],[0.083,-2.265],[-0.141,-2.301],[-0.267,-2.301],[-0.436,-2.258],[-0.59,-2.174],[-0.66,-2.16],[-0.793,-2.075],[-0.821,-2.012],[-0.856,-1.991],[-0.968,-1.864],[-1.017,-1.745],[-1.017,-1.66],[-0.982,-1.576],[-0.961,-1.576],[-0.954,-1.555],[-0.884,-1.52],[-0.884,-1.506],[-0.576,-1.435],[-0.358,-1.421],[-0.344,-1.435],[-0.288,-1.435],[0.357,-1.365],[0.623,-1.372],[0.848,-1.428]]]]},"properties":{"abbr":"4Cb","name":"4th cerebellar lobule","plate":42,"ap_bregma_mm":-6.55,"area_mm2":1.421,"traced_fraction":[1.0],"n_labels":1,"no_drawn_outline":false}},{"type":"Feature","geometry":{"type":"MultiPolygon","coordinates":[[[[-0.344,-2.399],[-0.302,-2.406],[-0.197,-2.476],[-0.134,-2.497],[0.02,-2.49],[0.196,-2.427],[0.202,-2.462],[0.153,-2.603],[0.153,-2.673],[0.196,-2.765],[0.062,-2.751],[-0.099,-2.744],[-0.155,-2.758],[-0.246,-2.765],[-0.344,-2.793],[-0.351,-2.758],[-0.309,-2.624],[-0.316,-2.518],[-0.344,-2.448],[-0.344,-2.399]]]]},"properties":{"abbr":"cic","name":"commissure of the inferior colliculus","plate":42,"ap_bregma_mm":-6.55,"area_mm2":0.1454,"traced_fraction":[1.0],"n_labels":1,"no_drawn_outline":false}},{"type":"Feature","geometry":{"type":"MultiPolygon","coordinates":[[[[4.641,-2.905],[4.452,-2.933],[4.297,-3.004],[4.171,-3.088],[4.136,-3.088],[4.15,-2.926],[4.101,-2.828],[4.017,-2.715],[3.891,-2.589],[3.75,-2.49],[3.666,-2.399],[3.666,-2.392],[3.673,-2.392],[3.729,-2.385],[3.975,-2.455],[4.262,-2.582],[4.437,-2.694],[4.536,-2.786],[4.55,-2.786],[4.627,-2.863],[4.641,-2.905]]]]},"properties":{"abbr":"RSD","name":"retrosplenial dysgranular cortex","plate":42,"ap_bregma_mm":-6.55,"area_mm2":0.2347,"traced_fraction":[1.0],"n_labels":1,"no_drawn_outline":false}},{"type":"Feature","geometry":{"type":"MultiPolygon","coordinates":[[[[-3.619,-2.483],[-3.612,-2.483],[-3.703,-2.687],[-3.731,-2.793],[-3.738,-2.814],[-3.745,-2.842],[-3.752,-2.87],[-3.759,-2.898],[-3.766,-2.912],[-3.773,-2.941],[-3.78,-2.969],[-3.801,-3.06],[-3.857,-3.067],[-3.983,-3.152],[-4.25,-3.264],[-4.558,-3.306],[-4.797,-3.384],[-4.874,-3.384],[-4.923,-3.362],[-4.958,-3.327],[-4.979,-3.264],[-4.979,-3.25],[-4.937,-3.215],[-4.93,-3.18],[-4.867,-3.088],[-4.748,-2.976],[-4.649,-2.919],[-4.236,-2.814],[-3.738,-2.518],[-3.661,-2.483],[-3.619,-2.483]]],[[[4.641,-2.905],[4.781,-2.919],[4.9,-2.954],[5.09,-3.067],[5.174,-3.152],[5.223,-3.173],[5.23,-3.215],[5.265,-3.271],[5.265,-3.334],[5.251,-3.348],[5.202,-3.362],[4.865,-3.362],[4.592,-3.44],[4.395,-3.538],[4.227,-3.651],[4.087,-3.77],[4.038,-3.777],[4.059,-3.531],[4.136,-3.088],[4.171,-3.088],[4.297,-3.004],[4.452,-2.933],[4.641,-2.905]]]]},"properties":{"abbr":"PaS","name":"parasubiculum","plate":42,"ap_bregma_mm":-6.55,"area_mm2":1.0772,"traced_fraction":[1.0,1.0],"n_labels":2,"no_drawn_outline":false}},{"type":"Feature","geometry":{"type":"MultiPolygon","coordinates":[[[[0.062,-2.751],[0.196,-2.765],[0.406,-2.962],[0.476,-3.053],[0.49,-3.053],[0.49,-3.074],[0.567,-3.166],[0.63,-3.285],[0.546,-3.377],[0.455,-3.426],[0.385,-3.44],[0.357,-3.454],[0.35,-3.475],[0.329,-3.475],[0.28,-3.433],[0.139,-3.362],[-0.015,-3.32],[0.013,-3.039],[0.034,-2.983],[0.048,-2.786],[0.062,-2.751]]],[[[-0.155,-2.758],[-0.148,-2.954],[-0.134,-2.983],[-0.127,-3.13],[-0.092,-3.32],[-0.106,-3.334],[-0.281,-3.384],[-0.428,-3.454],[-0.449,-3.433],[-0.59,-3.398],[-0.681,-3.32],[-0.59,-3.173],[-0.59,-3.152],[-0.541,-3.102],[-0.485,-3.004],[-0.407,-2.856],[-0.344,-2.793],[-0.246,-2.765],[-0.155,-2.758]]]]},"properties":{"abbr":"DLPAG","name":"dorsolateral periaqueductal gray","plate":42,"ap_bregma_mm":-6.55,"area_mm2":0.5381,"traced_fraction":[0.973,1.0],"n_labels":2,"no_drawn_outline":false}},{"type":"Feature","geometry":{"type":"MultiPolygon","coordinates":[[[[-1.936,-1.829],[-1.859,-1.977],[-1.676,-2.202],[-1.824,-2.293],[-1.999,-2.483],[-2.167,-2.772],[-2.279,-3.102],[-2.315,-3.32],[-2.315,-3.595],[-2.3,-3.707],[-2.237,-3.904],[-2.118,-4.052],[-2.104,-4.094],[-2.16,-4.087],[-2.462,-3.932],[-2.651,-3.799],[-2.791,-3.651],[-2.819,-3.651],[-2.833,-3.517],[-2.791,-3.152],[-2.714,-2.87],[-2.595,-2.568],[-2.427,-2.265],[-2.35,-2.167],[-2.322,-2.153],[-2.265,-2.068],[-2.076,-1.907],[-1.936,-1.829]]],[[[1.927,-1.857],[2.039,-1.907],[2.082,-1.949],[2.117,-1.963],[2.355,-2.195],[2.544,-2.469],[2.6,-2.589],[2.643,-2.729],[2.65,-2.751],[2.657,-2.772],[2.664,-2.793],[2.769,-3.081],[2.804,-3.222],[2.825,-3.419],[2.825,-3.735],[2.776,-3.742],[2.713,-3.806],[2.586,-3.89],[2.313,-4.031],[2.187,-4.08],[2.117,-4.087],[2.145,-4.024],[2.236,-3.89],[2.285,-3.7],[2.306,-3.475],[2.271,-3.116],[2.194,-2.828],[2.138,-2.68],[2.061,-2.533],[1.913,-2.322],[1.808,-2.223],[1.724,-2.167],[1.885,-1.956],[1.927,-1.857]]]]},"properties":{"abbr":"ECIC","name":"external cortex of the inferior colliculus","plate":42,"ap_bregma_mm":-6.55,"area_mm2":2.0592,"traced_fraction":[0.999,1.0],"n_labels":2,"no_drawn_outline":false}},{"type":"Feature","geometry":{"type":"MultiPolygon","coordinates":[[[[1.724,-2.167],[1.808,-2.223],[1.913,-2.322],[2.061,-2.533],[2.138,-2.68],[2.194,-2.828],[2.271,-3.116],[2.306,-3.475],[2.285,-3.7],[2.236,-3.89],[2.145,-4.024],[2.117,-4.087],[1.99,-4.157],[1.836,-4.199],[1.689,-4.207],[1.521,-4.171],[1.395,-4.108],[1.226,-3.974],[1.016,-3.714],[0.911,-3.538],[0.897,-3.468],[0.932,-3.362],[0.981,-3.271],[1.058,-3.173],[1.128,-3.053],[1.184,-2.948],[1.296,-2.793],[1.374,-2.631],[1.563,-2.322],[1.675,-2.188],[1.724,-2.167]]],[[[-1.676,-2.202],[-1.627,-2.251],[-1.557,-2.357],[-1.459,-2.547],[-1.368,-2.687],[-1.34,-2.758],[-1.179,-3.004],[-1.151,-3.06],[-1.052,-3.187],[-0.989,-3.306],[-0.975,-3.348],[-0.975,-3.426],[-1.017,-3.573],[-1.088,-3.714],[-1.2,-3.89],[-1.424,-4.108],[-1.557,-4.185],[-1.662,-4.221],[-1.796,-4.228],[-1.88,-4.213],[-1.971,-4.178],[-2.104,-4.094],[-2.118,-4.052],[-2.237,-3.904],[-2.3,-3.707],[-2.315,-3.595],[-2.315,-3.32],[-2.279,-3.102],[-2.167,-2.772],[-1.999,-2.483],[-1.824,-2.293],[-1.676,-2.202]]]]},"properties":{"abbr":"CIC","name":"central nucleus of the inferior colliculus","plate":42,"ap_bregma_mm":-6.55,"area_mm2":3.7345,"traced_fraction":[1.0,1.0],"n_labels":2,"no_drawn_outline":false}},{"type":"Feature","geometry":{"type":"MultiPolygon","coordinates":[[[[0.63,-3.285],[0.672,-3.32],[0.799,-3.51],[0.967,-3.721],[1.002,-3.806],[1.065,-3.862],[1.065,-3.89],[1.051,-3.897],[1.051,-3.918],[1.065,-3.918],[1.072,-3.897],[1.107,-3.911],[1.135,-3.953],[1.184,-4.073],[1.198,-4.143],[1.03,-4.143],[1.03,-4.523],[0.932,-4.509],[0.742,-4.432],[0.637,-4.354],[0.511,-4.221],[0.567,-4.108],[0.567,-3.974],[0.539,-3.813],[0.483,-3.637],[0.35,-3.475],[0.357,-3.454],[0.455,-3.426],[0.546,-3.377],[0.63,-3.285]]],[[[-0.681,-3.32],[-0.59,-3.398],[-0.449,-3.433],[-0.428,-3.454],[-0.569,-3.623],[-0.625,-3.735],[-0.674,-3.89],[-0.688,-3.953],[-0.688,-4.08],[-0.632,-4.192],[-0.653,-4.207],[-0.674,-4.277],[-0.709,-4.333],[-0.779,-4.403],[-0.912,-4.474],[-1.052,-4.502],[-1.067,-4.516],[-1.074,-4.516],[-1.08,-4.136],[-1.186,-4.136],[-1.235,-4.115],[-1.207,-4.059],[-1.193,-3.953],[-1.158,-3.897],[-1.088,-3.848],[-1.08,-3.806],[-1.031,-3.728],[-0.905,-3.602],[-0.681,-3.32]]]]},"properties":{"abbr":"LPAG","name":"lateral periaqueductal gray","plate":42,"ap_bregma_mm":-6.55,"area_mm2":0.9567,"traced_fraction":[0.848,0.841],"n_labels":2,"no_drawn_outline":false}},{"type":"Feature","geometry":{"type":"MultiPolygon","coordinates":[[[[-0.092,-3.32],[-0.015,-3.32],[0.139,-3.362],[0.28,-3.433],[0.329,-3.475],[0.35,-3.475],[0.483,-3.637],[0.539,-3.813],[0.567,-3.974],[0.567,-4.108],[0.511,-4.221],[0.329,-4.396],[0.329,-4.41],[0.118,-4.628],[0.013,-4.692],[-0.064,-4.706],[-0.134,-4.678],[-0.316,-4.537],[-0.463,-4.396],[-0.604,-4.207],[-0.632,-4.192],[-0.688,-4.08],[-0.688,-3.953],[-0.674,-3.89],[-0.625,-3.735],[-0.569,-3.623],[-0.428,-3.454],[-0.281,-3.384],[-0.169,-3.355],[-0.092,-3.32]]]]},"properties":{"abbr":"Aq","name":"aqueduct","plate":42,"ap_bregma_mm":-6.55,"area_mm2":1.2358,"traced_fraction":[1.0],"n_labels":1,"no_drawn_outline":false}},{"type":"Feature","geometry":{"type":"MultiPolygon","coordinates":[[[[-3.801,-3.06],[-3.822,-3.137],[-3.878,-3.559],[-3.92,-4.164],[-3.962,-4.347],[-4.039,-4.502],[-4.11,-4.607],[-4.144,-4.636],[-4.201,-4.734],[-4.341,-4.875],[-4.383,-4.889],[-4.46,-4.945],[-4.558,-4.973],[-4.712,-4.959],[-4.832,-4.896],[-4.916,-4.811],[-5.007,-4.636],[-5.028,-4.551],[-5.049,-4.27],[-5.112,-3.967],[-5.21,-3.651],[-5.301,-3.419],[-5.147,-3.348],[-5.007,-3.264],[-4.979,-3.264],[-4.958,-3.327],[-4.923,-3.362],[-4.874,-3.384],[-4.797,-3.384],[-4.558,-3.306],[-4.25,-3.264],[-4.081,-3.201],[-3.857,-3.067],[-3.801,-3.06]]],[[[5.223,-3.173],[5.258,-3.173],[5.454,-3.25],[5.44,-3.384],[5.461,-3.552],[5.391,-3.679],[5.314,-3.827],[5.293,-3.918],[5.286,-3.946],[5.279,-3.974],[5.272,-4.009],[5.23,-4.228],[5.188,-4.354],[5.174,-4.361],[5.16,-4.417],[5.04,-4.65],[4.921,-4.811],[4.802,-4.91],[4.704,-4.931],[4.648,-4.917],[4.557,-4.854],[4.536,-4.839],[4.501,-4.818],[4.318,-4.818],[4.241,-4.72],[4.185,-4.565],[4.136,-4.481],[4.094,-4.41],[4.052,-4.354],[3.989,-4.221],[3.989,-3.96],[4.038,-3.777],[4.087,-3.77],[4.171,-3.693],[4.395,-3.538],[4.592,-3.44],[4.865,-3.362],[5.202,-3.362],[5.251,-3.348],[5.265,-3.334],[5.265,-3.271],[5.23,-3.215],[5.223,-3.173]]]]},"properties":{"abbr":"Ent","name":"entorhinal cortex","plate":42,"ap_bregma_mm":-6.55,"area_mm2":3.466,"traced_fraction":[1.0,1.0],"n_labels":2,"no_drawn_outline":false}},{"type":"Feature","geometry":{"type":"MultiPolygon","coordinates":[[[[-2.819,-3.651],[-2.791,-3.651],[-2.651,-3.799],[-2.462,-3.932],[-2.16,-4.087],[-2.104,-4.094],[-1.971,-4.178],[-1.88,-4.213],[-1.796,-4.228],[-1.662,-4.221],[-1.557,-4.185],[-1.424,-4.108],[-1.2,-3.89],[-1.158,-3.897],[-1.193,-3.953],[-1.207,-4.059],[-1.235,-4.115],[-1.27,-4.143],[-1.305,-4.256],[-1.298,-4.312],[-1.319,-4.382],[-1.312,-4.488],[-1.354,-4.488],[-1.48,-4.446],[-1.599,-4.432],[-1.845,-4.46],[-2.02,-4.544],[-2.146,-4.685],[-2.153,-4.713],[-2.16,-4.713],[-2.23,-4.6],[-2.279,-4.551],[-2.336,-4.53],[-2.462,-4.523],[-2.462,-4.298],[-2.77,-4.298],[-2.77,-4.059],[-2.819,-3.651]]],[[[1.016,-3.714],[1.226,-3.974],[1.24,-3.974],[1.352,-4.08],[1.521,-4.171],[1.689,-4.207],[1.836,-4.199],[1.955,-4.171],[2.117,-4.087],[2.187,-4.08],[2.313,-4.031],[2.586,-3.89],[2.713,-3.806],[2.776,-3.742],[2.825,-3.735],[2.825,-3.876],[2.797,-4.157],[2.755,-4.382],[2.46,-4.382],[2.46,-4.685],[2.299,-4.706],[2.173,-4.79],[2.124,-4.79],[2.089,-4.699],[2.026,-4.593],[1.962,-4.53],[1.815,-4.453],[1.654,-4.439],[1.486,-4.453],[1.338,-4.502],[1.198,-4.572],[1.191,-4.544],[1.219,-4.488],[1.233,-4.396],[1.233,-4.305],[1.198,-4.143],[1.184,-4.073],[1.135,-3.953],[1.107,-3.911],[1.072,-3.897],[1.065,-3.89],[1.065,-3.862],[1.002,-3.806],[0.967,-3.721],[1.016,-3.714]]]]},"properties":{"abbr":"Pta","name":"pericollicular tegmental area","plate":42,"ap_bregma_mm":-6.55,"area_mm2":1.3991,"traced_fraction":[0.903,0.905],"n_labels":2,"no_drawn_outline":false}},{"type":"Feature","geometry":{"type":"MultiPolygon","coordinates":[[[[-1.235,-4.115],[-1.186,-4.136],[-1.08,-4.136],[-1.074,-4.516],[-1.08,-4.516],[-1.144,-4.523],[-1.193,-4.509],[-1.291,-4.516],[-1.312,-4.488],[-1.319,-4.382],[-1.298,-4.312],[-1.305,-4.256],[-1.284,-4.171],[-1.235,-4.115]]],[[[1.198,-4.143],[1.233,-4.305],[1.233,-4.396],[1.219,-4.488],[1.191,-4.544],[1.03,-4.523],[1.03,-4.143],[1.198,-4.143]]]]},"properties":{"abbr":"Me5","name":"mesencephalic trigeminal nucleus","plate":42,"ap_bregma_mm":-6.55,"area_mm2":0.1608,"traced_fraction":[0.61,0.57],"n_labels":2,"no_drawn_outline":true}},{"type":"Feature","geometry":{"type":"MultiPolygon","coordinates":[[[[-2.77,-4.298],[-2.462,-4.298],[-2.462,-4.523],[-2.546,-4.53],[-2.609,-4.558],[-2.679,-4.628],[-2.742,-4.811],[-2.756,-4.832],[-2.784,-4.839],[-2.763,-4.621],[-2.77,-4.298]]],[[[2.755,-4.382],[2.748,-4.544],[2.832,-4.854],[2.832,-5.058],[2.818,-5.072],[2.79,-5.05],[2.769,-4.882],[2.713,-4.769],[2.622,-4.699],[2.573,-4.685],[2.46,-4.685],[2.46,-4.382],[2.755,-4.382]]]]},"properties":{"abbr":"Sag","name":"sagulum nucleus","plate":42,"ap_bregma_mm":-6.55,"area_mm2":0.2174,"traced_fraction":[0.7,0.72],"n_labels":2,"no_drawn_outline":true}},{"type":"Feature","geometry":{"type":"MultiPolygon","coordinates":[[[[-1.312,-4.488],[-1.291,-4.516],[-1.291,-4.544],[-1.256,-4.586],[-1.256,-4.614],[-1.235,-4.65],[-1.207,-4.657],[-1.193,-4.706],[-1.333,-4.797],[-1.403,-4.825],[-1.515,-4.847],[-1.529,-4.868],[-1.726,-4.875],[-1.739,-4.861],[-1.838,-4.861],[-1.957,-4.832],[-2.062,-4.783],[-2.153,-4.713],[-2.146,-4.685],[-2.02,-4.544],[-1.845,-4.46],[-1.599,-4.432],[-1.48,-4.446],[-1.382,-4.481],[-1.312,-4.488]]],[[[2.124,-4.79],[1.92,-4.861],[1.605,-4.889],[1.451,-4.875],[1.233,-4.804],[1.149,-4.755],[1.128,-4.755],[1.121,-4.741],[1.093,-4.741],[1.079,-4.755],[1.037,-4.741],[1.037,-4.727],[1.107,-4.706],[1.198,-4.572],[1.338,-4.502],[1.486,-4.453],[1.605,-4.439],[1.815,-4.453],[1.899,-4.488],[2.026,-4.593],[2.061,-4.643],[2.124,-4.79]]]]},"properties":{"abbr":"CnF","name":"cuneiform nucleus","plate":42,"ap_bregma_mm":-6.55,"area_mm2":0.6429,"traced_fraction":[1.0,1.0],"n_labels":2,"no_drawn_outline":false}},{"type":"Feature","geometry":{"type":"MultiPolygon","coordinates":[[[[-0.632,-4.192],[-0.604,-4.207],[-0.463,-4.396],[-0.316,-4.537],[-0.176,-4.65],[-0.064,-4.706],[0.013,-4.692],[0.118,-4.628],[0.329,-4.41],[0.329,-4.396],[0.511,-4.221],[0.637,-4.354],[0.742,-4.432],[0.932,-4.509],[1.03,-4.523],[1.191,-4.544],[1.198,-4.572],[1.107,-4.706],[1.037,-4.727],[1.037,-4.741],[0.995,-4.748],[0.988,-4.734],[0.897,-4.734],[0.785,-4.699],[0.63,-4.699],[0.434,-4.748],[0.343,-4.762],[0.238,-4.818],[0.196,-4.825],[0.181,-4.776],[0.132,-4.741],[0.069,-4.741],[-0.015,-4.804],[-0.071,-4.804],[-0.176,-4.741],[-0.218,-4.734],[-0.246,-4.741],[-0.295,-4.811],[-0.407,-4.762],[-0.548,-4.748],[-0.604,-4.727],[-0.695,-4.72],[-0.877,-4.741],[-1.024,-4.776],[-1.046,-4.706],[-1.137,-4.741],[-1.193,-4.706],[-1.207,-4.657],[-1.207,-4.586],[-1.207,-4.572],[-1.186,-4.572],[-1.144,-4.523],[-1.08,-4.516],[-1.08,-4.53],[-1.067,-4.53],[-1.067,-4.516],[-1.052,-4.502],[-0.912,-4.474],[-0.779,-4.403],[-0.709,-4.333],[-0.674,-4.277],[-0.653,-4.207],[-0.632,-4.192]]]]},"properties":{"abbr":"4n","name":"trochlear nerve","plate":42,"ap_bregma_mm":-6.55,"area_mm2":0.6561,"traced_fraction":[0.995],"n_labels":2,"no_drawn_outline":false}},{"type":"Feature","geometry":{"type":"MultiPolygon","coordinates":[[[[-2.462,-4.523],[-2.336,-4.53],[-2.279,-4.551],[-2.23,-4.6],[-2.16,-4.713],[-2.16,-4.889],[-2.174,-4.987],[-2.195,-5.058],[-2.244,-5.135],[-2.307,-5.17],[-2.448,-5.177],[-2.623,-5.142],[-2.7,-5.1],[-2.742,-5.05],[-2.756,-5.001],[-2.756,-4.896],[-2.763,-4.882],[-2.784,-4.882],[-2.784,-4.839],[-2.756,-4.832],[-2.742,-4.811],[-2.679,-4.628],[-2.609,-4.558],[-2.546,-4.53],[-2.462,-4.523]]],[[[2.46,-4.685],[2.6,-4.692],[2.671,-4.727],[2.713,-4.769],[2.769,-4.882],[2.79,-5.05],[2.818,-5.072],[2.818,-5.135],[2.797,-5.135],[2.79,-5.149],[2.769,-5.247],[2.734,-5.247],[2.622,-5.325],[2.551,-5.339],[2.369,-5.332],[2.271,-5.297],[2.236,-5.254],[2.187,-5.184],[2.138,-5.043],[2.138,-4.931],[2.173,-4.79],[2.299,-4.706],[2.46,-4.685]]],[[[-2.798,-4.931],[-2.791,-4.952],[-2.805,-4.959],[-2.798,-4.931]]],[[[-2.805,-4.966],[-2.798,-5.001],[-2.805,-5.036],[-2.819,-5.043],[-2.805,-4.966]]],[[[-2.819,-5.05],[-2.812,-5.086],[-2.826,-5.093],[-2.819,-5.05]]],[[[-2.826,-5.1],[-2.819,-5.121],[-2.833,-5.128],[-2.826,-5.1]]]]},"properties":{"abbr":"DNLL","name":"dorsal nucleus of the lateral lemniscus","plate":42,"ap_bregma_mm":-6.55,"area_mm2":0.6888,"traced_fraction":[1.0,1.0,1.0,1.0,1.0,1.0],"n_labels":2,"no_drawn_outline":false}},{"type":"Feature","geometry":{"type":"MultiPolygon","coordinates":[[[[-2.16,-4.713],[-2.153,-4.713],[-2.062,-4.783],[-1.957,-4.832],[-1.838,-4.861],[-1.739,-4.861],[-1.726,-4.875],[-1.768,-4.917],[-1.824,-4.945],[-1.894,-5.015],[-1.964,-5.163],[-2.223,-5.163],[-2.244,-5.135],[-2.195,-5.058],[-2.174,-4.987],[-2.16,-4.889],[-2.16,-4.713]]],[[[2.124,-4.79],[2.173,-4.79],[2.138,-4.931],[2.138,-5.043],[2.187,-5.184],[2.236,-5.254],[1.955,-5.254],[1.934,-5.184],[1.892,-5.114],[1.689,-4.952],[1.633,-4.931],[1.605,-4.889],[1.92,-4.861],[2.124,-4.79]]]]},"properties":{"abbr":"PL","name":"paralemniscal nucleus","plate":42,"ap_bregma_mm":-6.55,"area_mm2":0.2639,"traced_fraction":[0.848,0.882],"n_labels":2,"no_drawn_outline":false}},{"type":"Feature","geometry":{"type":"MultiPolygon","coordinates":[[[[-1.193,-4.706],[-1.137,-4.741],[-1.109,-4.804],[-1.095,-4.804],[-1.074,-4.854],[-0.856,-5.079],[-0.856,-5.093],[-0.842,-5.093],[-0.73,-5.205],[-0.73,-5.219],[-0.94,-5.177],[-1.144,-5.177],[-1.249,-5.191],[-1.431,-5.262],[-1.501,-5.311],[-1.578,-5.402],[-1.641,-5.395],[-1.627,-5.332],[-1.599,-5.304],[-1.592,-5.276],[-1.515,-5.198],[-1.424,-5.135],[-1.389,-5.064],[-1.396,-4.952],[-1.445,-4.903],[-1.522,-4.882],[-1.529,-4.868],[-1.515,-4.847],[-1.403,-4.825],[-1.333,-4.797],[-1.193,-4.706]]],[[[1.451,-4.875],[1.437,-4.896],[1.338,-4.938],[1.289,-4.98],[1.275,-5.022],[1.275,-5.1],[1.317,-5.177],[1.367,-5.226],[1.493,-5.297],[1.528,-5.332],[1.5,-5.367],[1.5,-5.388],[1.275,-5.262],[0.953,-5.205],[0.757,-5.226],[0.693,-5.262],[0.637,-5.318],[0.609,-5.311],[0.595,-5.276],[0.602,-5.254],[0.77,-5.121],[0.925,-4.966],[0.925,-4.952],[1.051,-4.811],[1.079,-4.755],[1.093,-4.741],[1.121,-4.741],[1.128,-4.755],[1.149,-4.755],[1.233,-4.804],[1.451,-4.875]]]]},"properties":{"abbr":"isRt","name":"isthmic reticular formation","plate":42,"ap_bregma_mm":-6.55,"area_mm2":0.4568,"traced_fraction":[0.995,0.995],"n_labels":2,"no_drawn_outline":false}},{"type":"Feature","geometry":{"type":"MultiPolygon","coordinates":[[[[-0.548,-4.748],[-0.436,-4.755],[-0.295,-4.811],[-0.26,-4.959],[-0.211,-5.043],[-0.197,-5.043],[-0.204,-5.064],[-0.169,-5.212],[-0.176,-5.276],[-0.295,-5.262],[-0.365,-5.276],[-0.4,-5.297],[-0.47,-5.297],[-0.59,-5.254],[-0.513,-5.121],[-0.491,-4.98],[-0.499,-4.889],[-0.548,-4.783],[-0.548,-4.748]]],[[[0.434,-4.748],[0.427,-4.818],[0.378,-4.952],[0.378,-5.072],[0.392,-5.128],[0.441,-5.191],[0.504,-5.219],[0.574,-5.226],[0.602,-5.254],[0.595,-5.276],[0.483,-5.311],[0.153,-5.297],[0.034,-5.332],[0.097,-5.05],[0.16,-4.952],[0.196,-4.825],[0.238,-4.818],[0.343,-4.762],[0.434,-4.748]]]]},"properties":{"abbr":"PDR","name":"posterodorsal raphe nucleus","plate":42,"ap_bregma_mm":-6.55,"area_mm2":0.3135,"traced_fraction":[0.992,0.997],"n_labels":2,"no_drawn_outline":false}},{"type":"Feature","geometry":{"type":"MultiPolygon","coordinates":[[[[-2.244,-5.135],[-2.223,-5.163],[-1.964,-5.163],[-1.999,-5.297],[-1.992,-5.437],[-2.307,-5.444],[-2.307,-5.17],[-2.244,-5.135]]]]},"properties":{"abbr":"cll","name":"commissure of the lateral lemniscus","plate":42,"ap_bregma_mm":-6.55,"area_mm2":0.0895,"traced_fraction":[0.606],"n_labels":1,"no_drawn_outline":true}},{"type":"Feature","geometry":{"type":"MultiPolygon","coordinates":[[[[-1.529,-4.868],[-1.522,-4.882],[-1.445,-4.903],[-1.396,-4.952],[-1.389,-5.064],[-1.424,-5.135],[-1.515,-5.198],[-1.592,-5.276],[-1.599,-5.304],[-1.627,-5.332],[-1.641,-5.395],[-1.69,-5.515],[-1.739,-5.55],[-1.831,-5.557],[-1.894,-5.536],[-1.95,-5.536],[-1.957,-5.494],[-1.992,-5.437],[-1.999,-5.297],[-1.964,-5.163],[-1.894,-5.015],[-1.824,-4.945],[-1.768,-4.917],[-1.726,-4.875],[-1.529,-4.868]]],[[[1.451,-4.875],[1.605,-4.889],[1.633,-4.931],[1.689,-4.952],[1.892,-5.114],[1.934,-5.184],[1.955,-5.254],[1.962,-5.374],[1.948,-5.43],[1.878,-5.494],[1.78,-5.508],[1.696,-5.487],[1.612,-5.43],[1.57,-5.36],[1.528,-5.332],[1.493,-5.297],[1.367,-5.226],[1.317,-5.177],[1.275,-5.1],[1.275,-5.022],[1.289,-4.98],[1.338,-4.938],[1.437,-4.896],[1.451,-4.875]]]]},"properties":{"abbr":"PTg","name":"pedunculopontine tegmental nucleus","plate":42,"ap_bregma_mm":-6.55,"area_mm2":0.5468,"traced_fraction":[1.0,0.996],"n_labels":2,"no_drawn_outline":false}},{"type":"Feature","geometry":{"type":"MultiPolygon","coordinates":[[[[-0.73,-5.219],[-0.674,-5.24],[-0.667,-5.24],[-0.639,-5.24],[-0.611,-5.262],[-0.646,-5.304],[-0.646,-5.367],[-0.66,-5.367],[-0.709,-5.43],[-0.758,-5.458],[-0.835,-5.423],[-0.982,-5.402],[-1.123,-5.423],[-1.445,-5.543],[-1.515,-5.529],[-1.564,-5.487],[-1.578,-5.402],[-1.501,-5.311],[-1.431,-5.262],[-1.249,-5.191],[-1.144,-5.177],[-0.94,-5.177],[-0.73,-5.219]]],[[[1.5,-5.388],[1.563,-5.479],[1.563,-5.571],[1.521,-5.62],[1.451,-5.634],[1.437,-5.648],[1.388,-5.634],[1.24,-5.55],[1.058,-5.501],[1.023,-5.479],[0.876,-5.472],[0.714,-5.508],[0.616,-5.458],[0.595,-5.409],[0.609,-5.311],[0.637,-5.318],[0.693,-5.262],[0.757,-5.226],[0.953,-5.205],[1.275,-5.262],[1.5,-5.388]]]]},"properties":{"abbr":"scp","name":"superior cerebellar peduncle","plate":42,"ap_bregma_mm":-6.55,"area_mm2":0.4712,"traced_fraction":[0.991,0.997],"n_labels":2,"no_drawn_outline":false}},{"type":"Feature","geometry":{"type":"MultiPolygon","coordinates":[[[[-0.59,-5.254],[-0.47,-5.297],[-0.4,-5.297],[-0.365,-5.276],[-0.295,-5.262],[-0.176,-5.276],[-0.12,-5.381],[-0.106,-5.458],[-0.134,-5.557],[-0.183,-5.592],[-0.491,-5.472],[-0.59,-5.416],[-0.59,-5.402],[-0.646,-5.367],[-0.646,-5.304],[-0.611,-5.262],[-0.59,-5.254]]],[[[0.595,-5.276],[0.609,-5.311],[0.595,-5.409],[0.497,-5.451],[0.462,-5.494],[0.21,-5.585],[0.132,-5.599],[0.02,-5.571],[-0.015,-5.529],[-0.022,-5.465],[-0.015,-5.416],[0.034,-5.332],[0.153,-5.297],[0.483,-5.311],[0.595,-5.276]]]]},"properties":{"abbr":"mlf","name":"medial longitudinal fasciculus","plate":42,"ap_bregma_mm":-6.55,"area_mm2":0.2557,"traced_fraction":[1.0,1.0],"n_labels":2,"no_drawn_outline":false}},{"type":"Feature","geometry":{"type":"MultiPolygon","coordinates":[[[[-2.742,-5.05],[-2.7,-5.1],[-2.623,-5.142],[-2.448,-5.177],[-2.307,-5.17],[-2.307,-5.444],[-2.279,-5.648],[-2.195,-5.986],[-2.237,-6.042],[-2.286,-6.056],[-2.427,-6.063],[-2.497,-6.035],[-2.539,-6.035],[-2.588,-5.951],[-2.7,-5.81],[-2.735,-5.74],[-2.798,-5.515],[-2.798,-5.262],[-2.77,-5.072],[-2.742,-5.05]]],[[[2.769,-5.247],[2.769,-5.395],[2.797,-5.416],[2.797,-5.479],[2.79,-5.479],[2.79,-5.487],[2.769,-5.487],[2.748,-5.508],[2.699,-5.648],[2.657,-5.698],[2.622,-5.782],[2.551,-5.88],[2.502,-5.993],[2.467,-6.035],[2.467,-6.056],[2.383,-6.162],[2.187,-6.162],[2.145,-6.141],[2.096,-6.077],[2.103,-5.937],[2.229,-5.515],[2.25,-5.332],[2.271,-5.297],[2.369,-5.332],[2.551,-5.339],[2.622,-5.325],[2.734,-5.247],[2.769,-5.247]]],[[[2.79,-5.536],[2.783,-5.55],[2.776,-5.536],[2.79,-5.536]]]]},"properties":{"abbr":"INLL","name":"intermediate nucleus of the lateral lemniscus","plate":42,"ap_bregma_mm":-6.55,"area_mm2":0.8081,"traced_fraction":[1.0,1.0,1.0],"n_labels":2,"no_drawn_outline":false}},{"type":"Feature","geometry":{"type":"MultiPolygon","coordinates":[[[[-0.758,-5.458],[-0.758,-5.494],[-0.723,-5.529],[-0.695,-5.585],[-0.695,-5.613],[-0.681,-5.613],[-0.688,-5.733],[-0.772,-5.789],[-0.996,-5.705],[-1.137,-5.698],[-1.249,-5.726],[-1.445,-5.824],[-1.529,-5.824],[-1.557,-5.782],[-1.55,-5.698],[-1.445,-5.543],[-1.123,-5.423],[-0.982,-5.402],[-0.863,-5.416],[-0.758,-5.458]]],[[[1.437,-5.648],[1.458,-5.719],[1.458,-5.796],[1.401,-5.838],[1.261,-5.838],[1.093,-5.789],[0.988,-5.775],[0.883,-5.775],[0.791,-5.817],[0.665,-5.824],[0.658,-5.817],[0.63,-5.782],[0.616,-5.733],[0.616,-5.641],[0.714,-5.508],[0.876,-5.472],[1.023,-5.479],[1.058,-5.501],[1.24,-5.55],[1.331,-5.606],[1.437,-5.648]]]]},"properties":{"abbr":"SPTg","name":"subpeduncular tegmental nucleus","plate":42,"ap_bregma_mm":-6.55,"area_mm2":0.4649,"traced_fraction":[1.0,0.993],"n_labels":2,"no_drawn_outline":false}},{"type":"Feature","geometry":{"type":"MultiPolygon","coordinates":[[[[0.462,-5.494],[0.539,-5.522],[0.588,-5.578],[0.616,-5.641],[0.616,-5.733],[0.581,-5.747],[0.546,-5.817],[0.476,-5.894],[0.329,-5.993],[0.196,-6.035],[0.118,-6.042],[0.076,-6.035],[0.034,-5.993],[0.013,-5.909],[0.013,-5.831],[0.048,-5.698],[0.132,-5.613],[0.132,-5.599],[0.21,-5.585],[0.462,-5.494]]],[[[-0.197,-5.648],[-0.141,-5.74],[-0.127,-5.894],[-0.162,-6.0],[-0.19,-6.028],[-0.225,-6.035],[-0.302,-6.021],[-0.428,-5.972],[-0.59,-5.88],[-0.639,-5.824],[-0.688,-5.733],[-0.681,-5.613],[-0.639,-5.557],[-0.583,-5.522],[-0.47,-5.522],[-0.351,-5.564],[-0.344,-5.578],[-0.323,-5.578],[-0.197,-5.648]]]]},"properties":{"abbr":"VTg","name":"ventral tegmental nucleus","plate":42,"ap_bregma_mm":-6.55,"area_mm2":0.4324,"traced_fraction":[1.0,1.0],"n_labels":2,"no_drawn_outline":false}},{"type":"Feature","geometry":{"type":"MultiPolygon","coordinates":[[[[-2.932,-5.683],[-2.833,-5.698],[-2.735,-5.74],[-2.714,-5.789],[-2.588,-5.951],[-2.539,-6.035],[-2.525,-6.098],[-2.532,-6.119],[-2.497,-6.183],[-2.455,-6.33],[-2.251,-6.717],[-2.237,-6.724],[-2.237,-6.745],[-2.209,-6.781],[-2.209,-6.802],[-2.195,-6.809],[-2.118,-6.978],[-2.069,-7.034],[-2.02,-7.182],[-2.006,-7.203],[-1.985,-7.203],[-1.971,-7.259],[-1.873,-7.456],[-1.873,-7.484],[-1.845,-7.533],[-1.69,-7.702],[-1.69,-7.716],[-1.536,-7.857],[-1.48,-7.878],[-1.417,-8.019],[-1.291,-8.208],[-1.165,-8.37],[-1.038,-8.497],[-0.891,-8.602],[-0.702,-8.694],[-0.597,-8.722],[-0.506,-8.722],[-0.407,-8.687],[-0.246,-8.581],[-0.141,-8.476],[-0.106,-8.412],[-0.078,-8.265],[-0.085,-7.829],[-0.071,-7.442],[-0.078,-7.252],[-0.113,-7.055],[-0.071,-7.041],[-0.008,-7.041],[0.006,-7.048],[-0.029,-7.336],[-0.029,-7.625],[-0.022,-7.779],[-0.008,-7.822],[-0.015,-7.934],[0.006,-8.18],[0.041,-8.342],[0.097,-8.469],[0.202,-8.588],[0.294,-8.652],[0.441,-8.708],[0.574,-8.722],[0.686,-8.694],[0.827,-8.616],[1.114,-8.356],[1.317,-8.061],[1.38,-7.934],[1.43,-7.786],[1.528,-7.716],[1.696,-7.561],[1.766,-7.47],[1.787,-7.428],[1.794,-7.364],[1.815,-7.273],[1.878,-7.153],[1.892,-7.153],[1.913,-7.083],[1.955,-7.062],[1.969,-7.013],[1.984,-6.978],[2.039,-6.914],[2.082,-6.816],[2.103,-6.802],[2.222,-6.556],[2.236,-6.556],[2.257,-6.499],[2.285,-6.478],[2.334,-6.38],[2.397,-6.295],[2.636,-5.824],[2.699,-5.747],[2.783,-5.768],[2.902,-5.803],[2.979,-5.873],[3.021,-5.958],[3.014,-6.077],[2.923,-6.141],[2.734,-6.197],[2.685,-6.225],[2.544,-6.352],[2.32,-6.823],[2.152,-7.238],[2.145,-7.259],[2.117,-7.301],[2.096,-7.371],[2.082,-7.378],[2.068,-7.435],[1.984,-7.582],[1.612,-7.962],[1.367,-8.272],[1.191,-8.44],[1.121,-8.483],[1.114,-8.504],[0.834,-8.701],[0.665,-8.771],[0.483,-8.778],[0.308,-8.736],[0.16,-8.659],[0.034,-8.56],[0.006,-8.539],[-0.064,-8.546],[-0.295,-8.694],[-0.491,-8.785],[-0.681,-8.764],[-0.912,-8.659],[-1.109,-8.532],[-1.354,-8.293],[-1.529,-8.159],[-1.754,-7.997],[-1.81,-7.934],[-1.873,-7.899],[-1.894,-7.892],[-1.894,-7.85],[-1.943,-7.786],[-2.006,-7.639],[-2.048,-7.582],[-2.048,-7.554],[-2.076,-7.498],[-2.216,-7.168],[-2.237,-7.125],[-2.244,-7.104],[-2.251,-7.09],[-2.258,-7.076],[-2.265,-7.062],[-2.273,-7.041],[-2.286,-7.013],[-2.307,-6.964],[-2.315,-6.949],[-2.434,-6.682],[-2.637,-6.323],[-2.805,-6.119],[-2.896,-6.063],[-2.974,-6.042],[-3.065,-6.021],[-3.107,-5.986],[-3.135,-5.93],[-3.135,-5.817],[-3.086,-5.733],[-3.009,-5.69],[-2.932,-5.683]]]]},"properties":{"abbr":"mcp","name":"middle cerebellar peduncle","plate":42,"ap_bregma_mm":-6.55,"area_mm2":1.7266,"traced_fraction":[1.0],"n_labels":2,"no_drawn_outline":false}},{"type":"Feature","geometry":{"type":"MultiPolygon","coordinates":[[[[1.955,-5.254],[2.236,-5.254],[2.271,-5.297],[2.25,-5.332],[2.229,-5.515],[2.103,-5.937],[2.096,-6.077],[2.075,-6.084],[2.026,-6.239],[1.984,-6.302],[1.906,-6.499],[1.857,-6.485],[1.885,-6.436],[1.899,-6.359],[1.899,-6.323],[1.871,-6.267],[1.815,-6.239],[1.682,-6.246],[1.696,-6.169],[1.752,-6.077],[1.836,-5.831],[1.871,-5.676],[1.878,-5.494],[1.948,-5.43],[1.962,-5.374],[1.955,-5.254]]],[[[-1.992,-5.437],[-1.957,-5.494],[-1.95,-5.536],[-1.915,-5.705],[-1.817,-6.028],[-1.775,-6.028],[-1.775,-6.148],[-1.69,-6.338],[-1.69,-6.38],[-1.705,-6.401],[-1.796,-6.394],[-1.845,-6.429],[-1.859,-6.457],[-1.859,-6.527],[-1.838,-6.57],[-1.929,-6.577],[-1.943,-6.57],[-1.985,-6.443],[-2.006,-6.415],[-2.048,-6.26],[-2.062,-6.253],[-2.111,-6.113],[-2.153,-6.028],[-2.195,-5.986],[-2.279,-5.648],[-2.307,-5.444],[-1.992,-5.437]]]]},"properties":{"abbr":"MPL","name":"paralemniscal nucleus, medial part","plate":42,"ap_bregma_mm":-6.55,"area_mm2":0.6852,"traced_fraction":[0.931,0.886],"n_labels":2,"no_drawn_outline":false}},{"type":"Feature","geometry":{"type":"MultiPolygon","coordinates":[[[[-0.428,-5.972],[-0.302,-6.021],[-0.225,-6.035],[-0.225,-6.513],[-0.183,-6.872],[-0.19,-6.879],[-0.379,-6.921],[-0.449,-6.471],[-0.457,-6.274],[-0.442,-6.007],[-0.428,-5.972]]],[[[0.329,-5.993],[0.336,-6.33],[0.315,-6.584],[0.266,-6.9],[0.147,-6.893],[0.083,-6.858],[0.118,-6.534],[0.118,-6.042],[0.196,-6.035],[0.329,-5.993]]]]},"properties":{"abbr":"PMnR","name":"paramedian raphe nucleus","plate":42,"ap_bregma_mm":-6.55,"area_mm2":0.3731,"traced_fraction":[1.0,1.0],"n_labels":2,"no_drawn_outline":false}},{"type":"Feature","geometry":{"type":"MultiPolygon","coordinates":[[[[1.857,-6.485],[1.815,-6.556],[1.787,-6.577],[1.689,-6.605],[1.598,-6.591],[1.563,-6.556],[1.542,-6.499],[1.542,-6.415],[1.556,-6.373],[1.584,-6.33],[1.682,-6.246],[1.815,-6.239],[1.871,-6.267],[1.899,-6.323],[1.899,-6.359],[1.885,-6.436],[1.857,-6.485]]],[[[-1.705,-6.401],[-1.662,-6.436],[-1.627,-6.52],[-1.627,-6.527],[-1.627,-6.542],[-1.641,-6.542],[-1.648,-6.605],[-1.697,-6.647],[-1.775,-6.633],[-1.838,-6.57],[-1.859,-6.527],[-1.859,-6.457],[-1.845,-6.429],[-1.796,-6.394],[-1.705,-6.401]]]]},"properties":{"abbr":"rs","name":"rubrospinal tract","plate":42,"ap_bregma_mm":-6.55,"area_mm2":0.1456,"traced_fraction":[1.0,1.0],"n_labels":2,"no_drawn_outline":false}},{"type":"Feature","geometry":{"type":"MultiPolygon","coordinates":[[[[-2.195,-5.986],[-2.167,-6.007],[-2.111,-6.113],[-2.062,-6.253],[-2.048,-6.26],[-2.006,-6.415],[-1.985,-6.443],[-1.943,-6.57],[-1.929,-6.577],[-1.915,-6.633],[-1.866,-6.724],[-2.02,-6.76],[-2.111,-6.837],[-2.139,-6.809],[-2.273,-6.513],[-2.385,-6.345],[-2.392,-6.302],[-2.441,-6.232],[-2.469,-6.155],[-2.49,-6.119],[-2.525,-6.098],[-2.539,-6.035],[-2.497,-6.035],[-2.427,-6.063],[-2.286,-6.056],[-2.237,-6.042],[-2.195,-5.986]]],[[[2.096,-6.077],[2.145,-6.141],[2.187,-6.162],[2.383,-6.162],[2.313,-6.302],[2.278,-6.345],[2.278,-6.366],[2.264,-6.366],[2.25,-6.422],[2.082,-6.745],[1.969,-6.696],[1.885,-6.689],[1.815,-6.703],[1.815,-6.668],[1.906,-6.499],[1.984,-6.302],[2.026,-6.239],[2.075,-6.084],[2.096,-6.077]]]]},"properties":{"abbr":"dVNLL","name":"ventral nucleus of the lateral lemniscus, dorsal part","plate":42,"ap_bregma_mm":-6.55,"area_mm2":0.4243,"traced_fraction":[1.0,0.996],"n_labels":2,"no_drawn_outline":false}},{"type":"Feature","geometry":{"type":"MultiPolygon","coordinates":[[[[1.528,-5.332],[1.57,-5.36],[1.612,-5.43],[1.696,-5.487],[1.78,-5.508],[1.878,-5.494],[1.871,-5.676],[1.836,-5.831],[1.752,-6.077],[1.696,-6.169],[1.682,-6.246],[1.633,-6.281],[1.556,-6.373],[1.542,-6.415],[1.542,-6.499],[1.528,-6.499],[1.507,-6.534],[1.416,-6.823],[1.331,-6.999],[1.226,-7.146],[1.128,-7.245],[1.065,-7.287],[0.869,-7.139],[0.869,-7.006],[0.588,-7.006],[0.49,-6.964],[0.567,-6.626],[0.63,-6.084],[0.672,-5.859],[0.665,-5.824],[0.791,-5.817],[0.883,-5.775],[0.988,-5.775],[1.093,-5.789],[1.261,-5.838],[1.401,-5.838],[1.458,-5.796],[1.458,-5.719],[1.437,-5.648],[1.451,-5.634],[1.521,-5.62],[1.563,-5.571],[1.563,-5.479],[1.5,-5.388],[1.5,-5.367],[1.528,-5.332]]],[[[-1.641,-5.395],[-1.578,-5.402],[-1.564,-5.487],[-1.515,-5.529],[-1.445,-5.543],[-1.55,-5.698],[-1.557,-5.782],[-1.529,-5.824],[-1.445,-5.824],[-1.249,-5.726],[-1.137,-5.698],[-0.996,-5.705],[-0.772,-5.789],[-0.695,-6.373],[-0.639,-6.626],[-0.611,-6.858],[-0.576,-6.985],[-0.604,-7.006],[-0.779,-7.062],[-0.828,-7.097],[-1.003,-7.097],[-1.003,-7.182],[-1.109,-7.245],[-1.123,-7.245],[-1.326,-7.034],[-1.445,-6.851],[-1.585,-6.584],[-1.592,-6.577],[-1.606,-6.542],[-1.627,-6.527],[-1.627,-6.52],[-1.662,-6.436],[-1.705,-6.401],[-1.69,-6.38],[-1.69,-6.338],[-1.775,-6.148],[-1.775,-6.028],[-1.817,-6.028],[-1.915,-5.705],[-1.95,-5.536],[-1.894,-5.536],[-1.831,-5.557],[-1.739,-5.55],[-1.69,-5.515],[-1.641,-5.395]]]]},"properties":{"abbr":"PnO","name":"pontine reticular nucleus, oral part","plate":42,"ap_bregma_mm":-6.55,"area_mm2":2.8091,"traced_fraction":[0.946,0.913],"n_labels":2,"no_drawn_outline":false}},{"type":"Feature","geometry":{"type":"MultiPolygon","coordinates":[[[[-0.106,-5.458],[-0.022,-5.465],[-0.015,-5.529],[0.02,-5.571],[0.132,-5.599],[0.132,-5.613],[0.048,-5.698],[0.013,-5.831],[0.013,-5.909],[0.034,-5.993],[0.076,-6.035],[0.118,-6.042],[0.118,-6.534],[0.083,-6.858],[0.02,-6.914],[-0.008,-6.999],[-0.008,-7.041],[-0.071,-7.041],[-0.092,-6.942],[-0.155,-6.879],[-0.176,-6.879],[-0.183,-6.872],[-0.225,-6.513],[-0.225,-6.035],[-0.19,-6.028],[-0.162,-6.0],[-0.127,-5.894],[-0.141,-5.74],[-0.197,-5.648],[-0.183,-5.592],[-0.134,-5.557],[-0.106,-5.458]]]]},"properties":{"abbr":"MnR","name":"median raphe nucleus","plate":42,"ap_bregma_mm":-6.55,"area_mm2":0.3983,"traced_fraction":[1.0],"n_labels":1,"no_drawn_outline":false}},{"type":"Feature","geometry":{"type":"MultiPolygon","coordinates":[[[[-0.688,-5.733],[-0.639,-5.824],[-0.59,-5.88],[-0.428,-5.972],[-0.442,-6.007],[-0.457,-6.274],[-0.449,-6.471],[-0.379,-6.921],[-0.52,-6.978],[-0.576,-6.985],[-0.611,-6.858],[-0.639,-6.626],[-0.695,-6.373],[-0.772,-5.789],[-0.688,-5.733]]],[[[0.616,-5.733],[0.63,-5.782],[0.658,-5.817],[0.665,-5.824],[0.672,-5.859],[0.63,-6.084],[0.567,-6.626],[0.49,-6.964],[0.357,-6.935],[0.266,-6.9],[0.315,-6.584],[0.336,-6.33],[0.329,-5.993],[0.476,-5.894],[0.546,-5.817],[0.581,-5.747],[0.616,-5.733]]]]},"properties":{"abbr":"ts","name":"tectospinal tract","plate":42,"ap_bregma_mm":-6.55,"area_mm2":0.5704,"traced_fraction":[1.0,1.0],"n_labels":2,"no_drawn_outline":false}},{"type":"Feature","geometry":{"type":"MultiPolygon","coordinates":[[[[3.014,-6.077],[3.056,-6.113],[3.112,-6.098],[3.147,-6.113],[3.238,-6.26],[3.266,-6.366],[3.266,-6.527],[3.238,-6.64],[3.182,-6.76],[3.161,-6.774],[3.147,-6.809],[3.126,-6.816],[3.049,-6.928],[2.916,-7.02],[2.79,-7.16],[2.727,-7.168],[2.657,-7.125],[2.537,-7.125],[2.453,-7.153],[2.208,-7.238],[2.187,-7.245],[2.152,-7.238],[2.292,-6.886],[2.544,-6.352],[2.685,-6.225],[2.734,-6.197],[2.923,-6.141],[3.014,-6.077]]],[[[-3.163,-6.323],[-3.142,-6.359],[-3.149,-6.359],[-3.142,-6.359],[-3.128,-6.38],[-3.093,-6.45],[-3.009,-6.549],[-3.016,-6.556],[-3.002,-6.556],[-2.981,-6.584],[-2.967,-6.598],[-2.938,-6.633],[-2.904,-6.668],[-2.904,-6.689],[-2.896,-6.675],[-2.883,-6.696],[-2.889,-6.703],[-2.868,-6.724],[-2.861,-6.717],[-2.721,-6.879],[-2.504,-7.196],[-2.343,-7.428],[-2.294,-7.463],[-2.3,-7.47],[-2.286,-7.47],[-2.237,-7.512],[-2.139,-7.554],[-2.111,-7.575],[-2.048,-7.582],[-2.006,-7.639],[-1.943,-7.786],[-1.908,-7.822],[-1.894,-7.892],[-1.992,-7.864],[-2.09,-7.815],[-2.602,-7.512],[-2.609,-7.491],[-2.672,-7.449],[-2.672,-7.435],[-2.861,-7.238],[-2.861,-7.224],[-2.988,-7.083],[-3.247,-6.879],[-3.303,-6.781],[-3.331,-6.689],[-3.338,-6.492],[-3.317,-6.267],[-3.296,-6.225],[-3.261,-6.211],[-3.198,-6.246],[-3.163,-6.323]]]]},"properties":{"abbr":"s5","name":"sensory root of the trigeminal nerve","plate":42,"ap_bregma_mm":-6.55,"area_mm2":1.3176,"traced_fraction":[1.0,1.0],"n_labels":2,"no_drawn_outline":false}},{"type":"Feature","geometry":{"type":"MultiPolygon","coordinates":[[[[0.083,-6.858],[0.147,-6.893],[0.266,-6.9],[0.357,-6.935],[0.49,-6.964],[0.588,-7.006],[0.869,-7.006],[0.869,-7.139],[1.065,-7.287],[1.072,-7.35],[1.107,-7.435],[1.114,-7.533],[1.086,-7.526],[0.904,-7.343],[0.644,-7.196],[0.581,-7.182],[0.574,-7.168],[0.49,-7.146],[0.441,-7.118],[0.266,-7.069],[0.097,-7.041],[0.006,-7.048],[-0.008,-7.041],[0.006,-6.942],[0.083,-6.858]]],[[[-0.19,-6.879],[-0.176,-6.879],[-0.155,-6.879],[-0.092,-6.942],[-0.071,-7.041],[-0.113,-7.055],[-0.267,-7.062],[-0.569,-7.153],[-0.576,-7.168],[-0.597,-7.168],[-0.66,-7.21],[-0.723,-7.224],[-0.779,-7.266],[-0.947,-7.343],[-1.095,-7.435],[-1.158,-7.491],[-1.256,-7.533],[-1.256,-7.491],[-1.221,-7.407],[-1.193,-7.378],[-1.151,-7.287],[-1.109,-7.245],[-1.003,-7.182],[-1.003,-7.097],[-0.828,-7.097],[-0.779,-7.062],[-0.604,-7.006],[-0.576,-6.985],[-0.52,-6.978],[-0.379,-6.921],[-0.19,-6.879]]]]},"properties":{"abbr":"RtTgP","name":"reticulotegmental nucleus of the pons, pericentral part","plate":42,"ap_bregma_mm":-6.55,"area_mm2":0.4195,"traced_fraction":[0.901,0.913],"n_labels":2,"no_drawn_outline":false}},{"type":"Feature","geometry":{"type":"MultiPolygon","coordinates":[[[[1.114,-7.533],[1.121,-7.54],[1.114,-7.575],[1.1,-7.575],[1.072,-7.618],[1.023,-7.646],[0.946,-7.723],[0.883,-7.758],[0.834,-7.765],[0.791,-7.716],[0.7,-7.681],[0.343,-7.66],[0.175,-7.709],[0.125,-7.772],[0.118,-7.836],[0.104,-7.85],[-0.008,-7.822],[-0.022,-7.779],[-0.029,-7.625],[-0.029,-7.336],[0.006,-7.048],[0.097,-7.041],[0.266,-7.069],[0.378,-7.097],[0.644,-7.196],[0.904,-7.343],[1.086,-7.526],[1.114,-7.533]]],[[[-0.113,-7.055],[-0.078,-7.252],[-0.071,-7.442],[-0.085,-7.829],[-0.183,-7.843],[-0.19,-7.765],[-0.225,-7.737],[-0.351,-7.702],[-0.513,-7.695],[-0.548,-7.681],[-0.709,-7.681],[-0.709,-7.702],[-0.814,-7.737],[-0.87,-7.808],[-1.024,-7.765],[-1.137,-7.709],[-1.277,-7.575],[-1.277,-7.561],[-1.256,-7.533],[-1.158,-7.491],[-1.095,-7.435],[-0.947,-7.343],[-0.779,-7.266],[-0.723,-7.224],[-0.66,-7.21],[-0.569,-7.153],[-0.267,-7.062],[-0.113,-7.055]]]]},"properties":{"abbr":"RtTg","name":"reticulotegmental nucleus of the pons","plate":42,"ap_bregma_mm":-6.55,"area_mm2":1.1545,"traced_fraction":[1.0,1.0],"n_labels":2,"no_drawn_outline":false}},{"type":"Feature","geometry":{"type":"MultiPolygon","coordinates":[[[[0.834,-7.765],[0.672,-7.808],[0.406,-7.836],[0.118,-7.836],[0.125,-7.772],[0.175,-7.709],[0.343,-7.66],[0.7,-7.681],[0.791,-7.716],[0.834,-7.765]]],[[[-0.183,-7.843],[-0.211,-7.871],[-0.66,-7.857],[-0.87,-7.808],[-0.814,-7.737],[-0.709,-7.702],[-0.709,-7.681],[-0.548,-7.681],[-0.513,-7.695],[-0.351,-7.702],[-0.225,-7.737],[-0.19,-7.765],[-0.183,-7.843]]]]},"properties":{"abbr":"ml","name":"medial lemniscus","plate":42,"ap_bregma_mm":-6.55,"area_mm2":0.1925,"traced_fraction":[1.0,1.0],"n_labels":2,"no_drawn_outline":false}},{"type":"Feature","geometry":{"type":"MultiPolygon","coordinates":[[[[1.24,-7.484],[1.261,-7.561],[1.31,-7.66],[1.43,-7.786],[1.38,-7.934],[1.317,-8.061],[1.114,-8.356],[0.827,-8.616],[0.686,-8.694],[0.574,-8.722],[0.469,-8.715],[0.294,-8.652],[0.202,-8.588],[0.097,-8.469],[0.041,-8.342],[0.006,-8.18],[-0.015,-7.934],[-0.008,-7.822],[0.104,-7.85],[0.09,-7.906],[0.09,-8.025],[0.097,-8.054],[0.132,-8.082],[0.266,-8.11],[0.49,-8.131],[0.686,-8.103],[0.869,-8.025],[0.995,-7.913],[1.086,-7.758],[1.114,-7.66],[1.114,-7.575],[1.121,-7.54],[1.142,-7.54],[1.219,-7.484],[1.24,-7.484]]],[[[-1.277,-7.575],[-1.137,-7.709],[-1.165,-7.758],[-1.165,-7.885],[-1.144,-7.962],[-1.059,-8.061],[-0.975,-8.103],[-0.765,-8.096],[-0.527,-8.117],[-0.267,-8.11],[-0.197,-8.061],[-0.183,-8.012],[-0.211,-7.871],[-0.183,-7.843],[-0.085,-7.829],[-0.078,-8.265],[-0.106,-8.412],[-0.141,-8.476],[-0.246,-8.581],[-0.407,-8.687],[-0.506,-8.722],[-0.597,-8.722],[-0.702,-8.694],[-0.891,-8.602],[-1.038,-8.497],[-1.165,-8.37],[-1.291,-8.208],[-1.417,-8.019],[-1.48,-7.878],[-1.473,-7.815],[-1.445,-7.765],[-1.326,-7.653],[-1.277,-7.575]]]]},"properties":{"abbr":"Pn","name":"pontine nuclei","plate":42,"ap_bregma_mm":-6.55,"area_mm2":1.5088,"traced_fraction":[1.0,1.0],"n_labels":2,"no_drawn_outline":false}},{"type":"Feature","geometry":{"type":"MultiPolygon","coordinates":[[[[0.062,-2.751],[0.048,-2.786],[0.034,-2.983],[0.013,-3.039],[-0.015,-3.32],[-0.092,-3.32],[-0.127,-3.13],[-0.134,-2.983],[-0.148,-2.954],[-0.155,-2.758],[-0.099,-2.744],[0.062,-2.751]]]]},"properties":{"abbr":"DMPAG","name":"dorsomedial periaqueductal gray","plate":42,"ap_bregma_mm":-6.55,"area_mm2":0.0867,"traced_fraction":[0.963],"n_labels":1,"no_drawn_outline":false}},{"type":"Feature","geometry":{"type":"MultiPolygon","coordinates":[[[[5.433,-2.392],[5.538,-2.476],[5.538,-2.49],[5.65,-2.589],[5.671,-2.631],[5.671,-2.758],[5.643,-2.842],[5.51,-3.088],[5.454,-3.25],[5.321,-3.194],[5.223,-3.173],[5.174,-3.152],[5.09,-3.067],[4.9,-2.954],[4.914,-2.933],[4.991,-2.898],[5.082,-2.807],[5.23,-2.554],[5.314,-2.469],[5.433,-2.392]]],[[[-5.421,-2.701],[-5.413,-2.701],[-5.407,-2.708],[-5.379,-2.729],[-5.358,-2.786],[-5.301,-2.863],[-5.182,-2.976],[-5.063,-3.039],[-4.937,-3.06],[-4.867,-3.088],[-4.93,-3.18],[-4.937,-3.215],[-4.979,-3.25],[-4.979,-3.264],[-5.007,-3.264],[-5.147,-3.348],[-5.301,-3.419],[-5.343,-3.32],[-5.407,-3.095],[-5.428,-2.849],[-5.421,-2.701]]]]},"properties":{"abbr":"PRh","name":"perirhinal cortex","plate":42,"ap_bregma_mm":-6.55,"area_mm2":0.5451,"traced_fraction":[1.0,1.0],"n_labels":4,"no_drawn_outline":false}},{"type":"Feature","geometry":{"type":"MultiPolygon","coordinates":[[[[-1.179,-3.004],[-0.485,-3.004],[-0.541,-3.102],[-0.59,-3.152],[-0.59,-3.173],[-0.681,-3.32],[-0.905,-3.602],[-1.031,-3.728],[-1.08,-3.806],[-1.088,-3.848],[-1.158,-3.897],[-1.2,-3.89],[-1.088,-3.714],[-1.017,-3.573],[-0.975,-3.426],[-0.975,-3.348],[-0.989,-3.306],[-1.052,-3.187],[-1.151,-3.06],[-1.179,-3.004]]],[[[0.49,-3.053],[1.128,-3.053],[1.058,-3.173],[0.981,-3.271],[0.932,-3.362],[0.897,-3.468],[0.911,-3.538],[1.016,-3.714],[0.967,-3.721],[0.799,-3.51],[0.672,-3.32],[0.63,-3.285],[0.581,-3.187],[0.49,-3.074],[0.49,-3.053]]]]},"properties":{"abbr":"DMIC","name":"dorsomedial nucleus of the inferior colliculus","plate":42,"ap_bregma_mm":-6.55,"area_mm2":0.4114,"traced_fraction":[0.766,0.732],"n_labels":2,"no_drawn_outline":false}},{"type":"Feature","geometry":{"type":"MultiPolygon","coordinates":[[[[1.037,-4.741],[1.079,-4.755],[1.051,-4.811],[0.925,-4.952],[0.925,-4.966],[0.77,-5.121],[0.602,-5.254],[0.574,-5.226],[0.504,-5.219],[0.441,-5.191],[0.392,-5.128],[0.378,-5.072],[0.378,-4.952],[0.427,-4.818],[0.434,-4.748],[0.63,-4.699],[0.785,-4.699],[0.897,-4.734],[0.988,-4.734],[0.995,-4.748],[1.037,-4.741]]],[[[-0.548,-4.748],[-0.548,-4.783],[-0.499,-4.889],[-0.491,-4.98],[-0.513,-5.121],[-0.59,-5.254],[-0.611,-5.262],[-0.639,-5.24],[-0.667,-5.24],[-0.674,-5.24],[-0.73,-5.219],[-0.73,-5.205],[-0.842,-5.093],[-0.856,-5.093],[-0.856,-5.079],[-1.074,-4.854],[-1.095,-4.804],[-1.024,-4.776],[-0.877,-4.741],[-0.695,-4.72],[-0.604,-4.727],[-0.548,-4.748]]]]},"properties":{"abbr":"LDTg","name":"laterodorsal tegmental nucleus","plate":42,"ap_bregma_mm":-6.55,"area_mm2":0.4531,"traced_fraction":[1.0,1.0],"n_labels":2,"no_drawn_outline":false}},{"type":"Feature","geometry":{"type":"MultiPolygon","coordinates":[[[[0.196,-4.825],[0.16,-4.952],[0.097,-5.05],[0.02,-5.001],[-0.043,-4.987],[-0.113,-4.994],[-0.197,-5.043],[-0.211,-5.043],[-0.26,-4.959],[-0.295,-4.811],[-0.281,-4.776],[-0.246,-4.741],[-0.218,-4.734],[-0.176,-4.741],[-0.071,-4.804],[-0.015,-4.804],[0.069,-4.741],[0.132,-4.741],[0.181,-4.776],[0.196,-4.825]]]]},"properties":{"abbr":"DRD","name":"dorsal raphe nucleus, dorsal part","plate":42,"ap_bregma_mm":-6.55,"area_mm2":0.1101,"traced_fraction":[1.0],"n_labels":1,"no_drawn_outline":false}},{"type":"Feature","geometry":{"type":"MultiPolygon","coordinates":[[[[0.097,-5.05],[0.034,-5.332],[-0.015,-5.416],[-0.022,-5.465],[-0.106,-5.458],[-0.12,-5.381],[-0.176,-5.276],[-0.169,-5.212],[-0.204,-5.064],[-0.197,-5.043],[-0.113,-4.994],[-0.043,-4.987],[0.02,-5.001],[0.097,-5.05]]]]},"properties":{"abbr":"DRV","name":"dorsal raphe nucleus, ventral part","plate":42,"ap_bregma_mm":-6.55,"area_mm2":0.0969,"traced_fraction":[0.984],"n_labels":1,"no_drawn_outline":false}},{"type":"Feature","geometry":{"type":"MultiPolygon","coordinates":[[[[2.082,-6.745],[2.061,-6.823],[2.012,-6.879],[1.976,-6.971],[1.948,-6.992],[1.948,-7.013],[1.969,-7.013],[1.955,-7.062],[1.913,-7.083],[1.913,-7.069],[1.892,-7.069],[1.871,-7.118],[1.878,-7.153],[1.829,-7.238],[1.794,-7.364],[1.773,-7.364],[1.703,-7.428],[1.633,-7.435],[1.577,-7.421],[1.528,-7.357],[1.514,-7.259],[1.556,-7.125],[1.584,-7.09],[1.598,-7.041],[1.626,-7.013],[1.682,-6.879],[1.759,-6.76],[1.815,-6.703],[1.885,-6.689],[1.969,-6.696],[2.082,-6.745]]],[[[-1.866,-6.724],[-1.747,-6.837],[-1.669,-6.964],[-1.648,-6.978],[-1.62,-7.076],[-1.592,-7.118],[-1.557,-7.266],[-1.578,-7.393],[-1.634,-7.47],[-1.761,-7.498],[-1.817,-7.484],[-1.845,-7.456],[-1.873,-7.456],[-1.971,-7.259],[-1.985,-7.203],[-1.985,-7.168],[-2.034,-7.02],[-2.048,-7.02],[-2.076,-6.978],[-2.111,-6.837],[-2.02,-6.76],[-1.866,-6.724]]]]},"properties":{"abbr":"vVNLL","name":"ventral nucleus of the lateral lemniscus, ventral part","plate":42,"ap_bregma_mm":-6.55,"area_mm2":0.4898,"traced_fraction":[0.98,0.997],"n_labels":2,"no_drawn_outline":false}},{"type":"Feature","geometry":{"type":"MultiPolygon","coordinates":[[[[1.857,-6.485],[1.906,-6.499],[1.815,-6.668],[1.815,-6.703],[1.759,-6.76],[1.682,-6.879],[1.626,-7.013],[1.598,-7.041],[1.598,-7.062],[1.556,-7.125],[1.514,-7.259],[1.5,-7.259],[1.374,-7.393],[1.275,-7.449],[1.24,-7.484],[1.219,-7.484],[1.191,-7.512],[1.121,-7.54],[1.114,-7.533],[1.107,-7.435],[1.072,-7.35],[1.065,-7.287],[1.128,-7.245],[1.226,-7.146],[1.331,-6.999],[1.416,-6.823],[1.507,-6.534],[1.521,-6.506],[1.542,-6.499],[1.563,-6.556],[1.598,-6.591],[1.689,-6.605],[1.787,-6.577],[1.815,-6.556],[1.857,-6.485]]],[[[-1.627,-6.542],[-1.592,-6.577],[-1.585,-6.584],[-1.445,-6.851],[-1.326,-7.034],[-1.123,-7.245],[-1.109,-7.245],[-1.151,-7.287],[-1.193,-7.378],[-1.221,-7.407],[-1.256,-7.491],[-1.256,-7.533],[-1.277,-7.561],[-1.312,-7.547],[-1.396,-7.47],[-1.501,-7.315],[-1.557,-7.266],[-1.592,-7.118],[-1.62,-7.076],[-1.648,-6.978],[-1.669,-6.964],[-1.747,-6.837],[-1.866,-6.724],[-1.915,-6.633],[-1.929,-6.577],[-1.838,-6.57],[-1.775,-6.633],[-1.697,-6.647],[-1.648,-6.605],[-1.641,-6.542],[-1.627,-6.542]]]]},"properties":{"abbr":"PLV","name":"perilemniscal nucleus, ventral part","plate":42,"ap_bregma_mm":-6.55,"area_mm2":0.5892,"traced_fraction":[0.985,0.92],"n_labels":2,"no_drawn_outline":false}},{"type":"Feature","geometry":{"type":"MultiPolygon","coordinates":[[[[1.514,-7.259],[1.528,-7.357],[1.577,-7.421],[1.633,-7.435],[1.703,-7.428],[1.773,-7.364],[1.794,-7.364],[1.787,-7.428],[1.696,-7.561],[1.528,-7.716],[1.43,-7.786],[1.31,-7.66],[1.275,-7.597],[1.24,-7.484],[1.275,-7.449],[1.374,-7.393],[1.5,-7.259],[1.514,-7.259]]],[[[-1.557,-7.266],[-1.501,-7.315],[-1.396,-7.47],[-1.312,-7.547],[-1.277,-7.561],[-1.277,-7.575],[-1.326,-7.653],[-1.445,-7.765],[-1.473,-7.815],[-1.48,-7.878],[-1.536,-7.857],[-1.69,-7.716],[-1.69,-7.702],[-1.845,-7.533],[-1.873,-7.484],[-1.873,-7.456],[-1.845,-7.456],[-1.817,-7.484],[-1.761,-7.498],[-1.634,-7.47],[-1.578,-7.393],[-1.557,-7.266]]]]},"properties":{"abbr":"ll","name":"lateral lemniscus","plate":42,"ap_bregma_mm":-6.55,"area_mm2":0.2975,"traced_fraction":[0.995,1.0],"n_labels":2,"no_drawn_outline":false}},{"type":"Feature","geometry":{"type":"MultiPolygon","coordinates":[[[[1.114,-7.575],[1.114,-7.66],[1.086,-7.758],[0.995,-7.913],[0.869,-8.025],[0.686,-8.103],[0.49,-8.131],[0.266,-8.11],[0.132,-8.082],[0.097,-8.054],[0.09,-8.025],[0.09,-7.906],[0.104,-7.85],[0.118,-7.836],[0.406,-7.836],[0.672,-7.808],[0.834,-7.765],[0.883,-7.758],[0.946,-7.723],[1.023,-7.646],[1.072,-7.618],[1.1,-7.575],[1.114,-7.575]]],[[[-1.137,-7.709],[-1.024,-7.765],[-0.87,-7.808],[-0.66,-7.857],[-0.211,-7.871],[-0.183,-8.012],[-0.197,-8.061],[-0.267,-8.11],[-0.527,-8.117],[-0.765,-8.096],[-0.975,-8.103],[-1.059,-8.061],[-1.144,-7.962],[-1.165,-7.885],[-1.165,-7.758],[-1.137,-7.709]]]]},"properties":{"abbr":"lfp","name":"longitudinal fasciculus of the pons","plate":42,"ap_bregma_mm":-6.55,"area_mm2":0.5274,"traced_fraction":[1.0,1.0],"n_labels":2,"no_drawn_outline":false}},{"type":"Feature","geometry":{"type":"Polygon","coordinates":[[[0.876,-1.365],[0.848,-1.428],[0.623,-1.372],[0.357,-1.365],[-0.288,-1.435],[-0.288,-1.407],[-0.288,-1.393],[0.02,-1.358],[0.301,-1.288],[0.525,-1.288],[0.876,-1.365]]]},"properties":{"abbr":null,"name":"unnamed sealed face","plate":42,"ap_bregma_mm":-6.55,"index":0}},{"type":"Feature","geometry":{"type":"Polygon","coordinates":[[[0.995,-1.801],[1.051,-1.85],[0.869,-1.963],[0.855,-1.984],[0.827,-1.991],[0.763,-2.047],[0.736,-2.054],[0.736,-2.068],[0.504,-2.223],[0.49,-2.244],[0.441,-2.265],[0.441,-2.279],[0.196,-2.427],[0.02,-2.49],[-0.134,-2.497],[-0.197,-2.476],[-0.302,-2.406],[-0.344,-2.399],[-0.491,-2.286],[-0.632,-2.209],[-0.66,-2.16],[-0.59,-2.174],[-0.436,-2.258],[-0.267,-2.301],[-0.141,-2.301],[0.083,-2.265],[0.378,-2.188],[0.595,-2.089],[0.813,-1.942],[0.841,-1.935],[0.841,-1.921],[0.918,-1.878],[0.918,-1.864],[0.96,-1.843],[0.995,-1.801]]]},"properties":{"abbr":null,"name":"unnamed sealed face","plate":42,"ap_bregma_mm":-6.55,"index":1}},{"type":"Feature","geometry":{"type":"Polygon","coordinates":[[[-2.784,-4.882],[-2.763,-4.882],[-2.756,-4.896],[-2.756,-5.001],[-2.742,-5.05],[-2.77,-5.072],[-2.798,-5.262],[-2.798,-5.515],[-2.735,-5.74],[-2.833,-5.698],[-2.932,-5.683],[-2.868,-5.62],[-2.875,-5.36],[-2.833,-5.128],[-2.819,-5.121],[-2.826,-5.1],[-2.826,-5.093],[-2.812,-5.086],[-2.819,-5.05],[-2.819,-5.043],[-2.805,-5.036],[-2.798,-5.001],[-2.805,-4.966],[-2.805,-4.959],[-2.791,-4.952],[-2.798,-4.931],[-2.798,-4.896],[-2.784,-4.882]]]},"properties":{"abbr":null,"name":"unnamed sealed face","plate":42,"ap_bregma_mm":-6.55,"index":2}},{"type":"Feature","geometry":{"type":"Polygon","coordinates":[[[-0.646,-5.367],[-0.59,-5.402],[-0.59,-5.416],[-0.491,-5.472],[-0.183,-5.592],[-0.197,-5.648],[-0.323,-5.578],[-0.344,-5.578],[-0.351,-5.564],[-0.47,-5.522],[-0.583,-5.522],[-0.639,-5.557],[-0.681,-5.613],[-0.695,-5.613],[-0.695,-5.585],[-0.723,-5.529],[-0.758,-5.494],[-0.758,-5.458],[-0.709,-5.43],[-0.66,-5.367],[-0.646,-5.367]]]},"properties":{"abbr":null,"name":"unnamed sealed face","plate":42,"ap_bregma_mm":-6.55,"index":3}},{"type":"Feature","geometry":{"type":"Polygon","coordinates":[[[0.595,-5.409],[0.616,-5.458],[0.714,-5.508],[0.616,-5.641],[0.588,-5.578],[0.539,-5.522],[0.462,-5.494],[0.497,-5.451],[0.595,-5.409]]]},"properties":{"abbr":null,"name":"unnamed sealed face","plate":42,"ap_bregma_mm":-6.55,"index":4}},{"type":"Feature","geometry":{"type":"Polygon","coordinates":[[[2.79,-5.479],[2.797,-5.479],[2.79,-5.487],[2.79,-5.479]]]},"properties":{"abbr":null,"name":"unnamed sealed face","plate":42,"ap_bregma_mm":-6.55,"index":5}},{"type":"Feature","geometry":{"type":"Polygon","coordinates":[[[2.79,-5.487],[2.79,-5.536],[2.776,-5.536],[2.783,-5.55],[2.741,-5.683],[2.783,-5.768],[2.699,-5.747],[2.636,-5.824],[2.397,-6.295],[2.334,-6.38],[2.285,-6.478],[2.257,-6.499],[2.236,-6.556],[2.222,-6.556],[2.103,-6.802],[2.082,-6.816],[2.039,-6.914],[1.984,-6.978],[1.969,-7.013],[1.948,-7.013],[1.948,-6.992],[1.962,-6.992],[2.012,-6.879],[2.061,-6.823],[2.082,-6.745],[2.25,-6.422],[2.264,-6.366],[2.278,-6.366],[2.278,-6.345],[2.313,-6.302],[2.383,-6.162],[2.467,-6.056],[2.467,-6.035],[2.502,-5.993],[2.551,-5.88],[2.622,-5.782],[2.657,-5.698],[2.699,-5.648],[2.748,-5.508],[2.769,-5.487],[2.79,-5.487]]]},"properties":{"abbr":null,"name":"unnamed sealed face","plate":42,"ap_bregma_mm":-6.55,"index":6}},{"type":"Feature","geometry":{"type":"Polygon","coordinates":[[[-2.525,-6.098],[-2.511,-6.098],[-2.469,-6.155],[-2.441,-6.232],[-2.392,-6.302],[-2.385,-6.345],[-2.273,-6.513],[-2.167,-6.753],[-2.111,-6.837],[-2.076,-6.978],[-2.048,-7.02],[-2.034,-7.02],[-1.985,-7.168],[-1.985,-7.203],[-2.006,-7.203],[-2.02,-7.182],[-2.069,-7.034],[-2.118,-6.978],[-2.195,-6.809],[-2.209,-6.802],[-2.209,-6.781],[-2.237,-6.745],[-2.237,-6.724],[-2.251,-6.717],[-2.455,-6.33],[-2.497,-6.183],[-2.532,-6.119],[-2.525,-6.098]]]},"properties":{"abbr":null,"name":"unnamed sealed face","plate":42,"ap_bregma_mm":-6.55,"index":7}},{"type":"Feature","geometry":{"type":"MultiPolygon","coordinates":[[[[-4.579,-4.966],[-4.712,-4.952],[-4.839,-4.882],[-4.909,-4.811],[-5.007,-4.628],[-5.028,-4.53],[-5.049,-4.284],[-5.119,-3.946],[-5.203,-3.679],[-5.336,-3.327],[-5.407,-3.081],[-5.428,-2.8],[-5.413,-2.61],[-5.386,-2.462],[-5.329,-2.329],[-5.196,-2.153],[-4.965,-1.928],[-4.621,-1.646],[-4.327,-1.435],[-3.906,-1.168],[-3.563,-0.985],[-3.275,-0.894],[-2.96,-0.823],[-2.658,-0.788],[-2.392,-0.795],[-2.188,-0.838],[-2.055,-0.901],[-1.957,-0.999],[-1.929,-1.098],[-1.936,-1.337],[-1.971,-1.421],[-2.083,-1.541],[-2.216,-1.618],[-2.735,-1.836],[-3.044,-1.998],[-3.254,-2.132],[-3.464,-2.293],[-3.605,-2.455],[-3.71,-2.694],[-3.822,-3.109],[-3.878,-3.517],[-3.934,-4.199],[-3.976,-4.354],[-4.053,-4.502],[-4.215,-4.734],[-4.341,-4.861],[-4.467,-4.938],[-4.551,-4.959],[-4.579,-4.966]]],[[[0.644,-8.764],[0.497,-8.771],[0.315,-8.729],[0.175,-8.659],[-0.001,-8.532],[-0.064,-8.539],[-0.33,-8.701],[-0.506,-8.778],[-0.674,-8.757],[-0.898,-8.659],[-1.116,-8.518],[-1.403,-8.251],[-1.761,-7.983],[-1.845,-7.906],[-2.006,-7.85],[-2.097,-7.8],[-2.567,-7.526],[-2.651,-7.463],[-2.981,-7.09],[-3.24,-6.879],[-3.296,-6.788],[-3.331,-6.675],[-3.338,-6.527],[-3.317,-6.274],[-3.296,-6.225],[-3.275,-6.211],[-3.212,-6.239],[-3.093,-6.45],[-2.735,-6.872],[-2.343,-7.428],[-2.223,-7.519],[-2.146,-7.554],[-2.076,-7.491],[-2.392,-6.774],[-2.497,-6.563],[-2.644,-6.317],[-2.805,-6.119],[-2.889,-6.063],[-3.079,-6.007],[-3.107,-5.979],[-3.135,-5.916],[-3.135,-5.817],[-3.093,-5.74],[-3.009,-5.69],[-2.938,-5.683],[-2.868,-5.613],[-2.875,-5.381],[-2.798,-4.903],[-2.784,-4.875],[-2.763,-4.565],[-2.77,-4.087],[-2.833,-3.545],[-2.791,-3.158],[-2.714,-2.877],[-2.581,-2.54],[-2.42,-2.258],[-2.251,-2.054],[-2.083,-1.914],[-1.943,-1.829],[-1.782,-1.766],[-1.648,-1.745],[-1.529,-1.745],[-1.326,-1.78],[-1.158,-1.843],[-1.031,-1.921],[-0.968,-1.857],[-1.017,-1.731],[-1.017,-1.667],[-0.982,-1.583],[-1.017,-1.499],[-1.088,-1.492],[-1.179,-1.428],[-1.221,-1.358],[-1.221,-1.281],[-1.172,-1.21],[-1.101,-1.168],[-0.674,-1.02],[-0.491,-0.978],[-0.246,-0.943],[0.301,-0.936],[0.518,-0.901],[0.623,-0.901],[0.757,-0.957],[0.89,-1.063],[0.953,-1.14],[0.988,-1.217],[0.988,-1.316],[0.946,-1.351],[0.869,-1.358],[0.841,-1.435],[0.939,-1.513],[0.981,-1.59],[1.002,-1.667],[1.002,-1.766],[0.988,-1.794],[1.051,-1.85],[1.17,-1.794],[1.359,-1.745],[1.556,-1.738],[1.668,-1.752],[1.829,-1.801],[2.018,-1.9],[2.117,-1.97],[2.25,-2.089],[2.369,-2.223],[2.53,-2.462],[2.586,-2.575],[2.762,-3.088],[2.797,-3.236],[2.818,-3.447],[2.818,-3.841],[2.783,-4.185],[2.741,-4.424],[2.741,-4.53],[2.825,-4.868],[2.825,-5.043],[2.811,-5.072],[2.811,-5.367],[2.79,-5.423],[2.783,-5.536],[2.734,-5.69],[2.783,-5.768],[2.895,-5.803],[2.972,-5.873],[3.014,-5.965],[3.007,-6.07],[3.056,-6.113],[3.126,-6.098],[3.182,-6.169],[3.232,-6.267],[3.26,-6.373],[3.26,-6.506],[3.232,-6.626],[3.182,-6.738],[3.077,-6.879],[3.0,-6.957],[2.909,-7.02],[2.783,-7.153],[2.734,-7.16],[2.643,-7.118],[2.544,-7.118],[2.131,-7.259],[2.039,-7.47],[1.969,-7.582],[1.619,-7.948],[1.346,-8.279],[1.198,-8.419],[1.009,-8.567],[0.813,-8.701],[0.672,-8.757],[0.644,-8.764]]],[[[4.774,-4.91],[4.676,-4.924],[4.494,-4.811],[4.339,-4.818],[4.311,-4.804],[4.234,-4.699],[4.171,-4.537],[4.038,-4.319],[3.989,-4.207],[3.989,-3.967],[4.038,-3.77],[4.059,-3.552],[4.15,-3.004],[4.15,-2.926],[4.094,-2.821],[4.003,-2.701],[3.898,-2.596],[3.736,-2.469],[3.645,-2.378],[3.568,-2.336],[3.14,-2.026],[2.72,-1.766],[2.481,-1.569],[2.383,-1.421],[2.369,-1.323],[2.418,-1.224],[2.467,-1.182],[2.551,-1.14],[2.643,-1.112],[2.811,-1.091],[3.077,-1.091],[3.302,-1.119],[3.554,-1.175],[4.038,-1.316],[4.339,-1.414],[4.585,-1.513],[4.872,-1.667],[5.019,-1.78],[5.111,-1.871],[5.223,-2.026],[5.335,-2.258],[5.412,-2.371],[5.643,-2.589],[5.664,-2.638],[5.664,-2.744],[5.629,-2.849],[5.503,-3.095],[5.447,-3.236],[5.433,-3.348],[5.454,-3.538],[5.307,-3.834],[5.209,-4.27],[5.139,-4.439],[5.026,-4.65],[4.9,-4.818],[4.795,-4.903],[4.774,-4.91]]]]},"properties":{"abbr":"brain_outline","name":"outline of the section","plate":42,"ap_bregma_mm":-6.55}}]}
