{"type":"FeatureCollection","name":"GerbilAtlas plate 17","note":"Region extents cut from the atlas drawing (METHODS.md, Region extents). Coordinates are [ML, DV] in mm, ML positive to the right of the plate as printed, DV negative below the dorsal surface; AP is the plate bregma. traced_fraction is the share of each polygon boundary the atlas actually draws; below 0.5 the boundary is an estimate. no_drawn_outline marks a feature that lies only inside boundaries the atlas draws round more than one name and prints nothing within, so the whole of its outline is where the extraction cut it. Not a segmentation.","plate":17,"ap_bregma_mm":2.2,"features":[{"type":"Feature","geometry":{"type":"MultiPolygon","coordinates":[[[[1.514,-1.639],[1.542,-2.335],[1.64,-3.601],[1.535,-3.615],[1.409,-3.643],[1.36,-3.559],[1.149,-3.306],[0.666,-2.637],[0.497,-2.44],[0.392,-2.293],[0.322,-2.223],[0.294,-2.173],[0.091,-1.948],[0.196,-1.829],[0.336,-1.751],[0.511,-1.695],[0.68,-1.667],[1.016,-1.639],[1.514,-1.639]]],[[[-0.33,-2.026],[-0.59,-2.363],[-0.793,-2.666],[-0.954,-2.947],[-1.017,-3.031],[-1.059,-3.123],[-1.087,-3.151],[-1.255,-3.474],[-1.445,-3.77],[-1.599,-3.756],[-1.697,-3.749],[-1.739,-3.376],[-1.859,-1.793],[-1.536,-1.744],[-1.01,-1.744],[-0.8,-1.779],[-0.562,-1.857],[-0.442,-1.934],[-0.386,-1.955],[-0.33,-2.026]]]]},"properties":{"abbr":"M2","name":"secondary motor cortex","plate":17,"ap_bregma_mm":2.2,"area_mm2":3.5858,"traced_fraction":[1.0,1.0],"n_labels":2,"no_drawn_outline":false}},{"type":"Feature","geometry":{"type":"MultiPolygon","coordinates":[[[[1.514,-1.639],[1.787,-1.653],[2.103,-1.695],[2.404,-1.765],[2.601,-1.829],[2.699,-1.878],[2.706,-1.899],[2.671,-1.948],[2.559,-2.215],[2.425,-2.476],[2.306,-2.764],[2.152,-3.074],[2.089,-3.242],[2.026,-3.355],[1.998,-3.446],[1.9,-3.65],[1.745,-3.608],[1.64,-3.601],[1.542,-2.335],[1.514,-1.639]]],[[[-1.859,-1.793],[-1.739,-3.376],[-1.697,-3.749],[-1.887,-3.784],[-2.048,-3.84],[-2.188,-3.918],[-2.209,-3.918],[-2.391,-3.615],[-2.433,-3.517],[-2.553,-3.327],[-2.693,-3.052],[-2.735,-2.94],[-2.784,-2.863],[-2.798,-2.806],[-2.826,-2.771],[-2.917,-2.553],[-2.966,-2.469],[-3.071,-2.18],[-2.686,-2.012],[-2.595,-1.99],[-2.476,-1.941],[-2.006,-1.815],[-1.859,-1.793]]]]},"properties":{"abbr":"M1","name":"primary motor cortex","plate":17,"ap_bregma_mm":2.2,"area_mm2":3.2771,"traced_fraction":[1.0,1.0],"n_labels":2,"no_drawn_outline":false}},{"type":"Feature","geometry":{"type":"MultiPolygon","coordinates":[[[[2.699,-1.878],[2.853,-1.941],[3.028,-2.047],[2.951,-2.152],[2.825,-2.384],[2.748,-2.497],[2.699,-2.602],[2.664,-2.637],[2.474,-2.968],[2.418,-3.038],[2.257,-3.327],[2.208,-3.383],[2.145,-3.503],[2.005,-3.714],[1.9,-3.65],[1.977,-3.495],[2.026,-3.355],[2.089,-3.242],[2.152,-3.074],[2.306,-2.764],[2.425,-2.476],[2.559,-2.215],[2.671,-1.948],[2.706,-1.899],[2.699,-1.878]]],[[[-3.071,-2.18],[-2.966,-2.469],[-2.917,-2.553],[-2.875,-2.673],[-2.798,-2.806],[-2.784,-2.863],[-2.735,-2.94],[-2.693,-3.052],[-2.553,-3.327],[-2.518,-3.369],[-2.391,-3.615],[-2.209,-3.918],[-2.286,-3.974],[-2.377,-3.84],[-2.588,-3.474],[-2.679,-3.355],[-2.714,-3.278],[-2.805,-3.151],[-2.917,-2.94],[-2.973,-2.87],[-3.008,-2.778],[-3.071,-2.687],[-3.107,-2.602],[-3.254,-2.349],[-3.275,-2.286],[-3.071,-2.18]]]]},"properties":{"abbr":"Fr3","name":"frontal cortex, area 3","plate":17,"ap_bregma_mm":2.2,"area_mm2":0.7719,"traced_fraction":[1.0,1.0],"n_labels":2,"no_drawn_outline":false}},{"type":"Feature","geometry":{"type":"MultiPolygon","coordinates":[[[[1.346,-3.707],[1.367,-3.721],[1.353,-3.749],[1.269,-3.812],[1.212,-3.896],[1.072,-4.234],[0.995,-4.382],[0.904,-4.635],[0.827,-4.783],[0.757,-5.015],[0.736,-5.226],[0.715,-5.458],[0.68,-5.62],[0.645,-5.732],[0.603,-5.732],[0.603,-5.669],[0.624,-5.641],[0.673,-5.437],[0.708,-4.958],[0.771,-4.769],[0.911,-4.473],[0.939,-4.375],[0.995,-4.29],[1.121,-3.974],[1.205,-3.812],[1.241,-3.77],[1.297,-3.721],[1.346,-3.707]]],[[[-1.599,-3.756],[-1.445,-3.77],[-1.417,-3.812],[-1.375,-3.833],[-1.326,-3.882],[-1.277,-3.953],[-1.27,-3.988],[-1.242,-4.016],[-1.122,-4.269],[-1.108,-4.276],[-1.108,-4.297],[-1.094,-4.304],[-1.094,-4.325],[-1.059,-4.382],[-1.045,-4.382],[-1.052,-4.403],[-1.038,-4.41],[-1.038,-4.431],[-1.024,-4.438],[-1.024,-4.459],[-1.01,-4.466],[-0.884,-4.733],[-0.814,-4.951],[-0.779,-5.127],[-0.772,-5.254],[-0.821,-5.261],[-0.821,-5.134],[-0.856,-4.973],[-0.982,-4.663],[-1.178,-4.248],[-1.347,-3.96],[-1.452,-3.861],[-1.501,-3.833],[-1.592,-3.812],[-1.599,-3.756]]]]},"properties":{"abbr":"cg","name":"cingulum","plate":17,"ap_bregma_mm":2.2,"area_mm2":0.2109,"traced_fraction":[1.0,0.998],"n_labels":2,"no_drawn_outline":false}},{"type":"Feature","geometry":{"type":"MultiPolygon","coordinates":[[[[1.64,-3.601],[1.745,-3.608],[1.9,-3.65],[2.005,-3.714],[2.152,-3.819],[2.236,-3.925],[2.257,-3.932],[2.257,-3.96],[2.313,-4.072],[2.327,-4.164],[2.327,-4.473],[2.292,-4.698],[2.222,-4.895],[2.159,-5.008],[2.138,-5.071],[2.145,-5.092],[2.117,-5.099],[2.082,-5.141],[2.005,-5.19],[1.984,-5.19],[1.97,-5.212],[1.949,-5.212],[1.864,-5.261],[1.787,-5.331],[1.787,-5.352],[1.745,-5.38],[1.696,-5.479],[1.654,-5.5],[1.626,-5.43],[1.626,-5.296],[1.654,-5.205],[1.738,-5.106],[1.864,-5.05],[1.935,-4.987],[1.963,-4.937],[1.991,-4.818],[2.005,-4.67],[1.998,-4.304],[1.963,-4.213],[1.921,-4.157],[1.872,-4.114],[1.822,-4.093],[1.689,-4.086],[1.626,-4.107],[1.521,-4.171],[1.416,-4.276],[1.065,-4.839],[0.883,-5.226],[0.736,-5.226],[0.757,-5.015],[0.827,-4.783],[0.904,-4.635],[0.995,-4.382],[1.072,-4.234],[1.212,-3.896],[1.269,-3.812],[1.353,-3.749],[1.367,-3.721],[1.395,-3.721],[1.444,-3.685],[1.528,-3.664],[1.535,-3.615],[1.64,-3.601]]],[[[-1.697,-3.749],[-1.599,-3.756],[-1.592,-3.812],[-1.501,-3.833],[-1.452,-3.861],[-1.347,-3.96],[-1.178,-4.248],[-0.982,-4.663],[-0.856,-4.973],[-0.821,-5.134],[-0.821,-5.261],[-0.814,-5.324],[-0.772,-5.331],[-0.772,-5.401],[-0.807,-5.401],[-0.793,-5.549],[-0.772,-5.556],[-0.779,-5.584],[-0.737,-5.697],[-0.73,-5.767],[-0.709,-5.816],[-0.709,-5.901],[-0.737,-5.957],[-0.765,-5.971],[-0.779,-5.859],[-0.814,-5.774],[-0.814,-5.725],[-1.024,-5.141],[-1.073,-5.057],[-1.108,-4.944],[-1.291,-4.607],[-1.445,-4.389],[-1.536,-4.29],[-1.627,-4.234],[-1.823,-4.192],[-1.957,-4.199],[-2.048,-4.227],[-2.146,-4.283],[-2.209,-4.339],[-2.244,-4.396],[-2.258,-4.452],[-2.265,-4.649],[-2.244,-4.818],[-2.188,-5.036],[-2.083,-5.212],[-1.971,-5.324],[-1.887,-5.38],[-1.774,-5.5],[-1.746,-5.563],[-1.746,-5.669],[-1.767,-5.697],[-1.831,-5.655],[-1.887,-5.556],[-1.943,-5.507],[-2.062,-5.416],[-2.181,-5.366],[-2.202,-5.338],[-2.265,-5.303],[-2.335,-5.226],[-2.391,-5.127],[-2.398,-5.078],[-2.476,-4.93],[-2.518,-4.797],[-2.525,-4.529],[-2.511,-4.368],[-2.469,-4.213],[-2.405,-4.1],[-2.286,-3.974],[-2.209,-3.918],[-2.188,-3.918],[-2.048,-3.84],[-1.887,-3.784],[-1.697,-3.749]]]]},"properties":{"abbr":"fmi","name":"forceps minor of the corpus callosum","plate":17,"ap_bregma_mm":2.2,"area_mm2":2.2647,"traced_fraction":[0.986,0.997],"n_labels":2,"no_drawn_outline":false}},{"type":"Feature","geometry":{"type":"MultiPolygon","coordinates":[[[[4.529,-3.721],[4.529,-3.847],[4.501,-4.009],[3.996,-4.002],[3.933,-4.016],[3.106,-4.023],[2.601,-4.044],[2.313,-4.072],[2.257,-3.96],[2.257,-3.932],[2.306,-3.918],[2.895,-3.875],[3.673,-3.791],[4.045,-3.77],[4.529,-3.721]]],[[[-4.747,-3.96],[-4.123,-3.988],[-3.815,-4.016],[-3.632,-4.016],[-3.191,-4.051],[-3.008,-4.051],[-2.693,-4.079],[-2.504,-4.079],[-2.405,-4.1],[-2.469,-4.213],[-2.763,-4.206],[-3.766,-4.248],[-4.039,-4.248],[-4.256,-4.269],[-4.677,-4.276],[-4.712,-4.29],[-4.733,-4.255],[-4.754,-4.164],[-4.747,-3.96]]]]},"properties":{"abbr":"S1DZ","name":"primary somatosensory cortex, dysgranular zone","plate":17,"ap_bregma_mm":2.2,"area_mm2":0.9533,"traced_fraction":[1.0,1.0],"n_labels":2,"no_drawn_outline":false}},{"type":"Feature","geometry":{"type":"MultiPolygon","coordinates":[[[[-0.015,-3.165],[0.021,-3.165],[0.091,-3.193],[0.098,-3.207],[0.455,-3.369],[0.75,-3.524],[0.771,-3.524],[1.037,-3.657],[1.163,-3.742],[1.241,-3.77],[1.177,-3.861],[0.995,-4.29],[0.939,-4.375],[0.848,-4.339],[0.476,-4.255],[0.035,-4.171],[-0.057,-4.171],[-1.045,-4.382],[-1.059,-4.382],[-1.094,-4.325],[-1.094,-4.304],[-1.108,-4.297],[-1.108,-4.276],[-1.122,-4.269],[-1.242,-4.016],[-1.27,-3.988],[-1.277,-3.953],[-0.989,-3.742],[-0.933,-3.714],[-0.919,-3.692],[-0.646,-3.524],[-0.316,-3.292],[-0.288,-3.284],[-0.183,-3.207],[-0.141,-3.186],[-0.106,-3.186],[-0.099,-3.369],[-0.085,-3.418],[-0.085,-3.524],[-0.064,-3.622],[-0.029,-3.594],[-0.022,-3.425],[-0.015,-3.165]]]]},"properties":{"abbr":"PrL","name":"prelimbic cortex","plate":17,"ap_bregma_mm":2.2,"area_mm2":1.8472,"traced_fraction":[1.0],"n_labels":2,"no_drawn_outline":false}},{"type":"Feature","geometry":{"type":"MultiPolygon","coordinates":[[[[1.654,-5.5],[1.633,-5.528],[1.619,-5.598],[1.626,-5.802],[1.64,-5.894],[1.619,-6.042],[1.577,-6.028],[1.521,-5.964],[1.388,-5.859],[1.22,-5.76],[1.121,-5.732],[0.967,-5.711],[0.736,-5.711],[0.729,-5.662],[0.883,-5.226],[1.065,-4.839],[1.416,-4.276],[1.521,-4.171],[1.626,-4.107],[1.689,-4.086],[1.822,-4.093],[1.872,-4.114],[1.921,-4.157],[1.963,-4.213],[1.998,-4.304],[2.005,-4.67],[1.991,-4.818],[1.963,-4.937],[1.935,-4.987],[1.864,-5.05],[1.738,-5.106],[1.654,-5.205],[1.626,-5.296],[1.626,-5.43],[1.654,-5.5]]],[[[-0.814,-5.774],[-0.961,-5.774],[-1.143,-5.802],[-1.312,-5.859],[-1.445,-5.929],[-1.62,-6.084],[-1.718,-6.217],[-1.802,-6.365],[-1.823,-6.358],[-1.838,-6.344],[-1.838,-6.224],[-1.802,-6.056],[-1.746,-5.887],[-1.753,-5.795],[-1.767,-5.697],[-1.746,-5.669],[-1.746,-5.563],[-1.774,-5.5],[-1.887,-5.38],[-1.971,-5.324],[-2.083,-5.212],[-2.188,-5.036],[-2.23,-4.888],[-2.265,-4.649],[-2.258,-4.452],[-2.244,-4.396],[-2.209,-4.339],[-2.146,-4.283],[-2.048,-4.227],[-1.957,-4.199],[-1.823,-4.192],[-1.627,-4.234],[-1.536,-4.29],[-1.445,-4.389],[-1.291,-4.607],[-1.228,-4.74],[-1.136,-4.888],[-1.073,-5.057],[-1.024,-5.141],[-0.968,-5.317],[-0.877,-5.535],[-0.877,-5.563],[-0.814,-5.725],[-0.814,-5.774]]]]},"properties":{"abbr":"CPu","name":"caudate putamen (striatum)","plate":17,"ap_bregma_mm":2.2,"area_mm2":2.9521,"traced_fraction":[1.0,0.986],"n_labels":2,"no_drawn_outline":false}},{"type":"Feature","geometry":{"type":"MultiPolygon","coordinates":[[[[0.939,-4.375],[0.911,-4.473],[0.771,-4.769],[0.708,-4.958],[0.673,-5.437],[0.624,-5.641],[0.603,-5.669],[0.006,-5.69],[-0.071,-5.704],[-0.344,-5.704],[-0.449,-5.69],[-0.737,-5.697],[-0.779,-5.584],[-0.772,-5.556],[-0.772,-5.401],[-0.772,-5.331],[-0.814,-5.324],[-0.821,-5.261],[-0.772,-5.254],[-0.779,-5.127],[-0.814,-4.951],[-0.884,-4.733],[-1.01,-4.466],[-1.024,-4.459],[-1.024,-4.438],[-1.038,-4.431],[-1.038,-4.41],[-1.052,-4.403],[-1.045,-4.382],[-0.057,-4.171],[0.035,-4.171],[0.476,-4.255],[0.848,-4.339],[0.939,-4.375]]]]},"properties":{"abbr":"IL","name":"infralimbic cortex","plate":17,"ap_bregma_mm":2.2,"area_mm2":2.2992,"traced_fraction":[1.0],"n_labels":2,"no_drawn_outline":false}},{"type":"Feature","geometry":{"type":"MultiPolygon","coordinates":[[[[2.292,-4.698],[2.355,-4.719],[2.888,-4.994],[3.091,-5.078],[3.631,-5.338],[3.456,-5.57],[3.435,-5.57],[3.407,-5.542],[3.127,-5.409],[2.222,-4.895],[2.292,-4.698]]],[[[-2.476,-4.93],[-2.398,-5.078],[-2.391,-5.127],[-2.595,-5.254],[-3.485,-5.725],[-3.675,-5.542],[-3.639,-5.507],[-3.282,-5.331],[-3.261,-5.331],[-2.658,-5.029],[-2.539,-4.951],[-2.476,-4.93]]]]},"properties":{"abbr":"GI","name":"granular insular cortex","plate":17,"ap_bregma_mm":2.2,"area_mm2":0.682,"traced_fraction":[1.0,1.0],"n_labels":2,"no_drawn_outline":false}},{"type":"Feature","geometry":{"type":"MultiPolygon","coordinates":[[[[1.787,-5.352],[1.864,-5.366],[2.019,-5.352],[1.998,-5.514],[1.893,-5.746],[1.864,-5.746],[1.731,-5.816],[1.626,-5.802],[1.619,-5.598],[1.633,-5.528],[1.654,-5.5],[1.696,-5.479],[1.745,-5.38],[1.787,-5.352]]],[[[-1.943,-5.507],[-1.887,-5.556],[-1.831,-5.655],[-1.767,-5.697],[-1.753,-5.795],[-1.767,-5.795],[-1.781,-5.831],[-1.816,-5.859],[-1.971,-5.845],[-2.09,-5.718],[-2.188,-5.563],[-2.209,-5.486],[-2.167,-5.479],[-2.104,-5.5],[-1.943,-5.507]]]]},"properties":{"abbr":"VCl","name":"ventral part of claustrum","plate":17,"ap_bregma_mm":2.2,"area_mm2":0.2328,"traced_fraction":[1.0,1.0],"n_labels":2,"no_drawn_outline":false}},{"type":"Feature","geometry":{"type":"MultiPolygon","coordinates":[[[[2.131,-5.282],[2.271,-5.373],[2.523,-5.5],[2.65,-5.584],[2.797,-5.655],[2.839,-5.69],[3.211,-5.894],[3.134,-6.013],[3.0,-6.077],[2.993,-6.091],[2.972,-6.112],[2.944,-6.231],[2.923,-6.253],[2.888,-6.224],[2.818,-6.203],[2.657,-6.175],[2.594,-6.147],[2.531,-6.147],[2.446,-6.098],[2.152,-5.985],[1.97,-5.929],[1.921,-5.929],[1.893,-5.838],[1.893,-5.746],[1.998,-5.514],[2.019,-5.352],[2.11,-5.282],[2.131,-5.282]]],[[[-2.209,-5.486],[-2.188,-5.563],[-2.132,-5.655],[-2.09,-5.718],[-1.971,-5.845],[-2.062,-5.992],[-2.125,-5.992],[-2.37,-6.077],[-2.546,-6.154],[-2.707,-6.196],[-2.728,-6.217],[-2.812,-6.224],[-2.861,-6.245],[-2.896,-6.245],[-3.092,-6.309],[-3.107,-6.33],[-3.17,-6.245],[-3.163,-6.14],[-3.177,-6.133],[-3.184,-6.098],[-3.254,-6.063],[-3.289,-6.006],[-3.282,-5.999],[-3.261,-5.999],[-3.114,-5.908],[-2.952,-5.831],[-2.847,-5.76],[-2.511,-5.584],[-2.3,-5.458],[-2.251,-5.451],[-2.209,-5.486]]]]},"properties":{"abbr":"AI","name":"agranular insular cortex","plate":17,"ap_bregma_mm":2.2,"area_mm2":1.2241,"traced_fraction":[1.0,1.0],"n_labels":2,"no_drawn_outline":false}},{"type":"Feature","geometry":{"type":"MultiPolygon","coordinates":[[[[0.603,-5.669],[0.603,-5.732],[0.603,-5.852],[0.631,-5.95],[0.616,-5.95],[0.553,-6.02],[0.483,-6.013],[0.203,-6.056],[-0.05,-6.07],[-0.078,-6.091],[-0.702,-6.077],[-0.758,-6.02],[-0.765,-5.971],[-0.737,-5.957],[-0.709,-5.901],[-0.709,-5.816],[-0.73,-5.767],[-0.737,-5.697],[-0.449,-5.69],[-0.344,-5.704],[-0.071,-5.704],[0.006,-5.69],[0.603,-5.669]]]]},"properties":{"abbr":"DP","name":"dorsal peduncular cortex","plate":17,"ap_bregma_mm":2.2,"area_mm2":0.4972,"traced_fraction":[1.0],"n_labels":2,"no_drawn_outline":false}},{"type":"Feature","geometry":{"type":"MultiPolygon","coordinates":[[[[0.553,-6.02],[0.532,-6.091],[0.497,-6.133],[0.427,-6.147],[0.301,-6.239],[0.098,-6.449],[0.035,-6.59],[0.006,-6.625],[-0.015,-6.625],[-0.036,-6.478],[-0.036,-6.449],[-0.057,-6.421],[-0.085,-6.428],[-0.085,-6.478],[-0.099,-6.499],[-0.12,-6.66],[-0.162,-6.646],[-0.211,-6.597],[-0.295,-6.464],[-0.421,-6.337],[-0.583,-6.224],[-0.625,-6.231],[-0.632,-6.231],[-0.702,-6.077],[-0.078,-6.091],[-0.05,-6.07],[0.203,-6.056],[0.483,-6.013],[0.553,-6.02]]]]},"properties":{"abbr":"DTT","name":"dorsal tenia tecta","plate":17,"ap_bregma_mm":2.2,"area_mm2":0.3631,"traced_fraction":[1.0],"n_labels":2,"no_drawn_outline":false}},{"type":"Feature","geometry":{"type":"MultiPolygon","coordinates":[[[[1.893,-5.746],[1.893,-5.838],[1.921,-5.929],[1.935,-5.978],[1.984,-6.035],[2.005,-6.091],[1.984,-6.224],[1.956,-6.224],[1.893,-6.26],[1.787,-6.267],[1.71,-6.253],[1.654,-6.196],[1.633,-6.147],[1.619,-6.042],[1.64,-5.894],[1.626,-5.802],[1.731,-5.816],[1.864,-5.746],[1.893,-5.746]]],[[[-1.753,-5.795],[-1.746,-5.887],[-1.831,-6.168],[-1.838,-6.344],[-1.823,-6.358],[-2.006,-6.358],[-2.048,-6.337],[-2.104,-6.281],[-2.104,-6.133],[-2.062,-5.992],[-1.971,-5.845],[-1.816,-5.859],[-1.781,-5.831],[-1.767,-5.795],[-1.753,-5.795]]]]},"properties":{"abbr":"DEn","name":"dorsal endopiriform nucleus","plate":17,"ap_bregma_mm":2.2,"area_mm2":0.2834,"traced_fraction":[1.0,0.991],"n_labels":2,"no_drawn_outline":false}},{"type":"Feature","geometry":{"type":"MultiPolygon","coordinates":[[[[1.619,-6.042],[1.633,-6.147],[1.654,-6.196],[1.71,-6.253],[1.717,-6.309],[1.759,-6.393],[1.759,-6.485],[1.738,-6.499],[1.724,-6.478],[1.717,-6.393],[1.682,-6.344],[1.647,-6.344],[1.612,-6.393],[1.563,-6.4],[1.472,-6.316],[1.437,-6.316],[1.395,-6.337],[1.36,-6.372],[1.332,-6.428],[1.332,-6.541],[1.381,-6.66],[1.458,-6.766],[1.346,-6.787],[1.149,-6.78],[0.995,-6.745],[0.883,-6.696],[0.792,-6.632],[0.694,-6.534],[0.687,-6.492],[0.645,-6.456],[0.582,-6.337],[0.539,-6.189],[0.504,-6.147],[0.497,-6.133],[0.532,-6.091],[0.553,-6.02],[0.616,-5.95],[0.631,-5.95],[0.652,-5.95],[0.673,-5.929],[0.694,-5.767],[0.715,-5.718],[0.736,-5.711],[0.967,-5.711],[1.121,-5.732],[1.22,-5.76],[1.388,-5.859],[1.521,-5.964],[1.577,-6.028],[1.619,-6.042]]],[[[-0.814,-5.774],[-0.786,-5.831],[-0.765,-5.971],[-0.758,-6.02],[-0.702,-6.077],[-0.632,-6.231],[-0.653,-6.245],[-0.723,-6.464],[-0.793,-6.583],[-0.912,-6.703],[-1.031,-6.773],[-1.143,-6.808],[-1.291,-6.808],[-1.389,-6.78],[-1.508,-6.71],[-1.508,-6.611],[-1.522,-6.597],[-1.592,-6.59],[-1.627,-6.562],[-1.648,-6.428],[-1.683,-6.379],[-1.746,-6.379],[-1.767,-6.393],[-1.81,-6.478],[-1.823,-6.456],[-1.823,-6.393],[-1.802,-6.365],[-1.718,-6.217],[-1.62,-6.084],[-1.445,-5.929],[-1.312,-5.859],[-1.143,-5.802],[-0.961,-5.774],[-0.814,-5.774]]]]},"properties":{"abbr":"AcbC","name":"accumbens nucleus, core","plate":17,"ap_bregma_mm":2.2,"area_mm2":1.672,"traced_fraction":[0.972,0.97],"n_labels":2,"no_drawn_outline":false}},{"type":"Feature","geometry":{"type":"MultiPolygon","coordinates":[[[[1.984,-6.224],[2.005,-6.337],[1.984,-6.449],[1.935,-6.513],[1.851,-6.576],[1.801,-6.689],[1.766,-6.724],[1.731,-6.675],[1.731,-6.653],[1.703,-6.646],[1.633,-6.745],[1.598,-6.773],[1.563,-6.78],[1.563,-6.745],[1.591,-6.696],[1.654,-6.632],[1.689,-6.625],[1.717,-6.597],[1.738,-6.499],[1.759,-6.485],[1.759,-6.393],[1.717,-6.309],[1.71,-6.253],[1.787,-6.267],[1.893,-6.26],[1.956,-6.224],[1.984,-6.224]]],[[[-2.104,-6.281],[-2.048,-6.337],[-2.006,-6.358],[-1.823,-6.358],[-1.802,-6.365],[-1.823,-6.393],[-1.823,-6.456],[-1.81,-6.478],[-1.816,-6.668],[-1.802,-6.745],[-1.866,-6.745],[-1.95,-6.703],[-2.125,-6.471],[-2.139,-6.4],[-2.118,-6.288],[-2.104,-6.281]]]]},"properties":{"abbr":"IEn","name":"intermediate endopiriform nucleus","plate":17,"ap_bregma_mm":2.2,"area_mm2":0.1936,"traced_fraction":[1.0,1.0],"n_labels":2,"no_drawn_outline":false}},{"type":"Feature","geometry":{"type":"MultiPolygon","coordinates":[[[[1.921,-5.929],[1.97,-5.929],[2.152,-5.985],[2.446,-6.098],[2.531,-6.147],[2.446,-6.26],[2.306,-6.365],[2.278,-6.372],[2.278,-6.386],[2.11,-6.464],[2.005,-6.576],[1.9,-6.745],[1.879,-6.808],[1.879,-6.921],[1.858,-6.928],[1.858,-7.005],[1.843,-7.033],[1.766,-7.047],[1.661,-7.104],[1.591,-7.096],[1.563,-7.125],[1.556,-7.167],[1.521,-7.209],[1.423,-7.223],[1.29,-7.265],[1.283,-7.279],[1.184,-7.315],[1.1,-7.392],[1.051,-7.385],[1.037,-7.42],[0.869,-7.35],[0.827,-7.364],[0.834,-7.42],[0.68,-7.406],[0.687,-7.371],[0.673,-7.357],[0.511,-7.3],[0.42,-7.216],[0.371,-7.146],[0.371,-7.132],[0.469,-7.061],[0.546,-7.153],[0.673,-7.202],[0.82,-7.195],[0.89,-7.167],[0.904,-7.146],[1.023,-7.167],[1.023,-7.188],[1.072,-7.216],[1.114,-7.216],[1.191,-7.174],[1.241,-7.104],[1.241,-7.061],[1.22,-7.033],[1.269,-6.97],[1.325,-6.942],[1.325,-7.012],[1.339,-7.047],[1.402,-7.061],[1.5,-6.991],[1.591,-6.991],[1.633,-6.97],[1.64,-6.921],[1.773,-6.893],[1.858,-6.9],[1.836,-6.85],[1.794,-6.801],[1.766,-6.724],[1.801,-6.689],[1.851,-6.576],[1.935,-6.513],[1.984,-6.449],[2.005,-6.365],[1.984,-6.224],[2.005,-6.091],[1.984,-6.035],[1.935,-5.978],[1.921,-5.929]]]]},"properties":{"abbr":"3","name":"layer 3 of cortex","plate":17,"ap_bregma_mm":2.2,"area_mm2":0.5093,"traced_fraction":[0.995],"n_labels":2,"no_drawn_outline":false}},{"type":"Feature","geometry":{"type":"MultiPolygon","coordinates":[[[[-2.062,-5.992],[-2.104,-6.133],[-2.104,-6.281],[-2.118,-6.288],[-2.195,-6.288],[-2.195,-6.4],[-2.139,-6.4],[-2.125,-6.471],[-2.265,-6.471],[-2.265,-6.506],[-2.286,-6.506],[-2.307,-6.485],[-2.427,-6.449],[-2.433,-6.597],[-2.497,-6.583],[-2.595,-6.534],[-2.7,-6.513],[-2.728,-6.478],[-2.742,-6.421],[-2.847,-6.316],[-2.861,-6.245],[-2.812,-6.224],[-2.728,-6.217],[-2.707,-6.196],[-2.546,-6.154],[-2.37,-6.077],[-2.125,-5.992],[-2.062,-5.992]]],[[[2.531,-6.147],[2.594,-6.147],[2.657,-6.175],[2.65,-6.267],[2.481,-6.449],[2.292,-6.527],[2.278,-6.386],[2.278,-6.372],[2.306,-6.365],[2.446,-6.26],[2.531,-6.147]]],[[[-1.999,-7.047],[-1.999,-7.096],[-2.02,-7.132],[-2.013,-7.174],[-1.88,-7.237],[-1.767,-7.322],[-1.55,-7.42],[-1.564,-7.54],[-1.69,-7.49],[-1.859,-7.364],[-1.999,-7.286],[-2.048,-7.279],[-2.076,-7.294],[-2.139,-7.294],[-2.174,-7.265],[-2.174,-7.251],[-2.167,-7.209],[-2.132,-7.146],[-2.048,-7.075],[-2.034,-7.04],[-2.006,-7.033],[-1.999,-7.047]]],[[[0.371,-7.146],[0.42,-7.216],[0.511,-7.3],[0.673,-7.357],[0.687,-7.371],[0.68,-7.406],[0.631,-7.413],[0.624,-7.406],[0.539,-7.413],[0.434,-7.364],[0.343,-7.258],[0.322,-7.167],[0.336,-7.146],[0.371,-7.146]]]]},"properties":{"abbr":"2","name":"layer 2 of cortex","plate":17,"ap_bregma_mm":2.2,"area_mm2":0.4538,"traced_fraction":[0.84,0.923,0.964,1.0],"n_labels":4,"no_drawn_outline":false}},{"type":"Feature","geometry":{"type":"MultiPolygon","coordinates":[[[[1.738,-6.499],[1.717,-6.597],[1.689,-6.625],[1.654,-6.632],[1.591,-6.696],[1.563,-6.745],[1.563,-6.78],[1.458,-6.766],[1.381,-6.66],[1.332,-6.541],[1.332,-6.428],[1.36,-6.372],[1.395,-6.337],[1.437,-6.316],[1.472,-6.316],[1.563,-6.4],[1.598,-6.4],[1.647,-6.358],[1.647,-6.344],[1.682,-6.344],[1.717,-6.393],[1.724,-6.478],[1.738,-6.499]]],[[[-1.508,-6.71],[-1.543,-6.78],[-1.606,-6.836],[-1.725,-6.871],[-1.802,-6.745],[-1.816,-6.668],[-1.81,-6.478],[-1.767,-6.393],[-1.746,-6.379],[-1.683,-6.379],[-1.648,-6.428],[-1.627,-6.562],[-1.592,-6.59],[-1.522,-6.597],[-1.508,-6.611],[-1.508,-6.71]]]]},"properties":{"abbr":"aca","name":"anterior commissure, anterior part","plate":17,"ap_bregma_mm":2.2,"area_mm2":0.2319,"traced_fraction":[1.0,1.0],"n_labels":2,"no_drawn_outline":false}},{"type":"Feature","geometry":{"type":"MultiPolygon","coordinates":[[[[2.278,-6.386],[2.292,-6.527],[2.145,-6.611],[2.047,-6.703],[1.963,-6.9],[1.935,-6.935],[1.907,-6.942],[1.879,-6.921],[1.879,-6.808],[1.921,-6.703],[1.984,-6.604],[2.11,-6.464],[2.278,-6.386]]],[[[-2.125,-6.471],[-1.95,-6.703],[-1.866,-6.745],[-1.802,-6.745],[-1.725,-6.871],[-1.725,-6.886],[-1.753,-6.9],[-1.774,-6.963],[-1.767,-7.061],[-1.852,-7.075],[-1.95,-7.047],[-1.999,-7.047],[-2.006,-7.033],[-2.034,-7.04],[-2.055,-7.04],[-2.083,-7.005],[-2.174,-6.794],[-2.279,-6.689],[-2.433,-6.597],[-2.427,-6.449],[-2.377,-6.456],[-2.286,-6.506],[-2.265,-6.506],[-2.265,-6.471],[-2.125,-6.471]]]]},"properties":{"abbr":"Pir","name":"piriform cortex","plate":17,"ap_bregma_mm":2.2,"area_mm2":0.2852,"traced_fraction":[0.934,0.896],"n_labels":2,"no_drawn_outline":false}},{"type":"Feature","geometry":{"type":"MultiPolygon","coordinates":[[[[2.664,-6.576],[2.664,-6.59],[2.594,-6.689],[2.39,-6.907],[2.376,-6.907],[2.166,-7.111],[1.991,-7.209],[1.963,-7.174],[1.956,-7.09],[2.047,-6.942],[2.173,-6.808],[2.348,-6.682],[2.481,-6.611],[2.594,-6.569],[2.664,-6.576]]],[[[-2.132,-7.146],[-2.153,-7.174],[-2.174,-7.251],[-2.209,-7.279],[-2.23,-7.279],[-2.23,-7.294],[-2.63,-6.886],[-2.728,-6.773],[-2.714,-6.752],[-2.665,-6.752],[-2.448,-6.815],[-2.363,-6.857],[-2.195,-7.005],[-2.132,-7.146]]]]},"properties":{"abbr":"lo","name":"lateral olfactory tract","plate":17,"ap_bregma_mm":2.2,"area_mm2":0.2757,"traced_fraction":[1.0,1.0],"n_labels":2,"no_drawn_outline":false}},{"type":"Feature","geometry":{"type":"MultiPolygon","coordinates":[[[[0.504,-6.147],[0.539,-6.189],[0.582,-6.337],[0.645,-6.456],[0.687,-6.492],[0.694,-6.534],[0.792,-6.632],[0.883,-6.696],[0.995,-6.745],[1.149,-6.78],[1.346,-6.787],[1.458,-6.766],[1.563,-6.78],[1.549,-6.836],[1.409,-6.886],[1.325,-6.942],[1.269,-6.97],[1.22,-7.033],[1.128,-7.096],[1.1,-7.132],[1.023,-7.167],[0.904,-7.146],[0.82,-7.104],[0.574,-7.047],[0.476,-6.998],[0.441,-6.956],[0.378,-6.808],[0.364,-6.597],[0.42,-6.323],[0.462,-6.21],[0.504,-6.147]]],[[[-0.632,-6.231],[-0.625,-6.231],[-0.533,-6.471],[-0.505,-6.597],[-0.505,-6.71],[-0.519,-6.794],[-0.568,-6.935],[-0.639,-7.04],[-0.695,-7.09],[-0.695,-7.111],[-0.8,-7.153],[-0.814,-7.195],[-0.821,-7.188],[-0.814,-7.167],[-0.842,-7.167],[-1.024,-7.237],[-1.171,-7.265],[-1.417,-7.251],[-1.459,-7.244],[-1.536,-7.195],[-1.578,-7.096],[-1.683,-6.97],[-1.725,-6.907],[-1.725,-6.886],[-1.725,-6.871],[-1.606,-6.836],[-1.543,-6.78],[-1.508,-6.71],[-1.389,-6.78],[-1.291,-6.808],[-1.143,-6.808],[-1.031,-6.773],[-0.912,-6.703],[-0.793,-6.583],[-0.723,-6.464],[-0.653,-6.245],[-0.632,-6.231]]]]},"properties":{"abbr":"AcbSh","name":"accumbens nucleus, shell","plate":17,"ap_bregma_mm":2.2,"area_mm2":1.0489,"traced_fraction":[0.966,0.989],"n_labels":2,"no_drawn_outline":false}},{"type":"Feature","geometry":{"type":"MultiPolygon","coordinates":[[[[0.497,-6.133],[0.504,-6.147],[0.462,-6.21],[0.42,-6.323],[0.364,-6.597],[0.378,-6.808],[0.441,-6.956],[0.476,-6.998],[0.469,-7.061],[0.371,-7.132],[0.371,-7.146],[0.336,-7.146],[0.322,-7.167],[0.182,-7.258],[0.105,-7.16],[0.014,-6.97],[-0.022,-6.787],[-0.015,-6.625],[0.006,-6.625],[0.035,-6.59],[0.098,-6.449],[0.301,-6.239],[0.427,-6.147],[0.497,-6.133]]],[[[-0.12,-6.66],[-0.162,-7.019],[-0.253,-7.237],[-0.33,-7.35],[-0.414,-7.427],[-0.449,-7.357],[-0.435,-7.329],[-0.435,-7.251],[-0.463,-7.209],[-0.477,-7.174],[-0.554,-7.118],[-0.554,-7.09],[-0.568,-7.09],[-0.562,-7.118],[-0.695,-7.111],[-0.695,-7.09],[-0.639,-7.04],[-0.568,-6.935],[-0.519,-6.794],[-0.505,-6.71],[-0.519,-6.527],[-0.625,-6.231],[-0.583,-6.224],[-0.421,-6.337],[-0.295,-6.464],[-0.211,-6.597],[-0.162,-6.646],[-0.12,-6.66]]]]},"properties":{"abbr":"Nv","name":"navicular nucleus of the basal forebrain","plate":17,"ap_bregma_mm":2.2,"area_mm2":0.673,"traced_fraction":[1.0,0.993],"n_labels":2,"no_drawn_outline":false}},{"type":"Feature","geometry":{"type":"MultiPolygon","coordinates":[[[[1.879,-6.921],[1.907,-6.942],[1.921,-7.012],[1.949,-7.068],[1.942,-7.083],[1.83,-7.125],[1.745,-7.195],[1.612,-7.251],[1.542,-7.3],[1.444,-7.322],[1.367,-7.371],[1.275,-7.406],[1.191,-7.42],[1.135,-7.448],[1.1,-7.392],[1.142,-7.343],[1.212,-7.3],[1.283,-7.279],[1.29,-7.265],[1.423,-7.223],[1.521,-7.209],[1.549,-7.181],[1.563,-7.125],[1.591,-7.096],[1.661,-7.104],[1.766,-7.047],[1.843,-7.033],[1.858,-7.005],[1.858,-6.928],[1.879,-6.921]]],[[[-0.505,-7.371],[-0.526,-7.371],[-0.625,-7.462],[-0.884,-7.533],[-1.206,-7.547],[-1.347,-7.575],[-1.459,-7.575],[-1.564,-7.54],[-1.55,-7.42],[-1.354,-7.469],[-1.213,-7.476],[-0.94,-7.434],[-0.59,-7.315],[-0.547,-7.322],[-0.505,-7.371]]]]},"properties":{"abbr":"Tu","name":"olfactory tubercle","plate":17,"ap_bregma_mm":2.2,"area_mm2":0.2103,"traced_fraction":[1.0,0.973],"n_labels":2,"no_drawn_outline":false}},{"type":"Feature","geometry":{"type":"MultiPolygon","coordinates":[[[[0.091,-1.948],[0.294,-2.173],[0.322,-2.223],[0.392,-2.293],[0.497,-2.44],[0.666,-2.637],[1.149,-3.306],[1.36,-3.559],[1.409,-3.643],[1.402,-3.657],[1.381,-3.657],[1.346,-3.707],[1.297,-3.721],[1.241,-3.77],[1.22,-3.77],[1.037,-3.657],[0.455,-3.369],[0.252,-3.284],[0.091,-3.193],[0.021,-3.165],[-0.015,-3.165],[-0.007,-2.863],[-0.029,-2.532],[-0.015,-2.145],[-0.001,-2.075],[0.042,-1.99],[0.091,-1.948]]],[[[-0.33,-2.026],[-0.246,-2.11],[-0.162,-2.3],[-0.141,-2.391],[-0.127,-2.94],[-0.106,-3.186],[-0.141,-3.186],[-0.316,-3.292],[-0.646,-3.524],[-0.919,-3.692],[-0.933,-3.714],[-0.989,-3.742],[-1.277,-3.953],[-1.326,-3.882],[-1.375,-3.833],[-1.417,-3.812],[-1.445,-3.77],[-1.255,-3.474],[-1.087,-3.151],[-1.059,-3.123],[-1.017,-3.031],[-0.954,-2.947],[-0.793,-2.666],[-0.59,-2.363],[-0.33,-2.026]]]]},"properties":{"abbr":"Cg1","name":"cingulate cortex, area 1","plate":17,"ap_bregma_mm":2.2,"area_mm2":2.2087,"traced_fraction":[1.0,1.0],"n_labels":2,"no_drawn_outline":false}},{"type":"Feature","geometry":{"type":"MultiPolygon","coordinates":[[[[3.028,-2.047],[3.127,-2.096],[3.246,-2.18],[3.302,-2.237],[3.477,-2.356],[3.73,-2.574],[3.722,-2.581],[3.737,-2.581],[3.772,-2.609],[3.765,-2.616],[3.779,-2.616],[3.793,-2.63],[3.814,-2.644],[3.828,-2.659],[3.863,-2.687],[3.94,-2.743],[4.164,-2.968],[4.178,-2.968],[4.255,-3.045],[4.368,-3.193],[4.48,-3.411],[4.529,-3.622],[4.529,-3.721],[4.045,-3.77],[3.673,-3.791],[2.895,-3.875],[2.306,-3.918],[2.257,-3.932],[2.236,-3.925],[2.152,-3.819],[2.005,-3.714],[2.145,-3.503],[2.208,-3.383],[2.257,-3.327],[2.418,-3.038],[2.474,-2.968],[2.664,-2.637],[2.699,-2.602],[2.748,-2.497],[2.825,-2.384],[2.951,-2.152],[3.028,-2.047]]],[[[-3.275,-2.286],[-3.205,-2.44],[-3.191,-2.448],[-3.043,-2.736],[-3.008,-2.778],[-2.973,-2.87],[-2.917,-2.94],[-2.805,-3.151],[-2.714,-3.278],[-2.679,-3.355],[-2.588,-3.474],[-2.377,-3.84],[-2.286,-3.974],[-2.405,-4.1],[-2.504,-4.079],[-2.693,-4.079],[-3.008,-4.051],[-3.191,-4.051],[-3.632,-4.016],[-3.815,-4.016],[-4.123,-3.988],[-4.747,-3.96],[-4.74,-3.819],[-4.67,-3.58],[-4.628,-3.488],[-4.411,-3.151],[-3.983,-2.729],[-3.752,-2.581],[-3.724,-2.546],[-3.583,-2.462],[-3.485,-2.384],[-3.275,-2.286]]]]},"properties":{"abbr":"S1FL","name":"primary somatosensory cortex, forelimb region","plate":17,"ap_bregma_mm":2.2,"area_mm2":5.3187,"traced_fraction":[1.0,1.0],"n_labels":2,"no_drawn_outline":false}},{"type":"Feature","geometry":{"type":"MultiPolygon","coordinates":[[[[4.501,-4.009],[4.487,-4.129],[4.445,-4.269],[4.339,-4.473],[4.108,-4.783],[3.631,-5.338],[3.091,-5.078],[2.888,-4.994],[2.355,-4.719],[2.292,-4.698],[2.327,-4.473],[2.327,-4.164],[2.313,-4.072],[2.601,-4.044],[3.106,-4.023],[3.933,-4.016],[3.996,-4.002],[4.501,-4.009]]],[[[-2.469,-4.213],[-2.511,-4.368],[-2.525,-4.529],[-2.518,-4.797],[-2.476,-4.93],[-2.539,-4.951],[-2.658,-5.029],[-3.261,-5.331],[-3.282,-5.331],[-3.639,-5.507],[-3.675,-5.542],[-3.927,-5.324],[-3.941,-5.324],[-4.397,-4.86],[-4.46,-4.747],[-4.635,-4.501],[-4.712,-4.29],[-4.677,-4.276],[-4.256,-4.269],[-4.039,-4.248],[-3.766,-4.248],[-2.763,-4.206],[-2.469,-4.213]]]]},"properties":{"abbr":"S1J","name":"primary somatosensory cortex, jaw region","plate":17,"ap_bregma_mm":2.2,"area_mm2":3.9773,"traced_fraction":[1.0,1.0],"n_labels":2,"no_drawn_outline":false}},{"type":"Feature","geometry":{"type":"MultiPolygon","coordinates":[[[[2.145,-5.092],[2.152,-5.184],[2.124,-5.261],[2.131,-5.282],[2.11,-5.282],[2.019,-5.352],[1.956,-5.366],[1.787,-5.352],[1.787,-5.331],[1.864,-5.261],[1.949,-5.212],[1.97,-5.212],[1.984,-5.19],[2.005,-5.19],[2.082,-5.141],[2.117,-5.099],[2.145,-5.092]]],[[[-2.335,-5.226],[-2.265,-5.303],[-2.202,-5.338],[-2.181,-5.366],[-2.062,-5.416],[-1.943,-5.507],[-2.048,-5.507],[-2.167,-5.479],[-2.209,-5.486],[-2.251,-5.451],[-2.3,-5.458],[-2.356,-5.331],[-2.356,-5.24],[-2.335,-5.226]]]]},"properties":{"abbr":"DCl","name":"dorsal part of claustrum","plate":17,"ap_bregma_mm":2.2,"area_mm2":0.0915,"traced_fraction":[0.98,0.962],"n_labels":2,"no_drawn_outline":false}},{"type":"Feature","geometry":{"type":"MultiPolygon","coordinates":[[[[0.736,-5.226],[0.883,-5.226],[0.729,-5.662],[0.736,-5.711],[0.715,-5.718],[0.694,-5.767],[0.673,-5.929],[0.652,-5.95],[0.631,-5.95],[0.603,-5.852],[0.603,-5.732],[0.645,-5.732],[0.68,-5.62],[0.715,-5.458],[0.736,-5.226]]]]},"properties":{"abbr":"E","name":"ependyma and subependymal layer","plate":17,"ap_bregma_mm":2.2,"area_mm2":0.0633,"traced_fraction":[0.952],"n_labels":1,"no_drawn_outline":false}},{"type":"Feature","geometry":{"type":"MultiPolygon","coordinates":[[[[2.222,-4.895],[2.741,-5.198],[2.867,-5.254],[3.127,-5.409],[3.407,-5.542],[3.435,-5.57],[3.456,-5.57],[3.211,-5.894],[2.839,-5.69],[2.797,-5.655],[2.699,-5.613],[2.523,-5.5],[2.271,-5.373],[2.131,-5.282],[2.124,-5.261],[2.152,-5.184],[2.145,-5.092],[2.138,-5.071],[2.159,-5.008],[2.222,-4.895]]],[[[-2.391,-5.127],[-2.335,-5.226],[-2.356,-5.24],[-2.356,-5.331],[-2.3,-5.458],[-2.511,-5.584],[-2.847,-5.76],[-2.952,-5.831],[-3.114,-5.908],[-3.261,-5.999],[-3.282,-5.999],[-3.289,-6.006],[-3.387,-5.873],[-3.485,-5.725],[-2.595,-5.254],[-2.391,-5.127]]]]},"properties":{"abbr":"DI","name":"dysgranular insular cortex","plate":17,"ap_bregma_mm":2.2,"area_mm2":0.9153,"traced_fraction":[1.0,0.993],"n_labels":2,"no_drawn_outline":false}},{"type":"Feature","geometry":{"type":"MultiPolygon","coordinates":[[[[0.476,-6.998],[0.574,-7.047],[0.82,-7.104],[0.904,-7.146],[0.89,-7.167],[0.82,-7.195],[0.673,-7.202],[0.546,-7.153],[0.469,-7.061],[0.476,-6.998]]]]},"properties":{"abbr":"VP","name":"ventral pallidum","plate":17,"ap_bregma_mm":2.2,"area_mm2":0.0433,"traced_fraction":[1.0],"n_labels":1,"no_drawn_outline":false}},{"type":"Feature","geometry":{"type":"MultiPolygon","coordinates":[[[[-1.999,-7.047],[-1.95,-7.047],[-1.852,-7.075],[-1.767,-7.061],[-1.746,-7.111],[-1.69,-7.16],[-1.536,-7.195],[-1.459,-7.244],[-1.417,-7.251],[-1.41,-7.286],[-1.333,-7.329],[-1.066,-7.329],[-0.905,-7.279],[-0.863,-7.237],[-0.849,-7.202],[-0.842,-7.195],[-0.821,-7.188],[-0.814,-7.195],[-0.821,-7.216],[-0.807,-7.244],[-0.716,-7.279],[-0.617,-7.272],[-0.526,-7.216],[-0.463,-7.209],[-0.435,-7.251],[-0.435,-7.329],[-0.449,-7.357],[-0.505,-7.371],[-0.547,-7.322],[-0.59,-7.315],[-0.94,-7.434],[-1.213,-7.476],[-1.354,-7.469],[-1.55,-7.42],[-1.767,-7.322],[-1.88,-7.237],[-2.013,-7.174],[-2.02,-7.132],[-1.999,-7.096],[-1.999,-7.047]]]]},"properties":{"abbr":"ICj","name":"islands of Calleja","plate":17,"ap_bregma_mm":2.2,"area_mm2":0.2445,"traced_fraction":[1.0],"n_labels":1,"no_drawn_outline":false}},{"type":"Feature","geometry":{"type":"MultiPolygon","coordinates":[[[[2.657,-6.175],[2.818,-6.203],[2.888,-6.224],[2.923,-6.253],[2.839,-6.379],[2.811,-6.4],[2.79,-6.443],[2.769,-6.449],[2.671,-6.583],[2.664,-6.576],[2.594,-6.569],[2.481,-6.611],[2.348,-6.682],[2.173,-6.808],[2.047,-6.942],[1.956,-7.09],[1.963,-7.174],[1.991,-7.209],[1.907,-7.265],[1.479,-7.455],[1.283,-7.568],[1.17,-7.61],[1.163,-7.624],[1.051,-7.645],[0.974,-7.645],[0.946,-7.631],[0.953,-7.589],[0.911,-7.476],[0.932,-7.462],[1.037,-7.455],[1.079,-7.519],[1.128,-7.526],[1.135,-7.448],[1.191,-7.42],[1.275,-7.406],[1.367,-7.371],[1.444,-7.322],[1.542,-7.3],[1.612,-7.251],[1.745,-7.195],[1.83,-7.125],[1.942,-7.083],[1.949,-7.068],[1.935,-7.054],[1.907,-6.942],[1.935,-6.935],[1.963,-6.9],[2.047,-6.703],[2.145,-6.611],[2.292,-6.527],[2.481,-6.449],[2.65,-6.267],[2.657,-6.175]]],[[[-2.861,-6.245],[-2.847,-6.316],[-2.742,-6.421],[-2.728,-6.478],[-2.7,-6.513],[-2.595,-6.534],[-2.497,-6.583],[-2.433,-6.597],[-2.279,-6.689],[-2.174,-6.794],[-2.083,-7.005],[-2.055,-7.04],[-2.034,-7.04],[-2.048,-7.075],[-2.132,-7.146],[-2.195,-7.005],[-2.363,-6.857],[-2.448,-6.815],[-2.665,-6.752],[-2.714,-6.752],[-2.728,-6.773],[-2.973,-6.548],[-3.107,-6.33],[-3.092,-6.309],[-2.896,-6.245],[-2.861,-6.245]]],[[[-2.174,-7.251],[-2.174,-7.265],[-2.139,-7.294],[-2.076,-7.294],[-2.048,-7.279],[-1.999,-7.286],[-1.859,-7.364],[-1.69,-7.49],[-1.564,-7.54],[-1.459,-7.575],[-1.347,-7.575],[-1.206,-7.547],[-0.884,-7.533],[-0.625,-7.462],[-0.526,-7.371],[-0.505,-7.371],[-0.449,-7.357],[-0.414,-7.427],[-0.456,-7.476],[-0.646,-7.603],[-0.961,-7.659],[-0.996,-7.666],[-1.031,-7.673],[-1.136,-7.701],[-1.424,-7.701],[-1.634,-7.652],[-1.95,-7.519],[-2.153,-7.378],[-2.23,-7.294],[-2.23,-7.279],[-2.209,-7.279],[-2.174,-7.251]]]]},"properties":{"abbr":"1","name":"layer 1 of cortex","plate":17,"ap_bregma_mm":2.2,"area_mm2":0.876,"traced_fraction":[1.0,1.0,0.995],"n_labels":4,"no_drawn_outline":false}},{"type":"Feature","geometry":{"type":"Polygon","coordinates":[[[1.766,-6.724],[1.794,-6.801],[1.836,-6.85],[1.858,-6.9],[1.773,-6.893],[1.64,-6.921],[1.633,-6.97],[1.591,-6.991],[1.5,-6.991],[1.402,-7.061],[1.339,-7.047],[1.325,-7.012],[1.325,-6.942],[1.409,-6.886],[1.549,-6.836],[1.563,-6.78],[1.598,-6.773],[1.633,-6.745],[1.703,-6.646],[1.731,-6.653],[1.731,-6.675],[1.766,-6.724]]]},"properties":{"abbr":null,"name":"unnamed sealed face","plate":17,"ap_bregma_mm":2.2,"index":0}},{"type":"Feature","geometry":{"type":"Polygon","coordinates":[[[-1.725,-6.886],[-1.725,-6.907],[-1.683,-6.97],[-1.578,-7.096],[-1.536,-7.195],[-1.69,-7.16],[-1.746,-7.111],[-1.767,-7.061],[-1.774,-6.963],[-1.753,-6.9],[-1.725,-6.886]]]},"properties":{"abbr":null,"name":"unnamed sealed face","plate":17,"ap_bregma_mm":2.2,"index":1}},{"type":"Feature","geometry":{"type":"Polygon","coordinates":[[[-0.695,-7.111],[-0.562,-7.118],[-0.554,-7.118],[-0.477,-7.174],[-0.463,-7.209],[-0.526,-7.216],[-0.617,-7.272],[-0.716,-7.279],[-0.807,-7.244],[-0.821,-7.216],[-0.814,-7.195],[-0.8,-7.153],[-0.695,-7.111]]]},"properties":{"abbr":null,"name":"unnamed sealed face","plate":17,"ap_bregma_mm":2.2,"index":2}},{"type":"Feature","geometry":{"type":"Polygon","coordinates":[[[-0.821,-7.188],[-0.842,-7.195],[-0.849,-7.202],[-0.863,-7.237],[-0.905,-7.279],[-1.066,-7.329],[-1.333,-7.329],[-1.41,-7.286],[-1.417,-7.251],[-1.171,-7.265],[-1.024,-7.237],[-0.842,-7.167],[-0.814,-7.167],[-0.821,-7.188]]]},"properties":{"abbr":null,"name":"unnamed sealed face","plate":17,"ap_bregma_mm":2.2,"index":3}},{"type":"Feature","geometry":{"type":"Polygon","coordinates":[[[0.322,-7.167],[0.343,-7.258],[0.434,-7.364],[0.539,-7.413],[0.624,-7.406],[0.631,-7.413],[0.68,-7.406],[0.834,-7.42],[0.827,-7.364],[0.869,-7.35],[1.037,-7.42],[1.037,-7.455],[0.932,-7.462],[0.911,-7.476],[0.953,-7.589],[0.946,-7.631],[0.785,-7.589],[0.567,-7.589],[0.483,-7.561],[0.378,-7.49],[0.266,-7.378],[0.182,-7.258],[0.322,-7.167]]]},"properties":{"abbr":null,"name":"unnamed sealed face","plate":17,"ap_bregma_mm":2.2,"index":4}},{"type":"Feature","geometry":{"type":"MultiPolygon","coordinates":[[[[-1.164,-7.694],[-1.41,-7.694],[-1.627,-7.645],[-1.936,-7.519],[-2.16,-7.364],[-2.511,-7.012],[-2.742,-6.759],[-2.966,-6.548],[-3.17,-6.239],[-3.163,-6.147],[-3.184,-6.098],[-3.261,-6.049],[-3.492,-5.718],[-3.647,-5.563],[-3.962,-5.296],[-4.39,-4.86],[-4.642,-4.48],[-4.74,-4.22],[-4.754,-4.135],[-4.74,-3.826],[-4.684,-3.622],[-4.635,-3.503],[-4.404,-3.144],[-3.99,-2.736],[-3.492,-2.391],[-3.107,-2.194],[-2.679,-2.012],[-2.398,-1.92],[-1.999,-1.815],[-1.515,-1.744],[-1.038,-1.744],[-0.814,-1.779],[-0.674,-1.822],[-0.554,-1.864],[-0.386,-1.962],[-0.253,-2.11],[-0.169,-2.307],[-0.148,-2.405],[-0.134,-2.884],[-0.099,-3.418],[-0.022,-3.425],[-0.007,-2.947],[-0.029,-2.448],[-0.015,-2.159],[-0.001,-2.082],[0.042,-1.99],[0.189,-1.836],[0.322,-1.758],[0.518,-1.695],[0.701,-1.667],[1.058,-1.639],[1.367,-1.632],[1.759,-1.653],[2.082,-1.695],[2.39,-1.765],[2.587,-1.829],[2.804,-1.92],[3.127,-2.103],[3.442,-2.335],[3.954,-2.764],[4.234,-3.031],[4.36,-3.193],[4.473,-3.418],[4.522,-3.636],[4.522,-3.819],[4.48,-4.114],[4.431,-4.276],[4.326,-4.473],[4.122,-4.747],[3.575,-5.394],[3.141,-5.985],[3.106,-6.02],[3.014,-6.063],[2.972,-6.098],[2.93,-6.239],[2.615,-6.646],[2.425,-6.857],[2.166,-7.096],[1.858,-7.279],[1.423,-7.476],[1.22,-7.589],[1.107,-7.631],[0.981,-7.638],[0.771,-7.582],[0.582,-7.582],[0.525,-7.568],[0.448,-7.533],[0.371,-7.476],[0.273,-7.378],[0.105,-7.153],[0.035,-7.019],[-0.007,-6.886],[-0.022,-6.752],[-0.015,-6.639],[-0.036,-6.471],[-0.099,-6.471],[-0.169,-7.005],[-0.253,-7.216],[-0.344,-7.35],[-0.456,-7.462],[-0.653,-7.596],[-1.129,-7.687],[-1.164,-7.694]]]]},"properties":{"abbr":"brain_outline","name":"outline of the section","plate":17,"ap_bregma_mm":2.2}}]}
