{"type":"FeatureCollection","name":"GerbilAtlas plate 54","note":"Region extents cut from the atlas drawing (METHODS.md, Region extents). Coordinates are [ML, DV] in mm, ML positive to the right of the plate as printed, DV negative below the dorsal surface; AP is the plate bregma. traced_fraction is the share of each polygon boundary the atlas actually draws; below 0.5 the boundary is an estimate. no_drawn_outline marks a feature that lies only inside boundaries the atlas draws round more than one name and prints nothing within, so the whole of its outline is where the extraction cut it. Not a segmentation.","plate":54,"ap_bregma_mm":-10.75,"features":[{"type":"Feature","geometry":{"type":"MultiPolygon","coordinates":[[[[-0.008,-4.359],[0.153,-4.373],[0.167,-4.387],[1.366,-4.451],[1.527,-4.507],[1.597,-4.57],[1.626,-4.62],[1.583,-4.725],[1.408,-4.88],[1.394,-4.88],[1.38,-4.908],[1.345,-4.915],[1.345,-4.929],[1.24,-4.985],[1.191,-5.027],[1.17,-5.027],[1.149,-5.049],[0.917,-5.161],[0.637,-5.253],[0.307,-5.316],[0.16,-5.33],[-0.001,-5.337],[-0.085,-5.323],[-0.254,-5.33],[-0.331,-5.337],[-0.345,-5.316],[-0.408,-5.316],[-0.492,-5.295],[-0.562,-5.302],[-0.674,-5.281],[-0.702,-5.246],[-0.836,-5.203],[-0.913,-5.161],[-0.948,-5.161],[-0.948,-5.147],[-1.319,-4.957],[-1.509,-4.795],[-1.544,-4.718],[-1.544,-4.641],[-1.537,-4.606],[-1.467,-4.521],[-1.319,-4.472],[-1.179,-4.444],[-0.709,-4.451],[-0.436,-4.409],[-0.036,-4.387],[-0.008,-4.359]]]]},"properties":{"abbr":"10Cb","name":"10th cerebellar lobule (nodule)","plate":54,"ap_bregma_mm":-10.75,"area_mm2":2.2686,"traced_fraction":[1.0],"n_labels":1,"no_drawn_outline":false}},{"type":"Feature","geometry":{"type":"MultiPolygon","coordinates":[[[[0.476,-5.991],[0.286,-5.928],[0.251,-5.865],[0.251,-5.829],[0.307,-5.773],[0.37,-5.752],[0.539,-5.766],[0.63,-5.808],[0.679,-5.857],[0.693,-5.935],[0.651,-5.984],[0.476,-5.991]]],[[[-0.247,-5.942],[-0.366,-5.998],[-0.569,-6.026],[-0.639,-5.991],[-0.639,-5.9],[-0.576,-5.836],[-0.492,-5.787],[-0.394,-5.759],[-0.296,-5.759],[-0.254,-5.773],[-0.211,-5.815],[-0.211,-5.872],[-0.254,-5.921],[-0.247,-5.942]]]]},"properties":{"abbr":"10N","name":"dorsal motor nucleus of vagus","plate":54,"ap_bregma_mm":-10.75,"area_mm2":0.1648,"traced_fraction":[1.0,1.0],"n_labels":2,"no_drawn_outline":false}},{"type":"Feature","geometry":{"type":"MultiPolygon","coordinates":[[[[0.034,-5.921],[0.104,-5.914],[0.286,-5.928],[0.476,-5.991],[0.483,-6.04],[0.518,-6.09],[0.532,-6.167],[0.511,-6.28],[0.469,-6.378],[0.406,-6.434],[0.286,-6.434],[0.223,-6.42],[0.16,-6.371],[-0.036,-6.371],[-0.113,-6.406],[-0.282,-6.413],[-0.345,-6.392],[-0.408,-6.322],[-0.436,-6.167],[-0.429,-6.111],[-0.366,-5.998],[-0.247,-5.942],[-0.064,-5.914],[0.034,-5.921]]]]},"properties":{"abbr":"12N","name":"hypoglossal nucleus","plate":54,"ap_bregma_mm":-10.75,"area_mm2":0.4185,"traced_fraction":[1.0],"n_labels":2,"no_drawn_outline":false}},{"type":"Feature","geometry":{"type":"MultiPolygon","coordinates":[[[[0.511,-6.28],[0.574,-6.293],[0.686,-6.406],[0.686,-6.42],[0.742,-6.469],[0.742,-6.483],[1.001,-6.772],[1.001,-6.786],[1.184,-6.976],[1.261,-7.081],[1.289,-7.095],[1.303,-7.131],[1.275,-7.159],[1.163,-7.166],[1.121,-7.137],[1.093,-7.137],[1.071,-7.159],[1.044,-7.208],[1.016,-7.32],[0.335,-7.32],[0.307,-7.201],[0.286,-6.997],[0.286,-6.793],[0.3,-6.793],[0.378,-6.87],[0.42,-6.87],[0.455,-6.814],[0.462,-6.716],[0.448,-6.603],[0.406,-6.434],[0.469,-6.378],[0.511,-6.28]]],[[[-0.373,-6.448],[-0.366,-6.505],[-0.338,-6.568],[-0.282,-6.617],[-0.211,-6.617],[-0.155,-6.554],[-0.141,-6.554],[-0.141,-6.624],[-0.155,-6.659],[-0.148,-6.716],[-0.19,-6.962],[-0.211,-7.088],[-0.282,-7.306],[-0.878,-7.306],[-0.92,-7.25],[-0.913,-6.955],[-0.716,-6.708],[-0.632,-6.624],[-0.632,-6.61],[-0.464,-6.434],[-0.373,-6.448]]]]},"properties":{"abbr":"12n","name":"hypoglossal nerve","plate":54,"ap_bregma_mm":-10.75,"area_mm2":1.0925,"traced_fraction":[0.785,0.681],"n_labels":2,"no_drawn_outline":true}},{"type":"Feature","geometry":{"type":"MultiPolygon","coordinates":[[[[0.286,-5.597],[0.223,-5.71],[0.188,-5.738],[0.153,-5.794],[0.09,-5.843],[0.034,-5.857],[-0.043,-5.836],[-0.113,-5.759],[-0.183,-5.646],[-0.289,-5.541],[-0.359,-5.506],[-0.401,-5.464],[-0.317,-5.457],[-0.268,-5.478],[-0.211,-5.52],[-0.127,-5.618],[-0.043,-5.661],[0.083,-5.661],[0.139,-5.632],[0.286,-5.597]]]]},"properties":{"abbr":"4V","name":"4th ventricle","plate":54,"ap_bregma_mm":-10.75,"area_mm2":0.0814,"traced_fraction":[1.0],"n_labels":1,"no_drawn_outline":false}},{"type":"Feature","geometry":{"type":"MultiPolygon","coordinates":[[[[-1.459,-5.731],[-1.425,-5.745],[-1.326,-5.829],[-1.305,-5.829],[-1.305,-5.843],[-1.235,-5.893],[-1.067,-5.977],[-1.039,-5.977],[-1.004,-6.005],[-1.011,-6.139],[-1.41,-6.139],[-1.396,-5.956],[-1.431,-5.872],[-1.488,-5.815],[-1.459,-5.773],[-1.459,-5.731]]],[[[1.247,-5.773],[1.268,-5.808],[1.443,-5.808],[1.443,-5.886],[1.492,-6.019],[1.647,-6.202],[1.534,-6.315],[1.534,-6.385],[1.52,-6.392],[1.52,-6.631],[1.499,-6.631],[1.359,-6.519],[1.331,-6.512],[1.079,-6.343],[1.037,-6.301],[0.819,-6.167],[0.763,-6.118],[0.756,-6.097],[0.952,-5.991],[1.247,-5.773]]]]},"properties":{"abbr":"5Sol","name":"trigeminal-solitary transition zone","plate":54,"ap_bregma_mm":-10.75,"area_mm2":0.4772,"traced_fraction":[0.657,0.764],"n_labels":2,"no_drawn_outline":true}},{"type":"Feature","geometry":{"type":"MultiPolygon","coordinates":[[[[0.854,-1.884],[0.833,-1.884],[0.826,-1.905],[0.791,-1.926],[0.679,-1.954],[0.363,-1.996],[-0.24,-1.996],[-0.562,-1.947],[-0.653,-1.926],[-0.716,-1.856],[-0.723,-1.849],[-0.723,-1.841],[-0.73,-1.834],[-0.744,-1.82],[-0.744,-1.771],[-0.681,-1.687],[-0.611,-1.637],[-0.499,-1.595],[-0.169,-1.546],[0.167,-1.546],[0.567,-1.616],[0.658,-1.652],[0.679,-1.673],[0.77,-1.708],[0.812,-1.743],[0.847,-1.813],[0.854,-1.884]]]]},"properties":{"abbr":"6Cb","name":"6th cerebellar lobule","plate":54,"ap_bregma_mm":-10.75,"area_mm2":0.585,"traced_fraction":[1.0],"n_labels":1,"no_drawn_outline":false}},{"type":"Feature","geometry":{"type":"MultiPolygon","coordinates":[[[[0.826,-1.905],[0.84,-1.926],[0.868,-1.926],[0.868,-1.94],[0.924,-1.968],[0.924,-1.982],[1.001,-2.017],[1.008,-2.038],[1.065,-2.045],[1.086,-2.074],[1.086,-2.235],[0.98,-2.439],[0.98,-2.854],[0.938,-2.84],[0.91,-2.812],[0.763,-2.756],[0.335,-2.685],[-0.071,-2.685],[-0.317,-2.714],[-0.576,-2.763],[-0.583,-2.256],[-0.597,-2.242],[-0.597,-2.13],[-0.59,-2.017],[-0.562,-1.975],[-0.562,-1.947],[-0.24,-1.996],[0.363,-1.996],[0.679,-1.954],[0.791,-1.926],[0.826,-1.905]]]]},"properties":{"abbr":"7Cb","name":"7th cerebellar lobule","plate":54,"ap_bregma_mm":-10.75,"area_mm2":1.1976,"traced_fraction":[0.688],"n_labels":1,"no_drawn_outline":true}},{"type":"Feature","geometry":{"type":"MultiPolygon","coordinates":[[[[0.98,-2.854],[1.037,-2.918],[1.058,-2.918],[1.058,-2.939],[1.121,-2.995],[1.198,-3.1],[1.184,-3.1],[1.184,-3.143],[1.044,-3.431],[0.889,-3.579],[0.889,-3.6],[0.581,-3.494],[0.251,-3.445],[-0.211,-3.466],[-0.219,-3.48],[-0.436,-3.515],[-0.716,-3.6],[-0.878,-3.438],[-1.025,-3.122],[-1.025,-3.1],[-0.955,-3.037],[-0.955,-3.023],[-0.779,-2.868],[-0.695,-2.812],[-0.576,-2.763],[-0.317,-2.714],[-0.071,-2.685],[0.335,-2.685],[0.763,-2.756],[0.91,-2.812],[0.938,-2.84],[0.98,-2.854]]]]},"properties":{"abbr":"8Cb","name":"8th cerebellar lobule","plate":54,"ap_bregma_mm":-10.75,"area_mm2":1.5288,"traced_fraction":[0.825],"n_labels":1,"no_drawn_outline":false}},{"type":"Feature","geometry":{"type":"MultiPolygon","coordinates":[[[[0.889,-3.6],[1.128,-3.755],[1.268,-3.909],[1.261,-3.923],[0.279,-3.923],[0.251,-3.902],[-0.12,-3.902],[-0.205,-3.951],[-1.095,-3.951],[-1.102,-3.937],[-1.039,-3.846],[-0.92,-3.726],[-0.716,-3.6],[-0.436,-3.515],[-0.219,-3.48],[-0.211,-3.466],[0.195,-3.445],[0.581,-3.494],[0.889,-3.6]]]]},"properties":{"abbr":"9aCb","name":"9th cerebellar lobule, a","plate":54,"ap_bregma_mm":-10.75,"area_mm2":0.8395,"traced_fraction":[0.525],"n_labels":2,"no_drawn_outline":true}},{"type":"Feature","geometry":{"type":"MultiPolygon","coordinates":[[[[1.268,-3.909],[1.464,-4.148],[1.541,-4.296],[1.534,-4.338],[1.492,-4.38],[1.198,-4.373],[1.114,-4.359],[0.812,-4.366],[0.356,-4.352],[0.167,-4.352],[0.153,-4.373],[-0.008,-4.359],[-0.036,-4.345],[-0.66,-4.352],[-1.018,-4.38],[-1.214,-4.416],[-1.34,-4.416],[-1.368,-4.387],[-1.375,-4.352],[-1.34,-4.275],[-1.228,-4.141],[-1.2,-4.085],[-1.137,-4.022],[-1.095,-3.951],[-0.205,-3.951],[-0.12,-3.902],[0.251,-3.902],[0.279,-3.923],[1.261,-3.923],[1.268,-3.909]]]]},"properties":{"abbr":"9cCb","name":"9th cerebellar lobule, c","plate":54,"ap_bregma_mm":-10.75,"area_mm2":1.1672,"traced_fraction":[0.631],"n_labels":1,"no_drawn_outline":true}},{"type":"Feature","geometry":{"type":"MultiPolygon","coordinates":[[[[1.871,-7.131],[1.871,-7.194],[1.78,-7.194],[1.759,-7.159],[1.675,-7.145],[1.647,-7.229],[1.59,-7.278],[1.527,-7.271],[1.492,-7.201],[1.464,-7.208],[1.422,-7.25],[1.408,-7.25],[1.303,-7.131],[1.289,-7.095],[1.338,-7.039],[1.541,-7.039],[1.583,-7.004],[1.618,-7.004],[1.647,-7.039],[1.871,-7.039],[1.871,-7.131]]],[[[-1.438,-7.109],[-1.368,-7.123],[-1.326,-7.159],[-1.305,-7.257],[-1.389,-7.348],[-1.488,-7.356],[-1.544,-7.299],[-1.558,-7.215],[-1.488,-7.123],[-1.438,-7.109]]]]},"properties":{"abbr":"AmbSC","name":"ambiguus nucleus, subcompact part","plate":54,"ap_bregma_mm":-10.75,"area_mm2":0.144,"traced_fraction":[0.587,1.0],"n_labels":2,"no_drawn_outline":false}},{"type":"Feature","geometry":{"type":"MultiPolygon","coordinates":[[[[1.198,-3.1],[1.443,-3.445],[1.562,-3.586],[1.71,-3.804],[1.738,-3.811],[1.808,-3.881],[1.801,-3.902],[1.815,-3.93],[1.885,-3.987],[2.032,-4.05],[2.067,-4.078],[2.215,-4.134],[2.32,-4.198],[2.348,-4.198],[2.348,-4.212],[2.495,-4.317],[2.579,-4.444],[2.607,-4.549],[2.607,-4.69],[2.544,-4.753],[2.355,-4.817],[2.137,-4.817],[2.011,-4.788],[1.906,-4.746],[1.794,-4.683],[1.703,-4.598],[1.626,-4.479],[1.583,-4.324],[1.562,-4.296],[1.541,-4.296],[1.464,-4.148],[1.268,-3.909],[1.128,-3.755],[0.889,-3.6],[0.889,-3.579],[1.044,-3.431],[1.184,-3.143],[1.184,-3.1],[1.198,-3.1]]],[[[-1.025,-3.122],[-0.878,-3.438],[-0.716,-3.6],[-0.92,-3.726],[-1.039,-3.846],[-1.102,-3.937],[-1.095,-3.951],[-1.137,-4.022],[-1.2,-4.085],[-1.228,-4.141],[-1.34,-4.275],[-1.375,-4.352],[-1.368,-4.387],[-1.396,-4.38],[-1.404,-4.409],[-1.446,-4.451],[-1.467,-4.521],[-1.537,-4.606],[-1.544,-4.641],[-1.621,-4.662],[-1.628,-4.676],[-1.719,-4.704],[-1.831,-4.76],[-2.027,-4.81],[-2.308,-4.817],[-2.378,-4.788],[-2.42,-4.697],[-2.42,-4.486],[-2.336,-4.31],[-2.217,-4.219],[-2.154,-4.198],[-2.126,-4.162],[-2.035,-4.155],[-1.88,-4.106],[-1.789,-4.064],[-1.691,-3.987],[-1.621,-3.951],[-1.607,-3.958],[-1.572,-3.944],[-1.467,-3.846],[-1.467,-3.832],[-1.453,-3.832],[-1.389,-3.74],[-1.389,-3.691],[-1.368,-3.628],[-1.263,-3.466],[-1.207,-3.347],[-1.074,-3.157],[-1.025,-3.122]]]]},"properties":{"abbr":"Cop","name":"copula of the pyramis","plate":54,"ap_bregma_mm":-10.75,"area_mm2":2.0564,"traced_fraction":[0.903,0.91],"n_labels":2,"no_drawn_outline":false}},{"type":"Feature","geometry":{"type":"MultiPolygon","coordinates":[[[[-1.684,-1.645],[-1.684,-1.856],[-1.698,-1.87],[-2.161,-1.982],[-2.175,-2.003],[-2.343,-2.024],[-2.518,-2.067],[-2.995,-2.13],[-3.353,-2.144],[-3.374,-2.123],[-3.374,-2.06],[-3.241,-1.834],[-3.114,-1.701],[-3.079,-1.687],[-3.079,-1.673],[-2.869,-1.574],[-2.701,-1.539],[-2.336,-1.539],[-2.063,-1.574],[-1.81,-1.63],[-1.684,-1.645]]],[[[3.448,-1.933],[3.385,-1.947],[3.28,-1.947],[2.761,-1.834],[2.467,-1.785],[2.46,-1.75],[2.46,-1.708],[2.481,-1.673],[2.551,-1.63],[2.754,-1.602],[3.126,-1.609],[3.357,-1.666],[3.442,-1.729],[3.469,-1.736],[3.512,-1.799],[3.512,-1.87],[3.491,-1.898],[3.448,-1.919],[3.448,-1.933]]]]},"properties":{"abbr":"Crus1","name":"crus 1 of the ansiform lobule","plate":54,"ap_bregma_mm":-10.75,"area_mm2":0.9609,"traced_fraction":[0.957,1.0],"n_labels":2,"no_drawn_outline":false}},{"type":"Feature","geometry":{"type":"MultiPolygon","coordinates":[[[[-1.684,-1.645],[-1.41,-1.659],[-1.284,-1.68],[-1.158,-1.715],[-0.927,-1.841],[-0.913,-1.849],[-0.899,-1.856],[-0.836,-1.884],[-0.723,-1.926],[-0.653,-1.926],[-0.562,-1.947],[-0.562,-1.975],[-0.59,-2.017],[-0.597,-2.13],[-0.597,-2.242],[-0.583,-2.256],[-0.576,-2.763],[-0.695,-2.812],[-0.779,-2.868],[-0.955,-3.023],[-0.955,-3.037],[-1.025,-3.1],[-1.025,-3.122],[-1.074,-3.157],[-1.221,-3.157],[-1.754,-2.622],[-1.754,-2.601],[-1.894,-2.608],[-2.133,-2.65],[-2.175,-2.643],[-2.35,-2.692],[-2.427,-2.7],[-2.757,-2.791],[-2.96,-2.861],[-3.079,-2.918],[-3.163,-2.939],[-3.198,-2.932],[-3.247,-2.946],[-3.318,-2.918],[-3.332,-2.889],[-3.36,-2.875],[-3.416,-2.77],[-3.43,-2.707],[-3.437,-2.587],[-3.423,-2.341],[-3.416,-2.271],[-3.381,-2.165],[-3.353,-2.144],[-2.995,-2.13],[-2.518,-2.067],[-2.343,-2.024],[-2.175,-2.003],[-2.161,-1.982],[-1.698,-1.87],[-1.684,-1.856],[-1.684,-1.645]]],[[[2.432,-1.778],[2.467,-1.785],[2.761,-1.834],[3.28,-1.947],[3.385,-1.947],[3.406,-1.982],[3.434,-1.982],[3.533,-2.038],[3.624,-2.123],[3.708,-2.277],[3.729,-2.348],[3.729,-2.538],[3.68,-2.671],[3.589,-2.791],[3.476,-2.833],[2.923,-2.678],[2.874,-2.678],[2.881,-2.7],[2.439,-2.594],[2.123,-2.552],[2.123,-2.566],[1.773,-2.918],[1.058,-2.918],[1.037,-2.918],[0.98,-2.854],[0.98,-2.439],[1.086,-2.235],[1.086,-2.074],[1.065,-2.045],[1.079,-2.01],[1.071,-1.996],[1.086,-1.996],[1.128,-1.919],[1.226,-1.827],[1.338,-1.771],[1.527,-1.715],[1.857,-1.701],[1.99,-1.715],[2.179,-1.764],[2.383,-1.785],[2.432,-1.778]]]]},"properties":{"abbr":"Crus2","name":"crus 2 of the ansiform lobule","plate":54,"ap_bregma_mm":-10.75,"area_mm2":5.0157,"traced_fraction":[0.79,0.742],"n_labels":2,"no_drawn_outline":false}},{"type":"Feature","geometry":{"type":"MultiPolygon","coordinates":[[[[1.745,-5.077],[1.745,-5.098],[1.738,-5.098],[1.71,-5.098],[1.597,-5.042],[1.471,-5.042],[1.345,-5.077],[1.324,-5.098],[1.324,-5.133],[1.401,-5.217],[1.471,-5.267],[1.773,-5.414],[1.724,-5.457],[1.626,-5.499],[1.506,-5.583],[1.317,-5.689],[1.31,-5.639],[1.24,-5.541],[0.931,-5.231],[0.931,-5.217],[1.008,-5.168],[1.191,-5.077],[1.401,-5.006],[1.506,-4.992],[1.639,-5.006],[1.731,-5.049],[1.745,-5.077]]],[[[1.752,-5.084],[1.759,-5.091],[1.752,-5.091],[1.752,-5.084]]],[[[-1.025,-5.225],[-1.13,-5.365],[-1.221,-5.527],[-1.305,-5.829],[-1.326,-5.829],[-1.425,-5.745],[-1.459,-5.731],[-1.509,-5.689],[-1.712,-5.569],[-1.726,-5.555],[-1.719,-5.52],[-1.607,-5.499],[-1.467,-5.414],[-1.425,-5.337],[-1.425,-5.302],[-1.446,-5.26],[-1.509,-5.203],[-1.509,-5.196],[-1.495,-5.196],[-1.214,-5.182],[-1.123,-5.189],[-1.025,-5.225]]]]},"properties":{"abbr":"Cu","name":"cuneate nucleus","plate":54,"ap_bregma_mm":-10.75,"area_mm2":0.4684,"traced_fraction":[1.0,1.0,0.984],"n_labels":2,"no_drawn_outline":false}},{"type":"Feature","geometry":{"type":"MultiPolygon","coordinates":[[[[1.801,-5.562],[1.913,-5.604],[1.92,-5.618],[1.955,-5.625],[1.962,-5.639],[2.095,-5.703],[2.088,-5.977],[1.899,-5.977],[1.899,-6.378],[1.647,-6.202],[1.492,-6.019],[1.443,-5.886],[1.443,-5.808],[1.471,-5.724],[1.548,-5.639],[1.675,-5.576],[1.801,-5.562]]]]},"properties":{"abbr":"DMSp5","name":"dorsomedial spinal trigeminal nucleus","plate":54,"ap_bregma_mm":-10.75,"area_mm2":0.3266,"traced_fraction":[0.657],"n_labels":1,"no_drawn_outline":true}},{"type":"Feature","geometry":{"type":"MultiPolygon","coordinates":[[[[1.738,-5.098],[1.745,-5.098],[1.752,-5.091],[1.759,-5.091],[1.864,-5.246],[1.857,-5.295],[1.885,-5.351],[1.878,-5.4],[1.85,-5.414],[1.773,-5.414],[1.471,-5.267],[1.401,-5.217],[1.324,-5.133],[1.324,-5.098],[1.345,-5.077],[1.471,-5.042],[1.597,-5.042],[1.71,-5.098],[1.738,-5.098]]],[[[-1.509,-5.196],[-1.509,-5.203],[-1.523,-5.203],[-1.509,-5.196]]],[[[-1.523,-5.203],[-1.509,-5.203],[-1.446,-5.26],[-1.425,-5.302],[-1.425,-5.337],[-1.467,-5.414],[-1.607,-5.499],[-1.719,-5.52],[-1.754,-5.499],[-1.782,-5.428],[-1.775,-5.386],[-1.712,-5.288],[-1.712,-5.253],[-1.677,-5.231],[-1.523,-5.203]]]]},"properties":{"abbr":"ECu","name":"external cuneate nucleus","plate":54,"ap_bregma_mm":-10.75,"area_mm2":0.2056,"traced_fraction":[1.0,1.0,0.933],"n_labels":2,"no_drawn_outline":false}},{"type":"Feature","geometry":{"type":"MultiPolygon","coordinates":[[[[1.303,-7.131],[1.338,-7.18],[1.408,-7.25],[1.422,-7.25],[1.443,-7.299],[1.478,-7.327],[1.759,-7.679],[1.66,-7.785],[1.583,-7.841],[1.366,-8.052],[1.345,-8.101],[1.184,-8.066],[1.177,-8.052],[0.945,-7.946],[0.742,-7.806],[0.553,-7.721],[0.539,-7.679],[0.427,-7.56],[0.363,-7.426],[0.335,-7.32],[1.016,-7.32],[0.994,-7.447],[0.875,-7.616],[0.854,-7.658],[0.854,-7.707],[0.889,-7.735],[0.931,-7.742],[1.093,-7.742],[1.254,-7.714],[1.289,-7.686],[1.317,-7.581],[1.303,-7.433],[1.226,-7.257],[1.163,-7.166],[1.275,-7.159],[1.303,-7.131]]],[[[-0.878,-7.306],[-0.282,-7.306],[-0.359,-7.524],[-0.429,-7.665],[-0.485,-7.742],[-0.499,-7.792],[-0.569,-7.862],[-0.821,-8.031],[-0.92,-8.08],[-0.99,-8.143],[-1.088,-8.186],[-1.242,-8.171],[-1.249,-8.143],[-1.396,-7.996],[-1.41,-7.996],[-1.41,-7.982],[-1.509,-7.89],[-1.53,-7.848],[-1.495,-7.806],[-1.431,-7.679],[-1.326,-7.545],[-1.228,-7.384],[-1.2,-7.37],[-1.13,-7.419],[-1.235,-7.588],[-1.242,-7.665],[-1.207,-7.7],[-1.144,-7.728],[-1.032,-7.749],[-0.927,-7.749],[-0.899,-7.721],[-0.878,-7.623],[-0.878,-7.306]]]]},"properties":{"abbr":"Gi","name":"gigantocellular reticular nucleus","plate":54,"ap_bregma_mm":-10.75,"area_mm2":1.167,"traced_fraction":[0.829,0.856],"n_labels":2,"no_drawn_outline":false}},{"type":"Feature","geometry":{"type":"MultiPolygon","coordinates":[[[[0.553,-7.721],[0.742,-7.806],[0.945,-7.946],[1.037,-7.982],[1.184,-8.066],[1.345,-8.101],[1.366,-8.122],[1.366,-8.171],[1.345,-8.192],[1.24,-8.2],[1.142,-8.178],[1.05,-8.136],[0.847,-7.996],[0.7,-7.925],[0.623,-7.911],[0.546,-7.89],[0.49,-7.897],[0.476,-7.911],[0.42,-7.939],[0.391,-7.925],[0.37,-7.869],[0.37,-7.806],[0.399,-7.749],[0.483,-7.721],[0.553,-7.721]]],[[[-0.268,-7.778],[-0.219,-7.848],[-0.211,-7.904],[-0.24,-7.967],[-0.289,-8.01],[-0.331,-7.967],[-0.352,-7.939],[-0.45,-7.946],[-0.548,-8.003],[-0.681,-8.108],[-0.709,-8.115],[-0.744,-8.157],[-0.779,-8.143],[-0.864,-8.192],[-0.878,-8.214],[-0.899,-8.214],[-0.913,-8.235],[-1.025,-8.291],[-1.137,-8.305],[-1.235,-8.298],[-1.277,-8.27],[-1.291,-8.207],[-1.242,-8.171],[-1.088,-8.186],[-0.99,-8.143],[-0.92,-8.08],[-0.821,-8.031],[-0.618,-7.897],[-0.499,-7.792],[-0.457,-7.785],[-0.415,-7.756],[-0.331,-7.756],[-0.268,-7.778]]]]},"properties":{"abbr":"IOD","name":"inferior olive, dorsal nucleus","plate":54,"ap_bregma_mm":-10.75,"area_mm2":0.3019,"traced_fraction":[1.0,1.0],"n_labels":2,"no_drawn_outline":false}},{"type":"Feature","geometry":{"type":"MultiPolygon","coordinates":[[[[-0.001,-7.988],[-0.001,-8.284],[-0.036,-8.284],[-0.05,-8.312],[-0.085,-8.333],[-0.198,-8.333],[-0.219,-8.361],[-0.247,-8.361],[-0.261,-8.34],[-0.324,-8.326],[-0.331,-8.291],[-0.345,-8.291],[-0.366,-8.256],[-0.373,-8.214],[-0.127,-7.975],[-0.05,-7.953],[-0.001,-7.988]]],[[[0.286,-7.982],[0.504,-8.221],[0.49,-8.298],[0.455,-8.319],[0.448,-8.347],[0.265,-8.375],[0.181,-8.333],[0.118,-8.249],[0.118,-8.038],[0.146,-7.988],[0.188,-7.96],[0.286,-7.982]]]]},"properties":{"abbr":"IOM","name":"inferior olive, medial nucleus","plate":54,"ap_bregma_mm":-10.75,"area_mm2":0.2134,"traced_fraction":[1.0,1.0],"n_labels":2,"no_drawn_outline":false}},{"type":"Feature","geometry":{"type":"MultiPolygon","coordinates":[[[[0.399,-7.749],[0.37,-7.806],[0.37,-7.869],[0.391,-7.925],[0.42,-7.939],[0.49,-8.045],[0.504,-8.045],[0.63,-8.164],[0.77,-8.263],[0.847,-8.298],[0.896,-8.298],[0.903,-8.284],[0.868,-8.249],[0.763,-8.186],[0.658,-8.087],[0.497,-7.982],[0.469,-7.953],[0.476,-7.911],[0.532,-7.89],[0.623,-7.911],[0.623,-7.932],[0.651,-7.96],[0.735,-8.01],[0.805,-8.08],[1.016,-8.214],[1.044,-8.249],[1.065,-8.312],[1.05,-8.432],[0.966,-8.46],[0.938,-8.432],[0.833,-8.396],[0.812,-8.375],[0.721,-8.361],[0.693,-8.326],[0.616,-8.298],[0.56,-8.242],[0.504,-8.221],[0.286,-7.982],[0.251,-7.925],[0.237,-7.848],[0.244,-7.749],[0.258,-7.735],[0.293,-7.7],[0.356,-7.686],[0.384,-7.707],[0.399,-7.749]]],[[[-0.331,-7.967],[-0.443,-8.087],[-0.457,-8.087],[-0.457,-8.101],[-0.779,-8.34],[-0.793,-8.403],[-0.758,-8.418],[-0.702,-8.368],[-0.702,-8.354],[-0.681,-8.347],[-0.681,-8.333],[-0.66,-8.326],[-0.66,-8.312],[-0.59,-8.263],[-0.576,-8.347],[-0.611,-8.375],[-0.611,-8.396],[-0.709,-8.467],[-0.787,-8.579],[-0.836,-8.572],[-0.941,-8.516],[-0.948,-8.375],[-0.927,-8.326],[-0.878,-8.263],[-0.772,-8.192],[-0.744,-8.157],[-0.709,-8.115],[-0.681,-8.108],[-0.548,-8.003],[-0.45,-7.946],[-0.352,-7.939],[-0.331,-7.967]]]]},"properties":{"abbr":"IOPr","name":"inferior olive, principal nucleus","plate":54,"ap_bregma_mm":-10.75,"area_mm2":0.3391,"traced_fraction":[0.994,0.994],"n_labels":2,"no_drawn_outline":false}},{"type":"Feature","geometry":{"type":"MultiPolygon","coordinates":[[[[0.756,-6.097],[0.763,-6.118],[0.819,-6.167],[1.037,-6.301],[1.079,-6.343],[1.331,-6.512],[1.359,-6.519],[1.499,-6.631],[1.52,-6.631],[1.527,-6.652],[1.752,-6.8],[2.025,-7.011],[2.102,-7.088],[2.116,-7.152],[1.99,-7.159],[1.92,-7.131],[1.871,-7.131],[1.871,-7.039],[1.647,-7.039],[1.618,-7.004],[1.583,-7.004],[1.541,-7.039],[1.338,-7.039],[1.289,-7.095],[1.261,-7.081],[1.184,-6.976],[1.001,-6.786],[1.001,-6.772],[0.854,-6.617],[0.686,-6.406],[0.574,-6.293],[0.511,-6.28],[0.532,-6.167],[0.756,-6.097]]],[[[-0.646,-6.139],[-0.436,-6.167],[-0.408,-6.322],[-0.345,-6.392],[-0.373,-6.448],[-0.464,-6.434],[-0.632,-6.61],[-0.632,-6.624],[-0.716,-6.708],[-0.913,-6.955],[-0.92,-7.25],[-0.962,-7.25],[-0.997,-7.271],[-1.13,-7.419],[-1.2,-7.37],[-1.228,-7.384],[-1.326,-7.545],[-1.431,-7.679],[-1.446,-7.721],[-1.53,-7.848],[-1.544,-7.848],[-1.551,-7.827],[-1.621,-7.763],[-1.691,-7.658],[-1.747,-7.602],[-1.712,-7.56],[-1.684,-7.391],[-1.642,-7.243],[-1.649,-7.194],[-1.67,-7.173],[-1.712,-7.166],[-1.719,-7.123],[-1.691,-7.088],[-1.404,-6.8],[-1.389,-6.8],[-1.34,-6.744],[-1.137,-6.582],[-0.892,-6.357],[-0.758,-6.258],[-0.646,-6.153],[-0.646,-6.139]]],[[[-1.438,-7.109],[-1.488,-7.123],[-1.558,-7.215],[-1.544,-7.299],[-1.488,-7.356],[-1.389,-7.348],[-1.305,-7.257],[-1.326,-7.159],[-1.368,-7.123],[-1.438,-7.109]]]]},"properties":{"abbr":"IRt","name":"intermediate reticular nucleus","plate":54,"ap_bregma_mm":-10.75,"area_mm2":1.3741,"traced_fraction":[0.875,0.924,1.0],"n_labels":2,"no_drawn_outline":false}},{"type":"Feature","geometry":{"type":"MultiPolygon","coordinates":[[[[1.871,-7.131],[1.92,-7.131],[1.99,-7.159],[2.116,-7.152],[2.165,-7.137],[2.249,-7.137],[2.277,-7.159],[2.285,-7.243],[2.243,-7.313],[2.081,-7.433],[2.018,-7.447],[1.941,-7.538],[1.759,-7.679],[1.478,-7.327],[1.443,-7.299],[1.422,-7.25],[1.464,-7.208],[1.492,-7.201],[1.527,-7.271],[1.59,-7.278],[1.647,-7.229],[1.675,-7.145],[1.759,-7.159],[1.78,-7.194],[1.871,-7.194],[1.871,-7.131]]],[[[1.163,-7.166],[1.226,-7.257],[1.303,-7.433],[1.317,-7.581],[1.289,-7.686],[1.254,-7.714],[1.093,-7.742],[0.931,-7.742],[0.889,-7.735],[0.854,-7.707],[0.854,-7.658],[0.875,-7.616],[0.994,-7.447],[1.016,-7.32],[1.044,-7.208],[1.071,-7.159],[1.093,-7.137],[1.121,-7.137],[1.163,-7.166]]],[[[-1.712,-7.166],[-1.67,-7.173],[-1.649,-7.194],[-1.642,-7.243],[-1.684,-7.391],[-1.712,-7.56],[-1.747,-7.602],[-1.782,-7.595],[-1.845,-7.538],[-1.964,-7.482],[-2.063,-7.412],[-2.098,-7.363],[-2.098,-7.327],[-2.077,-7.299],[-1.922,-7.229],[-1.712,-7.166]]],[[[-0.92,-7.25],[-0.878,-7.306],[-0.878,-7.623],[-0.899,-7.721],[-0.927,-7.749],[-1.032,-7.749],[-1.144,-7.728],[-1.207,-7.7],[-1.242,-7.665],[-1.235,-7.588],[-1.13,-7.419],[-0.997,-7.271],[-0.962,-7.25],[-0.92,-7.25]]]]},"properties":{"abbr":"LRt","name":"lateral reticular nucleus","plate":54,"ap_bregma_mm":-10.75,"area_mm2":0.6812,"traced_fraction":[0.887,1.0,1.0,1.0],"n_labels":4,"no_drawn_outline":false}},{"type":"Feature","geometry":{"type":"MultiPolygon","coordinates":[[[[1.864,-5.246],[2.053,-5.428],[2.046,-5.435],[1.934,-5.435],[1.815,-5.478],[1.794,-5.506],[1.801,-5.562],[1.675,-5.576],[1.548,-5.639],[1.471,-5.724],[1.443,-5.808],[1.268,-5.808],[1.247,-5.773],[1.247,-5.759],[1.317,-5.689],[1.506,-5.583],[1.626,-5.499],[1.724,-5.457],[1.773,-5.414],[1.85,-5.414],[1.878,-5.4],[1.885,-5.351],[1.857,-5.295],[1.864,-5.246]]]]},"properties":{"abbr":"Mx","name":"matrix region of the medulla","plate":54,"ap_bregma_mm":-10.75,"area_mm2":0.0873,"traced_fraction":[0.92],"n_labels":1,"no_drawn_outline":false}},{"type":"Feature","geometry":{"type":"MultiPolygon","coordinates":[[[[-1.004,-6.005],[-0.808,-6.09],[-0.646,-6.139],[-0.646,-6.153],[-0.758,-6.258],[-0.892,-6.357],[-1.137,-6.582],[-1.151,-6.582],[-1.389,-6.8],[-1.404,-6.8],[-1.691,-7.088],[-1.719,-7.123],[-1.712,-7.166],[-1.922,-7.229],[-2.077,-7.299],[-2.147,-7.285],[-2.154,-7.271],[-2.154,-7.208],[-2.168,-7.173],[-2.02,-7.145],[-1.95,-7.081],[-1.824,-6.821],[-1.768,-6.624],[-1.726,-6.533],[-1.635,-6.406],[-1.474,-6.258],[-1.41,-6.139],[-1.011,-6.139],[-1.004,-6.005]]],[[[1.647,-6.202],[1.899,-6.378],[1.997,-6.505],[2.109,-6.807],[2.165,-6.905],[2.243,-6.99],[2.285,-7.018],[2.355,-7.032],[2.376,-7.053],[2.348,-7.109],[2.355,-7.152],[2.277,-7.159],[2.249,-7.137],[2.165,-7.137],[2.116,-7.152],[2.102,-7.088],[2.025,-7.011],[1.752,-6.8],[1.555,-6.673],[1.52,-6.645],[1.52,-6.631],[1.52,-6.392],[1.534,-6.385],[1.534,-6.315],[1.647,-6.202]]]]},"properties":{"abbr":"PCRt","name":"parvicellular reticular nucleus","plate":54,"ap_bregma_mm":-10.75,"area_mm2":0.9206,"traced_fraction":[0.87,0.835],"n_labels":2,"no_drawn_outline":false}},{"type":"Feature","geometry":{"type":"MultiPolygon","coordinates":[[[[2.881,-2.7],[2.944,-2.735],[2.979,-2.735],[3.35,-2.854],[3.434,-2.903],[3.442,-2.988],[3.371,-3.157],[3.357,-3.164],[3.329,-3.234],[3.189,-3.375],[3.14,-3.396],[3.063,-3.459],[2.902,-3.543],[2.768,-3.529],[2.74,-3.515],[2.684,-3.515],[2.684,-3.536],[2.719,-3.572],[2.726,-3.649],[2.656,-3.755],[2.551,-3.994],[2.453,-4.099],[2.369,-4.113],[2.264,-4.106],[2.13,-4.064],[1.941,-3.966],[1.927,-3.944],[1.892,-3.93],[1.892,-3.916],[1.808,-3.881],[1.738,-3.811],[1.71,-3.804],[1.562,-3.586],[1.443,-3.445],[1.198,-3.1],[1.121,-2.995],[1.058,-2.939],[1.058,-2.918],[1.773,-2.918],[2.123,-2.566],[2.123,-2.552],[2.439,-2.594],[2.881,-2.7]]],[[[-1.074,-3.157],[-1.207,-3.347],[-1.263,-3.466],[-1.368,-3.628],[-1.389,-3.691],[-1.453,-3.733],[-1.544,-3.86],[-1.614,-3.916],[-1.621,-3.951],[-1.649,-3.958],[-1.789,-4.064],[-1.88,-4.106],[-2.035,-4.155],[-2.126,-4.162],[-2.224,-4.162],[-2.245,-4.141],[-2.315,-4.12],[-2.385,-4.057],[-2.504,-3.853],[-2.546,-3.733],[-2.546,-3.677],[-2.588,-3.684],[-2.68,-3.649],[-2.778,-3.558],[-3.093,-3.361],[-3.198,-3.269],[-3.247,-3.199],[-3.262,-3.143],[-3.262,-3.093],[-3.226,-3.002],[-3.212,-3.002],[-3.163,-2.939],[-3.079,-2.918],[-2.96,-2.861],[-2.757,-2.791],[-2.427,-2.7],[-2.35,-2.692],[-2.175,-2.643],[-2.133,-2.65],[-1.894,-2.608],[-1.754,-2.601],[-1.754,-2.622],[-1.221,-3.157],[-1.074,-3.157]]]]},"properties":{"abbr":"PM","name":"paramedian lobule","plate":54,"ap_bregma_mm":-10.75,"area_mm2":4.1181,"traced_fraction":[0.823,0.876],"n_labels":2,"no_drawn_outline":false}},{"type":"Feature","geometry":{"type":"MultiPolygon","coordinates":[[[[0.931,-5.231],[1.24,-5.541],[1.31,-5.639],[1.317,-5.689],[1.247,-5.759],[1.247,-5.773],[0.952,-5.991],[0.756,-6.097],[0.532,-6.167],[0.518,-6.09],[0.483,-6.04],[0.476,-5.991],[0.623,-5.991],[0.686,-5.956],[0.693,-5.893],[0.679,-5.857],[0.63,-5.808],[0.56,-5.773],[0.469,-5.752],[0.37,-5.752],[0.307,-5.773],[0.251,-5.829],[0.251,-5.865],[0.286,-5.928],[0.104,-5.914],[0.034,-5.921],[0.034,-5.857],[0.09,-5.843],[0.153,-5.794],[0.153,-5.78],[0.223,-5.71],[0.286,-5.597],[0.307,-5.583],[0.399,-5.548],[0.546,-5.435],[0.574,-5.428],[0.581,-5.421],[0.588,-5.421],[0.749,-5.33],[0.763,-5.302],[0.819,-5.288],[0.889,-5.238],[0.931,-5.231]]],[[[0.917,-5.457],[0.903,-5.52],[0.903,-5.71],[1.1,-5.71],[1.107,-5.646],[1.149,-5.653],[1.149,-5.618],[1.121,-5.569],[1.016,-5.492],[0.917,-5.457]]]]},"properties":{"abbr":"PSol","name":"parasolitary nucleus","plate":54,"ap_bregma_mm":-10.75,"area_mm2":0.4936,"traced_fraction":[0.996,0.558],"n_labels":1,"no_drawn_outline":false}},{"type":"Feature","geometry":{"type":"MultiPolygon","coordinates":[[[[2.215,-5.506],[2.264,-5.52],[2.27,-5.576],[2.313,-5.604],[2.327,-5.689],[2.306,-5.71],[2.186,-5.696],[2.053,-5.625],[2.011,-5.583],[2.011,-5.548],[2.032,-5.527],[2.067,-5.513],[2.193,-5.527],[2.215,-5.506]]],[[[-1.901,-5.752],[-1.915,-5.808],[-2.105,-5.921],[-2.189,-5.921],[-2.21,-5.9],[-2.203,-5.843],[-2.119,-5.752],[-1.985,-5.682],[-1.929,-5.682],[-1.901,-5.717],[-1.901,-5.752]]]]},"properties":{"abbr":"Pa5","name":"paratrigeminal nucleus","plate":54,"ap_bregma_mm":-10.75,"area_mm2":0.0876,"traced_fraction":[1.0,1.0],"n_labels":2,"no_drawn_outline":false}},{"type":"Feature","geometry":{"type":"MultiPolygon","coordinates":[[[[0.125,-7.004],[0.139,-7.159],[0.132,-7.517],[0.125,-7.651],[0.097,-7.707],[0.034,-7.714],[0.006,-7.623],[-0.008,-7.496],[-0.022,-7.236],[-0.008,-6.969],[0.027,-6.483],[0.041,-6.406],[0.062,-6.392],[0.09,-6.455],[0.097,-6.512],[0.125,-7.004]]]]},"properties":{"abbr":"ROb","name":"raphe obscurus nucleus","plate":54,"ap_bregma_mm":-10.75,"area_mm2":0.1561,"traced_fraction":[0.98],"n_labels":1,"no_drawn_outline":false}},{"type":"Feature","geometry":{"type":"MultiPolygon","coordinates":[[[[0.097,-7.707],[0.097,-7.806],[0.118,-7.834],[0.097,-7.932],[0.104,-8.038],[0.118,-8.038],[0.118,-8.249],[0.104,-8.263],[0.111,-8.333],[0.076,-8.34],[0.027,-8.34],[0.006,-8.347],[-0.001,-8.284],[-0.001,-7.988],[0.013,-7.975],[0.006,-7.862],[0.02,-7.771],[0.034,-7.756],[0.034,-7.714],[0.097,-7.707]]]]},"properties":{"abbr":"RPa","name":"raphe pallidus nucleus","plate":54,"ap_bregma_mm":-10.75,"area_mm2":0.0642,"traced_fraction":[1.0],"n_labels":1,"no_drawn_outline":false}},{"type":"Feature","geometry":{"type":"MultiPolygon","coordinates":[[[[-0.345,-6.392],[-0.282,-6.413],[-0.113,-6.406],[-0.141,-6.554],[-0.155,-6.554],[-0.211,-6.617],[-0.282,-6.617],[-0.338,-6.568],[-0.366,-6.505],[-0.373,-6.448],[-0.345,-6.392]]],[[[0.223,-6.42],[0.286,-6.434],[0.406,-6.434],[0.448,-6.603],[0.462,-6.716],[0.455,-6.814],[0.42,-6.87],[0.378,-6.87],[0.3,-6.793],[0.279,-6.751],[0.272,-6.666],[0.251,-6.603],[0.251,-6.526],[0.223,-6.42]]]]},"properties":{"abbr":"Ro","name":"nucleus of Roller","plate":54,"ap_bregma_mm":-10.75,"area_mm2":0.1165,"traced_fraction":[1.0,0.982],"n_labels":2,"no_drawn_outline":false}},{"type":"Feature","geometry":{"type":"MultiPolygon","coordinates":[[[[2.095,-5.703],[2.243,-5.773],[2.46,-5.85],[2.649,-5.942],[2.733,-5.998],[2.824,-6.09],[2.887,-6.223],[2.902,-6.308],[2.895,-6.483],[2.881,-6.49],[2.881,-6.519],[2.824,-6.659],[2.733,-6.772],[2.719,-6.772],[2.439,-7.018],[2.376,-7.053],[2.355,-7.032],[2.285,-7.018],[2.243,-6.99],[2.165,-6.905],[2.109,-6.807],[1.997,-6.505],[1.899,-6.378],[1.899,-5.977],[2.088,-5.977],[2.095,-5.703]]],[[[-1.488,-5.815],[-1.431,-5.872],[-1.396,-5.956],[-1.41,-6.139],[-1.474,-6.258],[-1.635,-6.406],[-1.726,-6.533],[-1.768,-6.624],[-1.824,-6.821],[-1.95,-7.081],[-2.02,-7.145],[-2.168,-7.173],[-2.238,-7.137],[-2.385,-7.025],[-2.511,-6.877],[-2.609,-6.659],[-2.637,-6.413],[-2.588,-6.251],[-2.497,-6.125],[-2.399,-6.061],[-2.168,-5.977],[-2.105,-5.921],[-1.915,-5.808],[-1.88,-5.808],[-1.789,-5.766],[-1.642,-5.752],[-1.579,-5.766],[-1.488,-5.815]]]]},"properties":{"abbr":"Sp5I","name":"spinal trigeminal nucleus, interpolar part","plate":54,"ap_bregma_mm":-10.75,"area_mm2":1.9819,"traced_fraction":[0.769,0.989],"n_labels":2,"no_drawn_outline":false}},{"type":"Feature","geometry":{"type":"MultiPolygon","coordinates":[[[[-0.674,-5.281],[-0.562,-5.302],[-0.541,-5.33],[-0.492,-5.344],[-0.331,-5.337],[-0.254,-5.33],[-0.247,-5.351],[-0.169,-5.372],[-0.127,-5.4],[-0.078,-5.4],[-0.008,-5.358],[-0.001,-5.337],[0.16,-5.33],[0.181,-5.358],[0.307,-5.344],[0.441,-5.337],[0.623,-5.288],[0.735,-5.288],[0.763,-5.302],[0.749,-5.33],[0.588,-5.421],[0.581,-5.414],[0.588,-5.386],[0.553,-5.386],[0.49,-5.428],[0.412,-5.435],[0.391,-5.478],[0.314,-5.541],[0.3,-5.569],[0.307,-5.583],[0.286,-5.597],[0.139,-5.632],[0.083,-5.661],[-0.043,-5.661],[-0.127,-5.618],[-0.169,-5.562],[-0.268,-5.478],[-0.317,-5.457],[-0.401,-5.464],[-0.59,-5.428],[-0.716,-5.421],[-0.779,-5.393],[-0.829,-5.351],[-0.829,-5.337],[-0.766,-5.281],[-0.674,-5.281]]]]},"properties":{"abbr":"chp","name":"choroid plexus","plate":54,"ap_bregma_mm":-10.75,"area_mm2":0.2613,"traced_fraction":[1.0],"n_labels":1,"no_drawn_outline":false}},{"type":"Feature","geometry":{"type":"MultiPolygon","coordinates":[[[[-1.845,-5.365],[-1.796,-5.428],[-1.782,-5.428],[-1.754,-5.499],[-1.719,-5.52],[-1.726,-5.555],[-1.712,-5.569],[-1.509,-5.689],[-1.459,-5.731],[-1.459,-5.773],[-1.488,-5.815],[-1.579,-5.766],[-1.642,-5.752],[-1.789,-5.766],[-1.859,-5.801],[-1.915,-5.808],[-1.901,-5.752],[-1.859,-5.738],[-1.824,-5.696],[-1.824,-5.604],[-1.922,-5.562],[-1.964,-5.562],[-2.006,-5.583],[-2.027,-5.583],[-2.027,-5.562],[-2.027,-5.555],[-2.006,-5.52],[-1.845,-5.365]]],[[[-2.027,-5.555],[-2.027,-5.562],[-2.035,-5.562],[-2.027,-5.555]]]]},"properties":{"abbr":"cu","name":"cuneate fasciculus","plate":54,"ap_bregma_mm":-10.75,"area_mm2":0.0981,"traced_fraction":[0.954,1.0],"n_labels":2,"no_drawn_outline":false}},{"type":"Feature","geometry":{"type":"MultiPolygon","coordinates":[[[[2.958,-6.019],[3.0,-6.054],[3.098,-6.244],[3.14,-6.413],[3.133,-6.596],[3.056,-6.779],[2.916,-6.933],[2.887,-6.941],[2.831,-6.99],[2.642,-7.074],[2.586,-7.116],[2.586,-7.131],[2.544,-7.152],[2.502,-7.123],[2.502,-7.102],[2.502,-7.088],[2.607,-6.997],[2.635,-6.99],[2.705,-6.927],[2.859,-6.835],[2.937,-6.758],[3.007,-6.638],[3.042,-6.49],[3.042,-6.322],[3.0,-6.16],[2.944,-6.061],[2.944,-6.026],[2.958,-6.019]]]]},"properties":{"abbr":"dsc","name":"dorsal spinocerebellar tract","plate":54,"ap_bregma_mm":-10.75,"area_mm2":0.125,"traced_fraction":[0.997],"n_labels":2,"no_drawn_outline":false}},{"type":"Feature","geometry":{"type":"MultiPolygon","coordinates":[[[[-0.106,-7.742],[-0.099,-7.904],[-0.113,-7.911],[-0.127,-7.975],[-0.373,-8.214],[-0.394,-8.214],[-0.457,-8.256],[-0.492,-8.305],[-0.576,-8.347],[-0.59,-8.263],[-0.59,-8.249],[-0.534,-8.214],[-0.436,-8.115],[-0.331,-8.052],[-0.289,-8.01],[-0.24,-7.967],[-0.211,-7.904],[-0.219,-7.848],[-0.268,-7.778],[-0.261,-7.735],[-0.226,-7.7],[-0.162,-7.7],[-0.106,-7.742]]]]},"properties":{"abbr":"ml","name":"medial lemniscus","plate":54,"ap_bregma_mm":-10.75,"area_mm2":0.0824,"traced_fraction":[0.992],"n_labels":1,"no_drawn_outline":false}},{"type":"Feature","geometry":{"type":"MultiPolygon","coordinates":[[[[0.223,-6.42],[0.251,-6.526],[0.251,-6.603],[0.272,-6.666],[0.279,-6.751],[0.3,-6.793],[0.286,-6.793],[0.286,-6.997],[0.125,-7.004],[0.097,-6.512],[0.09,-6.455],[0.062,-6.392],[0.041,-6.406],[0.027,-6.483],[-0.008,-6.969],[-0.19,-6.962],[-0.148,-6.716],[-0.155,-6.659],[-0.141,-6.624],[-0.141,-6.554],[-0.113,-6.406],[-0.036,-6.371],[0.16,-6.371],[0.223,-6.42]]]]},"properties":{"abbr":"mlf","name":"medial longitudinal fasciculus","plate":54,"ap_bregma_mm":-10.75,"area_mm2":0.1965,"traced_fraction":[0.89],"n_labels":2,"no_drawn_outline":false}},{"type":"Feature","geometry":{"type":"MultiPolygon","coordinates":[[[[0.448,-8.347],[0.721,-8.361],[0.812,-8.375],[0.833,-8.396],[0.938,-8.432],[0.966,-8.46],[0.896,-8.509],[0.735,-8.551],[0.525,-8.565],[0.342,-8.523],[0.202,-8.425],[0.265,-8.375],[0.448,-8.347]]],[[[-0.247,-8.361],[-0.219,-8.361],[-0.169,-8.389],[-0.085,-8.403],[-0.296,-8.565],[-0.429,-8.629],[-0.618,-8.636],[-0.787,-8.579],[-0.709,-8.467],[-0.611,-8.396],[-0.471,-8.361],[-0.352,-8.361],[-0.303,-8.375],[-0.247,-8.361]]]]},"properties":{"abbr":"py","name":"pyramidal tract","plate":54,"ap_bregma_mm":-10.75,"area_mm2":0.2405,"traced_fraction":[1.0,1.0],"n_labels":2,"no_drawn_outline":false}},{"type":"Feature","geometry":{"type":"MultiPolygon","coordinates":[[[[-2.161,-5.668],[-2.147,-5.696],[-2.21,-5.766],[-2.399,-5.907],[-2.399,-5.921],[-2.434,-5.949],[-2.469,-5.963],[-2.476,-5.984],[-2.49,-5.984],[-2.539,-6.04],[-2.665,-6.258],[-2.707,-6.399],[-2.729,-6.42],[-2.75,-6.505],[-2.743,-6.617],[-2.715,-6.716],[-2.637,-6.863],[-2.525,-7.018],[-2.336,-7.208],[-2.238,-7.271],[-2.154,-7.271],[-2.147,-7.285],[-2.077,-7.299],[-2.098,-7.327],[-2.098,-7.363],[-2.063,-7.412],[-2.126,-7.468],[-2.161,-7.475],[-2.196,-7.524],[-2.301,-7.412],[-2.49,-7.145],[-2.68,-6.955],[-2.764,-6.828],[-2.82,-6.582],[-2.82,-6.448],[-2.792,-6.329],[-2.673,-6.104],[-2.462,-5.878],[-2.385,-5.829],[-2.238,-5.703],[-2.161,-5.668]]],[[[2.502,-7.102],[2.502,-7.123],[2.544,-7.152],[2.411,-7.292],[2.404,-7.285],[2.404,-7.299],[2.334,-7.377],[2.264,-7.313],[2.243,-7.313],[2.285,-7.243],[2.277,-7.159],[2.355,-7.152],[2.404,-7.159],[2.502,-7.102]]]]},"properties":{"abbr":"rs","name":"rubrospinal tract","plate":54,"ap_bregma_mm":-10.75,"area_mm2":0.2324,"traced_fraction":[0.971,0.935],"n_labels":2,"no_drawn_outline":false}},{"type":"Feature","geometry":{"type":"MultiPolygon","coordinates":[[[[-1.025,-5.225],[-0.969,-5.231],[-0.969,-5.246],[-0.913,-5.274],[-0.857,-5.33],[-0.829,-5.337],[-0.829,-5.351],[-0.779,-5.393],[-0.716,-5.421],[-0.59,-5.428],[-0.401,-5.464],[-0.359,-5.506],[-0.289,-5.541],[-0.183,-5.646],[-0.113,-5.759],[-0.043,-5.836],[0.034,-5.857],[0.034,-5.921],[-0.064,-5.914],[-0.247,-5.942],[-0.254,-5.921],[-0.211,-5.872],[-0.211,-5.815],[-0.254,-5.773],[-0.296,-5.759],[-0.394,-5.759],[-0.492,-5.787],[-0.576,-5.836],[-0.639,-5.9],[-0.639,-5.991],[-0.569,-6.026],[-0.366,-5.998],[-0.429,-6.111],[-0.436,-6.167],[-0.646,-6.139],[-0.808,-6.09],[-1.004,-6.005],[-1.039,-5.977],[-1.067,-5.977],[-1.235,-5.893],[-1.305,-5.843],[-1.305,-5.829],[-1.221,-5.527],[-1.13,-5.365],[-1.025,-5.225]]],[[[0.917,-5.457],[1.016,-5.492],[1.121,-5.569],[1.149,-5.618],[1.149,-5.653],[1.107,-5.646],[1.1,-5.71],[0.903,-5.71],[0.903,-5.52],[0.917,-5.457]]],[[[-0.941,-5.611],[-0.955,-5.696],[-0.941,-5.717],[-0.906,-5.724],[-0.87,-5.675],[-0.87,-5.646],[-0.892,-5.618],[-0.927,-5.604],[-0.899,-5.562],[-0.766,-5.541],[-0.737,-5.527],[-0.73,-5.506],[-0.772,-5.485],[-0.836,-5.485],[-0.983,-5.534],[-1.088,-5.597],[-1.137,-5.661],[-1.151,-5.703],[-1.123,-5.71],[-1.032,-5.661],[-0.99,-5.618],[-0.941,-5.611]]]]},"properties":{"abbr":"sol","name":"solitary tract","plate":54,"ap_bregma_mm":-10.75,"area_mm2":0.6272,"traced_fraction":[0.997,0.558,1.0],"n_labels":3,"no_drawn_outline":false}},{"type":"Feature","geometry":{"type":"MultiPolygon","coordinates":[[[[2.053,-5.428],[2.067,-5.435],[2.215,-5.506],[2.193,-5.527],[2.13,-5.527],[2.095,-5.513],[2.046,-5.52],[2.011,-5.548],[2.011,-5.583],[2.053,-5.625],[2.137,-5.675],[2.249,-5.71],[2.32,-5.703],[2.327,-5.639],[2.313,-5.604],[2.327,-5.604],[2.327,-5.583],[2.369,-5.583],[2.376,-5.562],[2.46,-5.597],[2.663,-5.731],[2.67,-5.752],[2.74,-5.794],[2.958,-6.019],[2.944,-6.026],[2.944,-6.061],[3.0,-6.16],[3.042,-6.322],[3.042,-6.49],[3.007,-6.638],[2.958,-6.73],[2.859,-6.835],[2.705,-6.927],[2.635,-6.99],[2.607,-6.997],[2.551,-7.039],[2.502,-7.102],[2.404,-7.159],[2.355,-7.152],[2.348,-7.109],[2.376,-7.053],[2.439,-7.018],[2.467,-6.983],[2.733,-6.772],[2.824,-6.659],[2.881,-6.519],[2.881,-6.49],[2.895,-6.483],[2.902,-6.308],[2.887,-6.223],[2.824,-6.09],[2.733,-5.998],[2.649,-5.942],[2.46,-5.85],[2.243,-5.773],[2.095,-5.703],[1.962,-5.639],[1.955,-5.625],[1.92,-5.618],[1.913,-5.604],[1.801,-5.562],[1.794,-5.506],[1.815,-5.478],[1.934,-5.435],[2.046,-5.435],[2.053,-5.428]]],[[[-2.707,-6.399],[-2.637,-6.413],[-2.609,-6.659],[-2.511,-6.877],[-2.385,-7.025],[-2.238,-7.137],[-2.168,-7.173],[-2.154,-7.208],[-2.154,-7.271],[-2.238,-7.271],[-2.336,-7.208],[-2.525,-7.018],[-2.637,-6.863],[-2.715,-6.716],[-2.743,-6.617],[-2.75,-6.505],[-2.729,-6.42],[-2.707,-6.399]]]]},"properties":{"abbr":"sp5","name":"spinal trigeminal tract","plate":54,"ap_bregma_mm":-10.75,"area_mm2":0.4803,"traced_fraction":[0.992,0.967],"n_labels":2,"no_drawn_outline":false}},{"type":"Feature","geometry":{"type":"MultiPolygon","coordinates":[[[[-0.19,-6.962],[-0.008,-6.969],[-0.008,-7.053],[-0.022,-7.088],[-0.008,-7.496],[0.006,-7.623],[0.034,-7.714],[0.034,-7.756],[0.02,-7.771],[0.006,-7.771],[-0.036,-7.714],[-0.106,-7.742],[-0.162,-7.7],[-0.226,-7.7],[-0.261,-7.735],[-0.268,-7.778],[-0.331,-7.756],[-0.415,-7.756],[-0.457,-7.785],[-0.499,-7.792],[-0.485,-7.742],[-0.429,-7.665],[-0.359,-7.524],[-0.282,-7.306],[-0.211,-7.088],[-0.19,-6.962]]],[[[0.286,-6.997],[0.307,-7.201],[0.335,-7.32],[0.363,-7.426],[0.427,-7.56],[0.539,-7.679],[0.553,-7.721],[0.483,-7.721],[0.399,-7.749],[0.384,-7.707],[0.356,-7.686],[0.321,-7.686],[0.258,-7.735],[0.237,-7.728],[0.209,-7.672],[0.167,-7.679],[0.118,-7.834],[0.097,-7.806],[0.097,-7.707],[0.125,-7.651],[0.132,-7.517],[0.139,-7.159],[0.125,-7.004],[0.286,-6.997]]]]},"properties":{"abbr":"ts","name":"tectospinal tract","plate":54,"ap_bregma_mm":-10.75,"area_mm2":0.4091,"traced_fraction":[0.951,0.946],"n_labels":2,"no_drawn_outline":false}},{"type":"Feature","geometry":{"type":"MultiPolygon","coordinates":[[[[2.243,-7.313],[2.264,-7.313],[2.334,-7.377],[2.018,-7.721],[2.018,-7.735],[1.899,-7.848],[1.597,-8.052],[1.415,-8.235],[1.31,-8.291],[1.163,-8.396],[1.05,-8.432],[1.065,-8.312],[1.05,-8.263],[1.016,-8.214],[0.805,-8.08],[0.735,-8.01],[0.651,-7.96],[0.623,-7.932],[0.623,-7.911],[0.7,-7.925],[0.847,-7.996],[1.05,-8.136],[1.142,-8.178],[1.24,-8.2],[1.345,-8.192],[1.366,-8.171],[1.366,-8.122],[1.345,-8.101],[1.366,-8.052],[1.583,-7.841],[1.66,-7.785],[1.759,-7.679],[1.941,-7.538],[2.018,-7.447],[2.081,-7.433],[2.243,-7.313]]],[[[-2.063,-7.412],[-1.964,-7.482],[-1.845,-7.538],[-1.782,-7.595],[-1.747,-7.602],[-1.691,-7.658],[-1.621,-7.763],[-1.551,-7.827],[-1.544,-7.848],[-1.53,-7.848],[-1.509,-7.89],[-1.41,-7.982],[-1.41,-7.996],[-1.396,-7.996],[-1.249,-8.143],[-1.242,-8.171],[-1.291,-8.207],[-1.277,-8.27],[-1.235,-8.298],[-1.137,-8.305],[-1.025,-8.291],[-0.913,-8.235],[-0.899,-8.214],[-0.878,-8.214],[-0.864,-8.192],[-0.779,-8.143],[-0.744,-8.157],[-0.772,-8.192],[-0.878,-8.263],[-0.927,-8.326],[-0.948,-8.375],[-0.941,-8.516],[-1.102,-8.439],[-1.614,-8.08],[-1.803,-7.904],[-1.817,-7.904],[-1.915,-7.799],[-2.042,-7.7],[-2.196,-7.524],[-2.161,-7.475],[-2.126,-7.468],[-2.063,-7.412]]]]},"properties":{"abbr":"vsc","name":"ventral spinocerebellar tract","plate":54,"ap_bregma_mm":-10.75,"area_mm2":0.6108,"traced_fraction":[0.986,0.972],"n_labels":2,"no_drawn_outline":false}},{"type":"Feature","geometry":{"type":"Polygon","coordinates":[[[3.476,-2.833],[3.434,-2.903],[3.35,-2.854],[2.979,-2.735],[2.944,-2.735],[2.881,-2.7],[2.874,-2.678],[2.923,-2.678],[3.476,-2.833]]]},"properties":{"abbr":null,"name":"unnamed sealed face","plate":54,"ap_bregma_mm":-10.75,"index":0}},{"type":"Feature","geometry":{"type":"Polygon","coordinates":[[[1.808,-3.881],[1.892,-3.916],[1.892,-3.93],[1.927,-3.944],[1.941,-3.966],[2.13,-4.064],[2.264,-4.106],[2.369,-4.113],[2.348,-4.198],[2.32,-4.198],[2.215,-4.134],[2.067,-4.078],[2.032,-4.05],[1.885,-3.987],[1.815,-3.93],[1.801,-3.902],[1.808,-3.881]]]},"properties":{"abbr":null,"name":"unnamed sealed face","plate":54,"ap_bregma_mm":-10.75,"index":1}},{"type":"Feature","geometry":{"type":"Polygon","coordinates":[[[1.541,-4.296],[1.562,-4.296],[1.583,-4.324],[1.626,-4.479],[1.703,-4.598],[1.626,-4.62],[1.597,-4.57],[1.527,-4.507],[1.366,-4.451],[0.167,-4.387],[0.153,-4.373],[0.167,-4.352],[0.356,-4.352],[0.812,-4.366],[1.114,-4.359],[1.198,-4.373],[1.492,-4.38],[1.534,-4.338],[1.541,-4.296]]]},"properties":{"abbr":null,"name":"unnamed sealed face","plate":54,"ap_bregma_mm":-10.75,"index":2}},{"type":"Feature","geometry":{"type":"Polygon","coordinates":[[[-0.008,-4.359],[-0.036,-4.387],[-0.436,-4.409],[-0.709,-4.451],[-1.179,-4.444],[-1.319,-4.472],[-1.467,-4.521],[-1.459,-4.479],[-1.404,-4.409],[-1.396,-4.38],[-1.368,-4.387],[-1.34,-4.416],[-1.214,-4.416],[-1.018,-4.38],[-0.66,-4.352],[-0.036,-4.345],[-0.008,-4.359]]]},"properties":{"abbr":null,"name":"unnamed sealed face","plate":54,"ap_bregma_mm":-10.75,"index":3}},{"type":"Feature","geometry":{"type":"Polygon","coordinates":[[[1.38,-4.908],[1.401,-5.006],[1.191,-5.077],[1.008,-5.168],[0.931,-5.217],[0.931,-5.231],[0.889,-5.238],[0.847,-5.274],[0.763,-5.302],[0.735,-5.288],[0.623,-5.288],[0.441,-5.337],[0.307,-5.344],[0.307,-5.316],[0.637,-5.253],[0.917,-5.161],[1.149,-5.049],[1.17,-5.027],[1.191,-5.027],[1.24,-4.985],[1.345,-4.929],[1.345,-4.915],[1.38,-4.908]]]},"properties":{"abbr":null,"name":"unnamed sealed face","plate":54,"ap_bregma_mm":-10.75,"index":4}},{"type":"Feature","geometry":{"type":"Polygon","coordinates":[[[-0.948,-5.161],[-0.913,-5.161],[-0.87,-5.189],[-0.702,-5.246],[-0.674,-5.281],[-0.766,-5.281],[-0.829,-5.337],[-0.857,-5.33],[-0.885,-5.295],[-0.969,-5.246],[-0.969,-5.231],[-0.948,-5.161]]]},"properties":{"abbr":null,"name":"unnamed sealed face","plate":54,"ap_bregma_mm":-10.75,"index":5}},{"type":"Feature","geometry":{"type":"Polygon","coordinates":[[[-0.927,-5.604],[-0.941,-5.611],[-0.99,-5.618],[-1.067,-5.682],[-1.144,-5.71],[-1.151,-5.689],[-1.123,-5.639],[-1.039,-5.562],[-0.836,-5.485],[-0.744,-5.492],[-0.73,-5.506],[-0.737,-5.527],[-0.899,-5.562],[-0.927,-5.604]]]},"properties":{"abbr":null,"name":"unnamed sealed face","plate":54,"ap_bregma_mm":-10.75,"index":6}},{"type":"Feature","geometry":{"type":"Polygon","coordinates":[[[-2.035,-5.562],[-2.027,-5.562],[-2.027,-5.583],[-1.922,-5.562],[-1.824,-5.604],[-1.824,-5.696],[-1.859,-5.738],[-1.901,-5.752],[-1.901,-5.717],[-1.929,-5.682],[-2.006,-5.689],[-2.119,-5.752],[-2.203,-5.843],[-2.21,-5.9],[-2.189,-5.921],[-2.105,-5.921],[-2.168,-5.977],[-2.399,-6.061],[-2.497,-6.125],[-2.588,-6.251],[-2.637,-6.413],[-2.707,-6.399],[-2.665,-6.258],[-2.539,-6.04],[-2.49,-5.984],[-2.476,-5.984],[-2.469,-5.963],[-2.434,-5.949],[-2.399,-5.921],[-2.399,-5.907],[-2.21,-5.766],[-2.147,-5.696],[-2.161,-5.668],[-2.133,-5.639],[-2.077,-5.618],[-2.035,-5.562]]]},"properties":{"abbr":null,"name":"unnamed sealed face","plate":54,"ap_bregma_mm":-10.75,"index":7}},{"type":"Feature","geometry":{"type":"Polygon","coordinates":[[[0.258,-7.735],[0.244,-7.749],[0.237,-7.848],[0.251,-7.925],[0.286,-7.982],[0.188,-7.96],[0.146,-7.988],[0.118,-8.038],[0.104,-8.038],[0.097,-7.975],[0.118,-7.834],[0.167,-7.679],[0.209,-7.672],[0.237,-7.728],[0.258,-7.735]]]},"properties":{"abbr":null,"name":"unnamed sealed face","plate":54,"ap_bregma_mm":-10.75,"index":8}},{"type":"Feature","geometry":{"type":"Polygon","coordinates":[[[0.02,-7.771],[0.006,-7.862],[0.013,-7.975],[-0.001,-7.988],[-0.05,-7.953],[-0.127,-7.975],[-0.127,-7.946],[-0.099,-7.904],[-0.106,-7.742],[-0.036,-7.714],[-0.008,-7.756],[0.02,-7.771]]]},"properties":{"abbr":null,"name":"unnamed sealed face","plate":54,"ap_bregma_mm":-10.75,"index":9}},{"type":"Feature","geometry":{"type":"Polygon","coordinates":[[[0.476,-7.911],[0.469,-7.953],[0.497,-7.982],[0.658,-8.087],[0.763,-8.186],[0.868,-8.249],[0.903,-8.284],[0.896,-8.298],[0.812,-8.284],[0.658,-8.186],[0.609,-8.136],[0.567,-8.115],[0.567,-8.101],[0.553,-8.101],[0.504,-8.045],[0.49,-8.045],[0.42,-7.939],[0.476,-7.911]]]},"properties":{"abbr":null,"name":"unnamed sealed face","plate":54,"ap_bregma_mm":-10.75,"index":10}},{"type":"Feature","geometry":{"type":"Polygon","coordinates":[[[-0.331,-7.967],[-0.289,-8.01],[-0.331,-8.052],[-0.436,-8.115],[-0.534,-8.214],[-0.59,-8.249],[-0.59,-8.263],[-0.66,-8.312],[-0.66,-8.326],[-0.681,-8.333],[-0.681,-8.347],[-0.702,-8.354],[-0.702,-8.368],[-0.758,-8.418],[-0.793,-8.403],[-0.779,-8.34],[-0.457,-8.101],[-0.457,-8.087],[-0.443,-8.087],[-0.331,-7.967]]]},"properties":{"abbr":null,"name":"unnamed sealed face","plate":54,"ap_bregma_mm":-10.75,"index":11}},{"type":"Feature","geometry":{"type":"Polygon","coordinates":[[[-0.373,-8.214],[-0.366,-8.256],[-0.345,-8.291],[-0.331,-8.291],[-0.324,-8.326],[-0.261,-8.34],[-0.247,-8.361],[-0.268,-8.375],[-0.471,-8.361],[-0.611,-8.396],[-0.611,-8.375],[-0.576,-8.347],[-0.492,-8.305],[-0.457,-8.256],[-0.394,-8.214],[-0.373,-8.214]]]},"properties":{"abbr":null,"name":"unnamed sealed face","plate":54,"ap_bregma_mm":-10.75,"index":12}},{"type":"Feature","geometry":{"type":"MultiPolygon","coordinates":[[[[-0.45,-8.622],[-0.611,-8.629],[-0.849,-8.558],[-1.109,-8.425],[-1.621,-8.066],[-2.063,-7.672],[-2.287,-7.419],[-2.504,-7.131],[-2.673,-6.955],[-2.771,-6.807],[-2.82,-6.561],[-2.82,-6.462],[-2.792,-6.336],[-2.722,-6.181],[-2.665,-6.097],[-2.476,-5.893],[-2.245,-5.71],[-2.077,-5.611],[-1.992,-5.506],[-1.768,-5.281],[-1.698,-5.238],[-1.481,-5.189],[-1.298,-5.182],[-1.137,-5.189],[-0.976,-5.238],[-0.948,-5.147],[-1.305,-4.957],[-1.438,-4.859],[-1.509,-4.788],[-1.544,-4.711],[-1.642,-4.669],[-1.845,-4.753],[-2.048,-4.802],[-2.301,-4.81],[-2.378,-4.781],[-2.406,-4.739],[-2.42,-4.676],[-2.42,-4.493],[-2.35,-4.331],[-2.301,-4.275],[-2.217,-4.219],[-2.224,-4.148],[-2.315,-4.113],[-2.378,-4.057],[-2.518,-3.818],[-2.546,-3.733],[-2.602,-3.67],[-2.665,-3.649],[-2.799,-3.543],[-3.1,-3.347],[-3.191,-3.269],[-3.233,-3.213],[-3.254,-3.171],[-3.262,-3.1],[-3.226,-3.009],[-3.254,-2.932],[-3.318,-2.911],[-3.374,-2.847],[-3.416,-2.756],[-3.437,-2.643],[-3.416,-2.277],[-3.381,-2.172],[-3.374,-2.06],[-3.262,-1.863],[-3.121,-1.708],[-3.044,-1.652],[-2.862,-1.574],[-2.686,-1.539],[-2.371,-1.539],[-2.084,-1.574],[-1.719,-1.645],[-1.354,-1.666],[-1.151,-1.722],[-0.843,-1.884],[-0.744,-1.813],[-0.744,-1.771],[-0.688,-1.694],[-0.597,-1.63],[-0.443,-1.581],[-0.141,-1.546],[0.125,-1.546],[0.272,-1.56],[0.581,-1.623],[0.763,-1.708],[0.798,-1.736],[0.833,-1.792],[0.861,-1.933],[0.98,-2.017],[1.079,-1.996],[1.135,-1.912],[1.226,-1.827],[1.345,-1.771],[1.534,-1.715],[1.815,-1.701],[1.969,-1.715],[2.193,-1.764],[2.418,-1.785],[2.46,-1.743],[2.46,-1.708],[2.488,-1.666],[2.558,-1.63],[2.782,-1.602],[3.105,-1.609],[3.35,-1.666],[3.469,-1.743],[3.505,-1.799],[3.505,-1.856],[3.491,-1.884],[3.442,-1.919],[3.427,-1.989],[3.533,-2.045],[3.61,-2.116],[3.701,-2.277],[3.722,-2.362],[3.722,-2.517],[3.694,-2.622],[3.617,-2.749],[3.561,-2.798],[3.476,-2.826],[3.427,-2.903],[3.434,-2.974],[3.406,-3.065],[3.315,-3.234],[3.189,-3.361],[3.028,-3.466],[2.887,-3.536],[2.768,-3.522],[2.712,-3.572],[2.719,-3.642],[2.635,-3.783],[2.544,-3.987],[2.467,-4.078],[2.425,-4.099],[2.362,-4.106],[2.341,-4.205],[2.474,-4.303],[2.537,-4.38],[2.572,-4.451],[2.6,-4.563],[2.6,-4.676],[2.586,-4.704],[2.537,-4.746],[2.404,-4.795],[2.334,-4.81],[2.151,-4.81],[2.018,-4.781],[1.892,-4.732],[1.787,-4.669],[1.703,-4.591],[1.611,-4.613],[1.611,-4.648],[1.576,-4.718],[1.373,-4.894],[1.394,-5.006],[1.541,-4.992],[1.626,-5.006],[1.724,-5.049],[1.864,-5.246],[2.032,-5.414],[2.228,-5.513],[2.298,-5.527],[2.397,-5.569],[2.579,-5.675],[2.747,-5.808],[2.986,-6.047],[3.084,-6.23],[3.133,-6.42],[3.126,-6.582],[3.049,-6.772],[2.916,-6.92],[2.796,-6.997],[2.656,-7.06],[2.509,-7.173],[1.976,-7.763],[1.899,-7.834],[1.59,-8.052],[1.415,-8.221],[1.142,-8.396],[0.98,-8.446],[0.889,-8.502],[0.714,-8.544],[0.539,-8.558],[0.342,-8.516],[0.055,-8.326],[-0.015,-8.347],[-0.317,-8.565],[-0.422,-8.615],[-0.45,-8.622]]]]},"properties":{"abbr":"brain_outline","name":"outline of the section","plate":54,"ap_bregma_mm":-10.75}}]}
