{"type":"FeatureCollection","name":"GerbilAtlas plate 22","note":"Region extents cut from the atlas drawing (METHODS.md, Region extents). Coordinates are [ML, DV] in mm, ML positive to the right of the plate as printed, DV negative below the dorsal surface; AP is the plate bregma. traced_fraction is the share of each polygon boundary the atlas actually draws; below 0.5 the boundary is an estimate. no_drawn_outline marks a feature that lies only inside boundaries the atlas draws round more than one name and prints nothing within, so the whole of its outline is where the extraction cut it. Not a segmentation.","plate":22,"ap_bregma_mm":0.45,"features":[{"type":"Feature","geometry":{"type":"MultiPolygon","coordinates":[[[[3.981,-6.583],[4.009,-6.583],[4.107,-6.661],[4.213,-6.71],[4.22,-6.724],[4.367,-6.78],[4.29,-7.005],[4.276,-7.012],[4.255,-7.083],[4.1,-7.378],[3.953,-7.512],[3.792,-7.617],[3.75,-7.631],[3.736,-7.638],[3.729,-7.631],[3.666,-7.596],[3.546,-7.582],[3.392,-7.54],[3.175,-7.441],[3.035,-7.343],[2.936,-7.336],[2.873,-7.385],[2.817,-7.49],[2.775,-7.701],[2.782,-7.786],[2.726,-7.8],[2.614,-7.891],[2.607,-7.877],[2.607,-7.898],[2.53,-8.004],[2.369,-8.166],[2.249,-8.25],[2.109,-8.313],[1.85,-8.335],[1.485,-8.278],[1.492,-8.208],[1.548,-8.208],[1.604,-8.166],[1.688,-8.159],[1.752,-8.124],[1.836,-8.145],[1.969,-8.138],[2.053,-8.109],[2.144,-8.053],[2.207,-8.032],[2.298,-8.032],[2.355,-8.004],[2.39,-7.969],[2.39,-7.898],[2.404,-7.884],[2.502,-7.863],[2.551,-7.807],[2.572,-7.73],[2.593,-7.716],[2.621,-7.723],[2.614,-7.687],[2.635,-7.596],[2.649,-7.596],[2.691,-7.603],[2.719,-7.575],[2.747,-7.427],[2.81,-7.258],[2.894,-7.16],[2.986,-7.125],[3.161,-7.111],[3.21,-7.16],[3.238,-7.237],[3.287,-7.28],[3.406,-7.329],[3.497,-7.329],[3.561,-7.301],[3.666,-7.202],[3.722,-7.111],[3.736,-7.012],[3.75,-6.998],[3.813,-6.97],[3.848,-6.935],[3.848,-6.879],[3.827,-6.843],[3.827,-6.808],[3.939,-6.703],[3.981,-6.583]]],[[[-4.264,-6.618],[-4.257,-6.703],[-4.222,-6.78],[-4.159,-6.829],[-4.033,-6.858],[-4.005,-6.928],[-3.984,-7.012],[-3.879,-7.125],[-3.829,-7.23],[-3.724,-7.322],[-3.633,-7.357],[-3.577,-7.364],[-3.458,-7.329],[-3.36,-7.272],[-3.255,-7.188],[-3.128,-7.188],[-3.072,-7.209],[-3.016,-7.258],[-2.96,-7.343],[-2.939,-7.399],[-2.932,-7.547],[-2.925,-7.568],[-2.876,-7.603],[-2.897,-7.673],[-2.946,-7.694],[-2.96,-7.575],[-2.988,-7.49],[-3.086,-7.406],[-3.156,-7.385],[-3.241,-7.406],[-3.353,-7.498],[-3.514,-7.498],[-3.591,-7.476],[-3.717,-7.476],[-3.893,-7.498],[-3.935,-7.512],[-3.942,-7.533],[-4.18,-7.427],[-4.257,-7.378],[-4.334,-7.301],[-4.461,-7.04],[-4.622,-6.822],[-4.467,-6.717],[-4.264,-6.618]]]]},"properties":{"abbr":"1","name":"layer 1 of cortex","plate":22,"ap_bregma_mm":0.45,"area_mm2":1.4409,"traced_fraction":[0.999,0.999],"n_labels":3,"no_drawn_outline":false}},{"type":"Feature","geometry":{"type":"MultiPolygon","coordinates":[[[[3.603,-6.534],[3.687,-6.541],[3.736,-6.576],[3.792,-6.576],[3.862,-6.534],[3.932,-6.534],[3.981,-6.583],[3.939,-6.703],[3.827,-6.808],[3.827,-6.843],[3.848,-6.879],[3.848,-6.935],[3.813,-6.97],[3.75,-6.998],[3.652,-6.907],[3.568,-6.9],[3.483,-6.822],[3.525,-6.745],[3.554,-6.611],[3.603,-6.534]]],[[[-4.166,-6.604],[-4.166,-6.618],[-4.103,-6.675],[-3.879,-6.689],[-3.766,-6.724],[-3.745,-6.745],[-3.745,-6.787],[-3.808,-6.865],[-3.808,-6.9],[-3.794,-6.914],[-4.005,-6.928],[-4.033,-6.858],[-4.159,-6.829],[-4.222,-6.78],[-4.257,-6.703],[-4.264,-6.618],[-4.243,-6.604],[-4.166,-6.604]]],[[[1.254,-7.856],[1.373,-7.99],[1.443,-8.025],[1.499,-8.088],[1.548,-8.088],[1.646,-7.997],[1.688,-8.025],[1.724,-8.025],[1.78,-7.997],[1.885,-7.99],[1.948,-7.934],[1.997,-7.955],[2.067,-7.955],[2.13,-7.934],[2.144,-8.053],[2.053,-8.109],[1.969,-8.138],[1.836,-8.145],[1.752,-8.124],[1.688,-8.159],[1.604,-8.166],[1.548,-8.208],[1.492,-8.208],[1.352,-8.138],[1.275,-8.067],[1.24,-8.011],[1.212,-7.884],[1.226,-7.863],[1.254,-7.856]]]]},"properties":{"abbr":"2","name":"layer 2 of cortex","plate":22,"ap_bregma_mm":0.45,"area_mm2":0.3783,"traced_fraction":[0.843,0.899,0.973],"n_labels":3,"no_drawn_outline":false}},{"type":"Feature","geometry":{"type":"MultiPolygon","coordinates":[[[[3.413,-6.316],[3.462,-6.407],[3.603,-6.534],[3.554,-6.611],[3.525,-6.745],[3.483,-6.822],[3.427,-6.858],[3.308,-6.886],[3.231,-6.886],[3.161,-6.865],[3.077,-6.872],[2.915,-6.949],[2.817,-7.04],[2.803,-7.04],[2.74,-7.125],[2.656,-7.294],[2.621,-7.434],[2.558,-7.427],[2.544,-7.406],[2.509,-7.308],[2.502,-7.195],[2.544,-7.097],[2.565,-7.083],[2.572,-7.033],[2.628,-6.97],[2.663,-6.949],[2.635,-6.935],[2.656,-6.865],[2.705,-6.801],[2.782,-6.858],[2.803,-6.858],[3.007,-6.752],[3.175,-6.766],[3.217,-6.752],[3.245,-6.724],[3.28,-6.625],[3.287,-6.485],[3.343,-6.351],[3.413,-6.316]]],[[[-3.605,-6.365],[-3.556,-6.386],[-3.514,-6.386],[-3.514,-6.443],[-3.458,-6.576],[-3.444,-6.675],[-3.416,-6.724],[-3.325,-6.794],[-3.241,-6.787],[-3.241,-6.801],[-3.184,-6.85],[-3.058,-6.886],[-2.96,-6.942],[-2.778,-7.012],[-2.75,-7.083],[-2.652,-7.216],[-2.616,-7.237],[-2.574,-7.237],[-2.546,-7.216],[-2.532,-7.286],[-2.504,-7.322],[-2.518,-7.371],[-2.581,-7.441],[-2.68,-7.505],[-2.806,-7.533],[-2.785,-7.42],[-2.827,-7.251],[-2.897,-7.139],[-2.981,-7.054],[-3.065,-6.998],[-3.17,-6.963],[-3.262,-6.97],[-3.388,-7.005],[-3.458,-7.054],[-3.5,-7.061],[-3.5,-6.949],[-3.528,-6.9],[-3.584,-6.9],[-3.661,-6.928],[-3.766,-6.928],[-3.794,-6.914],[-3.808,-6.9],[-3.808,-6.865],[-3.745,-6.787],[-3.745,-6.745],[-3.766,-6.724],[-3.879,-6.689],[-4.103,-6.675],[-4.166,-6.618],[-4.166,-6.604],[-4.089,-6.576],[-3.935,-6.548],[-3.794,-6.499],[-3.668,-6.421],[-3.619,-6.365],[-3.605,-6.365]]]]},"properties":{"abbr":"3","name":"layer 3 of cortex","plate":22,"ap_bregma_mm":0.45,"area_mm2":0.7096,"traced_fraction":[0.974,1.0],"n_labels":2,"no_drawn_outline":false}},{"type":"Feature","geometry":{"type":"MultiPolygon","coordinates":[[[[-3.815,-5.781],[-3.766,-5.873],[-3.703,-5.887],[-3.724,-6.14],[-3.703,-6.168],[-3.703,-6.225],[-3.605,-6.365],[-3.619,-6.365],[-3.668,-6.421],[-3.794,-6.499],[-3.935,-6.548],[-4.089,-6.576],[-4.166,-6.604],[-4.243,-6.604],[-4.264,-6.618],[-4.467,-6.717],[-4.622,-6.822],[-4.706,-6.738],[-4.706,-6.724],[-4.825,-6.597],[-4.825,-6.583],[-5.028,-6.344],[-4.965,-6.302],[-4.068,-5.901],[-3.872,-5.795],[-3.815,-5.781]]],[[[3.652,-5.852],[3.918,-5.971],[4.353,-6.196],[4.507,-6.26],[4.675,-6.344],[4.76,-6.407],[4.739,-6.435],[4.556,-6.562],[4.402,-6.639],[4.388,-6.654],[4.367,-6.78],[4.22,-6.724],[4.213,-6.71],[4.107,-6.661],[4.009,-6.583],[3.981,-6.583],[3.932,-6.534],[3.862,-6.534],[3.792,-6.576],[3.736,-6.576],[3.687,-6.541],[3.603,-6.534],[3.462,-6.407],[3.413,-6.316],[3.448,-6.175],[3.462,-6.168],[3.491,-6.098],[3.504,-6.098],[3.554,-6.042],[3.638,-5.852],[3.652,-5.852]]]]},"properties":{"abbr":"AI","name":"agranular insular cortex","plate":22,"ap_bregma_mm":0.45,"area_mm2":1.386,"traced_fraction":[0.992,1.0],"n_labels":2,"no_drawn_outline":false}},{"type":"Feature","geometry":{"type":"MultiPolygon","coordinates":[[[[-1.768,-7.111],[-1.768,-7.265],[-1.81,-7.265],[-1.81,-7.28],[-1.957,-7.28],[-1.957,-7.111],[-1.768,-7.111]]],[[[2.06,-7.209],[2.053,-7.237],[2.067,-7.258],[2.032,-7.272],[2.011,-7.343],[1.99,-7.357],[1.976,-7.399],[1.948,-7.413],[1.906,-7.315],[1.871,-7.286],[1.843,-7.286],[1.843,-7.188],[2.053,-7.188],[2.06,-7.209]]]]},"properties":{"abbr":"CB","name":"cell bridges of the ventral striatum","plate":22,"ap_bregma_mm":0.45,"area_mm2":0.0622,"traced_fraction":[0.426,0.678],"n_labels":2,"no_drawn_outline":true}},{"type":"Feature","geometry":{"type":"MultiPolygon","coordinates":[[[[2.355,-3.235],[2.719,-3.32],[2.845,-3.362],[3.0,-3.425],[3.245,-3.559],[3.406,-3.671],[3.54,-3.798],[3.694,-4.044],[3.743,-4.213],[3.778,-4.445],[3.764,-4.818],[3.659,-5.409],[3.624,-5.549],[3.575,-5.662],[3.582,-5.718],[3.469,-5.845],[3.455,-5.894],[3.455,-5.901],[3.385,-5.957],[3.273,-6.126],[3.245,-6.14],[3.189,-6.21],[3.189,-6.231],[3.056,-6.365],[2.923,-6.562],[2.887,-6.569],[2.796,-6.646],[2.768,-6.646],[2.712,-6.682],[2.46,-6.9],[2.446,-6.907],[2.193,-6.977],[2.081,-6.977],[1.99,-6.942],[1.78,-6.724],[1.59,-6.576],[1.534,-6.492],[1.443,-6.295],[1.359,-6.217],[1.268,-6.175],[1.226,-6.175],[1.184,-6.154],[1.177,-6.147],[1.17,-6.14],[1.163,-6.14],[1.156,-6.133],[1.17,-6.063],[1.163,-5.873],[1.121,-5.753],[1.086,-5.725],[1.071,-5.669],[1.086,-5.613],[1.086,-5.444],[1.099,-5.352],[1.093,-4.994],[1.078,-4.98],[1.05,-4.783],[0.959,-4.487],[0.924,-4.319],[0.91,-4.276],[0.889,-4.262],[0.861,-4.122],[0.791,-3.953],[1.177,-3.503],[1.191,-3.503],[1.296,-3.404],[1.408,-3.341],[1.66,-3.264],[1.941,-3.207],[2.277,-3.221],[2.355,-3.235]]],[[[-1.95,-3.306],[-1.656,-3.341],[-1.474,-3.39],[-1.34,-3.453],[-1.074,-3.636],[-0.85,-3.875],[-0.829,-3.981],[-0.857,-4.086],[-0.885,-4.157],[-0.892,-4.234],[-0.92,-4.347],[-0.927,-4.48],[-0.955,-4.515],[-1.06,-4.846],[-1.095,-4.888],[-1.123,-4.987],[-1.186,-5.317],[-1.186,-5.746],[-1.228,-5.788],[-1.263,-5.922],[-1.27,-6.168],[-1.277,-6.175],[-1.284,-6.182],[-1.397,-6.21],[-1.446,-6.239],[-1.509,-6.309],[-1.558,-6.443],[-1.621,-6.562],[-1.74,-6.675],[-1.922,-6.787],[-2.056,-6.843],[-2.322,-6.907],[-2.497,-6.907],[-2.666,-6.886],[-2.743,-6.85],[-2.876,-6.731],[-2.974,-6.71],[-3.079,-6.661],[-3.121,-6.625],[-3.149,-6.625],[-3.163,-6.576],[-3.255,-6.485],[-3.395,-6.295],[-3.395,-6.274],[-3.486,-6.119],[-3.556,-5.957],[-3.647,-5.838],[-3.752,-5.62],[-3.752,-5.584],[-3.773,-5.57],[-3.794,-5.493],[-3.844,-5.303],[-3.851,-5.106],[-3.836,-4.769],[-3.745,-4.424],[-3.598,-4.1],[-3.472,-3.939],[-3.339,-3.805],[-3.093,-3.629],[-2.764,-3.481],[-2.287,-3.341],[-2.063,-3.306],[-1.95,-3.306]]]]},"properties":{"abbr":"CPu","name":"caudate putamen (striatum)","plate":22,"ap_bregma_mm":0.45,"area_mm2":16.3463,"traced_fraction":[1.0,1.0],"n_labels":2,"no_drawn_outline":false}},{"type":"Feature","geometry":{"type":"MultiPolygon","coordinates":[[[[0.16,-1.709],[0.391,-1.927],[0.391,-1.941],[0.567,-2.117],[0.567,-2.131],[0.77,-2.349],[1.065,-2.743],[1.254,-3.031],[1.261,-3.081],[1.254,-3.088],[1.247,-3.095],[1.219,-3.102],[1.107,-3.2],[1.029,-3.13],[0.903,-3.053],[0.686,-2.947],[0.532,-2.898],[0.321,-2.856],[-0.141,-2.849],[-0.408,-2.884],[-0.632,-2.954],[-0.871,-3.074],[-1.004,-3.172],[-1.06,-3.235],[-1.081,-3.235],[-1.144,-3.186],[-1.235,-3.151],[-1.081,-2.898],[-0.772,-2.476],[-0.59,-2.265],[-0.562,-2.216],[-0.113,-1.723],[-0.064,-1.765],[-0.022,-1.836],[-0.008,-1.836],[-0.001,-1.871],[0.027,-1.906],[0.041,-1.906],[0.062,-1.885],[0.076,-1.822],[0.111,-1.751],[0.16,-1.709]]]]},"properties":{"abbr":"Cg1","name":"cingulate cortex, area 1","plate":22,"ap_bregma_mm":0.45,"area_mm2":1.7209,"traced_fraction":[1.0],"n_labels":2,"no_drawn_outline":false}},{"type":"Feature","geometry":{"type":"MultiPolygon","coordinates":[[[[1.107,-3.2],[1.05,-3.278],[0.959,-3.362],[0.784,-3.594],[0.644,-3.728],[0.623,-3.77],[0.567,-3.791],[0.56,-3.805],[0.483,-3.819],[0.363,-3.868],[0.265,-3.882],[0.23,-3.861],[0.174,-3.854],[0.09,-3.868],[0.062,-3.826],[0.027,-3.721],[-0.001,-3.714],[-0.022,-3.784],[-0.24,-3.784],[-0.24,-3.896],[-0.324,-3.882],[-0.562,-3.784],[-0.597,-3.735],[-0.716,-3.65],[-0.78,-3.587],[-1.06,-3.235],[-1.004,-3.172],[-0.871,-3.074],[-0.632,-2.954],[-0.408,-2.884],[-0.141,-2.849],[0.321,-2.856],[0.532,-2.898],[0.686,-2.947],[0.903,-3.053],[1.029,-3.13],[1.107,-3.2]]]]},"properties":{"abbr":"Cg2","name":"cingulate cortex, area 2","plate":22,"ap_bregma_mm":0.45,"area_mm2":1.5835,"traced_fraction":[0.947],"n_labels":2,"no_drawn_outline":false}},{"type":"Feature","geometry":{"type":"MultiPolygon","coordinates":[[[[-3.794,-5.493],[-3.773,-5.57],[-3.752,-5.584],[-3.752,-5.62],[-3.808,-5.634],[-3.815,-5.655],[-3.914,-5.648],[-3.914,-5.493],[-3.794,-5.493]]],[[[3.638,-5.683],[3.638,-5.838],[3.652,-5.852],[3.638,-5.852],[3.554,-6.042],[3.504,-6.098],[3.491,-6.098],[3.483,-6.056],[3.504,-5.978],[3.491,-5.915],[3.469,-5.908],[3.462,-5.901],[3.455,-5.894],[3.469,-5.845],[3.582,-5.718],[3.638,-5.683]]]]},"properties":{"abbr":"DCl","name":"dorsal part of claustrum","plate":22,"ap_bregma_mm":0.45,"area_mm2":0.0612,"traced_fraction":[0.484,0.986],"n_labels":2,"no_drawn_outline":false}},{"type":"Feature","geometry":{"type":"MultiPolygon","coordinates":[[[[3.189,-6.231],[3.231,-6.309],[3.343,-6.351],[3.287,-6.485],[3.28,-6.625],[3.245,-6.724],[3.217,-6.752],[3.175,-6.766],[3.007,-6.752],[3.007,-6.738],[2.965,-6.717],[2.923,-6.661],[2.923,-6.562],[3.056,-6.365],[3.189,-6.231]]],[[[-3.395,-6.295],[-3.255,-6.485],[-3.163,-6.576],[-3.149,-6.625],[-3.156,-6.71],[-3.241,-6.787],[-3.325,-6.794],[-3.416,-6.724],[-3.444,-6.675],[-3.458,-6.576],[-3.514,-6.443],[-3.514,-6.386],[-3.465,-6.365],[-3.416,-6.302],[-3.395,-6.295]]]]},"properties":{"abbr":"DEn","name":"dorsal endopiriform nucleus","plate":22,"ap_bregma_mm":0.45,"area_mm2":0.2488,"traced_fraction":[1.0,1.0],"n_labels":2,"no_drawn_outline":false}},{"type":"Feature","geometry":{"type":"MultiPolygon","coordinates":[[[[-3.844,-5.303],[-3.794,-5.493],[-3.914,-5.493],[-3.914,-5.648],[-3.815,-5.655],[-3.815,-5.781],[-3.872,-5.795],[-4.068,-5.901],[-4.965,-6.302],[-5.028,-6.344],[-5.253,-6.112],[-5.344,-5.978],[-5.288,-5.936],[-5.084,-5.852],[-4.923,-5.767],[-4.685,-5.676],[-3.998,-5.359],[-3.844,-5.303]]],[[[3.715,-5.465],[4.199,-5.69],[4.696,-5.894],[4.991,-5.999],[5.124,-6.07],[5.131,-6.077],[4.935,-6.274],[4.773,-6.4],[4.76,-6.407],[4.675,-6.344],[3.652,-5.852],[3.638,-5.838],[3.638,-5.683],[3.659,-5.57],[3.715,-5.465]]]]},"properties":{"abbr":"DI","name":"dysgranular insular cortex","plate":22,"ap_bregma_mm":0.45,"area_mm2":1.2615,"traced_fraction":[0.915,1.0],"n_labels":2,"no_drawn_outline":false}},{"type":"Feature","geometry":{"type":"MultiPolygon","coordinates":[[[[-3.886,-5.008],[-3.872,-5.092],[-3.851,-5.106],[-3.844,-5.303],[-3.998,-5.359],[-4.636,-5.655],[-4.923,-5.767],[-5.084,-5.852],[-5.218,-5.901],[-5.344,-5.978],[-5.421,-5.887],[-5.554,-5.676],[-5.526,-5.648],[-5.463,-5.62],[-5.014,-5.451],[-4.748,-5.331],[-4.608,-5.289],[-4.58,-5.268],[-4.32,-5.177],[-3.991,-5.036],[-3.886,-5.008]]],[[[3.799,-5.212],[3.911,-5.24],[4.163,-5.345],[4.388,-5.416],[4.612,-5.514],[5.201,-5.718],[5.377,-5.803],[5.215,-5.985],[5.215,-5.999],[5.138,-6.07],[5.124,-6.07],[4.991,-5.999],[4.696,-5.894],[4.199,-5.69],[3.715,-5.465],[3.715,-5.437],[3.743,-5.388],[3.771,-5.268],[3.799,-5.212]]]]},"properties":{"abbr":"GI","name":"granular insular cortex","plate":22,"ap_bregma_mm":0.45,"area_mm2":1.0842,"traced_fraction":[1.0,1.0],"n_labels":2,"no_drawn_outline":false}},{"type":"Feature","geometry":{"type":"MultiPolygon","coordinates":[[[[1.029,-7.42],[1.142,-7.49],[1.247,-7.631],[1.268,-7.687],[1.275,-7.772],[1.254,-7.856],[1.226,-7.863],[1.212,-7.884],[1.128,-7.905],[1.015,-7.898],[0.854,-7.849],[0.714,-7.772],[0.574,-7.638],[0.581,-7.469],[0.539,-7.469],[0.567,-7.406],[0.651,-7.364],[0.784,-7.357],[0.98,-7.42],[1.029,-7.42]]],[[[-0.766,-7.49],[-0.766,-7.603],[-0.793,-7.666],[-0.983,-7.842],[-1.06,-7.884],[-1.074,-7.905],[-1.2,-7.962],[-1.298,-7.962],[-1.382,-7.941],[-1.46,-7.884],[-1.488,-7.8],[-1.488,-7.68],[-1.439,-7.61],[-1.376,-7.561],[-1.249,-7.512],[-1.235,-7.49],[-1.2,-7.476],[-1.137,-7.484],[-1.06,-7.462],[-0.899,-7.455],[-0.766,-7.49]]]]},"properties":{"abbr":"HDB","name":"nucleus of the horizontal limb of the diagonal band","plate":22,"ap_bregma_mm":0.45,"area_mm2":0.5426,"traced_fraction":[0.934,1.0],"n_labels":2,"no_drawn_outline":false}},{"type":"Feature","geometry":{"type":"MultiPolygon","coordinates":[[[[2.923,-6.562],[2.923,-6.661],[2.965,-6.717],[3.007,-6.738],[3.007,-6.752],[2.803,-6.858],[2.782,-6.858],[2.705,-6.801],[2.726,-6.752],[2.789,-6.682],[2.796,-6.646],[2.866,-6.583],[2.923,-6.562]]],[[[-3.149,-6.625],[-3.121,-6.625],[-3.079,-6.661],[-2.974,-6.71],[-2.974,-6.745],[-2.946,-6.773],[-2.932,-6.822],[-2.792,-6.956],[-2.778,-7.012],[-2.96,-6.942],[-3.058,-6.886],[-3.184,-6.85],[-3.241,-6.801],[-3.241,-6.787],[-3.156,-6.71],[-3.149,-6.625]]]]},"properties":{"abbr":"IEn","name":"intermediate endopiriform nucleus","plate":22,"ap_bregma_mm":0.45,"area_mm2":0.113,"traced_fraction":[0.912,1.0],"n_labels":2,"no_drawn_outline":false}},{"type":"Feature","geometry":{"type":"MultiPolygon","coordinates":[[[[1.226,-6.175],[1.289,-6.182],[1.387,-6.239],[1.457,-6.316],[1.534,-6.492],[1.59,-6.576],[1.78,-6.724],[1.99,-6.942],[2.081,-6.977],[2.193,-6.977],[2.446,-6.907],[2.453,-6.914],[2.453,-6.942],[2.425,-6.977],[2.39,-7.076],[2.39,-7.209],[2.341,-7.251],[2.2,-7.251],[2.102,-7.237],[2.102,-7.223],[2.06,-7.209],[2.053,-7.188],[1.843,-7.188],[1.843,-7.286],[1.836,-7.286],[1.78,-7.272],[1.738,-7.23],[1.717,-7.181],[1.696,-7.118],[1.618,-6.998],[1.408,-6.78],[1.282,-6.632],[1.254,-6.569],[1.254,-6.527],[1.317,-6.513],[1.345,-6.485],[1.352,-6.421],[1.296,-6.295],[1.233,-6.21],[1.226,-6.175]]],[[[-1.284,-6.182],[-1.361,-6.274],[-1.439,-6.407],[-1.431,-6.492],[-1.382,-6.541],[-1.41,-6.583],[-1.446,-6.71],[-1.523,-6.829],[-1.607,-6.914],[-1.614,-6.942],[-1.628,-6.942],[-1.768,-7.09],[-1.768,-7.111],[-1.957,-7.111],[-1.957,-7.28],[-2.056,-7.286],[-2.154,-7.308],[-2.175,-7.336],[-2.252,-7.343],[-2.301,-7.336],[-2.343,-7.322],[-2.35,-7.301],[-2.378,-7.286],[-2.434,-7.286],[-2.469,-7.308],[-2.504,-7.322],[-2.532,-7.286],[-2.546,-7.216],[-2.56,-7.111],[-2.609,-7.005],[-2.645,-6.963],[-2.666,-6.886],[-2.497,-6.907],[-2.322,-6.907],[-2.056,-6.843],[-1.922,-6.787],[-1.74,-6.675],[-1.621,-6.562],[-1.558,-6.443],[-1.509,-6.309],[-1.446,-6.239],[-1.397,-6.21],[-1.284,-6.182]]]]},"properties":{"abbr":"IPAC","name":"interstitial nucleus of the posterior limb of the anterior commissure","plate":22,"ap_bregma_mm":0.45,"area_mm2":0.9149,"traced_fraction":[0.93,0.929],"n_labels":2,"no_drawn_outline":false}},{"type":"Feature","geometry":{"type":"MultiPolygon","coordinates":[[[[-0.38,-6.386],[-0.289,-6.562],[-0.191,-6.668],[-0.212,-6.675],[-0.226,-6.745],[-0.31,-6.907],[-0.492,-7.188],[-0.639,-7.378],[-0.766,-7.49],[-0.899,-7.455],[-1.06,-7.462],[-1.137,-7.484],[-1.2,-7.476],[-1.2,-7.462],[-1.193,-7.455],[-1.186,-7.448],[-1.004,-7.258],[-0.85,-7.033],[-0.759,-6.815],[-0.738,-6.731],[-0.738,-6.661],[-0.583,-6.632],[-0.478,-6.583],[-0.422,-6.52],[-0.401,-6.471],[-0.401,-6.4],[-0.38,-6.386]]],[[[0.188,-6.464],[0.223,-6.471],[0.237,-6.506],[0.328,-6.604],[0.448,-6.654],[0.546,-6.668],[0.539,-6.766],[0.581,-6.879],[0.665,-7.026],[0.784,-7.181],[0.952,-7.35],[0.994,-7.371],[1.029,-7.42],[0.98,-7.42],[0.784,-7.357],[0.651,-7.364],[0.567,-7.406],[0.469,-7.315],[0.455,-7.315],[0.265,-7.111],[0.181,-6.984],[0.09,-6.759],[0.041,-6.675],[0.041,-6.661],[0.111,-6.597],[0.167,-6.499],[0.167,-6.478],[0.188,-6.464]]]]},"properties":{"abbr":"LPO","name":"lateral preoptic area","plate":22,"ap_bregma_mm":0.45,"area_mm2":0.7973,"traced_fraction":[1.0,0.975],"n_labels":2,"no_drawn_outline":false}},{"type":"Feature","geometry":{"type":"MultiPolygon","coordinates":[[[[-0.766,-3.932],[-0.632,-3.967],[-0.506,-4.023],[-0.31,-4.065],[-0.212,-4.1],[-0.254,-4.248],[-0.324,-4.248],[-0.457,-4.283],[-0.66,-4.368],[-0.864,-4.48],[-0.927,-4.48],[-0.92,-4.347],[-0.892,-4.234],[-0.772,-4.234],[-0.772,-4.086],[-0.857,-4.086],[-0.829,-3.981],[-0.78,-3.96],[-0.766,-3.932]]],[[[0.791,-3.953],[0.861,-4.122],[0.889,-4.262],[0.875,-4.269],[0.882,-4.431],[0.805,-4.417],[0.735,-4.375],[0.518,-4.304],[0.286,-4.248],[0.223,-4.248],[0.188,-4.108],[0.433,-4.037],[0.574,-3.974],[0.791,-3.953]]]]},"properties":{"abbr":"LSD","name":"lateral septal nucleus, dorsal part","plate":22,"ap_bregma_mm":0.45,"area_mm2":0.4058,"traced_fraction":[0.865,1.0],"n_labels":2,"no_drawn_outline":false}},{"type":"Feature","geometry":{"type":"MultiPolygon","coordinates":[[[[-0.254,-4.248],[-0.24,-4.382],[-0.205,-4.445],[-0.162,-4.487],[-0.177,-4.523],[-0.303,-4.684],[-0.359,-4.804],[-0.401,-4.881],[-0.45,-5.022],[-0.499,-5.268],[-0.506,-5.556],[-0.485,-5.76],[-0.464,-5.817],[-0.45,-5.817],[-0.457,-5.838],[-0.541,-5.852],[-0.653,-5.486],[-0.766,-5.254],[-0.878,-5.092],[-0.983,-4.987],[-1.06,-4.951],[-1.046,-4.895],[-1.046,-4.86],[-1.06,-4.846],[-0.955,-4.515],[-0.927,-4.48],[-0.864,-4.48],[-0.66,-4.368],[-0.457,-4.283],[-0.324,-4.248],[-0.254,-4.248]]],[[[0.223,-4.248],[0.286,-4.248],[0.518,-4.304],[0.735,-4.375],[0.805,-4.417],[0.882,-4.431],[0.938,-4.565],[1.036,-4.98],[0.931,-4.994],[0.875,-5.043],[0.875,-5.057],[0.861,-5.057],[0.777,-5.148],[0.644,-5.345],[0.497,-5.648],[0.406,-5.894],[0.314,-5.866],[0.314,-5.852],[0.342,-5.817],[0.384,-5.613],[0.406,-5.423],[0.398,-5.141],[0.356,-4.944],[0.293,-4.783],[0.111,-4.494],[0.202,-4.389],[0.223,-4.311],[0.223,-4.248]]]]},"properties":{"abbr":"LSI","name":"lateral septal nucleus, intermediate part","plate":22,"ap_bregma_mm":0.45,"area_mm2":1.33,"traced_fraction":[0.991,0.978],"n_labels":2,"no_drawn_outline":false}},{"type":"Feature","geometry":{"type":"MultiPolygon","coordinates":[[[[2.796,-6.646],[2.789,-6.682],[2.726,-6.752],[2.705,-6.801],[2.656,-6.865],[2.635,-6.935],[2.621,-6.942],[2.628,-6.97],[2.572,-7.033],[2.565,-7.083],[2.544,-7.097],[2.502,-7.195],[2.39,-7.209],[2.39,-7.076],[2.425,-6.977],[2.453,-6.942],[2.453,-6.914],[2.46,-6.9],[2.712,-6.682],[2.768,-6.646],[2.796,-6.646]]],[[[-2.974,-6.71],[-2.876,-6.731],[-2.743,-6.85],[-2.666,-6.886],[-2.645,-6.963],[-2.609,-7.005],[-2.56,-7.111],[-2.546,-7.216],[-2.574,-7.237],[-2.616,-7.237],[-2.652,-7.216],[-2.75,-7.083],[-2.778,-7.012],[-2.792,-6.956],[-2.932,-6.822],[-2.946,-6.773],[-2.974,-6.745],[-2.974,-6.71]]]]},"properties":{"abbr":"LSS","name":"lateral stripe of the striatum","plate":22,"ap_bregma_mm":0.45,"area_mm2":0.1553,"traced_fraction":[1.0,1.0],"n_labels":2,"no_drawn_outline":false}},{"type":"Feature","geometry":{"type":"MultiPolygon","coordinates":[[[[-1.06,-4.951],[-0.983,-4.987],[-0.878,-5.092],[-0.766,-5.254],[-0.653,-5.486],[-0.541,-5.852],[-0.499,-6.035],[-0.478,-6.246],[-0.506,-6.246],[-0.597,-6.196],[-0.744,-6.154],[-0.85,-6.161],[-0.864,-6.161],[-0.99,-5.971],[-1.158,-5.817],[-1.158,-5.76],[-1.144,-5.76],[-1.137,-5.739],[-1.137,-5.303],[-1.102,-5.099],[-1.06,-4.951]]],[[[0.875,-5.057],[0.889,-5.085],[1.05,-5.085],[1.057,-5.359],[1.022,-5.746],[0.959,-5.774],[0.77,-5.957],[0.658,-6.119],[0.609,-6.119],[0.595,-6.133],[0.504,-6.154],[0.419,-6.203],[0.328,-6.182],[0.342,-6.091],[0.406,-5.894],[0.497,-5.648],[0.644,-5.345],[0.777,-5.148],[0.861,-5.057],[0.875,-5.057]]]]},"properties":{"abbr":"LSV","name":"lateral septal nucleus, ventral part","plate":22,"ap_bregma_mm":0.45,"area_mm2":0.9669,"traced_fraction":[1.0,0.941],"n_labels":2,"no_drawn_outline":false}},{"type":"Feature","geometry":{"type":"MultiPolygon","coordinates":[[[[1.366,-1.322],[1.801,-1.322],[2.221,-1.358],[2.137,-2.068],[2.123,-2.321],[2.046,-3.045],[1.618,-3.031],[1.492,-2.096],[1.436,-1.801],[1.429,-1.695],[1.373,-1.435],[1.366,-1.322]]],[[[-1.291,-1.4],[-1.291,-1.505],[-1.467,-3.137],[-1.803,-3.158],[-1.922,-3.151],[-2.084,-1.519],[-1.782,-1.456],[-1.291,-1.4]]]]},"properties":{"abbr":"M1","name":"primary motor cortex","plate":22,"ap_bregma_mm":0.45,"area_mm2":2.1548,"traced_fraction":[1.0,1.0],"n_labels":2,"no_drawn_outline":false}},{"type":"Feature","geometry":{"type":"MultiPolygon","coordinates":[[[[1.366,-1.322],[1.373,-1.435],[1.429,-1.695],[1.436,-1.801],[1.492,-2.096],[1.618,-3.031],[1.408,-3.045],[1.261,-3.081],[1.254,-3.031],[1.065,-2.743],[0.77,-2.349],[0.567,-2.131],[0.567,-2.117],[0.391,-1.941],[0.391,-1.927],[0.16,-1.709],[0.23,-1.625],[0.258,-1.618],[0.335,-1.554],[0.518,-1.47],[0.896,-1.372],[1.366,-1.322]]],[[[-0.113,-1.723],[-0.562,-2.216],[-0.59,-2.265],[-0.772,-2.476],[-1.081,-2.898],[-1.235,-3.151],[-1.467,-3.137],[-1.291,-1.505],[-1.291,-1.4],[-1.2,-1.386],[-0.793,-1.386],[-0.653,-1.407],[-0.492,-1.456],[-0.296,-1.561],[-0.17,-1.66],[-0.113,-1.723]]]]},"properties":{"abbr":"M2","name":"secondary motor cortex","plate":22,"ap_bregma_mm":0.45,"area_mm2":2.6494,"traced_fraction":[1.0,1.0],"n_labels":2,"no_drawn_outline":false}},{"type":"Feature","geometry":{"type":"MultiPolygon","coordinates":[[[[-0.191,-6.668],[-0.099,-6.71],[-0.282,-7.16],[-0.443,-7.455],[-0.45,-7.54],[-0.408,-7.582],[-0.352,-7.582],[-0.149,-7.512],[-0.022,-7.512],[0.181,-7.582],[0.286,-7.575],[0.321,-7.533],[0.307,-7.434],[0.23,-7.315],[-0.057,-6.71],[0.006,-6.675],[0.041,-6.675],[0.09,-6.759],[0.181,-6.984],[0.265,-7.111],[0.455,-7.315],[0.469,-7.315],[0.567,-7.406],[0.539,-7.469],[0.581,-7.469],[0.574,-7.638],[0.714,-7.772],[0.854,-7.849],[1.015,-7.898],[1.128,-7.905],[1.212,-7.884],[1.24,-8.011],[1.275,-8.067],[1.352,-8.138],[1.492,-8.208],[1.485,-8.278],[1.338,-8.257],[0.966,-8.067],[0.707,-7.898],[0.567,-7.814],[0.49,-7.793],[0.461,-7.786],[0.44,-7.779],[0.412,-7.772],[0.335,-7.751],[0.034,-7.666],[-0.113,-7.652],[-0.324,-7.716],[-0.478,-7.737],[-0.674,-7.8],[-0.695,-7.807],[-0.716,-7.814],[-0.738,-7.821],[-0.759,-7.828],[-0.78,-7.835],[-0.808,-7.842],[-0.906,-7.891],[-1.004,-8.025],[-1.2,-8.215],[-1.354,-8.306],[-1.663,-8.356],[-2.028,-8.363],[-2.196,-8.356],[-2.294,-8.335],[-2.497,-8.243],[-2.652,-8.131],[-2.764,-8.018],[-2.911,-7.814],[-2.946,-7.786],[-2.953,-7.758],[-2.946,-7.694],[-2.897,-7.673],[-2.876,-7.603],[-2.841,-7.589],[-2.813,-7.723],[-2.771,-7.821],[-2.694,-7.884],[-2.595,-7.898],[-2.56,-7.948],[-2.56,-8.011],[-2.518,-8.06],[-2.413,-8.074],[-2.385,-8.102],[-2.322,-8.131],[-2.133,-8.18],[-1.775,-8.229],[-1.635,-8.229],[-1.579,-8.215],[-1.509,-8.173],[-1.431,-8.159],[-1.376,-8.116],[-1.368,-8.032],[-1.382,-7.941],[-1.298,-7.962],[-1.2,-7.962],[-1.074,-7.905],[-1.06,-7.884],[-0.983,-7.842],[-0.793,-7.666],[-0.766,-7.603],[-0.766,-7.49],[-0.639,-7.378],[-0.492,-7.188],[-0.31,-6.907],[-0.226,-6.745],[-0.212,-6.675],[-0.191,-6.668]]]]},"properties":{"abbr":"MPA","name":"medial preoptic area","plate":22,"ap_bregma_mm":0.45,"area_mm2":1.1172,"traced_fraction":[0.989],"n_labels":2,"no_drawn_outline":false}},{"type":"Feature","geometry":{"type":"MultiPolygon","coordinates":[[[[0.314,-5.852],[0.314,-5.866],[0.286,-5.943],[0.286,-6.063],[0.237,-6.309],[0.223,-6.379],[0.202,-6.414],[0.209,-6.435],[0.188,-6.443],[0.188,-6.464],[0.167,-6.478],[0.167,-6.499],[0.111,-6.597],[0.041,-6.661],[0.041,-6.675],[0.006,-6.675],[-0.057,-6.71],[-0.099,-6.71],[-0.191,-6.668],[-0.289,-6.562],[-0.38,-6.386],[-0.408,-6.302],[-0.429,-6.168],[-0.436,-5.915],[-0.457,-5.838],[-0.45,-5.817],[-0.429,-5.599],[-0.373,-5.409],[-0.233,-5.113],[-0.092,-4.895],[-0.064,-4.867],[-0.029,-4.867],[-0.001,-4.895],[0.216,-5.296],[0.279,-5.507],[0.3,-5.669],[0.3,-5.831],[0.314,-5.852]]]]},"properties":{"abbr":"MS","name":"medial septal nucleus","plate":22,"ap_bregma_mm":0.45,"area_mm2":1.0126,"traced_fraction":[1.0],"n_labels":1,"no_drawn_outline":false}},{"type":"Feature","geometry":{"type":"MultiPolygon","coordinates":[[[[-0.099,-6.71],[-0.057,-6.71],[0.23,-7.315],[0.307,-7.434],[0.321,-7.533],[0.265,-7.582],[0.146,-7.575],[-0.022,-7.512],[-0.183,-7.519],[-0.352,-7.582],[-0.408,-7.582],[-0.45,-7.54],[-0.443,-7.455],[-0.282,-7.16],[-0.099,-6.71]]]]},"properties":{"abbr":"MnPO","name":"median preoptic nucleus","plate":22,"ap_bregma_mm":0.45,"area_mm2":0.3553,"traced_fraction":[1.0],"n_labels":1,"no_drawn_outline":false}},{"type":"Feature","geometry":{"type":"MultiPolygon","coordinates":[[[[3.483,-6.822],[3.568,-6.9],[3.652,-6.907],[3.75,-6.998],[3.736,-7.012],[3.722,-7.111],[3.666,-7.202],[3.589,-7.28],[3.497,-7.329],[3.406,-7.329],[3.287,-7.28],[3.238,-7.237],[3.21,-7.16],[3.161,-7.111],[2.986,-7.125],[2.894,-7.16],[2.81,-7.258],[2.747,-7.427],[2.719,-7.575],[2.691,-7.603],[2.649,-7.596],[2.628,-7.554],[2.621,-7.49],[2.621,-7.434],[2.656,-7.294],[2.74,-7.125],[2.803,-7.04],[2.817,-7.04],[2.915,-6.949],[3.077,-6.872],[3.161,-6.865],[3.231,-6.886],[3.308,-6.886],[3.427,-6.858],[3.483,-6.822]]],[[[-2.806,-7.533],[-2.806,-7.547],[-2.834,-7.561],[-2.841,-7.589],[-2.876,-7.603],[-2.89,-7.603],[-2.932,-7.547],[-2.939,-7.399],[-2.953,-7.357],[-3.016,-7.258],[-3.072,-7.209],[-3.128,-7.188],[-3.255,-7.188],[-3.36,-7.272],[-3.458,-7.329],[-3.577,-7.364],[-3.633,-7.357],[-3.724,-7.322],[-3.829,-7.23],[-3.879,-7.125],[-3.984,-7.012],[-4.005,-6.928],[-3.794,-6.914],[-3.766,-6.928],[-3.661,-6.928],[-3.584,-6.9],[-3.528,-6.9],[-3.5,-6.949],[-3.5,-7.061],[-3.458,-7.054],[-3.388,-7.005],[-3.262,-6.97],[-3.17,-6.963],[-3.065,-6.998],[-2.981,-7.054],[-2.897,-7.139],[-2.827,-7.251],[-2.785,-7.42],[-2.806,-7.533]]]]},"properties":{"abbr":"Pir","name":"piriform cortex","plate":22,"ap_bregma_mm":0.45,"area_mm2":0.7023,"traced_fraction":[0.927,0.958],"n_labels":2,"no_drawn_outline":false}},{"type":"Feature","geometry":{"type":"MultiPolygon","coordinates":[[[[-4.404,-2.251],[-4.404,-2.272],[-4.376,-2.3],[-4.32,-2.413],[-4.299,-2.426],[-4.145,-2.673],[-4.124,-2.687],[-3.914,-3.024],[-3.808,-3.158],[-3.724,-3.306],[-3.654,-3.383],[-3.612,-3.453],[-3.577,-3.475],[-3.57,-3.51],[-3.514,-3.587],[-3.444,-3.657],[-3.43,-3.657],[-3.556,-3.784],[-3.626,-3.875],[-3.661,-3.946],[-3.71,-3.995],[-3.949,-3.904],[-4.699,-3.545],[-4.706,-3.531],[-4.846,-3.468],[-5.211,-3.256],[-5.463,-3.081],[-5.386,-2.94],[-5.302,-2.827],[-5.092,-2.624],[-5.014,-2.581],[-4.909,-2.497],[-4.839,-2.469],[-4.678,-2.37],[-4.404,-2.251]]],[[[4.935,-2.335],[5.068,-2.405],[5.11,-2.448],[5.222,-2.518],[5.229,-2.539],[5.377,-2.638],[5.461,-2.729],[5.475,-2.729],[5.685,-2.961],[5.832,-3.193],[5.615,-3.285],[5.18,-3.432],[5.04,-3.496],[4.802,-3.566],[4.668,-3.622],[3.995,-3.847],[3.855,-3.882],[3.813,-3.911],[3.673,-3.657],[4.22,-3.109],[4.255,-3.053],[4.339,-2.975],[4.409,-2.884],[4.935,-2.335]]]]},"properties":{"abbr":"S1BF","name":"primary somatosensory cortex, barrel field","plate":22,"ap_bregma_mm":0.45,"area_mm2":3.2321,"traced_fraction":[0.987,1.0],"n_labels":2,"no_drawn_outline":false}},{"type":"Feature","geometry":{"type":"MultiPolygon","coordinates":[[[[-4.264,-2.18],[-4.264,-2.209],[-4.229,-2.251],[-4.18,-2.363],[-3.921,-2.799],[-3.689,-3.151],[-3.633,-3.207],[-3.514,-3.383],[-3.5,-3.418],[-3.577,-3.475],[-3.612,-3.453],[-3.654,-3.383],[-3.724,-3.306],[-3.808,-3.158],[-3.914,-3.024],[-4.103,-2.736],[-4.11,-2.708],[-4.145,-2.673],[-4.299,-2.426],[-4.32,-2.413],[-4.376,-2.3],[-4.404,-2.272],[-4.404,-2.251],[-4.264,-2.18]]],[[[4.718,-2.201],[4.851,-2.272],[4.851,-2.286],[4.935,-2.335],[4.409,-2.884],[4.339,-2.975],[4.255,-3.053],[4.22,-3.109],[3.673,-3.657],[3.582,-3.566],[3.582,-3.552],[3.645,-3.503],[3.645,-3.489],[3.708,-3.432],[3.708,-3.418],[3.876,-3.228],[3.855,-3.214],[3.855,-3.06],[4.016,-3.06],[4.304,-2.729],[4.507,-2.469],[4.668,-2.293],[4.718,-2.201]]]]},"properties":{"abbr":"S1DZ","name":"primary somatosensory cortex, dysgranular zone","plate":22,"ap_bregma_mm":0.45,"area_mm2":0.5285,"traced_fraction":[0.971,0.91],"n_labels":2,"no_drawn_outline":false}},{"type":"Feature","geometry":{"type":"MultiPolygon","coordinates":[[[[3.729,-1.758],[3.953,-1.836],[4.332,-2.019],[4.584,-2.124],[4.718,-2.201],[4.668,-2.293],[4.507,-2.469],[4.339,-2.687],[4.016,-3.06],[3.855,-3.06],[3.855,-3.214],[3.876,-3.228],[3.708,-3.418],[3.708,-3.432],[3.645,-3.489],[3.645,-3.503],[3.582,-3.552],[3.554,-3.545],[3.533,-3.517],[3.392,-3.425],[3.077,-3.271],[3.231,-2.898],[3.322,-2.715],[3.406,-2.49],[3.54,-2.209],[3.603,-2.033],[3.729,-1.765],[3.729,-1.758]]],[[[-3.416,-1.871],[-3.367,-2.047],[-3.121,-2.673],[-3.058,-2.877],[-2.953,-3.13],[-2.904,-3.299],[-2.876,-3.341],[-2.918,-3.369],[-3.065,-3.418],[-3.191,-3.489],[-3.213,-3.489],[-3.43,-3.657],[-3.444,-3.657],[-3.514,-3.587],[-3.57,-3.51],[-3.577,-3.475],[-3.5,-3.418],[-3.514,-3.383],[-3.633,-3.207],[-3.689,-3.151],[-3.921,-2.799],[-4.18,-2.363],[-4.229,-2.251],[-4.264,-2.209],[-4.264,-2.18],[-4.096,-2.103],[-3.64,-1.934],[-3.416,-1.871]]]]},"properties":{"abbr":"S1FL","name":"primary somatosensory cortex, forelimb region","plate":22,"ap_bregma_mm":0.45,"area_mm2":2.6501,"traced_fraction":[0.936,0.989],"n_labels":2,"no_drawn_outline":false}},{"type":"Feature","geometry":{"type":"MultiPolygon","coordinates":[[[[2.221,-1.358],[2.803,-1.484],[3.441,-1.646],[3.729,-1.758],[3.729,-1.765],[3.603,-2.033],[3.54,-2.209],[3.406,-2.49],[3.322,-2.715],[3.231,-2.898],[3.077,-3.271],[2.747,-3.158],[2.495,-3.109],[2.326,-3.074],[2.046,-3.045],[2.123,-2.321],[2.137,-2.068],[2.221,-1.358]]],[[[-2.084,-1.519],[-1.922,-3.151],[-1.957,-3.165],[-2.056,-3.165],[-2.378,-3.207],[-2.876,-3.341],[-2.904,-3.299],[-2.953,-3.13],[-3.058,-2.877],[-3.121,-2.673],[-3.367,-2.047],[-3.416,-1.871],[-2.904,-1.709],[-2.434,-1.59],[-2.084,-1.519]]]]},"properties":{"abbr":"S1HL","name":"primary somatosensory cortex, hindlimb region","plate":22,"ap_bregma_mm":0.45,"area_mm2":4.0522,"traced_fraction":[1.0,1.0],"n_labels":2,"no_drawn_outline":false}},{"type":"Feature","geometry":{"type":"MultiPolygon","coordinates":[[[[-5.463,-3.081],[-5.211,-3.256],[-4.846,-3.468],[-4.706,-3.531],[-4.699,-3.545],[-3.949,-3.904],[-3.71,-3.995],[-3.808,-4.234],[-3.872,-4.508],[-5.751,-4.403],[-5.933,-4.382],[-5.912,-4.086],[-5.835,-3.777],[-5.554,-3.214],[-5.463,-3.081]]],[[[5.832,-3.193],[5.846,-3.2],[5.972,-3.468],[6.085,-3.911],[6.099,-4.269],[6.092,-4.396],[6.057,-4.579],[4.15,-4.361],[3.988,-4.333],[3.897,-4.333],[3.89,-4.206],[3.813,-3.911],[3.855,-3.882],[3.995,-3.847],[4.668,-3.622],[4.802,-3.566],[5.04,-3.496],[5.18,-3.432],[5.615,-3.285],[5.832,-3.193]]]]},"properties":{"abbr":"S1ULp","name":"primary somatosensory cortex, upper lip region","plate":22,"ap_bregma_mm":0.45,"area_mm2":3.9409,"traced_fraction":[1.0,1.0],"n_labels":2,"no_drawn_outline":false}},{"type":"Feature","geometry":{"type":"MultiPolygon","coordinates":[[[[3.897,-4.333],[3.988,-4.333],[4.15,-4.361],[6.057,-4.579],[5.994,-4.86],[5.902,-5.141],[5.832,-5.282],[5.748,-5.395],[5.503,-5.662],[5.503,-5.676],[5.468,-5.697],[5.377,-5.803],[5.201,-5.718],[4.612,-5.514],[4.388,-5.416],[4.163,-5.345],[3.911,-5.24],[3.799,-5.212],[3.792,-5.191],[3.834,-5.05],[3.883,-4.79],[3.897,-4.649],[3.897,-4.333]]],[[[-5.933,-4.382],[-5.751,-4.403],[-3.872,-4.508],[-3.886,-5.008],[-3.991,-5.036],[-4.32,-5.177],[-4.58,-5.268],[-4.608,-5.289],[-4.748,-5.331],[-5.014,-5.451],[-5.463,-5.62],[-5.526,-5.648],[-5.554,-5.676],[-5.617,-5.591],[-5.716,-5.395],[-5.849,-5.022],[-5.905,-4.797],[-5.947,-4.523],[-5.933,-4.382]]]]},"properties":{"abbr":"S2","name":"secondary somatosensory cortex","plate":22,"ap_bregma_mm":0.45,"area_mm2":3.9983,"traced_fraction":[1.0,1.0],"n_labels":2,"no_drawn_outline":false}},{"type":"Feature","geometry":{"type":"MultiPolygon","coordinates":[[[[0.111,-4.494],[0.293,-4.783],[0.356,-4.944],[0.398,-5.141],[0.406,-5.423],[0.384,-5.613],[0.342,-5.817],[0.314,-5.852],[0.3,-5.831],[0.3,-5.669],[0.279,-5.507],[0.216,-5.296],[-0.001,-4.895],[-0.029,-4.867],[-0.064,-4.867],[-0.092,-4.895],[-0.106,-4.895],[-0.183,-4.811],[-0.359,-4.804],[-0.303,-4.684],[-0.212,-4.572],[-0.162,-4.487],[-0.064,-4.445],[0.027,-4.445],[0.111,-4.494]]]]},"properties":{"abbr":"SFi","name":"septofimbrial nucleus","plate":22,"ap_bregma_mm":0.45,"area_mm2":0.3664,"traced_fraction":[0.937],"n_labels":1,"no_drawn_outline":false}},{"type":"Feature","geometry":{"type":"MultiPolygon","coordinates":[[[[-0.212,-4.1],[-0.022,-4.122],[0.188,-4.108],[0.223,-4.248],[0.223,-4.311],[0.202,-4.389],[0.111,-4.494],[0.027,-4.445],[-0.064,-4.445],[-0.162,-4.487],[-0.205,-4.445],[-0.24,-4.382],[-0.254,-4.248],[-0.212,-4.1]]]]},"properties":{"abbr":"SHi","name":"septohippocampal nucleus","plate":22,"ap_bregma_mm":0.45,"area_mm2":0.1533,"traced_fraction":[1.0],"n_labels":1,"no_drawn_outline":false}},{"type":"Feature","geometry":{"type":"MultiPolygon","coordinates":[[[[0.658,-6.119],[0.63,-6.281],[0.637,-6.414],[0.658,-6.485],[0.735,-6.576],[0.798,-6.604],[0.847,-6.646],[0.749,-6.675],[0.546,-6.668],[0.448,-6.654],[0.328,-6.604],[0.237,-6.506],[0.223,-6.471],[0.209,-6.435],[0.202,-6.414],[0.216,-6.4],[0.237,-6.309],[0.272,-6.316],[0.293,-6.281],[0.307,-6.281],[0.314,-6.203],[0.328,-6.182],[0.419,-6.203],[0.504,-6.154],[0.532,-6.154],[0.609,-6.119],[0.658,-6.119]]],[[[-0.478,-6.246],[-0.457,-6.281],[-0.408,-6.302],[-0.38,-6.386],[-0.401,-6.4],[-0.408,-6.492],[-0.478,-6.583],[-0.583,-6.632],[-0.738,-6.661],[-0.913,-6.639],[-0.955,-6.618],[-0.955,-6.604],[-0.941,-6.604],[-0.864,-6.527],[-0.808,-6.4],[-0.808,-6.302],[-0.857,-6.182],[-0.85,-6.161],[-0.744,-6.154],[-0.597,-6.196],[-0.506,-6.246],[-0.478,-6.246]]]]},"properties":{"abbr":"SHy","name":"septohypothalamic nucleus","plate":22,"ap_bregma_mm":0.45,"area_mm2":0.3875,"traced_fraction":[0.966,1.0],"n_labels":2,"no_drawn_outline":false}},{"type":"Feature","geometry":{"type":"MultiPolygon","coordinates":[[[[-0.955,-6.618],[-0.913,-6.639],[-0.738,-6.661],[-0.738,-6.731],[-0.759,-6.815],[-0.85,-7.033],[-1.004,-7.258],[-1.186,-7.448],[-1.193,-7.455],[-1.2,-7.462],[-1.2,-7.476],[-1.235,-7.49],[-1.249,-7.512],[-1.376,-7.561],[-1.439,-7.61],[-1.509,-7.547],[-1.509,-7.49],[-1.523,-7.476],[-1.523,-7.357],[-1.733,-7.357],[-1.81,-7.28],[-1.81,-7.265],[-1.768,-7.265],[-1.768,-7.111],[-1.768,-7.09],[-1.628,-6.942],[-1.614,-6.942],[-1.544,-7.019],[-1.263,-7.019],[-1.263,-6.738],[-1.123,-6.703],[-0.983,-6.618],[-0.955,-6.618]]],[[[0.847,-6.646],[1.029,-6.682],[1.029,-6.942],[1.289,-6.942],[1.317,-6.886],[1.317,-6.836],[1.345,-6.836],[1.394,-6.78],[1.408,-6.78],[1.618,-6.998],[1.696,-7.118],[1.717,-7.181],[1.654,-7.174],[1.639,-7.188],[1.646,-7.237],[1.618,-7.244],[1.618,-7.329],[1.597,-7.343],[1.233,-7.35],[1.226,-7.399],[1.142,-7.49],[1.029,-7.42],[0.994,-7.371],[0.952,-7.35],[0.784,-7.181],[0.665,-7.026],[0.581,-6.879],[0.539,-6.766],[0.546,-6.668],[0.749,-6.675],[0.847,-6.646]]]]},"properties":{"abbr":"SIB","name":"substantia innominata, basal part","plate":22,"ap_bregma_mm":0.45,"area_mm2":1.0467,"traced_fraction":[0.621,0.617],"n_labels":2,"no_drawn_outline":true}},{"type":"Feature","geometry":{"type":"MultiPolygon","coordinates":[[[[1.086,-5.725],[1.121,-5.753],[1.163,-5.873],[1.17,-6.063],[1.156,-6.133],[1.057,-6.126],[0.987,-6.154],[0.938,-6.217],[0.931,-6.316],[0.966,-6.386],[1.057,-6.457],[1.163,-6.506],[1.254,-6.527],[1.254,-6.569],[1.282,-6.632],[1.177,-6.682],[1.029,-6.682],[0.847,-6.646],[0.798,-6.604],[0.735,-6.576],[0.658,-6.485],[0.637,-6.414],[0.63,-6.302],[0.658,-6.119],[0.77,-5.957],[0.917,-5.81],[0.987,-5.753],[1.022,-5.746],[1.065,-5.753],[1.086,-5.725]]],[[[-1.186,-5.746],[-1.158,-5.76],[-1.158,-5.817],[-0.99,-5.971],[-0.864,-6.161],[-0.85,-6.161],[-0.857,-6.182],[-0.808,-6.302],[-0.808,-6.4],[-0.864,-6.527],[-0.941,-6.604],[-0.955,-6.604],[-0.955,-6.618],[-0.983,-6.618],[-1.123,-6.703],[-1.263,-6.738],[-1.347,-6.738],[-1.446,-6.71],[-1.41,-6.583],[-1.382,-6.541],[-1.298,-6.548],[-1.158,-6.464],[-1.088,-6.393],[-1.088,-6.295],[-1.13,-6.217],[-1.186,-6.161],[-1.228,-6.154],[-1.27,-6.168],[-1.263,-5.922],[-1.228,-5.788],[-1.186,-5.746]]]]},"properties":{"abbr":"ST","name":"bed nucleus of the stria terminalis","plate":22,"ap_bregma_mm":0.45,"area_mm2":0.6352,"traced_fraction":[1.0,1.0],"n_labels":2,"no_drawn_outline":false}},{"type":"Feature","geometry":{"type":"MultiPolygon","coordinates":[[[[2.621,-7.49],[2.628,-7.554],[2.649,-7.596],[2.635,-7.596],[2.614,-7.687],[2.593,-7.694],[2.593,-7.716],[2.572,-7.73],[2.551,-7.807],[2.502,-7.863],[2.404,-7.884],[2.39,-7.898],[2.39,-7.969],[2.355,-8.004],[2.298,-8.032],[2.207,-8.032],[2.144,-8.053],[2.13,-7.934],[2.242,-7.863],[2.277,-7.772],[2.313,-7.737],[2.369,-7.73],[2.39,-7.744],[2.439,-7.744],[2.502,-7.666],[2.565,-7.519],[2.593,-7.49],[2.621,-7.49]]],[[[-2.806,-7.547],[-2.673,-7.73],[-2.546,-7.765],[-2.483,-7.814],[-2.427,-7.962],[-2.273,-7.983],[-2.105,-8.067],[-1.922,-8.074],[-1.754,-8.109],[-1.684,-8.109],[-1.628,-8.067],[-1.53,-8.053],[-1.53,-8.018],[-1.558,-7.962],[-1.558,-7.898],[-1.516,-7.87],[-1.46,-7.884],[-1.382,-7.941],[-1.368,-8.032],[-1.376,-8.116],[-1.431,-8.159],[-1.509,-8.173],[-1.579,-8.215],[-1.635,-8.229],[-1.775,-8.229],[-2.133,-8.18],[-2.322,-8.131],[-2.385,-8.102],[-2.413,-8.074],[-2.518,-8.06],[-2.56,-8.011],[-2.56,-7.948],[-2.595,-7.898],[-2.694,-7.884],[-2.771,-7.821],[-2.813,-7.723],[-2.841,-7.589],[-2.834,-7.561],[-2.806,-7.547]]]]},"properties":{"abbr":"Tu","name":"olfactory tubercle","plate":22,"ap_bregma_mm":0.45,"area_mm2":0.3407,"traced_fraction":[0.965,1.0],"n_labels":2,"no_drawn_outline":false}},{"type":"Feature","geometry":{"type":"MultiPolygon","coordinates":[[[[-3.647,-5.838],[-3.556,-5.957],[-3.486,-6.119],[-3.395,-6.274],[-3.395,-6.295],[-3.409,-6.295],[-3.465,-6.365],[-3.514,-6.386],[-3.556,-6.386],[-3.605,-6.365],[-3.703,-6.225],[-3.703,-6.168],[-3.724,-6.14],[-3.703,-5.887],[-3.675,-5.852],[-3.661,-5.852],[-3.661,-5.838],[-3.647,-5.838]]],[[[3.455,-5.901],[3.462,-5.901],[3.469,-5.908],[3.491,-5.915],[3.504,-5.978],[3.483,-6.056],[3.491,-6.098],[3.462,-6.168],[3.448,-6.175],[3.413,-6.316],[3.343,-6.351],[3.231,-6.309],[3.189,-6.231],[3.189,-6.21],[3.217,-6.189],[3.238,-6.147],[3.273,-6.126],[3.385,-5.957],[3.455,-5.901]]]]},"properties":{"abbr":"VCl","name":"ventral part of claustrum","plate":22,"ap_bregma_mm":0.45,"area_mm2":0.1812,"traced_fraction":[1.0,0.988],"n_labels":2,"no_drawn_outline":false}},{"type":"Feature","geometry":{"type":"MultiPolygon","coordinates":[[[[1.282,-6.632],[1.408,-6.78],[1.394,-6.78],[1.345,-6.836],[1.317,-6.836],[1.317,-6.886],[1.289,-6.942],[1.029,-6.942],[1.029,-6.682],[1.177,-6.682],[1.282,-6.632]]],[[[-1.446,-6.71],[-1.347,-6.738],[-1.263,-6.738],[-1.263,-7.019],[-1.544,-7.019],[-1.614,-6.942],[-1.607,-6.914],[-1.523,-6.829],[-1.446,-6.71]]],[[[-2.056,-7.286],[-2.049,-7.336],[-2.098,-7.371],[-2.098,-7.42],[-2.105,-7.512],[-2.301,-7.512],[-2.301,-7.336],[-2.252,-7.343],[-2.252,-7.406],[-2.238,-7.42],[-2.21,-7.42],[-2.154,-7.385],[-2.154,-7.357],[-2.175,-7.336],[-2.154,-7.308],[-2.056,-7.286]]]]},"properties":{"abbr":"VP","name":"ventral pallidum","plate":22,"ap_bregma_mm":0.45,"area_mm2":0.2011,"traced_fraction":[0.412,0.456,0.624],"n_labels":4,"no_drawn_outline":true}},{"type":"Feature","geometry":{"type":"MultiPolygon","coordinates":[[[[1.156,-6.133],[1.163,-6.14],[1.17,-6.14],[1.177,-6.147],[1.184,-6.154],[1.226,-6.175],[1.233,-6.21],[1.296,-6.295],[1.352,-6.421],[1.345,-6.485],[1.317,-6.513],[1.254,-6.527],[1.163,-6.506],[1.057,-6.457],[0.966,-6.386],[0.931,-6.316],[0.938,-6.217],[0.987,-6.154],[1.057,-6.126],[1.156,-6.133]]],[[[-1.382,-6.541],[-1.431,-6.492],[-1.439,-6.407],[-1.361,-6.274],[-1.284,-6.182],[-1.277,-6.175],[-1.27,-6.168],[-1.228,-6.154],[-1.186,-6.161],[-1.13,-6.217],[-1.088,-6.295],[-1.088,-6.393],[-1.158,-6.464],[-1.256,-6.527],[-1.298,-6.548],[-1.382,-6.541]]]]},"properties":{"abbr":"aca","name":"anterior commissure, anterior part","plate":22,"ap_bregma_mm":0.45,"area_mm2":0.211,"traced_fraction":[1.0,1.0],"n_labels":2,"no_drawn_outline":false}},{"type":"Feature","geometry":{"type":"MultiPolygon","coordinates":[[[[2.369,-3.158],[2.355,-3.235],[2.277,-3.221],[1.941,-3.207],[1.773,-3.235],[1.408,-3.341],[1.296,-3.404],[1.191,-3.503],[1.177,-3.503],[0.791,-3.953],[0.574,-3.974],[0.433,-4.037],[0.188,-4.108],[-0.022,-4.122],[-0.212,-4.1],[-0.31,-4.065],[-0.506,-4.023],[-0.632,-3.967],[-0.766,-3.932],[-0.787,-3.896],[-0.85,-3.875],[-1.074,-3.636],[-1.34,-3.453],[-1.474,-3.39],[-1.656,-3.341],[-1.95,-3.306],[-1.95,-3.228],[-1.845,-3.214],[-1.628,-3.214],[-1.312,-3.278],[-1.228,-3.327],[-1.186,-3.334],[-1.018,-3.446],[-0.709,-3.742],[-0.625,-3.784],[-0.562,-3.784],[-0.324,-3.882],[-0.24,-3.896],[-0.212,-3.896],[-0.191,-3.868],[-0.149,-3.868],[-0.113,-3.882],[-0.113,-3.925],[0.069,-3.932],[0.216,-3.911],[0.265,-3.882],[0.363,-3.868],[0.483,-3.819],[0.56,-3.805],[0.567,-3.791],[0.623,-3.77],[0.672,-3.763],[0.749,-3.714],[0.924,-3.545],[0.924,-3.531],[1.071,-3.376],[1.086,-3.376],[1.184,-3.285],[1.394,-3.158],[1.787,-3.102],[2.081,-3.116],[2.369,-3.158]]]]},"properties":{"abbr":"cc","name":"corpus callosum","plate":22,"ap_bregma_mm":0.45,"area_mm2":0.7821,"traced_fraction":[0.993],"n_labels":1,"no_drawn_outline":false}},{"type":"Feature","geometry":{"type":"MultiPolygon","coordinates":[[[[1.618,-3.031],[2.046,-3.045],[2.326,-3.074],[2.495,-3.109],[2.46,-3.172],[2.369,-3.158],[2.081,-3.116],[1.822,-3.102],[1.394,-3.158],[1.184,-3.285],[1.086,-3.376],[1.071,-3.376],[0.924,-3.531],[0.924,-3.545],[0.749,-3.714],[0.672,-3.763],[0.623,-3.77],[0.644,-3.728],[0.784,-3.594],[0.959,-3.362],[1.05,-3.278],[1.107,-3.2],[1.219,-3.102],[1.247,-3.095],[1.254,-3.088],[1.261,-3.081],[1.408,-3.045],[1.618,-3.031]]],[[[-1.467,-3.137],[-1.235,-3.151],[-1.144,-3.186],[-1.081,-3.235],[-1.06,-3.235],[-0.78,-3.587],[-0.716,-3.65],[-0.597,-3.735],[-0.562,-3.784],[-0.625,-3.784],[-0.709,-3.742],[-1.018,-3.446],[-1.186,-3.334],[-1.228,-3.327],[-1.312,-3.278],[-1.628,-3.214],[-1.845,-3.214],[-1.95,-3.228],[-1.957,-3.165],[-1.922,-3.151],[-1.803,-3.158],[-1.467,-3.137]]]]},"properties":{"abbr":"cg","name":"cingulum","plate":22,"ap_bregma_mm":0.45,"area_mm2":0.3241,"traced_fraction":[0.995,0.991],"n_labels":2,"no_drawn_outline":false}},{"type":"Feature","geometry":{"type":"MultiPolygon","coordinates":[[[[2.495,-3.109],[2.747,-3.158],[3.077,-3.271],[3.329,-3.39],[3.483,-3.481],[3.554,-3.545],[3.582,-3.552],[3.582,-3.566],[3.673,-3.657],[3.813,-3.911],[3.841,-4.051],[3.883,-4.171],[3.897,-4.333],[3.897,-4.649],[3.883,-4.79],[3.834,-5.05],[3.792,-5.191],[3.799,-5.212],[3.778,-5.247],[3.715,-5.465],[3.659,-5.57],[3.638,-5.683],[3.582,-5.718],[3.575,-5.662],[3.61,-5.591],[3.659,-5.409],[3.764,-4.818],[3.778,-4.445],[3.743,-4.213],[3.694,-4.044],[3.54,-3.798],[3.406,-3.671],[3.245,-3.559],[3.0,-3.425],[2.845,-3.362],[2.719,-3.32],[2.355,-3.235],[2.369,-3.158],[2.46,-3.172],[2.495,-3.109]]],[[[-1.957,-3.165],[-1.95,-3.228],[-1.95,-3.306],[-2.063,-3.306],[-2.287,-3.341],[-2.764,-3.481],[-3.093,-3.629],[-3.339,-3.805],[-3.472,-3.939],[-3.598,-4.1],[-3.745,-4.424],[-3.836,-4.769],[-3.851,-5.106],[-3.872,-5.092],[-3.886,-5.008],[-3.872,-4.508],[-3.808,-4.234],[-3.71,-3.995],[-3.661,-3.946],[-3.591,-3.826],[-3.43,-3.657],[-3.213,-3.489],[-3.191,-3.489],[-3.065,-3.418],[-2.918,-3.369],[-2.876,-3.341],[-2.378,-3.207],[-2.196,-3.179],[-1.957,-3.165]]]]},"properties":{"abbr":"ec","name":"external capsule","plate":22,"ap_bregma_mm":0.45,"area_mm2":0.8842,"traced_fraction":[0.994,0.993],"n_labels":2,"no_drawn_outline":false}},{"type":"Feature","geometry":{"type":"MultiPolygon","coordinates":[[[[-0.359,-4.804],[-0.183,-4.811],[-0.106,-4.895],[-0.092,-4.895],[-0.233,-5.113],[-0.373,-5.409],[-0.429,-5.599],[-0.45,-5.817],[-0.464,-5.817],[-0.485,-5.76],[-0.506,-5.556],[-0.499,-5.268],[-0.45,-5.022],[-0.401,-4.881],[-0.359,-4.804]]]]},"properties":{"abbr":"fi","name":"fimbria of the hippocampus","plate":22,"ap_bregma_mm":0.45,"area_mm2":0.1678,"traced_fraction":[0.906],"n_labels":1,"no_drawn_outline":false}},{"type":"Feature","geometry":{"type":"MultiPolygon","coordinates":[[[[3.729,-7.631],[3.736,-7.638],[3.659,-7.687],[3.476,-7.73],[3.448,-7.737],[3.385,-7.758],[3.231,-7.87],[3.119,-7.898],[2.979,-7.891],[2.859,-7.8],[2.838,-7.786],[2.782,-7.786],[2.775,-7.701],[2.817,-7.49],[2.873,-7.385],[2.936,-7.336],[3.035,-7.343],[3.175,-7.441],[3.392,-7.54],[3.546,-7.582],[3.666,-7.596],[3.729,-7.631]]],[[[-2.946,-7.694],[-2.953,-7.758],[-2.967,-7.765],[-3.044,-7.751],[-3.205,-7.8],[-3.325,-7.8],[-3.591,-7.723],[-3.78,-7.645],[-3.872,-7.596],[-3.942,-7.533],[-3.921,-7.505],[-3.717,-7.476],[-3.591,-7.476],[-3.514,-7.498],[-3.353,-7.498],[-3.241,-7.406],[-3.156,-7.385],[-3.086,-7.406],[-2.988,-7.49],[-2.96,-7.575],[-2.946,-7.694]]]]},"properties":{"abbr":"lo","name":"lateral olfactory tract","plate":22,"ap_bregma_mm":0.45,"area_mm2":0.5528,"traced_fraction":[1.0,1.0],"n_labels":2,"no_drawn_outline":false}},{"type":"Feature","geometry":{"type":"MultiPolygon","coordinates":[[[[2.502,-7.195],[2.523,-7.364],[2.558,-7.427],[2.621,-7.434],[2.621,-7.49],[2.593,-7.49],[2.565,-7.519],[2.502,-7.666],[2.439,-7.744],[2.39,-7.744],[2.369,-7.73],[2.313,-7.737],[2.277,-7.772],[2.242,-7.863],[2.13,-7.934],[2.067,-7.955],[1.997,-7.955],[1.948,-7.934],[1.885,-7.99],[1.78,-7.997],[1.724,-8.025],[1.688,-8.025],[1.646,-7.997],[1.548,-8.088],[1.499,-8.088],[1.443,-8.025],[1.373,-7.99],[1.254,-7.856],[1.275,-7.772],[1.268,-7.687],[1.247,-7.631],[1.142,-7.49],[1.226,-7.399],[1.233,-7.35],[1.597,-7.343],[1.618,-7.329],[1.618,-7.392],[1.815,-7.392],[1.815,-7.378],[1.857,-7.378],[1.836,-7.286],[1.843,-7.286],[1.871,-7.286],[1.906,-7.315],[1.948,-7.413],[1.976,-7.399],[1.99,-7.357],[2.011,-7.343],[2.067,-7.385],[2.151,-7.364],[2.2,-7.308],[2.2,-7.251],[2.341,-7.251],[2.39,-7.209],[2.502,-7.195]]],[[[-1.957,-7.28],[-1.81,-7.28],[-1.733,-7.357],[-1.523,-7.357],[-1.523,-7.476],[-1.509,-7.49],[-1.509,-7.547],[-1.439,-7.61],[-1.488,-7.68],[-1.488,-7.8],[-1.46,-7.884],[-1.516,-7.87],[-1.558,-7.898],[-1.558,-7.962],[-1.53,-8.018],[-1.53,-8.053],[-1.628,-8.067],[-1.684,-8.109],[-1.754,-8.109],[-1.922,-8.074],[-2.077,-8.074],[-2.273,-7.983],[-2.427,-7.962],[-2.483,-7.814],[-2.546,-7.765],[-2.673,-7.73],[-2.806,-7.547],[-2.806,-7.533],[-2.68,-7.505],[-2.581,-7.441],[-2.518,-7.371],[-2.504,-7.322],[-2.469,-7.308],[-2.448,-7.392],[-2.427,-7.413],[-2.392,-7.413],[-2.378,-7.399],[-2.343,-7.322],[-2.301,-7.336],[-2.301,-7.512],[-2.105,-7.512],[-2.098,-7.42],[-2.028,-7.427],[-1.992,-7.406],[-1.999,-7.357],[-2.049,-7.336],[-2.056,-7.286],[-1.957,-7.28]]],[[[1.913,-7.631],[1.913,-7.779],[1.941,-7.779],[1.955,-7.793],[2.06,-7.779],[2.06,-7.631],[1.913,-7.631]]],[[[1.59,-7.716],[1.492,-7.772],[1.485,-7.856],[1.527,-7.912],[1.583,-7.92],[1.646,-7.898],[1.646,-7.955],[1.667,-7.955],[1.675,-7.863],[1.688,-7.856],[1.688,-7.772],[1.654,-7.723],[1.59,-7.716]]],[[[-2.196,-7.779],[-2.259,-7.835],[-2.259,-7.877],[-2.238,-7.891],[-2.161,-7.891],[-2.133,-7.877],[-2.112,-7.842],[-2.119,-7.8],[-2.196,-7.779]]],[[[-1.95,-7.779],[-1.992,-7.828],[-1.992,-7.927],[-1.965,-7.948],[-1.908,-7.955],[-1.873,-7.927],[-1.873,-7.828],[-1.901,-7.786],[-1.95,-7.779]]]]},"properties":{"abbr":"mfb","name":"medial forebrain bundle","plate":22,"ap_bregma_mm":0.45,"area_mm2":1.4295,"traced_fraction":[0.824,0.785,0.989,0.863,1.0,0.849],"n_labels":2,"no_drawn_outline":false}},{"type":"Feature","geometry":{"type":"MultiPolygon","coordinates":[[[[0.013,-8.088],[0.139,-8.088],[0.258,-8.131],[0.433,-8.131],[0.483,-8.145],[0.714,-8.278],[0.791,-8.384],[0.791,-8.468],[0.742,-8.56],[0.728,-8.56],[0.665,-8.623],[0.525,-8.686],[0.342,-8.82],[0.314,-8.834],[0.216,-8.841],[0.104,-8.841],[-0.036,-8.813],[-0.212,-8.827],[-0.485,-8.749],[-0.688,-8.735],[-0.787,-8.672],[-0.885,-8.63],[-0.927,-8.581],[-0.927,-8.503],[-0.899,-8.44],[-0.646,-8.208],[-0.464,-8.124],[-0.38,-8.102],[-0.064,-8.109],[0.013,-8.088]]]]},"properties":{"abbr":"och","name":"optic chiasm","plate":22,"ap_bregma_mm":0.45,"area_mm2":0.9797,"traced_fraction":[1.0],"n_labels":1,"no_drawn_outline":false}},{"type":"Feature","geometry":{"type":"Polygon","coordinates":[[[0.265,-3.882],[0.244,-3.904],[0.069,-3.932],[-0.113,-3.925],[-0.113,-3.882],[-0.149,-3.868],[-0.191,-3.868],[-0.212,-3.896],[-0.24,-3.896],[-0.24,-3.784],[-0.022,-3.784],[-0.001,-3.714],[0.027,-3.721],[0.062,-3.826],[0.09,-3.868],[0.174,-3.854],[0.23,-3.861],[0.265,-3.882]]]},"properties":{"abbr":null,"name":"unnamed sealed face","plate":22,"ap_bregma_mm":0.45,"index":0}},{"type":"Feature","geometry":{"type":"Polygon","coordinates":[[[0.889,-4.262],[0.91,-4.276],[0.924,-4.319],[0.959,-4.487],[1.029,-4.698],[1.071,-4.881],[1.078,-4.98],[1.093,-4.994],[1.099,-5.352],[1.086,-5.444],[1.086,-5.613],[1.071,-5.669],[1.086,-5.725],[1.065,-5.753],[1.022,-5.746],[1.057,-5.359],[1.05,-5.085],[0.889,-5.085],[0.875,-5.057],[0.875,-5.043],[0.931,-4.994],[1.036,-4.98],[0.938,-4.565],[0.882,-4.431],[0.875,-4.269],[0.889,-4.262]]]},"properties":{"abbr":null,"name":"unnamed sealed face","plate":22,"ap_bregma_mm":0.45,"index":1}},{"type":"Feature","geometry":{"type":"Polygon","coordinates":[[[-1.06,-4.846],[-1.046,-4.86],[-1.06,-4.951],[-1.102,-5.099],[-1.137,-5.303],[-1.137,-5.739],[-1.144,-5.76],[-1.158,-5.76],[-1.186,-5.746],[-1.186,-5.317],[-1.123,-4.987],[-1.095,-4.888],[-1.06,-4.846]]]},"properties":{"abbr":null,"name":"unnamed sealed face","plate":22,"ap_bregma_mm":0.45,"index":2}},{"type":"Feature","geometry":{"type":"Polygon","coordinates":[[[-3.752,-5.62],[-3.647,-5.838],[-3.661,-5.838],[-3.661,-5.852],[-3.675,-5.852],[-3.703,-5.887],[-3.766,-5.873],[-3.815,-5.781],[-3.815,-5.655],[-3.808,-5.634],[-3.752,-5.62]]]},"properties":{"abbr":null,"name":"unnamed sealed face","plate":22,"ap_bregma_mm":0.45,"index":3}},{"type":"Feature","geometry":{"type":"Polygon","coordinates":[[[-0.457,-5.838],[-0.436,-5.915],[-0.429,-6.168],[-0.408,-6.302],[-0.457,-6.281],[-0.478,-6.246],[-0.499,-6.035],[-0.541,-5.852],[-0.457,-5.838]]]},"properties":{"abbr":null,"name":"unnamed sealed face","plate":22,"ap_bregma_mm":0.45,"index":4}},{"type":"Feature","geometry":{"type":"Polygon","coordinates":[[[0.314,-5.866],[0.406,-5.894],[0.342,-6.091],[0.328,-6.182],[0.314,-6.203],[0.307,-6.281],[0.293,-6.281],[0.272,-6.316],[0.237,-6.309],[0.286,-6.063],[0.286,-5.943],[0.314,-5.866]]]},"properties":{"abbr":null,"name":"unnamed sealed face","plate":22,"ap_bregma_mm":0.45,"index":5}},{"type":"Feature","geometry":{"type":"Polygon","coordinates":[[[1.717,-7.181],[1.738,-7.23],[1.78,-7.272],[1.836,-7.286],[1.857,-7.378],[1.815,-7.378],[1.815,-7.392],[1.618,-7.392],[1.618,-7.329],[1.618,-7.244],[1.646,-7.237],[1.639,-7.188],[1.654,-7.174],[1.717,-7.181]]]},"properties":{"abbr":null,"name":"unnamed sealed face","plate":22,"ap_bregma_mm":0.45,"index":6}},{"type":"Feature","geometry":{"type":"Polygon","coordinates":[[[2.06,-7.209],[2.081,-7.209],[2.102,-7.237],[2.2,-7.251],[2.2,-7.308],[2.151,-7.364],[2.067,-7.385],[2.011,-7.343],[2.018,-7.294],[2.032,-7.272],[2.067,-7.258],[2.053,-7.237],[2.06,-7.209]]]},"properties":{"abbr":null,"name":"unnamed sealed face","plate":22,"ap_bregma_mm":0.45,"index":7}},{"type":"Feature","geometry":{"type":"Polygon","coordinates":[[[1.913,-7.631],[2.06,-7.631],[2.06,-7.779],[2.011,-7.779],[1.997,-7.793],[1.913,-7.779],[1.913,-7.631]]]},"properties":{"abbr":null,"name":"unnamed sealed face","plate":22,"ap_bregma_mm":0.45,"index":8}},{"type":"Feature","geometry":{"type":"Polygon","coordinates":[[[1.59,-7.716],[1.654,-7.723],[1.688,-7.772],[1.688,-7.856],[1.675,-7.863],[1.667,-7.955],[1.646,-7.955],[1.646,-7.898],[1.583,-7.92],[1.527,-7.912],[1.485,-7.856],[1.492,-7.772],[1.59,-7.716]]]},"properties":{"abbr":null,"name":"unnamed sealed face","plate":22,"ap_bregma_mm":0.45,"index":9}},{"type":"Feature","geometry":{"type":"MultiPolygon","coordinates":[[[[-1.88,-8.356],[-2.182,-8.349],[-2.287,-8.327],[-2.434,-8.271],[-2.581,-8.18],[-2.673,-8.102],[-2.75,-8.025],[-2.925,-7.8],[-2.988,-7.751],[-3.037,-7.744],[-3.219,-7.793],[-3.318,-7.793],[-3.584,-7.716],[-3.773,-7.638],[-3.857,-7.596],[-3.949,-7.526],[-4.166,-7.427],[-4.264,-7.364],[-4.327,-7.301],[-4.467,-7.033],[-4.566,-6.893],[-5.078,-6.288],[-5.246,-6.112],[-5.428,-5.866],[-5.624,-5.57],[-5.716,-5.38],[-5.849,-5.008],[-5.905,-4.776],[-5.947,-4.494],[-5.912,-4.1],[-5.835,-3.784],[-5.568,-3.242],[-5.379,-2.933],[-5.288,-2.813],[-5.099,-2.63],[-4.916,-2.504],[-4.608,-2.335],[-4.089,-2.103],[-3.612,-1.927],[-2.918,-1.716],[-2.455,-1.597],[-1.768,-1.456],[-1.172,-1.386],[-0.822,-1.386],[-0.667,-1.407],[-0.506,-1.456],[-0.317,-1.554],[-0.219,-1.625],[-0.078,-1.758],[-0.022,-1.836],[0.076,-1.822],[0.118,-1.744],[0.223,-1.632],[0.363,-1.54],[0.504,-1.477],[0.868,-1.379],[1.107,-1.343],[1.408,-1.322],[1.752,-1.322],[2.214,-1.358],[2.845,-1.498],[3.448,-1.653],[3.939,-1.836],[4.647,-2.159],[5.047,-2.398],[5.377,-2.645],[5.552,-2.813],[5.671,-2.954],[5.846,-3.214],[5.966,-3.475],[6.057,-3.812],[6.078,-3.925],[6.092,-4.157],[6.085,-4.375],[6.015,-4.755],[5.888,-5.148],[5.832,-5.261],[5.762,-5.359],[5.18,-6.021],[4.942,-6.253],[4.71,-6.443],[4.535,-6.562],[4.43,-6.611],[4.381,-6.654],[4.374,-6.731],[4.325,-6.893],[4.227,-7.118],[4.086,-7.378],[3.953,-7.498],[3.792,-7.603],[3.652,-7.68],[3.399,-7.744],[3.224,-7.863],[3.098,-7.891],[3.007,-7.891],[2.965,-7.877],[2.831,-7.779],[2.747,-7.779],[2.628,-7.863],[2.509,-8.011],[2.369,-8.152],[2.228,-8.25],[2.095,-8.306],[1.871,-8.327],[1.338,-8.25],[0.959,-8.053],[0.574,-7.814],[0.02,-7.659],[-0.106,-7.645],[-0.338,-7.709],[-0.471,-7.73],[-0.864,-7.856],[-0.92,-7.898],[-1.018,-8.025],[-1.144,-8.152],[-1.228,-8.222],[-1.361,-8.299],[-1.691,-8.349],[-1.866,-8.356],[-1.88,-8.356]]],[[[0.3,-8.827],[0.125,-8.834],[-0.064,-8.806],[-0.198,-8.82],[-0.506,-8.742],[-0.681,-8.728],[-0.885,-8.623],[-0.927,-8.574],[-0.927,-8.51],[-0.906,-8.454],[-0.864,-8.398],[-0.681,-8.236],[-0.618,-8.194],[-0.457,-8.124],[-0.366,-8.102],[-0.085,-8.109],[0.027,-8.088],[0.125,-8.088],[0.265,-8.131],[0.412,-8.131],[0.476,-8.145],[0.714,-8.285],[0.763,-8.341],[0.784,-8.391],[0.784,-8.454],[0.749,-8.539],[0.658,-8.616],[0.539,-8.672],[0.321,-8.82],[0.3,-8.827]]]]},"properties":{"abbr":"brain_outline","name":"outline of the section","plate":22,"ap_bregma_mm":0.45}}]}
