{"type":"FeatureCollection","name":"GerbilAtlas plate 39","note":"Region extents cut from the atlas drawing (METHODS.md, Region extents). Coordinates are [ML, DV] in mm, ML positive to the right of the plate as printed, DV negative below the dorsal surface; AP is the plate bregma. traced_fraction is the share of each polygon boundary the atlas actually draws; below 0.5 the boundary is an estimate. no_drawn_outline marks a feature that lies only inside boundaries the atlas draws round more than one name and prints nothing within, so the whole of its outline is where the extraction cut it. Not a segmentation.","plate":39,"ap_bregma_mm":-5.5,"features":[{"type":"Feature","geometry":{"type":"MultiPolygon","coordinates":[[[[-0.096,-4.796],[-0.089,-4.986],[-0.124,-5.084],[-0.16,-5.07],[-0.342,-5.07],[-0.44,-5.0],[-0.475,-4.929],[-0.377,-4.817],[-0.272,-4.789],[-0.096,-4.796]]],[[[0.044,-4.789],[0.191,-4.796],[0.289,-4.831],[0.366,-4.887],[0.387,-4.887],[0.366,-4.936],[0.31,-4.993],[0.205,-5.035],[0.03,-5.077],[0.009,-5.014],[0.009,-4.88],[0.03,-4.796],[0.044,-4.789]]]]},"properties":{"abbr":"4N","name":"trochlear nucleus","plate":39,"ap_bregma_mm":-5.5,"area_mm2":0.1661,"traced_fraction":[1.0,1.0],"n_labels":2,"no_drawn_outline":false}},{"type":"Feature","geometry":{"type":"MultiPolygon","coordinates":[[[[-0.11,-4.704],[-0.096,-4.796],[-0.272,-4.789],[-0.377,-4.817],[-0.475,-4.929],[-0.503,-4.908],[-0.552,-4.817],[-0.517,-4.789],[-0.475,-4.697],[-0.433,-4.655],[-0.363,-4.62],[-0.244,-4.62],[-0.188,-4.648],[-0.131,-4.704],[-0.11,-4.704]]],[[[0.472,-4.817],[0.436,-4.831],[0.387,-4.887],[0.366,-4.887],[0.338,-4.859],[0.24,-4.81],[0.163,-4.789],[0.044,-4.789],[0.044,-4.767],[0.051,-4.761],[0.051,-4.746],[0.065,-4.746],[0.079,-4.718],[0.184,-4.634],[0.282,-4.627],[0.338,-4.648],[0.394,-4.704],[0.472,-4.817]]]]},"properties":{"abbr":"4Sh","name":"trochlear nuclues shell region","plate":39,"ap_bregma_mm":-5.5,"area_mm2":0.1322,"traced_fraction":[1.0,1.0],"n_labels":2,"no_drawn_outline":false}},{"type":"Feature","geometry":{"type":"MultiPolygon","coordinates":[[[[0.156,-3.487],[0.296,-3.607],[0.352,-3.712],[0.352,-3.832],[0.268,-3.923],[0.163,-3.994],[0.149,-4.022],[-0.005,-4.078],[-0.117,-4.078],[-0.251,-4.015],[-0.272,-3.987],[-0.412,-3.902],[-0.461,-3.853],[-0.489,-3.776],[-0.489,-3.734],[-0.44,-3.642],[-0.328,-3.53],[-0.216,-3.459],[-0.131,-3.424],[-0.005,-3.424],[0.156,-3.487]]]]},"properties":{"abbr":"Aq","name":"aqueduct","plate":39,"ap_bregma_mm":-5.5,"area_mm2":0.3977,"traced_fraction":[1.0],"n_labels":1,"no_drawn_outline":false}},{"type":"Feature","geometry":{"type":"MultiPolygon","coordinates":[[[[4.72,-4.782],[4.762,-4.81],[4.811,-4.817],[4.84,-5.007],[4.826,-5.246],[4.79,-5.45],[4.756,-5.844],[4.72,-5.984],[4.706,-6.146],[4.657,-6.336],[4.664,-6.427],[4.377,-6.498],[4.321,-6.498],[4.173,-6.477],[4.033,-6.406],[3.949,-6.322],[3.893,-6.237],[3.746,-5.935],[3.718,-5.78],[3.788,-5.759],[4.188,-5.471],[4.342,-5.316],[4.342,-5.302],[4.412,-5.239],[4.496,-5.133],[4.622,-4.943],[4.643,-4.929],[4.692,-4.803],[4.72,-4.782]]],[[[-3.665,-5.59],[-3.658,-5.745],[-4.205,-5.745],[-4.205,-5.59],[-3.665,-5.59]]]]},"properties":{"abbr":"CEnt","name":"caudomedial entothinal cortex","plate":39,"ap_bregma_mm":-5.5,"area_mm2":1.1491,"traced_fraction":[1.0,0.158],"n_labels":2,"no_drawn_outline":false}},{"type":"Feature","geometry":{"type":"MultiPolygon","coordinates":[[[[2.266,-4.149],[2.196,-4.191],[2.035,-4.191],[1.951,-4.163],[1.867,-4.078],[1.832,-3.987],[1.818,-3.825],[1.839,-3.684],[1.881,-3.579],[1.986,-3.459],[2.07,-3.417],[2.161,-3.417],[2.224,-3.438],[2.287,-3.48],[2.336,-3.537],[2.372,-3.621],[2.372,-3.825],[2.323,-4.022],[2.266,-4.149]]],[[[-2.13,-3.677],[-2.074,-3.677],[-2.01,-3.698],[-1.94,-3.762],[-1.87,-3.888],[-1.849,-3.966],[-1.849,-4.05],[-1.877,-4.127],[-1.968,-4.226],[-2.046,-4.261],[-2.144,-4.247],[-2.221,-4.212],[-2.256,-4.177],[-2.319,-4.022],[-2.312,-3.909],[-2.27,-3.797],[-2.2,-3.712],[-2.13,-3.677]]]]},"properties":{"abbr":"CIC","name":"central nucleus of the inferior colliculus","plate":39,"ap_bregma_mm":-5.5,"area_mm2":0.5579,"traced_fraction":[0.997,0.987],"n_labels":2,"no_drawn_outline":false}},{"type":"Feature","geometry":{"type":"MultiPolygon","coordinates":[[[[0.163,-5.26],[0.191,-5.344],[0.212,-5.506],[0.17,-5.534],[0.065,-5.569],[-0.082,-5.583],[-0.258,-5.541],[-0.37,-5.492],[-0.356,-5.344],[-0.321,-5.267],[-0.124,-5.267],[-0.11,-5.316],[-0.061,-5.351],[-0.019,-5.344],[0.009,-5.316],[0.023,-5.267],[0.163,-5.26]]]]},"properties":{"abbr":"CLi","name":"caudal linear nucleus of the raphe","plate":39,"ap_bregma_mm":-5.5,"area_mm2":0.1495,"traced_fraction":[1.0],"n_labels":1,"no_drawn_outline":false}},{"type":"Feature","geometry":{"type":"MultiPolygon","coordinates":[[[[-0.629,-2.854],[-0.629,-2.897],[-0.594,-2.988],[-0.482,-3.171],[-0.44,-3.213],[-0.426,-3.248],[-0.307,-3.368],[-0.293,-3.368],[-0.216,-3.459],[-0.328,-3.53],[-0.44,-3.642],[-0.489,-3.734],[-0.545,-3.712],[-0.65,-3.706],[-0.819,-3.67],[-0.945,-3.628],[-1.148,-3.586],[-1.218,-3.551],[-1.267,-3.551],[-1.281,-3.424],[-1.253,-3.269],[-1.169,-3.122],[-1.071,-3.016],[-1.071,-3.002],[-0.973,-2.918],[-0.896,-2.876],[-0.727,-2.84],[-0.629,-2.854]]],[[[0.605,-2.861],[0.647,-2.868],[0.766,-2.939],[1.011,-3.157],[1.011,-3.171],[1.082,-3.241],[1.11,-3.319],[1.138,-3.354],[1.159,-3.487],[1.124,-3.487],[0.997,-3.558],[0.815,-3.621],[0.352,-3.712],[0.296,-3.607],[0.156,-3.487],[0.24,-3.375],[0.303,-3.326],[0.401,-3.213],[0.465,-3.101],[0.549,-2.995],[0.605,-2.861]]]]},"properties":{"abbr":"DLPAG","name":"dorsolateral periaqueductal gray","plate":39,"ap_bregma_mm":-5.5,"area_mm2":1.0736,"traced_fraction":[1.0,1.0],"n_labels":2,"no_drawn_outline":false}},{"type":"Feature","geometry":{"type":"MultiPolygon","coordinates":[[[[0.605,-2.861],[0.549,-2.995],[0.465,-3.101],[0.401,-3.213],[0.345,-3.283],[0.24,-3.375],[0.156,-3.487],[-0.005,-3.424],[-0.131,-3.424],[-0.216,-3.459],[-0.23,-3.431],[-0.426,-3.248],[-0.44,-3.213],[-0.482,-3.171],[-0.594,-2.988],[-0.629,-2.897],[-0.629,-2.854],[-0.538,-2.854],[-0.377,-2.897],[-0.166,-2.925],[0.037,-2.925],[0.254,-2.847],[0.387,-2.819],[0.486,-2.819],[0.605,-2.861]]]]},"properties":{"abbr":"DMPAG","name":"dorsomedial periaqueductal gray","plate":39,"ap_bregma_mm":-5.5,"area_mm2":0.5012,"traced_fraction":[1.0],"n_labels":1,"no_drawn_outline":false}},{"type":"Feature","geometry":{"type":"MultiPolygon","coordinates":[[[[0.282,-4.353],[0.289,-4.381],[0.338,-4.43],[0.212,-4.451],[0.093,-4.5],[0.03,-4.542],[0.023,-4.627],[0.051,-4.746],[0.051,-4.761],[0.044,-4.767],[0.044,-4.789],[0.03,-4.796],[-0.096,-4.796],[-0.11,-4.704],[-0.082,-4.627],[-0.089,-4.571],[-0.23,-4.465],[-0.391,-4.416],[-0.391,-4.395],[-0.356,-4.367],[-0.349,-4.338],[-0.139,-4.268],[-0.019,-4.261],[0.1,-4.282],[0.184,-4.324],[0.282,-4.353]]]]},"properties":{"abbr":"DRD","name":"dorsal raphe nucleus, dorsal part","plate":39,"ap_bregma_mm":-5.5,"area_mm2":0.1618,"traced_fraction":[1.0],"n_labels":1,"no_drawn_outline":false}},{"type":"Feature","geometry":{"type":"MultiPolygon","coordinates":[[[[-0.349,-4.338],[-0.356,-4.367],[-0.391,-4.395],[-0.391,-4.416],[-0.489,-4.451],[-0.531,-4.493],[-0.573,-4.493],[-0.65,-4.528],[-0.72,-4.585],[-0.783,-4.606],[-0.84,-4.662],[-0.868,-4.655],[-0.952,-4.557],[-0.98,-4.5],[-0.973,-4.479],[-0.903,-4.451],[-0.854,-4.451],[-0.77,-4.423],[-0.608,-4.409],[-0.419,-4.346],[-0.349,-4.338]]],[[[0.282,-4.353],[0.324,-4.353],[0.486,-4.402],[0.591,-4.409],[0.794,-4.451],[0.885,-4.486],[0.878,-4.535],[0.822,-4.62],[0.731,-4.676],[0.71,-4.627],[0.57,-4.599],[0.493,-4.606],[0.444,-4.493],[0.338,-4.43],[0.289,-4.381],[0.282,-4.353]]]]},"properties":{"abbr":"DRL","name":"dorsal raphe nucleus, lateral part","plate":39,"ap_bregma_mm":-5.5,"area_mm2":0.1681,"traced_fraction":[0.995,1.0],"n_labels":2,"no_drawn_outline":false}},{"type":"Feature","geometry":{"type":"MultiPolygon","coordinates":[[[[1.986,-3.234],[1.916,-3.354],[1.825,-3.572],[1.804,-3.586],[1.79,-3.628],[1.621,-3.888],[1.558,-3.952],[1.544,-3.952],[1.53,-3.952],[1.523,-3.923],[1.481,-3.832],[1.446,-3.698],[1.39,-3.579],[1.362,-3.473],[1.257,-3.262],[1.152,-3.094],[0.983,-2.911],[0.969,-2.911],[0.85,-2.798],[0.752,-2.742],[0.654,-2.714],[0.478,-2.714],[0.324,-2.735],[0.17,-2.77],[0.016,-2.833],[-0.202,-2.833],[-0.51,-2.77],[-0.706,-2.749],[-0.854,-2.756],[-0.98,-2.798],[-1.092,-2.861],[-1.155,-2.925],[-1.169,-2.925],[-1.302,-3.058],[-1.38,-3.164],[-1.499,-3.389],[-1.583,-3.614],[-1.611,-3.734],[-1.653,-3.825],[-1.674,-3.916],[-1.695,-3.916],[-1.8,-3.811],[-1.905,-3.635],[-1.947,-3.516],[-1.961,-3.424],[-1.933,-3.269],[-1.807,-3.002],[-1.737,-2.911],[-1.653,-2.833],[-1.387,-2.657],[-1.359,-2.651],[-1.148,-2.496],[-0.959,-2.404],[-0.812,-2.411],[-0.447,-2.672],[-0.307,-2.735],[-0.124,-2.77],[-0.026,-2.763],[0.177,-2.7],[0.556,-2.503],[0.689,-2.418],[0.731,-2.404],[0.85,-2.404],[0.913,-2.418],[1.145,-2.538],[1.376,-2.693],[1.397,-2.721],[1.474,-2.77],[1.53,-2.833],[1.544,-2.833],[1.853,-3.157],[1.986,-3.234]]]]},"properties":{"abbr":"DpG","name":"deep gray layer of the superior colliculus","plate":39,"ap_bregma_mm":-5.5,"area_mm2":1.6359,"traced_fraction":[0.999],"n_labels":2,"no_drawn_outline":false}},{"type":"Feature","geometry":{"type":"MultiPolygon","coordinates":[[[[-1.611,-3.734],[-1.239,-3.734],[-1.19,-3.952],[-1.204,-3.952],[-1.239,-4.001],[-1.323,-4.064],[-1.415,-4.064],[-1.52,-4.029],[-1.632,-3.966],[-1.674,-3.931],[-1.674,-3.916],[-1.653,-3.825],[-1.611,-3.734]]],[[[1.103,-3.923],[1.523,-3.923],[1.53,-3.952],[1.544,-3.952],[1.537,-3.973],[1.516,-3.973],[1.495,-4.001],[1.306,-4.099],[1.236,-4.113],[1.159,-4.149],[0.976,-4.156],[0.976,-4.127],[1.004,-4.071],[1.06,-3.994],[1.082,-3.931],[1.103,-3.923]]]]},"properties":{"abbr":"DpWh","name":"deep white layer of the superior colliculus","plate":39,"ap_bregma_mm":-5.5,"area_mm2":0.2129,"traced_fraction":[0.774,0.745],"n_labels":2,"no_drawn_outline":false}},{"type":"Feature","geometry":{"type":"MultiPolygon","coordinates":[[[[2.336,-2.721],[2.358,-2.798],[2.421,-2.868],[2.582,-2.946],[2.687,-3.058],[2.848,-3.502],[2.876,-3.635],[2.876,-3.818],[2.834,-4.149],[2.834,-4.296],[2.87,-4.388],[2.855,-4.402],[2.631,-4.388],[2.442,-4.338],[2.386,-4.296],[2.351,-4.289],[2.33,-4.233],[2.266,-4.149],[2.323,-4.022],[2.372,-3.825],[2.372,-3.621],[2.336,-3.537],[2.287,-3.48],[2.224,-3.438],[2.161,-3.417],[2.07,-3.417],[1.986,-3.459],[1.881,-3.579],[1.825,-3.572],[1.916,-3.354],[1.986,-3.234],[2.077,-3.22],[2.119,-3.178],[2.168,-3.058],[2.168,-3.023],[2.224,-2.819],[2.266,-2.742],[2.336,-2.721]]],[[[-2.424,-2.77],[-2.298,-2.805],[-2.298,-2.819],[-2.214,-2.904],[-2.193,-2.967],[-2.172,-3.108],[-2.123,-3.234],[-2.221,-3.333],[-2.27,-3.41],[-2.396,-3.544],[-2.452,-3.628],[-2.536,-3.839],[-2.586,-4.156],[-2.62,-4.205],[-2.705,-4.24],[-2.712,-4.254],[-2.845,-4.24],[-2.915,-4.205],[-2.978,-4.142],[-2.95,-4.085],[-2.957,-3.832],[-2.943,-3.663],[-2.908,-3.466],[-2.845,-3.248],[-2.796,-3.164],[-2.684,-3.037],[-2.635,-3.009],[-2.599,-2.967],[-2.459,-2.897],[-2.424,-2.861],[-2.424,-2.77]]]]},"properties":{"abbr":"ECIC","name":"external cortex of the inferior colliculus","plate":39,"ap_bregma_mm":-5.5,"area_mm2":1.5401,"traced_fraction":[0.999,1.0],"n_labels":2,"no_drawn_outline":false}},{"type":"Feature","geometry":{"type":"MultiPolygon","coordinates":[[[[5.099,-3.319],[5.239,-3.34],[5.366,-3.389],[6.256,-3.656],[6.41,-3.684],[6.627,-3.748],[6.712,-3.748],[6.712,-3.867],[6.642,-4.43],[6.593,-4.416],[6.417,-4.254],[6.284,-4.163],[6.207,-4.078],[6.13,-4.071],[5.997,-3.938],[5.807,-3.818],[5.702,-3.734],[5.674,-3.727],[5.408,-3.53],[5.288,-3.466],[5.176,-3.382],[5.141,-3.389],[5.127,-3.389],[5.099,-3.347],[5.099,-3.319]]],[[[-6.645,-3.445],[-6.477,-3.565],[-6.358,-3.621],[-6.168,-3.684],[-5.951,-3.727],[-5.642,-3.734],[-5.362,-3.698],[-5.222,-3.656],[-5.152,-3.649],[-5.159,-3.691],[-5.593,-3.902],[-5.684,-3.966],[-5.951,-4.106],[-6.224,-4.282],[-6.505,-4.5],[-6.575,-4.521],[-6.575,-4.486],[-6.715,-4.085],[-6.729,-3.966],[-6.722,-3.727],[-6.666,-3.48],[-6.645,-3.445]]]]},"properties":{"abbr":"Ect","name":"ectorhinal cortex","plate":39,"ap_bregma_mm":-5.5,"area_mm2":1.2216,"traced_fraction":[0.938,1.0],"n_labels":2,"no_drawn_outline":false}},{"type":"Feature","geometry":{"type":"MultiPolygon","coordinates":[[[[0.079,-6.849],[0.079,-7.011],[-0.152,-7.011],[-0.152,-6.856],[-0.082,-6.835],[0.023,-6.835],[0.079,-6.849]]]]},"properties":{"abbr":"IPC","name":"interpeduncular nucleus, caudal subnucleus","plate":39,"ap_bregma_mm":-5.5,"area_mm2":0.0395,"traced_fraction":[0.385],"n_labels":1,"no_drawn_outline":true}},{"type":"Feature","geometry":{"type":"MultiPolygon","coordinates":[[[[-0.173,-2.489],[-0.103,-2.482],[-0.089,-2.496],[-0.012,-2.496],[0.128,-2.489],[0.184,-2.432],[0.289,-2.25],[0.394,-2.144],[0.514,-2.06],[0.717,-1.982],[0.864,-1.975],[0.997,-1.996],[1.075,-2.024],[1.369,-2.165],[1.734,-2.397],[2.021,-2.629],[2.119,-2.672],[2.196,-2.686],[2.217,-2.721],[2.266,-2.742],[2.224,-2.819],[2.168,-3.023],[2.084,-3.002],[1.762,-2.686],[1.509,-2.489],[1.481,-2.482],[1.285,-2.348],[1.103,-2.264],[1.082,-2.243],[0.913,-2.193],[0.759,-2.193],[0.64,-2.236],[0.457,-2.348],[0.212,-2.58],[0.079,-2.636],[-0.047,-2.657],[-0.216,-2.636],[-0.314,-2.594],[-0.377,-2.552],[-0.622,-2.299],[-0.798,-2.193],[-0.861,-2.179],[-0.98,-2.179],[-1.085,-2.2],[-1.239,-2.264],[-1.569,-2.461],[-1.793,-2.657],[-1.807,-2.657],[-1.856,-2.714],[-1.87,-2.714],[-1.976,-2.833],[-1.989,-2.833],[-2.102,-2.939],[-2.193,-2.967],[-2.214,-2.904],[-2.298,-2.819],[-2.298,-2.805],[-2.263,-2.77],[-2.235,-2.763],[-2.193,-2.714],[-2.081,-2.636],[-1.807,-2.376],[-1.52,-2.186],[-1.359,-2.102],[-1.288,-2.081],[-1.197,-2.024],[-1.001,-1.975],[-0.812,-1.996],[-0.594,-2.102],[-0.426,-2.264],[-0.335,-2.39],[-0.265,-2.461],[-0.216,-2.489],[-0.173,-2.489]]]]},"properties":{"abbr":"InG","name":"intermediate gray layer of the superior colliculus","plate":39,"ap_bregma_mm":-5.5,"area_mm2":1.0395,"traced_fraction":[0.994],"n_labels":2,"no_drawn_outline":false}},{"type":"Feature","geometry":{"type":"MultiPolygon","coordinates":[[[[2.168,-3.023],[2.168,-3.058],[2.119,-3.178],[2.077,-3.22],[1.986,-3.234],[1.853,-3.157],[1.544,-2.833],[1.53,-2.833],[1.474,-2.77],[1.397,-2.721],[1.376,-2.693],[1.145,-2.538],[0.913,-2.418],[0.85,-2.404],[0.731,-2.404],[0.689,-2.418],[0.556,-2.503],[0.177,-2.7],[-0.026,-2.763],[-0.124,-2.77],[-0.307,-2.735],[-0.447,-2.672],[-0.812,-2.411],[-0.959,-2.404],[-1.148,-2.496],[-1.295,-2.608],[-1.653,-2.833],[-1.737,-2.911],[-1.807,-3.002],[-1.933,-3.269],[-2.018,-3.234],[-2.123,-3.234],[-2.172,-3.108],[-2.193,-2.967],[-2.102,-2.939],[-2.074,-2.904],[-1.976,-2.833],[-1.87,-2.714],[-1.856,-2.714],[-1.807,-2.657],[-1.793,-2.657],[-1.569,-2.461],[-1.239,-2.264],[-1.085,-2.2],[-0.98,-2.179],[-0.861,-2.179],[-0.798,-2.193],[-0.622,-2.299],[-0.377,-2.552],[-0.314,-2.594],[-0.216,-2.636],[-0.047,-2.657],[0.079,-2.636],[0.212,-2.58],[0.457,-2.348],[0.64,-2.236],[0.759,-2.193],[0.913,-2.193],[1.082,-2.243],[1.103,-2.264],[1.285,-2.348],[1.481,-2.482],[1.509,-2.489],[1.762,-2.686],[2.084,-3.002],[2.168,-3.023]]]]},"properties":{"abbr":"InWh","name":"intermediate white layer of the superior colliculus","plate":39,"ap_bregma_mm":-5.5,"area_mm2":1.0832,"traced_fraction":[0.994],"n_labels":2,"no_drawn_outline":false}},{"type":"Feature","geometry":{"type":"MultiPolygon","coordinates":[[[[5.001,-3.326],[5.099,-3.347],[5.12,-3.382],[5.141,-3.389],[5.141,-3.41],[5.281,-3.565],[5.422,-3.776],[5.443,-3.79],[5.576,-3.994],[5.849,-4.493],[5.961,-4.655],[6.004,-4.69],[6.018,-4.725],[6.032,-4.725],[6.025,-4.782],[6.053,-5.084],[6.004,-5.239],[5.968,-5.302],[5.933,-5.33],[5.87,-5.492],[5.891,-5.787],[5.856,-5.886],[5.779,-5.97],[5.681,-5.998],[5.639,-6.026],[5.632,-6.019],[5.548,-5.865],[5.351,-5.583],[5.099,-5.309],[4.98,-5.147],[4.91,-4.993],[4.868,-4.796],[4.924,-4.739],[4.966,-4.662],[5.008,-4.465],[5.001,-4.226],[4.98,-4.142],[4.938,-3.769],[4.945,-3.459],[4.973,-3.361],[5.001,-3.326]]],[[[-5.004,-3.621],[-4.99,-3.628],[-4.962,-3.706],[-4.913,-3.98],[-4.913,-4.12],[-4.941,-4.423],[-4.941,-4.697],[-4.913,-4.838],[-4.857,-4.971],[-4.794,-5.049],[-4.745,-5.07],[-4.661,-5.063],[-4.612,-5.021],[-4.57,-4.887],[-4.507,-4.585],[-4.478,-4.528],[-4.401,-4.493],[-4.177,-4.718],[-4.156,-4.761],[-3.665,-4.761],[-3.665,-5.59],[-4.205,-5.59],[-4.205,-5.745],[-3.658,-5.745],[-3.651,-6.062],[-3.665,-6.42],[-3.679,-6.491],[-3.721,-6.568],[-3.805,-6.638],[-3.953,-6.716],[-4.128,-6.758],[-4.359,-6.73],[-4.486,-6.666],[-4.486,-6.167],[-4.85,-6.167],[-4.85,-6.463],[-5.082,-6.357],[-5.278,-6.329],[-5.516,-6.259],[-5.72,-6.146],[-5.797,-6.019],[-5.86,-5.745],[-5.993,-5.344],[-6.007,-5.26],[-6.007,-5.07],[-5.986,-4.986],[-5.958,-4.894],[-5.895,-4.831],[-5.811,-4.711],[-5.593,-4.331],[-5.404,-4.043],[-5.201,-3.818],[-5.201,-3.804],[-5.053,-3.663],[-5.004,-3.621]]]]},"properties":{"abbr":"LEnt","name":"lateral entorhinal cortex","plate":39,"ap_bregma_mm":-5.5,"area_mm2":6.0358,"traced_fraction":[1.0,0.738],"n_labels":2,"no_drawn_outline":false}},{"type":"Feature","geometry":{"type":"MultiPolygon","coordinates":[[[[1.159,-3.487],[1.145,-3.783],[1.103,-3.923],[1.082,-3.931],[1.06,-3.994],[1.004,-4.071],[0.976,-4.127],[0.976,-4.156],[0.969,-4.156],[0.822,-4.134],[0.429,-4.022],[0.149,-4.022],[0.163,-3.994],[0.268,-3.923],[0.352,-3.832],[0.352,-3.712],[0.815,-3.621],[0.997,-3.558],[1.124,-3.487],[1.159,-3.487]]],[[[-1.267,-3.551],[-1.218,-3.551],[-1.148,-3.586],[-0.945,-3.628],[-0.819,-3.67],[-0.65,-3.706],[-0.545,-3.712],[-0.489,-3.734],[-0.489,-3.776],[-0.461,-3.853],[-0.412,-3.902],[-0.272,-3.987],[-0.251,-4.015],[-0.272,-4.029],[-0.664,-4.036],[-0.945,-4.12],[-1.015,-4.127],[-1.078,-4.163],[-1.12,-4.12],[-1.127,-4.078],[-1.155,-4.05],[-1.155,-4.015],[-1.19,-3.952],[-1.239,-3.734],[-1.239,-3.719],[-1.225,-3.712],[-1.239,-3.712],[-1.267,-3.551]]]]},"properties":{"abbr":"LPAG","name":"lateral periaqueductal gray","plate":39,"ap_bregma_mm":-5.5,"area_mm2":0.709,"traced_fraction":[1.0,1.0],"n_labels":2,"no_drawn_outline":false}},{"type":"Feature","geometry":{"type":"MultiPolygon","coordinates":[[[[4.868,-4.796],[4.91,-4.993],[4.98,-5.147],[5.099,-5.309],[5.33,-5.555],[5.548,-5.865],[5.632,-6.019],[5.639,-6.026],[5.618,-6.041],[5.583,-6.125],[5.555,-6.315],[5.485,-6.392],[5.345,-6.399],[5.197,-6.364],[5.008,-6.364],[4.664,-6.427],[4.657,-6.336],[4.706,-6.146],[4.72,-5.984],[4.756,-5.844],[4.79,-5.45],[4.826,-5.246],[4.84,-5.007],[4.811,-4.817],[4.868,-4.796]]],[[[-4.486,-6.666],[-4.626,-6.61],[-4.85,-6.463],[-4.85,-6.167],[-4.486,-6.167],[-4.486,-6.666]]]]},"properties":{"abbr":"MEnt","name":"medial entorhinal cortex","plate":39,"ap_bregma_mm":-5.5,"area_mm2":0.9798,"traced_fraction":[1.0,0.293],"n_labels":2,"no_drawn_outline":false}},{"type":"Feature","geometry":{"type":"MultiPolygon","coordinates":[[[[1.523,-3.923],[1.103,-3.923],[1.145,-3.783],[1.159,-3.487],[1.138,-3.354],[1.124,-3.347],[1.082,-3.241],[1.011,-3.171],[1.011,-3.157],[0.766,-2.939],[0.647,-2.868],[0.605,-2.861],[0.486,-2.819],[0.387,-2.819],[0.254,-2.847],[0.037,-2.925],[-0.166,-2.925],[-0.377,-2.897],[-0.538,-2.854],[-0.629,-2.854],[-0.727,-2.84],[-0.875,-2.868],[-0.973,-2.918],[-1.071,-3.002],[-1.071,-3.016],[-1.169,-3.122],[-1.253,-3.269],[-1.281,-3.424],[-1.267,-3.551],[-1.239,-3.712],[-1.239,-3.719],[-1.239,-3.734],[-1.611,-3.734],[-1.583,-3.614],[-1.499,-3.389],[-1.38,-3.164],[-1.302,-3.058],[-1.169,-2.925],[-1.155,-2.925],[-1.092,-2.861],[-0.98,-2.798],[-0.854,-2.756],[-0.706,-2.749],[-0.552,-2.763],[-0.202,-2.833],[0.016,-2.833],[0.17,-2.77],[0.324,-2.735],[0.478,-2.714],[0.654,-2.714],[0.752,-2.742],[0.85,-2.798],[0.969,-2.911],[0.983,-2.911],[1.152,-3.094],[1.257,-3.262],[1.362,-3.473],[1.39,-3.579],[1.446,-3.698],[1.481,-3.832],[1.523,-3.923]]]]},"properties":{"abbr":"Me5","name":"mesencephalic trigeminal nucleus","plate":39,"ap_bregma_mm":-5.5,"area_mm2":0.6497,"traced_fraction":[0.922],"n_labels":2,"no_drawn_outline":false}},{"type":"Feature","geometry":{"type":"MultiPolygon","coordinates":[[[[-2.845,-4.24],[-2.712,-4.254],[-2.691,-4.282],[-2.564,-4.317],[-2.501,-4.367],[-2.361,-4.444],[-2.263,-4.472],[-2.2,-4.507],[-2.221,-4.641],[-2.34,-4.845],[-2.375,-5.042],[-2.41,-5.105],[-2.48,-5.168],[-2.494,-5.168],[-2.494,-5.154],[-2.529,-5.126],[-2.607,-4.993],[-2.691,-4.901],[-2.712,-4.859],[-2.719,-4.817],[-2.782,-4.683],[-2.838,-4.486],[-2.852,-4.395],[-2.845,-4.24]]],[[[2.351,-4.289],[2.386,-4.296],[2.442,-4.338],[2.631,-4.388],[2.652,-4.683],[2.645,-4.761],[2.603,-4.88],[2.603,-4.908],[2.617,-4.908],[2.547,-5.0],[2.512,-5.112],[2.477,-5.133],[2.442,-5.211],[2.287,-5.182],[2.224,-5.042],[2.224,-4.873],[2.091,-4.718],[2.056,-4.627],[2.042,-4.514],[2.217,-4.423],[2.273,-4.367],[2.266,-4.331],[2.315,-4.296],[2.351,-4.289]]]]},"properties":{"abbr":"MiTg","name":"microcellular tegmental nucleus","plate":39,"ap_bregma_mm":-5.5,"area_mm2":0.7145,"traced_fraction":[1.0,0.997],"n_labels":2,"no_drawn_outline":false}},{"type":"Feature","geometry":{"type":"MultiPolygon","coordinates":[[[[0.072,-6.16],[0.079,-6.434],[0.086,-6.463],[0.1,-6.463],[0.093,-6.484],[0.072,-6.498],[0.044,-6.575],[0.009,-6.596],[-0.089,-6.589],[-0.131,-6.505],[-0.139,-6.463],[-0.173,-6.434],[-0.145,-6.378],[-0.145,-6.167],[-0.103,-6.083],[-0.054,-6.048],[0.002,-6.055],[0.051,-6.104],[0.072,-6.16]]]]},"properties":{"abbr":"MnR","name":"median raphe nucleus","plate":39,"ap_bregma_mm":-5.5,"area_mm2":0.1084,"traced_fraction":[0.99],"n_labels":1,"no_drawn_outline":false}},{"type":"Feature","geometry":{"type":"MultiPolygon","coordinates":[[[[-0.188,-2.355],[-0.173,-2.489],[-0.216,-2.489],[-0.265,-2.461],[-0.335,-2.39],[-0.426,-2.264],[-0.594,-2.102],[-0.812,-1.996],[-1.001,-1.975],[-1.197,-2.024],[-1.204,-2.039],[-1.52,-2.186],[-1.807,-2.376],[-2.081,-2.636],[-2.193,-2.714],[-2.249,-2.629],[-2.256,-2.566],[-2.242,-2.496],[-2.172,-2.362],[-2.025,-2.2],[-2.01,-2.2],[-1.877,-2.074],[-1.569,-1.856],[-1.218,-1.694],[-1.085,-1.652],[-0.966,-1.638],[-0.861,-1.645],[-0.727,-1.687],[-0.608,-1.757],[-0.496,-1.863],[-0.426,-1.954],[-0.363,-2.053],[-0.244,-2.306],[-0.202,-2.355],[-0.188,-2.355]]],[[[2.224,-2.651],[2.196,-2.686],[2.119,-2.672],[2.021,-2.629],[1.734,-2.397],[1.369,-2.165],[1.075,-2.024],[0.997,-1.996],[0.864,-1.975],[0.717,-1.982],[0.514,-2.06],[0.394,-2.144],[0.289,-2.25],[0.184,-2.432],[0.128,-2.489],[-0.012,-2.496],[-0.012,-2.475],[0.037,-2.418],[0.051,-2.313],[0.1,-2.137],[0.149,-2.053],[0.247,-1.954],[0.38,-1.863],[0.549,-1.778],[0.696,-1.736],[0.913,-1.729],[1.067,-1.757],[1.313,-1.863],[1.874,-2.228],[2.042,-2.383],[2.224,-2.651]]]]},"properties":{"abbr":"Op","name":"optic nerve layer of the superior colliculus","plate":39,"ap_bregma_mm":-5.5,"area_mm2":1.272,"traced_fraction":[1.0,1.0],"n_labels":2,"no_drawn_outline":false}},{"type":"Feature","geometry":{"type":"MultiPolygon","coordinates":[[[[2.925,-4.782],[2.862,-4.908],[2.666,-5.197],[2.61,-5.197],[2.54,-5.232],[2.505,-5.161],[2.512,-5.112],[2.547,-5.0],[2.617,-4.908],[2.652,-4.88],[2.708,-4.789],[2.778,-4.732],[2.834,-4.732],[2.87,-4.746],[2.897,-4.782],[2.925,-4.782]]],[[[-2.943,-4.803],[-2.838,-4.803],[-2.754,-4.852],[-2.712,-4.859],[-2.691,-4.901],[-2.607,-4.993],[-2.529,-5.126],[-2.543,-5.147],[-2.536,-5.211],[-2.578,-5.204],[-2.586,-5.189],[-2.747,-5.112],[-2.782,-5.112],[-2.796,-5.126],[-2.817,-5.105],[-2.88,-5.0],[-2.943,-4.803]]]]},"properties":{"abbr":"PBG","name":"parabigeminal nucleus","plate":39,"ap_bregma_mm":-5.5,"area_mm2":0.1844,"traced_fraction":[1.0,1.0],"n_labels":2,"no_drawn_outline":false}},{"type":"Feature","geometry":{"type":"MultiPolygon","coordinates":[[[[-0.531,-4.493],[-0.594,-4.648],[-0.615,-4.767],[-0.608,-4.789],[-0.749,-4.746],[-0.798,-4.718],[-0.84,-4.662],[-0.783,-4.606],[-0.72,-4.585],[-0.65,-4.528],[-0.573,-4.493],[-0.531,-4.493]]],[[[0.731,-4.676],[0.64,-4.753],[0.605,-4.761],[0.556,-4.796],[0.507,-4.803],[0.493,-4.606],[0.57,-4.599],[0.71,-4.627],[0.731,-4.676]]]]},"properties":{"abbr":"PDR","name":"posterodorsal raphe nucleus","plate":39,"ap_bregma_mm":-5.5,"area_mm2":0.0787,"traced_fraction":[0.992,1.0],"n_labels":2,"no_drawn_outline":false}},{"type":"Feature","geometry":{"type":"MultiPolygon","coordinates":[[[[-0.482,-5.851],[-0.202,-5.872],[0.345,-5.865],[0.345,-5.893],[0.359,-5.9],[0.436,-6.076],[0.444,-6.202],[0.429,-6.308],[0.394,-6.413],[0.338,-6.519],[0.296,-6.568],[0.275,-6.568],[0.212,-6.519],[0.093,-6.484],[0.1,-6.463],[0.275,-6.336],[0.289,-6.308],[0.289,-6.252],[0.205,-6.181],[0.072,-6.16],[0.051,-6.104],[0.002,-6.055],[-0.054,-6.048],[-0.103,-6.083],[-0.145,-6.167],[-0.251,-6.181],[-0.328,-6.223],[-0.363,-6.273],[-0.349,-6.322],[-0.307,-6.364],[-0.223,-6.42],[-0.173,-6.434],[-0.139,-6.463],[-0.131,-6.505],[-0.251,-6.533],[-0.314,-6.547],[-0.37,-6.589],[-0.482,-6.448],[-0.517,-6.371],[-0.552,-6.237],[-0.538,-6.026],[-0.482,-5.851]]]]},"properties":{"abbr":"PMnR","name":"paramedian raphe nucleus","plate":39,"ap_bregma_mm":-5.5,"area_mm2":0.4283,"traced_fraction":[1.0],"n_labels":1,"no_drawn_outline":false}},{"type":"Feature","geometry":{"type":"MultiPolygon","coordinates":[[[[6.642,-4.43],[6.621,-4.465],[6.557,-4.507],[6.312,-4.557],[6.179,-4.599],[6.088,-4.655],[6.06,-4.697],[6.039,-4.718],[6.032,-4.725],[6.018,-4.725],[6.004,-4.69],[5.961,-4.655],[5.849,-4.493],[5.576,-3.994],[5.443,-3.79],[5.422,-3.776],[5.281,-3.565],[5.141,-3.41],[5.141,-3.389],[5.176,-3.382],[5.288,-3.466],[5.408,-3.53],[5.674,-3.727],[5.702,-3.734],[5.807,-3.818],[5.997,-3.938],[6.13,-4.071],[6.207,-4.078],[6.284,-4.163],[6.417,-4.254],[6.593,-4.416],[6.642,-4.43]]],[[[-5.089,-3.642],[-5.053,-3.663],[-5.201,-3.804],[-5.201,-3.818],[-5.404,-4.043],[-5.593,-4.331],[-5.811,-4.711],[-5.895,-4.831],[-5.958,-4.894],[-6.042,-4.908],[-6.379,-4.908],[-6.442,-4.88],[-6.505,-4.824],[-6.561,-4.711],[-6.575,-4.521],[-6.505,-4.5],[-6.224,-4.282],[-5.951,-4.106],[-5.684,-3.966],[-5.593,-3.902],[-5.159,-3.691],[-5.152,-3.649],[-5.089,-3.642]]]]},"properties":{"abbr":"PRh","name":"perirhinal cortex","plate":39,"ap_bregma_mm":-5.5,"area_mm2":1.2433,"traced_fraction":[0.932,1.0],"n_labels":2,"no_drawn_outline":false}},{"type":"Feature","geometry":{"type":"MultiPolygon","coordinates":[[[[-1.022,-4.472],[-0.994,-4.472],[-0.973,-4.479],[-0.98,-4.5],[-0.952,-4.557],[-0.868,-4.655],[-0.84,-4.662],[-0.798,-4.718],[-0.749,-4.746],[-0.608,-4.789],[-0.601,-4.796],[-0.594,-4.803],[-0.587,-4.81],[-0.58,-4.817],[-0.594,-4.838],[-0.587,-5.021],[-0.503,-5.189],[-0.468,-5.218],[-0.489,-5.225],[-0.531,-5.316],[-0.566,-5.457],[-0.699,-5.506],[-0.749,-5.562],[-0.762,-5.604],[-0.755,-5.731],[-0.678,-5.808],[-0.734,-6.033],[-0.741,-6.195],[-0.713,-6.343],[-0.657,-6.477],[-0.58,-6.575],[-0.468,-6.666],[-0.419,-6.673],[-0.419,-6.73],[-0.51,-6.709],[-0.643,-6.652],[-1.148,-6.392],[-1.148,-5.991],[-1.429,-5.991],[-1.429,-6.294],[-1.562,-6.287],[-1.604,-6.308],[-1.744,-6.174],[-1.744,-6.118],[-1.765,-6.083],[-1.989,-5.865],[-2.074,-5.738],[-2.053,-5.661],[-2.053,-5.534],[-2.095,-5.401],[-2.158,-5.33],[-2.256,-5.267],[-2.354,-5.232],[-2.452,-5.225],[-2.473,-5.204],[-2.48,-5.168],[-2.41,-5.105],[-2.375,-5.042],[-2.34,-4.845],[-2.221,-4.641],[-2.2,-4.507],[-2.158,-4.507],[-1.814,-4.599],[-1.52,-4.641],[-1.429,-4.641],[-1.429,-5.091],[-1.148,-5.091],[-1.148,-4.571],[-1.057,-4.486],[-1.022,-4.472]]],[[[1.215,-4.514],[1.509,-4.549],[1.846,-4.542],[2.042,-4.514],[2.056,-4.627],[2.091,-4.718],[2.224,-4.873],[2.224,-5.042],[2.287,-5.182],[2.217,-5.197],[2.126,-5.246],[2.077,-5.295],[2.042,-5.358],[2.007,-5.499],[2.007,-5.71],[2.035,-5.752],[2.007,-5.808],[1.923,-5.907],[1.881,-5.998],[1.755,-6.174],[1.698,-6.28],[1.579,-6.28],[1.509,-6.301],[1.502,-5.977],[1.229,-5.977],[1.229,-6.42],[1.054,-6.491],[0.528,-6.631],[0.45,-6.673],[0.408,-6.716],[0.359,-6.723],[0.359,-6.673],[0.444,-6.631],[0.499,-6.561],[0.549,-6.491],[0.591,-6.378],[0.605,-6.308],[0.598,-6.048],[0.57,-5.865],[0.549,-5.815],[0.591,-5.78],[0.612,-5.738],[0.612,-5.64],[0.563,-5.548],[1.131,-5.548],[1.131,-5.401],[0.486,-5.401],[0.465,-5.302],[0.387,-5.147],[0.394,-5.119],[0.45,-5.07],[0.493,-4.978],[0.493,-4.866],[0.478,-4.845],[0.493,-4.817],[0.507,-4.803],[0.556,-4.796],[0.577,-4.774],[0.64,-4.753],[0.731,-4.676],[0.822,-4.62],[0.927,-4.711],[0.927,-5.077],[1.215,-5.077],[1.215,-4.514]]],[[[-1.141,-5.365],[-1.141,-5.513],[-0.727,-5.513],[-0.833,-5.408],[-0.847,-5.365],[-1.141,-5.365]]]]},"properties":{"abbr":"PTg","name":"pedunculopontine tegmental nucleus","plate":39,"ap_bregma_mm":-5.5,"area_mm2":4.7404,"traced_fraction":[0.761,0.642,0.041],"n_labels":2,"no_drawn_outline":true}},{"type":"Feature","geometry":{"type":"MultiPolygon","coordinates":[[[[-3.623,-4.163],[-3.658,-4.472],[-3.665,-4.761],[-4.156,-4.761],[-4.177,-4.718],[-4.401,-4.493],[-4.359,-4.444],[-4.303,-4.409],[-3.995,-4.331],[-3.77,-4.226],[-3.672,-4.163],[-3.623,-4.163]]],[[[3.718,-4.388],[3.809,-4.388],[4.026,-4.437],[4.209,-4.458],[4.475,-4.521],[4.601,-4.585],[4.643,-4.585],[4.72,-4.782],[4.692,-4.803],[4.643,-4.929],[4.622,-4.943],[4.496,-5.133],[4.412,-5.239],[4.342,-5.302],[4.342,-5.316],[4.188,-5.471],[3.788,-5.759],[3.718,-5.78],[3.704,-5.555],[3.753,-5.182],[3.767,-4.873],[3.767,-4.746],[3.718,-4.388]]]]},"properties":{"abbr":"PaS","name":"parasubiculum","plate":39,"ap_bregma_mm":-5.5,"area_mm2":1.1671,"traced_fraction":[0.674,1.0],"n_labels":2,"no_drawn_outline":false}},{"type":"Feature","geometry":{"type":"MultiPolygon","coordinates":[[[[-1.19,-6.849],[-1.134,-6.849],[-0.931,-6.906],[-0.629,-6.92],[-0.622,-6.955],[-0.531,-7.081],[-0.517,-7.124],[-0.517,-7.229],[-0.573,-7.292],[-0.615,-7.314],[-0.72,-7.335],[-0.868,-7.328],[-1.169,-7.257],[-1.232,-7.229],[-1.309,-7.166],[-1.323,-7.131],[-1.316,-7.081],[-1.288,-7.011],[-1.239,-6.948],[-1.19,-6.849]]],[[[1.173,-7.412],[1.054,-7.461],[0.766,-7.475],[0.766,-7.461],[0.745,-7.454],[0.724,-7.433],[0.563,-7.377],[0.507,-7.328],[0.486,-7.285],[0.486,-7.159],[0.521,-7.096],[0.591,-7.053],[0.689,-7.06],[0.822,-7.103],[1.033,-7.208],[1.152,-7.307],[1.173,-7.356],[1.173,-7.412]]]]},"properties":{"abbr":"Pn","name":"pontine nuclei","plate":39,"ap_bregma_mm":-5.5,"area_mm2":0.4928,"traced_fraction":[1.0,1.0],"n_labels":2,"no_drawn_outline":false}},{"type":"Feature","geometry":{"type":"MultiPolygon","coordinates":[[[[1.509,-6.301],[1.229,-6.42],[1.229,-5.977],[1.502,-5.977],[1.509,-6.301]]],[[[-1.148,-6.392],[-1.295,-6.322],[-1.429,-6.294],[-1.429,-5.991],[-1.148,-5.991],[-1.148,-6.392]]]]},"properties":{"abbr":"PnO","name":"pontine reticular nucleus, oral part","plate":39,"ap_bregma_mm":-5.5,"area_mm2":0.2024,"traced_fraction":[0.266,0.276],"n_labels":2,"no_drawn_outline":true}},{"type":"Feature","geometry":{"type":"MultiPolygon","coordinates":[[[[3.809,-2.25],[4.012,-2.369],[4.082,-2.439],[4.089,-2.51],[4.195,-2.791],[4.272,-3.065],[4.454,-3.867],[4.643,-4.585],[4.601,-4.585],[4.475,-4.521],[4.209,-4.458],[4.026,-4.437],[3.809,-4.388],[3.718,-4.388],[3.676,-4.247],[3.676,-4.015],[3.69,-3.973],[3.683,-3.677],[3.634,-3.508],[3.479,-3.157],[3.283,-2.763],[3.094,-2.482],[2.968,-2.341],[2.975,-2.334],[2.961,-2.334],[2.947,-2.32],[2.954,-2.313],[2.919,-2.278],[2.912,-2.285],[2.827,-2.186],[2.736,-2.13],[2.729,-2.109],[2.694,-2.095],[2.652,-2.053],[2.687,-2.024],[2.778,-2.003],[3.031,-1.989],[3.199,-2.003],[3.416,-2.067],[3.76,-2.243],[3.809,-2.25]]],[[[-2.628,-2.109],[-2.705,-2.172],[-2.915,-2.58],[-2.95,-2.615],[-2.978,-2.679],[-3.181,-2.953],[-3.258,-3.079],[-3.315,-3.143],[-3.343,-3.199],[-3.364,-3.213],[-3.42,-3.333],[-3.427,-3.347],[-3.462,-3.417],[-3.567,-3.769],[-3.623,-4.163],[-3.672,-4.163],[-3.77,-4.226],[-3.995,-4.331],[-4.303,-4.409],[-4.359,-4.444],[-4.401,-4.493],[-4.478,-4.528],[-4.478,-4.472],[-4.436,-4.338],[-4.331,-3.867],[-4.289,-3.741],[-4.233,-3.312],[-4.184,-3.065],[-4.128,-2.897],[-4.037,-2.756],[-3.967,-2.58],[-3.89,-2.447],[-3.868,-2.376],[-3.791,-2.299],[-3.7,-2.25],[-3.63,-2.186],[-3.399,-2.039],[-3.35,-2.024],[-3.315,-2.067],[-3.216,-2.067],[-2.971,-2.017],[-2.866,-2.01],[-2.691,-2.053],[-2.628,-2.109]]]]},"properties":{"abbr":"Post","name":"postsubiculum","plate":39,"ap_bregma_mm":-5.5,"area_mm2":4.0746,"traced_fraction":[1.0,1.0],"n_labels":2,"no_drawn_outline":false}},{"type":"Feature","geometry":{"type":"MultiPolygon","coordinates":[[[[-1.19,-3.952],[-1.155,-4.015],[-1.155,-4.05],[-1.127,-4.078],[-1.12,-4.12],[-1.078,-4.163],[-1.001,-4.458],[-1.022,-4.458],[-1.022,-4.472],[-1.057,-4.486],[-1.148,-4.571],[-1.246,-4.613],[-1.429,-4.641],[-1.52,-4.641],[-1.814,-4.599],[-2.158,-4.507],[-2.2,-4.507],[-2.263,-4.472],[-2.361,-4.444],[-2.501,-4.367],[-2.508,-4.331],[-2.417,-4.353],[-2.179,-4.353],[-1.989,-4.324],[-1.828,-4.275],[-1.709,-4.212],[-1.52,-4.029],[-1.415,-4.064],[-1.323,-4.064],[-1.239,-4.001],[-1.204,-3.952],[-1.19,-3.952]]],[[[1.537,-3.973],[1.642,-4.142],[1.741,-4.24],[1.839,-4.296],[2.035,-4.353],[2.175,-4.353],[2.266,-4.331],[2.273,-4.367],[2.217,-4.423],[2.042,-4.514],[1.846,-4.542],[1.586,-4.549],[1.411,-4.542],[1.215,-4.514],[0.92,-4.437],[0.927,-4.296],[0.969,-4.156],[0.976,-4.156],[1.159,-4.149],[1.194,-4.127],[1.306,-4.099],[1.425,-4.029],[1.46,-4.022],[1.516,-3.973],[1.537,-3.973]]]]},"properties":{"abbr":"PrCnF","name":"precuneiform area","plate":39,"ap_bregma_mm":-5.5,"area_mm2":0.9362,"traced_fraction":[0.99,0.998],"n_labels":2,"no_drawn_outline":false}},{"type":"Feature","geometry":{"type":"MultiPolygon","coordinates":[[[[-1.933,-3.269],[-1.961,-3.424],[-1.947,-3.516],[-1.905,-3.635],[-1.8,-3.811],[-1.737,-3.881],[-1.723,-3.881],[-1.695,-3.916],[-1.674,-3.916],[-1.674,-3.931],[-1.632,-3.966],[-1.52,-4.029],[-1.709,-4.212],[-1.828,-4.275],[-1.989,-4.324],[-2.179,-4.353],[-2.417,-4.353],[-2.508,-4.331],[-2.501,-4.367],[-2.564,-4.317],[-2.691,-4.282],[-2.712,-4.254],[-2.705,-4.24],[-2.62,-4.205],[-2.586,-4.156],[-2.536,-3.839],[-2.452,-3.628],[-2.396,-3.544],[-2.27,-3.41],[-2.221,-3.333],[-2.123,-3.234],[-2.018,-3.234],[-1.933,-3.269]]],[[[1.825,-3.572],[1.881,-3.579],[1.839,-3.684],[1.818,-3.825],[1.832,-3.987],[1.867,-4.078],[1.951,-4.163],[2.035,-4.191],[2.196,-4.191],[2.266,-4.149],[2.287,-4.163],[2.351,-4.289],[2.33,-4.289],[2.266,-4.331],[2.175,-4.353],[2.035,-4.353],[1.839,-4.296],[1.741,-4.24],[1.642,-4.142],[1.537,-3.973],[1.544,-3.952],[1.558,-3.952],[1.621,-3.888],[1.79,-3.628],[1.804,-3.586],[1.825,-3.572]]],[[[-2.13,-3.677],[-2.2,-3.712],[-2.27,-3.797],[-2.312,-3.909],[-2.319,-4.022],[-2.256,-4.177],[-2.221,-4.212],[-2.144,-4.247],[-2.046,-4.261],[-1.968,-4.226],[-1.891,-4.149],[-1.849,-4.05],[-1.849,-3.966],[-1.87,-3.888],[-1.94,-3.762],[-2.01,-3.698],[-2.074,-3.677],[-2.13,-3.677]]]]},"properties":{"abbr":"Pta","name":"pericollicular tegmental area","plate":39,"ap_bregma_mm":-5.5,"area_mm2":0.7179,"traced_fraction":[1.0,0.995,0.987],"n_labels":2,"no_drawn_outline":false}},{"type":"Feature","geometry":{"type":"MultiPolygon","coordinates":[[[[2.287,-5.182],[2.442,-5.211],[2.414,-5.281],[2.372,-5.323],[2.351,-5.365],[2.358,-5.379],[2.294,-5.464],[2.168,-5.576],[2.07,-5.724],[2.035,-5.752],[2.007,-5.71],[2.007,-5.499],[2.042,-5.358],[2.077,-5.295],[2.126,-5.246],[2.217,-5.197],[2.287,-5.182]]],[[[-2.452,-5.225],[-2.354,-5.232],[-2.256,-5.267],[-2.158,-5.33],[-2.095,-5.401],[-2.053,-5.534],[-2.053,-5.661],[-2.074,-5.738],[-2.088,-5.738],[-2.151,-5.668],[-2.445,-5.281],[-2.452,-5.225]]]]},"properties":{"abbr":"RR","name":"retrorubral nucleus","plate":39,"ap_bregma_mm":-5.5,"area_mm2":0.2152,"traced_fraction":[1.0,1.0],"n_labels":2,"no_drawn_outline":false}},{"type":"Feature","geometry":{"type":"MultiPolygon","coordinates":[[[[-1.141,-5.365],[-0.847,-5.365],[-0.833,-5.408],[-0.727,-5.513],[-1.141,-5.513],[-1.141,-5.365]]],[[[0.486,-5.401],[1.131,-5.401],[1.131,-5.548],[0.563,-5.548],[0.535,-5.541],[0.486,-5.499],[0.486,-5.401]]]]},"properties":{"abbr":"RRF","name":"retrorubral field","plate":39,"ap_bregma_mm":-5.5,"area_mm2":0.1446,"traced_fraction":[0.041,0.169],"n_labels":2,"no_drawn_outline":true}},{"type":"Feature","geometry":{"type":"MultiPolygon","coordinates":[[[[-1.393,-0.161],[-1.274,-0.182],[-1.204,-0.224],[-1.183,-0.224],[-1.085,-0.273],[-1.015,-0.343],[-1.015,-0.358],[-0.938,-0.428],[-0.896,-0.512],[-0.875,-0.604],[-0.875,-0.709],[-1.169,-0.702],[-1.436,-0.773],[-1.576,-0.836],[-1.618,-0.836],[-1.611,-0.801],[-1.562,-0.744],[-1.506,-0.625],[-1.471,-0.519],[-1.393,-0.161]]],[[[1.6,-0.196],[1.607,-0.273],[1.663,-0.456],[1.748,-0.625],[1.832,-0.737],[1.937,-0.843],[2.028,-0.906],[2.07,-0.948],[2.077,-0.977],[2.014,-0.962],[1.916,-0.906],[1.741,-0.836],[1.502,-0.773],[1.376,-0.751],[1.124,-0.751],[1.039,-0.766],[1.025,-0.78],[1.004,-0.73],[1.004,-0.618],[1.033,-0.526],[1.082,-0.435],[1.222,-0.308],[1.299,-0.266],[1.446,-0.217],[1.6,-0.196]]]]},"properties":{"abbr":"RSD","name":"retrosplenial dysgranular cortex","plate":39,"ap_bregma_mm":-5.5,"area_mm2":0.6356,"traced_fraction":[1.0,1.0],"n_labels":2,"no_drawn_outline":false}},{"type":"Feature","geometry":{"type":"MultiPolygon","coordinates":[[[[-1.66,-1.511],[-1.723,-1.567],[-1.751,-1.574],[-2.158,-1.856],[-2.628,-2.109],[-2.691,-2.053],[-2.866,-2.01],[-2.971,-2.017],[-3.216,-2.067],[-3.315,-2.067],[-3.35,-2.024],[-3.35,-2.01],[-3.195,-1.919],[-3.16,-1.884],[-2.852,-1.68],[-2.761,-1.588],[-2.74,-1.553],[-2.74,-1.525],[-2.571,-1.406],[-2.473,-1.363],[-2.41,-1.363],[-2.368,-1.342],[-2.242,-1.321],[-2.01,-1.328],[-1.751,-1.434],[-1.66,-1.511]]],[[[3.073,-1.631],[3.087,-1.638],[3.115,-1.687],[3.178,-1.75],[3.479,-1.947],[3.683,-2.137],[3.767,-2.193],[3.809,-2.25],[3.76,-2.243],[3.416,-2.067],[3.199,-2.003],[3.066,-1.989],[2.778,-2.003],[2.687,-2.024],[2.652,-2.053],[2.035,-1.736],[1.79,-1.567],[1.86,-1.49],[1.909,-1.462],[1.986,-1.434],[2.154,-1.427],[2.624,-1.504],[2.82,-1.553],[3.01,-1.631],[3.073,-1.631]]]]},"properties":{"abbr":"RSGa","name":"retrosplenial granular cortex, a region","plate":39,"ap_bregma_mm":-5.5,"area_mm2":1.2619,"traced_fraction":[1.0,1.0],"n_labels":2,"no_drawn_outline":false}},{"type":"Feature","geometry":{"type":"MultiPolygon","coordinates":[[[[-0.875,-0.709],[-0.889,-0.843],[-0.994,-1.075],[-1.022,-1.089],[-1.043,-1.124],[-1.401,-1.356],[-1.436,-1.363],[-1.576,-1.469],[-1.66,-1.511],[-1.751,-1.434],[-2.01,-1.328],[-2.242,-1.321],[-2.34,-1.335],[-2.41,-1.363],[-2.473,-1.363],[-2.473,-1.342],[-2.431,-1.3],[-2.326,-1.23],[-2.291,-1.223],[-2.207,-1.159],[-1.8,-0.948],[-1.618,-0.836],[-1.576,-0.836],[-1.436,-0.773],[-1.169,-0.702],[-0.875,-0.709]]],[[[2.077,-0.977],[2.147,-1.005],[2.21,-1.054],[2.428,-1.173],[2.596,-1.293],[2.659,-1.314],[2.729,-1.356],[2.855,-1.469],[2.975,-1.539],[3.073,-1.631],[3.01,-1.631],[2.82,-1.553],[2.624,-1.504],[2.154,-1.427],[1.986,-1.434],[1.909,-1.462],[1.86,-1.49],[1.79,-1.567],[1.453,-1.342],[1.439,-1.314],[1.362,-1.265],[1.18,-1.082],[1.075,-0.927],[1.046,-0.871],[1.025,-0.78],[1.039,-0.766],[1.124,-0.751],[1.376,-0.751],[1.502,-0.773],[1.741,-0.836],[1.916,-0.906],[2.014,-0.962],[2.077,-0.977]]]]},"properties":{"abbr":"RSGb","name":"retrosplenial granular cortex, b region","plate":39,"ap_bregma_mm":-5.5,"area_mm2":1.3789,"traced_fraction":[1.0,1.0],"n_labels":2,"no_drawn_outline":false}},{"type":"Feature","geometry":{"type":"MultiPolygon","coordinates":[[[[0.072,-6.16],[0.205,-6.181],[0.289,-6.252],[0.289,-6.308],[0.275,-6.336],[0.1,-6.463],[0.086,-6.463],[0.079,-6.434],[0.072,-6.16]]],[[[-0.145,-6.167],[-0.145,-6.378],[-0.173,-6.434],[-0.223,-6.42],[-0.307,-6.364],[-0.349,-6.322],[-0.363,-6.273],[-0.328,-6.223],[-0.251,-6.181],[-0.145,-6.167]]]]},"properties":{"abbr":"Rbd","name":"rhabdoid nucleus","plate":39,"ap_bregma_mm":-5.5,"area_mm2":0.0866,"traced_fraction":[1.0,0.982],"n_labels":2,"no_drawn_outline":false}},{"type":"Feature","geometry":{"type":"MultiPolygon","coordinates":[[[[-0.391,-4.416],[-0.23,-4.465],[-0.089,-4.571],[-0.082,-4.627],[-0.11,-4.704],[-0.131,-4.704],[-0.16,-4.669],[-0.244,-4.62],[-0.363,-4.62],[-0.433,-4.655],[-0.475,-4.697],[-0.517,-4.789],[-0.552,-4.817],[-0.58,-4.817],[-0.587,-4.81],[-0.594,-4.803],[-0.601,-4.796],[-0.608,-4.789],[-0.615,-4.767],[-0.594,-4.648],[-0.531,-4.493],[-0.489,-4.451],[-0.391,-4.416]]],[[[0.338,-4.43],[0.444,-4.493],[0.493,-4.606],[0.507,-4.803],[0.493,-4.817],[0.472,-4.817],[0.394,-4.704],[0.338,-4.648],[0.282,-4.627],[0.184,-4.634],[0.079,-4.718],[0.065,-4.746],[0.051,-4.746],[0.023,-4.627],[0.03,-4.542],[0.079,-4.507],[0.212,-4.451],[0.338,-4.43]]]]},"properties":{"abbr":"Su3","name":"supraoculomotor periaqueductal gray","plate":39,"ap_bregma_mm":-5.5,"area_mm2":0.2023,"traced_fraction":[1.0,1.0],"n_labels":1,"no_drawn_outline":false}},{"type":"Feature","geometry":{"type":"MultiPolygon","coordinates":[[[[-1.12,-1.37],[-1.106,-1.434],[-0.987,-1.427],[-0.882,-1.441],[-0.755,-1.476],[-0.643,-1.532],[-0.496,-1.638],[-0.265,-1.863],[-0.202,-1.947],[-0.16,-2.074],[-0.188,-2.355],[-0.202,-2.355],[-0.244,-2.306],[-0.363,-2.053],[-0.426,-1.954],[-0.496,-1.863],[-0.608,-1.757],[-0.727,-1.687],[-0.861,-1.645],[-0.966,-1.638],[-1.085,-1.652],[-1.218,-1.694],[-1.569,-1.856],[-1.877,-2.074],[-2.01,-2.2],[-2.025,-2.2],[-2.172,-2.362],[-2.242,-2.496],[-2.256,-2.566],[-2.249,-2.629],[-2.193,-2.714],[-2.235,-2.763],[-2.263,-2.77],[-2.27,-2.742],[-2.389,-2.643],[-2.452,-2.496],[-2.452,-2.453],[-2.424,-2.376],[-2.347,-2.264],[-2.137,-2.06],[-1.765,-1.771],[-1.737,-1.764],[-1.674,-1.708],[-1.646,-1.701],[-1.415,-1.546],[-1.288,-1.483],[-1.19,-1.455],[-1.183,-1.42],[-1.197,-1.384],[-1.12,-1.37]]],[[[2.224,-2.651],[2.042,-2.383],[1.874,-2.228],[1.313,-1.863],[1.131,-1.778],[0.913,-1.729],[0.696,-1.736],[0.549,-1.778],[0.38,-1.863],[0.247,-1.954],[0.191,-2.003],[0.114,-2.109],[0.058,-2.285],[0.037,-2.418],[-0.012,-2.475],[-0.026,-2.475],[-0.033,-2.404],[-0.026,-2.172],[0.002,-2.053],[0.044,-1.989],[0.282,-1.764],[0.542,-1.588],[0.724,-1.504],[0.948,-1.483],[1.11,-1.532],[1.523,-1.736],[2.147,-2.193],[2.287,-2.362],[2.336,-2.482],[2.336,-2.545],[2.323,-2.58],[2.287,-2.622],[2.224,-2.651]]]]},"properties":{"abbr":"SuG","name":"superficial gray layer of the superior colliculus","plate":39,"ap_bregma_mm":-5.5,"area_mm2":1.1509,"traced_fraction":[0.995,1.0],"n_labels":2,"no_drawn_outline":false}},{"type":"Feature","geometry":{"type":"MultiPolygon","coordinates":[[[[6.123,-2.313],[6.326,-2.559],[6.389,-2.679],[6.417,-2.707],[6.606,-3.079],[6.684,-3.305],[6.719,-3.473],[6.712,-3.748],[6.627,-3.748],[6.41,-3.684],[6.256,-3.656],[5.366,-3.389],[5.239,-3.34],[5.099,-3.319],[5.085,-3.22],[5.05,-3.115],[5.057,-3.087],[5.197,-3.002],[5.408,-2.833],[5.443,-2.819],[5.597,-2.693],[5.632,-2.679],[5.73,-2.594],[5.765,-2.58],[6.123,-2.313]]],[[[-5.951,-2.334],[-5.46,-2.714],[-4.913,-3.087],[-5.018,-3.248],[-5.089,-3.41],[-5.089,-3.642],[-5.152,-3.649],[-5.222,-3.656],[-5.362,-3.698],[-5.642,-3.734],[-5.951,-3.727],[-6.168,-3.684],[-6.358,-3.621],[-6.477,-3.565],[-6.645,-3.445],[-6.596,-3.298],[-6.379,-2.89],[-6.28,-2.763],[-6.238,-2.686],[-6.217,-2.679],[-6.105,-2.503],[-5.951,-2.334]]]]},"properties":{"abbr":"TeA","name":"temporal association cortex","plate":39,"ap_bregma_mm":-5.5,"area_mm2":2.8472,"traced_fraction":[1.0,1.0],"n_labels":2,"no_drawn_outline":false}},{"type":"Feature","geometry":{"type":"MultiPolygon","coordinates":[[[[4.356,-0.934],[4.678,-1.103],[5.134,-1.398],[5.162,-1.434],[5.267,-1.497],[5.506,-1.701],[5.52,-1.701],[5.534,-1.729],[5.744,-1.891],[5.814,-1.968],[5.807,-1.975],[5.821,-1.982],[5.821,-1.996],[5.709,-2.109],[5.695,-2.109],[5.548,-2.257],[5.534,-2.257],[5.274,-2.51],[5.26,-2.51],[5.218,-2.559],[5.092,-2.657],[4.973,-2.784],[4.903,-2.833],[4.889,-2.833],[4.622,-2.552],[4.608,-2.552],[4.552,-2.489],[4.398,-2.376],[4.37,-2.341],[4.342,-2.334],[4.012,-2.088],[3.795,-1.954],[3.795,-1.94],[3.83,-1.863],[4.033,-1.539],[4.124,-1.349],[4.167,-1.293],[4.356,-0.934]]],[[[-4.436,-1.026],[-4.296,-1.265],[-4.093,-1.553],[-4.086,-1.581],[-3.862,-1.891],[-3.791,-2.01],[-3.763,-2.032],[-3.918,-2.13],[-3.939,-2.158],[-4.1,-2.271],[-4.24,-2.404],[-4.338,-2.475],[-4.507,-2.643],[-4.521,-2.643],[-4.696,-2.826],[-4.71,-2.826],[-4.787,-2.749],[-4.787,-2.735],[-4.913,-2.608],[-4.913,-2.594],[-5.334,-2.165],[-5.348,-2.165],[-5.572,-1.94],[-5.586,-1.94],[-5.593,-1.933],[-5.418,-1.75],[-5.236,-1.61],[-5.222,-1.581],[-5.208,-1.581],[-5.053,-1.441],[-4.878,-1.328],[-4.864,-1.307],[-4.829,-1.293],[-4.829,-1.279],[-4.682,-1.188],[-4.668,-1.166],[-4.436,-1.026]]]]},"properties":{"abbr":"V1B","name":"primary visual cortex, binocular area","plate":39,"ap_bregma_mm":-5.5,"area_mm2":3.6262,"traced_fraction":[1.0,1.0],"n_labels":2,"no_drawn_outline":false}},{"type":"Feature","geometry":{"type":"MultiPolygon","coordinates":[[[[-2.172,-0.21],[-2.172,-0.322],[-2.151,-0.428],[-2.13,-0.688],[-2.144,-0.871],[-2.207,-1.047],[-2.326,-1.195],[-2.326,-1.23],[-2.431,-1.3],[-2.473,-1.342],[-2.473,-1.363],[-2.571,-1.406],[-2.74,-1.525],[-2.817,-1.539],[-3.181,-1.729],[-3.237,-1.743],[-3.763,-2.032],[-3.791,-2.01],[-3.862,-1.891],[-4.086,-1.581],[-4.093,-1.553],[-4.296,-1.265],[-4.436,-1.026],[-4.261,-0.913],[-3.995,-0.787],[-3.988,-0.773],[-3.707,-0.632],[-3.567,-0.583],[-3.546,-0.562],[-3.378,-0.491],[-2.922,-0.343],[-2.607,-0.266],[-2.172,-0.21]]],[[[2.33,-0.224],[2.799,-0.315],[2.919,-0.358],[3.031,-0.379],[3.402,-0.505],[3.886,-0.695],[4.279,-0.885],[4.356,-0.934],[4.167,-1.293],[4.124,-1.349],[4.033,-1.539],[3.83,-1.863],[3.795,-1.94],[3.767,-1.94],[3.634,-1.856],[3.521,-1.806],[3.297,-1.666],[3.185,-1.631],[3.087,-1.638],[3.073,-1.631],[2.975,-1.539],[2.855,-1.469],[2.729,-1.356],[2.659,-1.314],[2.659,-1.286],[2.596,-1.23],[2.456,-1.033],[2.379,-0.878],[2.344,-0.773],[2.309,-0.562],[2.309,-0.414],[2.33,-0.224]]]]},"properties":{"abbr":"V1M","name":"primary visual cortex, monocular area","plate":39,"ap_bregma_mm":-5.5,"area_mm2":4.4288,"traced_fraction":[1.0,1.0],"n_labels":2,"no_drawn_outline":false}},{"type":"Feature","geometry":{"type":"MultiPolygon","coordinates":[[[[-5.586,-1.94],[-5.572,-1.94],[-5.446,-2.074],[-5.432,-2.074],[-5.348,-2.165],[-5.334,-2.165],[-4.913,-2.594],[-4.913,-2.608],[-4.829,-2.686],[-4.787,-2.749],[-4.71,-2.826],[-4.696,-2.826],[-4.913,-3.087],[-5.46,-2.714],[-5.951,-2.334],[-5.741,-2.095],[-5.741,-2.081],[-5.607,-1.947],[-5.6,-1.954],[-5.586,-1.94]]],[[[5.821,-1.975],[6.074,-2.236],[6.123,-2.313],[5.765,-2.58],[5.73,-2.594],[5.632,-2.679],[5.597,-2.693],[5.443,-2.819],[5.408,-2.833],[5.197,-3.002],[5.057,-3.087],[5.043,-3.087],[4.987,-2.974],[4.903,-2.861],[4.903,-2.833],[4.973,-2.784],[5.092,-2.657],[5.106,-2.657],[5.155,-2.601],[5.274,-2.51],[5.534,-2.257],[5.548,-2.257],[5.618,-2.179],[5.709,-2.109],[5.821,-1.996],[5.821,-1.982],[5.821,-1.975]]]]},"properties":{"abbr":"V2L","name":"secondary visual cortex, lateral area","plate":39,"ap_bregma_mm":-5.5,"area_mm2":1.057,"traced_fraction":[1.0,1.0],"n_labels":2,"no_drawn_outline":false}},{"type":"Feature","geometry":{"type":"MultiPolygon","coordinates":[[[[-1.393,-0.161],[-1.471,-0.519],[-1.52,-0.66],[-1.562,-0.744],[-1.611,-0.801],[-1.618,-0.836],[-1.8,-0.948],[-2.207,-1.159],[-2.291,-1.223],[-2.326,-1.23],[-2.326,-1.195],[-2.207,-1.047],[-2.144,-0.871],[-2.13,-0.688],[-2.151,-0.428],[-2.172,-0.322],[-2.172,-0.21],[-1.919,-0.203],[-1.604,-0.147],[-1.457,-0.147],[-1.393,-0.161]]],[[[2.33,-0.224],[2.309,-0.414],[2.309,-0.562],[2.344,-0.773],[2.379,-0.878],[2.456,-1.033],[2.596,-1.23],[2.659,-1.286],[2.659,-1.314],[2.596,-1.293],[2.428,-1.173],[2.386,-1.159],[2.147,-1.005],[2.077,-0.977],[2.07,-0.948],[2.028,-0.906],[1.937,-0.843],[1.832,-0.737],[1.748,-0.625],[1.663,-0.456],[1.607,-0.273],[1.6,-0.196],[1.663,-0.182],[2.021,-0.182],[2.33,-0.224]]]]},"properties":{"abbr":"V2M","name":"secondary visual cortex, medial area","plate":39,"ap_bregma_mm":-5.5,"area_mm2":1.0418,"traced_fraction":[1.0,1.0],"n_labels":2,"no_drawn_outline":false}},{"type":"Feature","geometry":{"type":"MultiPolygon","coordinates":[[[[-0.251,-4.015],[-0.117,-4.078],[-0.005,-4.078],[0.149,-4.022],[0.429,-4.022],[0.822,-4.134],[0.969,-4.156],[0.927,-4.296],[0.92,-4.437],[0.885,-4.486],[0.794,-4.451],[0.591,-4.409],[0.486,-4.402],[0.324,-4.353],[0.282,-4.353],[0.184,-4.324],[0.1,-4.282],[-0.019,-4.261],[-0.139,-4.268],[-0.349,-4.338],[-0.419,-4.346],[-0.608,-4.409],[-0.77,-4.423],[-0.854,-4.451],[-0.903,-4.451],[-0.973,-4.479],[-0.994,-4.472],[-1.001,-4.458],[-1.078,-4.163],[-1.015,-4.127],[-0.945,-4.12],[-0.664,-4.036],[-0.272,-4.029],[-0.251,-4.015]]]]},"properties":{"abbr":"VLPAG","name":"ventrolateral periaqueductal gray","plate":39,"ap_bregma_mm":-5.5,"area_mm2":0.6203,"traced_fraction":[1.0],"n_labels":1,"no_drawn_outline":false}},{"type":"Feature","geometry":{"type":"MultiPolygon","coordinates":[[[[-1.401,-1.356],[-1.365,-1.441],[-1.253,-1.392],[-1.197,-1.384],[-1.183,-1.42],[-1.19,-1.455],[-1.288,-1.483],[-1.415,-1.546],[-1.646,-1.701],[-1.674,-1.708],[-1.737,-1.764],[-1.765,-1.771],[-2.137,-2.06],[-2.347,-2.264],[-2.424,-2.376],[-2.452,-2.453],[-2.452,-2.496],[-2.389,-2.643],[-2.34,-2.693],[-2.305,-2.707],[-2.27,-2.742],[-2.263,-2.77],[-2.298,-2.805],[-2.424,-2.77],[-2.473,-2.735],[-2.501,-2.686],[-2.515,-2.686],[-2.543,-2.601],[-2.543,-2.475],[-2.501,-2.355],[-2.382,-2.186],[-2.109,-1.94],[-2.158,-1.856],[-1.751,-1.574],[-1.723,-1.567],[-1.66,-1.511],[-1.576,-1.469],[-1.436,-1.363],[-1.401,-1.356]]],[[[-0.16,-1.891],[-0.117,-1.947],[-0.096,-1.947],[-0.096,-1.968],[-0.075,-1.982],[-0.061,-1.982],[-0.04,-1.947],[0.086,-1.849],[0.282,-1.652],[0.45,-1.525],[0.598,-1.448],[0.78,-1.398],[0.983,-1.398],[1.18,-1.462],[1.453,-1.602],[1.481,-1.631],[1.621,-1.708],[1.642,-1.736],[1.839,-1.849],[2.063,-2.01],[2.309,-2.243],[2.379,-2.355],[2.4,-2.369],[2.428,-2.453],[2.442,-2.601],[2.435,-2.622],[2.421,-2.622],[2.336,-2.707],[2.336,-2.721],[2.266,-2.742],[2.217,-2.721],[2.196,-2.686],[2.224,-2.651],[2.245,-2.651],[2.309,-2.601],[2.336,-2.545],[2.336,-2.482],[2.287,-2.362],[2.147,-2.193],[1.523,-1.736],[1.11,-1.532],[0.948,-1.483],[0.724,-1.504],[0.542,-1.588],[0.282,-1.764],[0.044,-1.989],[0.002,-2.053],[-0.026,-2.172],[-0.033,-2.404],[-0.026,-2.475],[-0.012,-2.475],[-0.012,-2.496],[-0.089,-2.496],[-0.103,-2.482],[-0.173,-2.489],[-0.188,-2.355],[-0.16,-2.074],[-0.181,-1.989],[-0.265,-1.863],[-0.496,-1.638],[-0.643,-1.532],[-0.755,-1.476],[-0.882,-1.441],[-0.987,-1.427],[-1.106,-1.434],[-1.12,-1.37],[-1.064,-1.356],[-0.854,-1.363],[-0.657,-1.434],[-0.615,-1.469],[-0.538,-1.504],[-0.475,-1.567],[-0.461,-1.567],[-0.237,-1.792],[-0.16,-1.891]]]]},"properties":{"abbr":"Zo","name":"zonal layer of the superior colliculus","plate":39,"ap_bregma_mm":-5.5,"area_mm2":0.7148,"traced_fraction":[0.995,0.999],"n_labels":2,"no_drawn_outline":false}},{"type":"Feature","geometry":{"type":"MultiPolygon","coordinates":[[[[2.435,-2.622],[2.463,-2.629],[2.526,-2.672],[2.526,-2.686],[2.582,-2.714],[2.701,-2.861],[2.891,-3.262],[2.961,-3.487],[2.982,-3.6],[2.982,-3.818],[2.94,-4.142],[2.94,-4.374],[2.87,-4.388],[2.834,-4.296],[2.834,-4.149],[2.876,-3.818],[2.876,-3.635],[2.848,-3.502],[2.687,-3.058],[2.582,-2.946],[2.421,-2.868],[2.358,-2.798],[2.336,-2.721],[2.336,-2.707],[2.421,-2.622],[2.435,-2.622]]],[[[-2.473,-2.735],[-2.424,-2.77],[-2.424,-2.861],[-2.459,-2.897],[-2.599,-2.967],[-2.635,-3.009],[-2.684,-3.037],[-2.796,-3.164],[-2.845,-3.248],[-2.908,-3.466],[-2.943,-3.663],[-2.957,-3.832],[-2.95,-4.085],[-2.978,-4.142],[-3.048,-4.127],[-3.062,-3.712],[-3.02,-3.396],[-2.943,-3.164],[-2.866,-3.016],[-2.824,-2.981],[-2.824,-2.967],[-2.677,-2.826],[-2.543,-2.763],[-2.529,-2.77],[-2.473,-2.735]]]]},"properties":{"abbr":"bic","name":"brachium of the inferior colliculus","plate":39,"ap_bregma_mm":-5.5,"area_mm2":0.4314,"traced_fraction":[1.0,1.0],"n_labels":2,"no_drawn_outline":false}},{"type":"Feature","geometry":{"type":"MultiPolygon","coordinates":[[[[-1.744,-6.174],[-1.604,-6.308],[-1.604,-6.322],[-1.534,-6.392],[-1.309,-6.554],[-1.113,-6.666],[-0.931,-6.744],[-0.713,-6.8],[-0.461,-6.807],[-0.398,-6.821],[-0.419,-6.73],[-0.419,-6.673],[-0.405,-6.624],[-0.37,-6.589],[-0.314,-6.547],[-0.251,-6.533],[-0.279,-6.666],[-0.279,-6.744],[-0.237,-6.856],[-0.335,-6.856],[-0.391,-6.842],[-0.482,-6.892],[-0.629,-6.92],[-0.931,-6.906],[-1.134,-6.849],[-1.19,-6.849],[-1.393,-6.786],[-1.506,-6.779],[-1.513,-6.758],[-1.52,-6.737],[-1.527,-6.716],[-1.52,-6.709],[-1.534,-6.709],[-1.569,-6.624],[-1.926,-6.167],[-1.786,-6.16],[-1.744,-6.174]]],[[[1.993,-6.259],[1.951,-6.343],[1.839,-6.491],[1.79,-6.533],[1.698,-6.666],[1.558,-6.807],[1.481,-6.856],[1.474,-6.856],[1.39,-6.87],[1.285,-6.927],[1.187,-6.955],[0.99,-6.969],[0.773,-6.962],[0.317,-6.913],[0.261,-6.899],[0.24,-6.877],[0.24,-6.856],[0.324,-6.835],[1.166,-6.666],[1.509,-6.505],[1.516,-6.491],[1.734,-6.385],[1.748,-6.364],[1.951,-6.252],[1.993,-6.259]]]]},"properties":{"abbr":"cp","name":"cerebral peduncle","plate":39,"ap_bregma_mm":-5.5,"area_mm2":0.7088,"traced_fraction":[1.0,1.0],"n_labels":2,"no_drawn_outline":false}},{"type":"Feature","geometry":{"type":"MultiPolygon","coordinates":[[[[-3.868,-2.376],[-3.89,-2.447],[-3.967,-2.58],[-4.009,-2.7],[-4.128,-2.897],[-4.184,-3.065],[-4.233,-3.312],[-4.289,-3.741],[-4.331,-3.867],[-4.436,-4.338],[-4.478,-4.472],[-4.478,-4.528],[-4.507,-4.585],[-4.57,-4.887],[-4.612,-5.021],[-4.661,-5.063],[-4.745,-5.07],[-4.794,-5.049],[-4.857,-4.971],[-4.913,-4.838],[-4.941,-4.697],[-4.941,-4.423],[-4.913,-4.12],[-4.913,-3.98],[-4.962,-3.706],[-4.983,-3.642],[-5.004,-3.621],[-5.011,-3.572],[-4.99,-3.494],[-4.92,-3.368],[-4.829,-3.248],[-4.191,-2.615],[-4.177,-2.615],[-4.128,-2.559],[-3.918,-2.39],[-3.868,-2.376]]],[[[4.082,-2.439],[4.258,-2.552],[4.44,-2.721],[4.454,-2.721],[4.784,-3.051],[4.882,-3.192],[5.001,-3.326],[4.973,-3.361],[4.945,-3.459],[4.938,-3.769],[4.98,-4.142],[5.001,-4.226],[5.008,-4.465],[4.966,-4.662],[4.924,-4.739],[4.868,-4.796],[4.811,-4.817],[4.762,-4.81],[4.72,-4.782],[4.643,-4.585],[4.454,-3.867],[4.272,-3.065],[4.195,-2.791],[4.089,-2.51],[4.082,-2.439]]]]},"properties":{"abbr":"dcw","name":"deep cerebral white matter","plate":39,"ap_bregma_mm":-5.5,"area_mm2":2.2365,"traced_fraction":[1.0,1.0],"n_labels":2,"no_drawn_outline":false}},{"type":"Feature","geometry":{"type":"MultiPolygon","coordinates":[[[[-2.74,-1.525],[-2.74,-1.553],[-2.761,-1.588],[-2.852,-1.68],[-3.16,-1.884],[-3.195,-1.919],[-3.35,-2.01],[-3.35,-2.024],[-3.399,-2.039],[-3.63,-2.186],[-3.7,-2.25],[-3.791,-2.299],[-3.868,-2.376],[-3.918,-2.39],[-4.128,-2.559],[-4.177,-2.615],[-4.191,-2.615],[-4.829,-3.248],[-4.92,-3.368],[-4.99,-3.494],[-5.011,-3.572],[-5.004,-3.621],[-5.053,-3.663],[-5.089,-3.642],[-5.089,-3.41],[-5.018,-3.248],[-4.913,-3.087],[-4.696,-2.826],[-4.521,-2.643],[-4.507,-2.643],[-4.338,-2.475],[-4.24,-2.404],[-4.1,-2.271],[-3.939,-2.158],[-3.918,-2.13],[-3.763,-2.032],[-3.237,-1.743],[-3.181,-1.729],[-2.817,-1.539],[-2.74,-1.525]]],[[[3.795,-1.94],[3.795,-1.954],[4.012,-2.088],[4.342,-2.334],[4.37,-2.341],[4.398,-2.376],[4.622,-2.552],[4.769,-2.7],[4.769,-2.714],[4.889,-2.833],[4.903,-2.833],[4.903,-2.861],[4.987,-2.974],[5.043,-3.087],[5.057,-3.087],[5.05,-3.115],[5.085,-3.22],[5.099,-3.319],[5.099,-3.347],[5.001,-3.326],[4.882,-3.192],[4.784,-3.051],[4.454,-2.721],[4.44,-2.721],[4.258,-2.552],[4.082,-2.439],[4.012,-2.369],[3.809,-2.25],[3.767,-2.193],[3.683,-2.137],[3.479,-1.947],[3.178,-1.75],[3.115,-1.687],[3.087,-1.638],[3.185,-1.631],[3.297,-1.666],[3.521,-1.806],[3.634,-1.856],[3.767,-1.94],[3.795,-1.94]]]]},"properties":{"abbr":"fmj","name":"forceps major of the corpus callosum","plate":39,"ap_bregma_mm":-5.5,"area_mm2":1.0726,"traced_fraction":[1.0,1.0],"n_labels":2,"no_drawn_outline":false}},{"type":"Feature","geometry":{"type":"MultiPolygon","coordinates":[[[[0.92,-4.437],[1.215,-4.514],[1.215,-5.077],[0.927,-5.077],[0.927,-4.711],[0.822,-4.62],[0.878,-4.535],[0.885,-4.486],[0.92,-4.437]]],[[[-1.148,-4.571],[-1.148,-5.091],[-1.429,-5.091],[-1.429,-4.641],[-1.274,-4.62],[-1.148,-4.571]]]]},"properties":{"abbr":"isRt","name":"isthmic reticular formation","plate":39,"ap_bregma_mm":-5.5,"area_mm2":0.321,"traced_fraction":[0.299,0.229],"n_labels":2,"no_drawn_outline":true}},{"type":"Feature","geometry":{"type":"MultiPolygon","coordinates":[[[[-3.048,-4.127],[-2.978,-4.142],[-2.915,-4.205],[-2.845,-4.24],[-2.852,-4.395],[-2.838,-4.486],[-2.782,-4.683],[-2.719,-4.817],[-2.712,-4.859],[-2.754,-4.852],[-2.838,-4.803],[-2.943,-4.803],[-2.999,-4.578],[-3.048,-4.254],[-3.048,-4.127]]],[[[2.94,-4.374],[2.961,-4.451],[2.961,-4.683],[2.925,-4.782],[2.897,-4.782],[2.855,-4.739],[2.778,-4.732],[2.708,-4.789],[2.652,-4.88],[2.617,-4.908],[2.603,-4.908],[2.603,-4.88],[2.624,-4.845],[2.652,-4.683],[2.631,-4.388],[2.771,-4.402],[2.855,-4.402],[2.87,-4.388],[2.94,-4.374]]],[[[-2.536,-5.211],[-2.508,-5.253],[-2.445,-5.281],[-2.151,-5.668],[-2.088,-5.738],[-2.074,-5.738],[-1.989,-5.865],[-1.765,-6.083],[-1.744,-6.118],[-1.744,-6.174],[-1.786,-6.16],[-1.926,-6.167],[-1.989,-6.111],[-2.046,-6.026],[-2.172,-5.886],[-2.564,-5.351],[-2.628,-5.295],[-2.656,-5.274],[-2.782,-5.161],[-2.796,-5.126],[-2.782,-5.112],[-2.747,-5.112],[-2.586,-5.189],[-2.578,-5.204],[-2.536,-5.211]]],[[[2.666,-5.197],[2.217,-5.879],[1.993,-6.259],[1.951,-6.252],[1.748,-6.364],[1.734,-6.322],[1.698,-6.28],[1.755,-6.174],[1.881,-5.998],[1.923,-5.907],[2.007,-5.808],[2.035,-5.752],[2.07,-5.724],[2.168,-5.576],[2.294,-5.464],[2.358,-5.379],[2.421,-5.351],[2.54,-5.232],[2.61,-5.197],[2.666,-5.197]]]]},"properties":{"abbr":"ll","name":"lateral lemniscus","plate":39,"ap_bregma_mm":-5.5,"area_mm2":0.7025,"traced_fraction":[1.0,1.0,1.0,1.0],"n_labels":4,"no_drawn_outline":false}},{"type":"Feature","geometry":{"type":"MultiPolygon","coordinates":[[[[1.698,-6.28],[1.734,-6.322],[1.748,-6.364],[1.734,-6.385],[1.516,-6.491],[1.509,-6.505],[1.166,-6.666],[0.324,-6.835],[0.359,-6.723],[0.408,-6.716],[0.45,-6.673],[0.528,-6.631],[0.983,-6.512],[1.229,-6.42],[1.509,-6.301],[1.579,-6.28],[1.698,-6.28]]],[[[-1.429,-6.294],[-1.295,-6.322],[-1.148,-6.392],[-0.643,-6.652],[-0.51,-6.709],[-0.419,-6.73],[-0.398,-6.821],[-0.461,-6.807],[-0.713,-6.8],[-0.931,-6.744],[-1.099,-6.673],[-1.309,-6.554],[-1.534,-6.392],[-1.604,-6.322],[-1.604,-6.308],[-1.562,-6.287],[-1.429,-6.294]]]]},"properties":{"abbr":"ml","name":"medial lemniscus","plate":39,"ap_bregma_mm":-5.5,"area_mm2":0.4703,"traced_fraction":[1.0,1.0],"n_labels":2,"no_drawn_outline":false}},{"type":"Feature","geometry":{"type":"MultiPolygon","coordinates":[[[[-0.58,-4.817],[-0.552,-4.817],[-0.503,-4.908],[-0.475,-4.929],[-0.44,-5.0],[-0.342,-5.07],[-0.16,-5.07],[-0.124,-5.084],[-0.131,-5.105],[-0.103,-5.182],[-0.124,-5.267],[-0.321,-5.267],[-0.468,-5.218],[-0.503,-5.189],[-0.587,-5.021],[-0.594,-4.838],[-0.58,-4.817]]],[[[0.472,-4.817],[0.493,-4.817],[0.478,-4.831],[0.493,-4.866],[0.493,-4.978],[0.45,-5.07],[0.394,-5.119],[0.387,-5.147],[0.338,-5.154],[0.163,-5.26],[0.023,-5.267],[0.009,-5.168],[0.023,-5.147],[0.03,-5.077],[0.205,-5.035],[0.31,-4.993],[0.366,-4.936],[0.387,-4.887],[0.436,-4.831],[0.472,-4.817]]]]},"properties":{"abbr":"mlf","name":"medial longitudinal fasciculus","plate":39,"ap_bregma_mm":-5.5,"area_mm2":0.201,"traced_fraction":[1.0,0.995],"n_labels":2,"no_drawn_outline":false}},{"type":"Feature","geometry":{"type":"MultiPolygon","coordinates":[[[[-1.506,-6.779],[-1.393,-6.786],[-1.19,-6.849],[-1.239,-6.948],[-1.288,-7.011],[-1.316,-7.081],[-1.323,-7.131],[-1.309,-7.166],[-1.232,-7.229],[-1.169,-7.257],[-0.868,-7.328],[-0.72,-7.335],[-0.615,-7.314],[-0.573,-7.292],[-0.517,-7.229],[-0.517,-7.124],[-0.531,-7.081],[-0.622,-6.955],[-0.629,-6.92],[-0.482,-6.892],[-0.391,-6.842],[-0.335,-6.856],[-0.237,-6.856],[-0.152,-6.856],[-0.152,-7.011],[0.079,-7.011],[0.079,-6.849],[0.163,-6.863],[0.24,-6.856],[0.24,-6.877],[0.261,-6.899],[0.317,-6.913],[0.871,-6.969],[1.152,-6.962],[1.285,-6.927],[1.411,-6.863],[1.474,-6.856],[1.481,-6.856],[1.369,-6.983],[1.355,-7.081],[1.376,-7.131],[1.376,-7.222],[1.327,-7.314],[1.264,-7.377],[1.243,-7.391],[1.173,-7.412],[1.173,-7.356],[1.152,-7.307],[1.033,-7.208],[0.822,-7.103],[0.689,-7.06],[0.591,-7.053],[0.542,-7.074],[0.486,-7.159],[0.486,-7.285],[0.507,-7.328],[0.563,-7.377],[0.724,-7.433],[0.745,-7.454],[0.745,-7.475],[0.654,-7.475],[0.472,-7.447],[0.303,-7.447],[0.114,-7.496],[-0.082,-7.503],[-0.328,-7.419],[-0.37,-7.405],[-0.812,-7.405],[-1.043,-7.37],[-1.281,-7.285],[-1.344,-7.236],[-1.408,-7.208],[-1.492,-7.103],[-1.506,-7.067],[-1.506,-6.779]]]]},"properties":{"abbr":"tfp","name":"transverse fibers of the pons","plate":39,"ap_bregma_mm":-5.5,"area_mm2":0.9587,"traced_fraction":[0.945],"n_labels":1,"no_drawn_outline":false}},{"type":"Feature","geometry":{"type":"MultiPolygon","coordinates":[[[[0.387,-5.147],[0.465,-5.302],[0.486,-5.401],[0.486,-5.499],[0.401,-5.478],[0.317,-5.478],[0.212,-5.506],[0.212,-5.45],[0.163,-5.26],[0.338,-5.154],[0.387,-5.147]]],[[[-0.468,-5.218],[-0.321,-5.267],[-0.356,-5.344],[-0.37,-5.492],[-0.566,-5.457],[-0.531,-5.316],[-0.489,-5.225],[-0.468,-5.218]]],[[[-0.678,-5.808],[-0.482,-5.851],[-0.538,-6.026],[-0.552,-6.237],[-0.531,-6.329],[-0.482,-6.448],[-0.37,-6.589],[-0.405,-6.624],[-0.419,-6.673],[-0.468,-6.666],[-0.58,-6.575],[-0.657,-6.477],[-0.713,-6.343],[-0.741,-6.195],[-0.734,-6.033],[-0.678,-5.808]]],[[[0.549,-5.815],[0.57,-5.865],[0.598,-6.048],[0.605,-6.308],[0.591,-6.378],[0.556,-6.477],[0.499,-6.561],[0.444,-6.631],[0.359,-6.673],[0.296,-6.568],[0.338,-6.519],[0.394,-6.413],[0.429,-6.308],[0.444,-6.202],[0.436,-6.076],[0.415,-6.012],[0.345,-5.893],[0.345,-5.865],[0.549,-5.815]]]]},"properties":{"abbr":"ts","name":"tectospinal tract","plate":39,"ap_bregma_mm":-5.5,"area_mm2":0.4284,"traced_fraction":[1.0,1.0,1.0,1.0],"n_labels":4,"no_drawn_outline":false}},{"type":"Feature","geometry":{"type":"MultiPolygon","coordinates":[[[[-0.566,-5.457],[-0.37,-5.492],[-0.258,-5.541],[-0.082,-5.583],[0.065,-5.569],[0.17,-5.534],[0.212,-5.506],[0.317,-5.478],[0.401,-5.478],[0.486,-5.499],[0.535,-5.541],[0.563,-5.548],[0.612,-5.64],[0.612,-5.738],[0.591,-5.78],[0.549,-5.815],[0.345,-5.865],[-0.202,-5.872],[-0.482,-5.851],[-0.678,-5.808],[-0.755,-5.731],[-0.762,-5.604],[-0.749,-5.562],[-0.699,-5.506],[-0.566,-5.457]]]]},"properties":{"abbr":"xscp","name":"decussation of the superior cerebellar peduncle","plate":39,"ap_bregma_mm":-5.5,"area_mm2":0.4477,"traced_fraction":[1.0],"n_labels":1,"no_drawn_outline":false}},{"type":"Feature","geometry":{"type":"Polygon","coordinates":[[[-0.096,-4.796],[0.03,-4.796],[0.009,-4.88],[0.009,-5.014],[0.03,-5.077],[0.023,-5.147],[0.009,-5.168],[0.023,-5.267],[0.009,-5.316],[-0.04,-5.351],[-0.082,-5.344],[-0.11,-5.316],[-0.124,-5.267],[-0.103,-5.204],[-0.131,-5.105],[-0.124,-5.084],[-0.089,-4.986],[-0.096,-4.796]]]},"properties":{"abbr":null,"name":"unnamed sealed face","plate":39,"ap_bregma_mm":-5.5,"index":0}},{"type":"Feature","geometry":{"type":"Polygon","coordinates":[[[0.093,-6.484],[0.212,-6.519],[0.275,-6.568],[0.296,-6.568],[0.359,-6.673],[0.359,-6.723],[0.324,-6.835],[0.24,-6.856],[0.163,-6.863],[0.079,-6.849],[0.023,-6.835],[-0.082,-6.835],[-0.152,-6.856],[-0.237,-6.856],[-0.279,-6.744],[-0.279,-6.666],[-0.251,-6.533],[-0.131,-6.505],[-0.089,-6.589],[0.009,-6.596],[0.044,-6.575],[0.072,-6.498],[0.093,-6.484]]]},"properties":{"abbr":null,"name":"unnamed sealed face","plate":39,"ap_bregma_mm":-5.5,"index":1}},{"type":"Feature","geometry":{"type":"MultiPolygon","coordinates":[[[[0.086,-7.489],[-0.075,-7.496],[-0.384,-7.398],[-0.791,-7.398],[-1.036,-7.363],[-1.253,-7.292],[-1.415,-7.194],[-1.478,-7.124],[-1.506,-7.053],[-1.506,-6.779],[-1.562,-6.638],[-1.73,-6.413],[-2.214,-5.822],[-2.578,-5.337],[-2.775,-5.161],[-2.845,-5.063],[-2.88,-4.986],[-2.943,-4.81],[-2.985,-4.641],[-3.048,-4.226],[-3.062,-3.734],[-3.02,-3.403],[-2.936,-3.15],[-2.859,-3.009],[-2.719,-2.861],[-2.663,-2.819],[-2.55,-2.77],[-2.515,-2.672],[-2.543,-2.587],[-2.543,-2.482],[-2.515,-2.39],[-2.48,-2.32],[-2.375,-2.179],[-2.109,-1.933],[-2.165,-1.849],[-2.614,-2.088],[-2.705,-2.165],[-2.887,-2.51],[-2.992,-2.679],[-3.378,-3.227],[-3.469,-3.424],[-3.553,-3.691],[-3.595,-3.874],[-3.658,-4.402],[-3.672,-4.669],[-3.672,-5.534],[-3.658,-5.942],[-3.672,-6.399],[-3.686,-6.477],[-3.728,-6.561],[-3.813,-6.631],[-3.96,-6.709],[-4.149,-6.751],[-4.352,-6.723],[-4.598,-6.617],[-4.857,-6.456],[-4.983,-6.392],[-5.095,-6.35],[-5.271,-6.322],[-5.53,-6.244],[-5.713,-6.146],[-5.79,-6.026],[-5.867,-5.731],[-5.986,-5.358],[-6.007,-5.239],[-6.007,-5.084],[-5.986,-4.986],[-6.049,-4.894],[-6.168,-4.908],[-6.372,-4.901],[-6.428,-4.88],[-6.505,-4.817],[-6.561,-4.697],[-6.575,-4.493],[-6.715,-4.071],[-6.729,-3.923],[-6.722,-3.741],[-6.666,-3.487],[-6.582,-3.269],[-6.372,-2.883],[-6.098,-2.496],[-5.713,-2.053],[-5.432,-1.764],[-5.032,-1.427],[-4.633,-1.145],[-4.233,-0.899],[-3.749,-0.653],[-3.371,-0.491],[-2.915,-0.343],[-2.592,-0.266],[-2.263,-0.217],[-1.947,-0.203],[-1.583,-0.147],[-1.478,-0.147],[-1.288,-0.182],[-1.092,-0.273],[-0.945,-0.428],[-0.903,-0.519],[-0.882,-0.618],[-0.882,-0.751],[-0.896,-0.829],[-0.987,-1.047],[-1.043,-1.11],[-1.408,-1.349],[-1.372,-1.441],[-1.225,-1.384],[-1.043,-1.356],[-0.868,-1.363],[-0.692,-1.42],[-0.538,-1.511],[-0.454,-1.581],[-0.258,-1.778],[-0.117,-1.947],[-0.033,-1.947],[0.324,-1.617],[0.465,-1.518],[0.605,-1.448],[0.787,-1.398],[0.969,-1.398],[1.166,-1.462],[1.418,-1.588],[1.839,-1.856],[2.063,-2.017],[2.294,-2.236],[2.4,-2.383],[2.421,-2.468],[2.428,-2.58],[2.463,-2.636],[2.582,-2.721],[2.694,-2.861],[2.883,-3.269],[2.954,-3.494],[2.975,-3.621],[2.975,-3.783],[2.933,-4.17],[2.933,-4.353],[2.954,-4.465],[2.954,-4.662],[2.94,-4.732],[2.848,-4.908],[2.217,-5.872],[1.937,-6.343],[1.677,-6.673],[1.558,-6.793],[1.488,-6.842],[1.362,-6.983],[1.348,-7.06],[1.369,-7.145],[1.369,-7.208],[1.32,-7.307],[1.257,-7.37],[1.316,-7.459],[1.236,-7.384],[1.039,-7.454],[0.682,-7.468],[0.436,-7.44],[0.317,-7.44],[0.093,-7.489],[0.086,-7.489]]],[[[4.349,-6.491],[4.173,-6.469],[4.033,-6.399],[3.956,-6.322],[3.886,-6.216],[3.746,-5.921],[3.711,-5.752],[3.704,-5.583],[3.753,-5.147],[3.767,-4.774],[3.732,-4.458],[3.676,-4.226],[3.676,-4.036],[3.69,-3.945],[3.683,-3.684],[3.634,-3.516],[3.458,-3.115],[3.276,-2.756],[3.087,-2.475],[2.827,-2.186],[2.631,-2.039],[2.028,-1.722],[1.537,-1.398],[1.348,-1.244],[1.187,-1.082],[1.103,-0.97],[1.054,-0.878],[1.004,-0.716],[1.004,-0.625],[1.039,-0.512],[1.088,-0.428],[1.215,-0.315],[1.306,-0.266],[1.453,-0.217],[1.684,-0.182],[1.986,-0.182],[2.309,-0.217],[2.673,-0.287],[3.038,-0.386],[3.529,-0.555],[3.872,-0.695],[4.173,-0.836],[4.678,-1.11],[5.022,-1.328],[5.295,-1.525],[5.751,-1.905],[6.053,-2.221],[6.312,-2.552],[6.424,-2.735],[6.599,-3.087],[6.677,-3.312],[6.712,-3.487],[6.705,-3.832],[6.642,-4.409],[6.621,-4.451],[6.55,-4.5],[6.263,-4.563],[6.151,-4.606],[6.081,-4.655],[6.018,-4.739],[6.046,-5.042],[6.039,-5.119],[5.983,-5.26],[5.919,-5.344],[5.884,-5.422],[5.863,-5.506],[5.884,-5.773],[5.849,-5.879],[5.772,-5.963],[5.667,-5.998],[5.611,-6.041],[5.576,-6.132],[5.548,-6.301],[5.534,-6.336],[5.478,-6.385],[5.358,-6.392],[5.176,-6.357],[5.036,-6.357],[4.875,-6.378],[4.356,-6.491],[4.349,-6.491]]]]},"properties":{"abbr":"brain_outline","name":"outline of the section","plate":39,"ap_bregma_mm":-5.5}}]}
