{"type":"FeatureCollection","name":"GerbilAtlas plate 44","note":"Region extents cut from the atlas drawing (METHODS.md, Region extents). Coordinates are [ML, DV] in mm, ML positive to the right of the plate as printed, DV negative below the dorsal surface; AP is the plate bregma. traced_fraction is the share of each polygon boundary the atlas actually draws; below 0.5 the boundary is an estimate. no_drawn_outline marks a feature that lies only inside boundaries the atlas draws round more than one name and prints nothing within, so the whole of its outline is where the extraction cut it. Not a segmentation.","plate":44,"ap_bregma_mm":-7.25,"features":[{"type":"Feature","geometry":{"type":"MultiPolygon","coordinates":[[[[1.122,-3.91],[1.227,-4.015],[1.276,-4.121],[1.297,-4.205],[1.311,-4.479],[1.29,-4.564],[1.234,-4.62],[1.234,-4.669],[1.157,-4.698],[1.129,-4.726],[1.094,-4.711],[0.94,-4.768],[0.617,-4.824],[0.288,-4.852],[-0.189,-4.852],[-0.322,-4.831],[-0.336,-4.81],[-0.456,-4.803],[-0.512,-4.768],[-0.939,-4.719],[-1.101,-4.634],[-1.143,-4.564],[-1.157,-4.564],[-1.241,-4.465],[-1.248,-4.325],[-1.213,-4.205],[-1.171,-4.142],[-1.171,-4.121],[-1.143,-4.093],[-1.136,-4.064],[-1.115,-4.057],[-1.101,-4.022],[-1.079,-4.015],[-1.009,-3.98],[-0.918,-3.959],[-0.519,-3.903],[-0.512,-3.889],[-0.463,-3.889],[-0.287,-3.846],[-0.259,-3.86],[0.007,-3.832],[0.547,-3.832],[1.122,-3.91]]]]},"properties":{"abbr":"2Cb","name":"2nd cerebellar lobule","plate":44,"ap_bregma_mm":-7.25,"area_mm2":2.2049,"traced_fraction":[1.0],"n_labels":1,"no_drawn_outline":false}},{"type":"Feature","geometry":{"type":"MultiPolygon","coordinates":[[[[0.954,-2.616],[0.975,-2.7],[1.08,-2.897],[1.094,-2.995],[1.143,-3.094],[1.192,-3.249],[1.227,-3.46],[1.199,-3.713],[1.122,-3.91],[0.547,-3.832],[0.007,-3.832],[-0.259,-3.86],[-0.287,-3.846],[-0.35,-3.868],[-0.512,-3.889],[-0.519,-3.903],[-0.918,-3.959],[-1.009,-3.98],[-1.079,-4.015],[-1.101,-3.966],[-1.122,-3.797],[-1.122,-3.551],[-1.101,-3.368],[-1.016,-3.038],[-0.946,-2.883],[-0.869,-2.763],[-0.862,-2.714],[-0.862,-2.7],[-0.722,-2.559],[-0.722,-2.545],[-0.547,-2.369],[-0.533,-2.369],[-0.392,-2.243],[-0.196,-2.13],[-0.105,-2.095],[-0.07,-2.102],[0.014,-2.074],[0.281,-2.081],[0.4,-2.116],[0.498,-2.165],[0.596,-2.257],[0.61,-2.257],[0.701,-2.355],[0.715,-2.355],[0.862,-2.503],[0.862,-2.517],[0.954,-2.616]]]]},"properties":{"abbr":"3Cb","name":"3rd cerebellar lobule","plate":44,"ap_bregma_mm":-7.25,"area_mm2":3.3713,"traced_fraction":[1.0],"n_labels":2,"no_drawn_outline":false}},{"type":"Feature","geometry":{"type":"MultiPolygon","coordinates":[[[[1.438,-2.433],[1.381,-2.573],[1.339,-2.623],[1.29,-2.651],[1.241,-2.665],[1.136,-2.665],[0.989,-2.616],[0.954,-2.616],[0.862,-2.517],[0.862,-2.503],[0.715,-2.355],[0.701,-2.355],[0.61,-2.257],[0.596,-2.257],[0.498,-2.165],[0.4,-2.116],[0.281,-2.081],[0.014,-2.074],[-0.07,-2.102],[-0.105,-2.095],[-0.196,-2.13],[-0.392,-2.243],[-0.533,-2.369],[-0.547,-2.369],[-0.827,-2.658],[-0.862,-2.714],[-0.946,-2.742],[-1.087,-2.728],[-1.157,-2.693],[-1.157,-2.679],[-1.213,-2.637],[-1.255,-2.538],[-1.234,-2.447],[-1.037,-2.011],[-0.911,-1.814],[-0.736,-1.624],[-0.645,-1.554],[-0.47,-1.476],[-0.315,-1.441],[-0.098,-1.427],[-0.084,-1.413],[0.253,-1.413],[0.575,-1.434],[0.807,-1.497],[0.961,-1.582],[1.136,-1.744],[1.269,-1.94],[1.388,-2.215],[1.438,-2.433]]]]},"properties":{"abbr":"4Cb","name":"4th cerebellar lobule","plate":44,"ap_bregma_mm":-7.25,"area_mm2":2.0462,"traced_fraction":[1.0],"n_labels":1,"no_drawn_outline":false}},{"type":"Feature","geometry":{"type":"MultiPolygon","coordinates":[[[[-0.456,-4.803],[-0.336,-4.81],[-0.322,-4.831],[-0.189,-4.852],[-0.161,-4.887],[-0.042,-4.937],[0.021,-4.937],[0.161,-4.901],[0.288,-4.887],[0.288,-5.126],[0.175,-5.19],[0.077,-5.288],[0.0,-5.309],[-0.091,-5.274],[-0.154,-5.218],[-0.287,-5.148],[-0.407,-5.119],[-0.603,-5.098],[-0.82,-5.035],[-0.883,-5.0],[-0.897,-4.965],[-0.939,-4.923],[-0.939,-4.908],[-0.869,-4.852],[-0.666,-4.824],[-0.477,-4.824],[-0.456,-4.803]]]]},"properties":{"abbr":"4V","name":"4th ventricle","plate":44,"ap_bregma_mm":-7.25,"area_mm2":0.349,"traced_fraction":[0.938],"n_labels":1,"no_drawn_outline":false}},{"type":"Feature","geometry":{"type":"MultiPolygon","coordinates":[[[[0.912,-4.915],[0.884,-4.972],[0.792,-5.021],[0.561,-5.084],[0.288,-5.126],[0.288,-4.887],[0.743,-4.866],[0.849,-4.88],[0.912,-4.915]]]]},"properties":{"abbr":"4n","name":"trochlear nerve","plate":44,"ap_bregma_mm":-7.25,"area_mm2":0.115,"traced_fraction":[0.884],"n_labels":1,"no_drawn_outline":false}},{"type":"Feature","geometry":{"type":"MultiPolygon","coordinates":[[[[1.494,-1.272],[1.487,-1.293],[1.529,-1.413],[1.557,-1.469],[1.571,-1.469],[1.571,-1.483],[1.599,-1.483],[1.683,-1.666],[1.823,-1.912],[1.823,-1.933],[2.027,-2.348],[2.055,-2.44],[2.174,-2.693],[2.286,-3.038],[2.307,-3.038],[3.113,-2.222],[3.148,-2.215],[3.401,-2.721],[3.45,-2.862],[3.513,-2.967],[3.548,-3.059],[3.562,-3.059],[3.576,-3.108],[3.611,-3.249],[3.611,-3.446],[3.548,-3.607],[3.429,-3.755],[3.401,-3.818],[3.394,-3.839],[3.387,-3.868],[3.38,-3.882],[3.373,-3.91],[3.366,-3.973],[3.359,-4.036],[3.38,-4.064],[3.429,-4.057],[3.464,-4.036],[3.618,-3.938],[3.723,-3.903],[3.744,-3.931],[3.744,-4.008],[3.709,-4.05],[3.702,-4.114],[3.779,-4.093],[3.856,-4.093],[3.905,-4.121],[3.884,-4.121],[3.884,-4.564],[3.464,-4.986],[3.338,-5.049],[3.296,-5.049],[3.317,-4.986],[3.303,-4.972],[3.267,-4.972],[3.26,-4.958],[3.288,-4.775],[3.288,-4.508],[3.275,-4.36],[3.239,-4.353],[3.078,-4.529],[2.854,-4.908],[2.622,-5.19],[2.468,-5.19],[2.405,-5.169],[2.328,-5.077],[2.328,-5.056],[2.293,-4.901],[2.265,-4.669],[2.216,-4.522],[2.111,-4.36],[1.977,-4.226],[1.935,-4.156],[1.921,-4.156],[1.872,-4.079],[1.872,-4.057],[1.844,-4.029],[1.795,-3.91],[1.767,-3.762],[1.774,-3.628],[1.879,-3.396],[1.893,-3.326],[1.893,-3.15],[1.823,-2.904],[1.739,-2.756],[1.704,-2.735],[1.578,-2.538],[1.515,-2.475],[1.438,-2.433],[1.388,-2.215],[1.269,-1.94],[1.136,-1.744],[0.961,-1.582],[0.807,-1.497],[0.575,-1.434],[0.253,-1.413],[-0.084,-1.413],[-0.098,-1.427],[-0.315,-1.441],[-0.47,-1.476],[-0.645,-1.554],[-0.736,-1.624],[-0.911,-1.814],[-1.037,-2.011],[-1.234,-2.447],[-1.255,-2.538],[-1.29,-2.552],[-1.325,-2.623],[-1.416,-2.841],[-1.43,-2.848],[-1.479,-2.974],[-1.493,-2.981],[-1.563,-3.129],[-1.584,-3.199],[-1.598,-3.206],[-1.725,-3.509],[-1.816,-3.678],[-1.886,-3.86],[-2.054,-4.156],[-2.068,-4.212],[-2.068,-4.332],[-2.04,-4.395],[-1.956,-4.472],[-1.935,-4.529],[-1.942,-4.641],[-2.005,-4.775],[-2.019,-4.782],[-2.019,-4.803],[-2.033,-4.81],[-2.04,-4.852],[-2.223,-5.028],[-2.251,-5.077],[-2.278,-5.077],[-2.356,-5.112],[-2.461,-5.126],[-2.496,-5.148],[-2.552,-5.091],[-2.657,-4.88],[-2.755,-4.74],[-2.825,-4.606],[-2.994,-4.437],[-3.078,-4.381],[-3.12,-4.381],[-3.169,-4.254],[-3.197,-4.219],[-3.204,-4.184],[-3.232,-4.163],[-3.232,-4.142],[-3.204,-4.142],[-3.19,-4.064],[-3.176,-3.896],[-3.19,-3.72],[-3.225,-3.586],[-3.295,-3.467],[-3.295,-3.396],[-3.267,-3.249],[-3.078,-2.573],[-3.064,-2.566],[-3.064,-2.545],[-2.916,-2.257],[-2.895,-2.222],[-2.882,-2.222],[-2.166,-2.939],[-2.145,-2.939],[-2.075,-2.82],[-1.984,-2.616],[-1.97,-2.609],[-1.753,-2.13],[-1.732,-2.116],[-1.697,-2.046],[-1.626,-1.863],[-1.409,-1.455],[-1.353,-1.406],[-1.29,-1.258],[-1.129,-0.956],[-1.016,-0.829],[-1.002,-0.829],[-0.897,-0.731],[-0.645,-0.604],[-0.399,-0.548],[-0.217,-0.548],[-0.021,-0.555],[0.028,-0.569],[0.645,-0.562],[0.94,-0.618],[1.087,-0.689],[1.262,-0.829],[1.318,-0.921],[1.36,-0.963],[1.473,-1.251],[1.494,-1.272]]]]},"properties":{"abbr":"5Cb","name":"5th cerebellar lobule","plate":44,"ap_bregma_mm":-7.25,"area_mm2":10.6627,"traced_fraction":[0.906],"n_labels":3,"no_drawn_outline":false}},{"type":"Feature","geometry":{"type":"MultiPolygon","coordinates":[[[[1.886,-5.928],[1.907,-6.076],[1.893,-6.238],[1.844,-6.364],[1.76,-6.484],[1.641,-6.491],[1.557,-6.456],[1.487,-6.364],[1.466,-6.259],[1.501,-6.252],[1.501,-6.104],[1.48,-6.097],[1.494,-6.027],[1.522,-5.956],[1.592,-5.865],[1.69,-5.823],[1.823,-5.823],[1.886,-5.928]]],[[[-1.626,-5.858],[-1.619,-5.886],[-1.556,-5.963],[-1.535,-6.034],[-1.542,-6.181],[-1.598,-6.421],[-1.676,-6.505],[-1.753,-6.512],[-1.837,-6.463],[-1.9,-6.4],[-1.928,-6.315],[-1.935,-6.146],[-1.886,-5.935],[-1.844,-5.886],[-1.774,-5.844],[-1.626,-5.858]]]]},"properties":{"abbr":"5N","name":"motor trigeminal nucleus","plate":44,"ap_bregma_mm":-7.25,"area_mm2":0.4427,"traced_fraction":[0.924,1.0],"n_labels":2,"no_drawn_outline":false}},{"type":"Feature","geometry":{"type":"MultiPolygon","coordinates":[[[[-1.886,-5.935],[-1.935,-6.146],[-1.928,-6.315],[-1.9,-6.4],[-1.914,-6.4],[-1.914,-6.484],[-1.893,-6.519],[-1.844,-6.547],[-1.879,-6.604],[-1.851,-6.716],[-1.851,-6.772],[-1.865,-6.786],[-1.984,-6.772],[-1.991,-6.765],[-2.019,-6.73],[-2.047,-6.632],[-2.061,-6.625],[-2.103,-6.357],[-2.082,-6.181],[-2.005,-6.02],[-1.914,-5.935],[-1.886,-5.935]]]]},"properties":{"abbr":"5TT","name":"motor trigeminal nucleus, tensor tympani part","plate":44,"ap_bregma_mm":-7.25,"area_mm2":0.1301,"traced_fraction":[0.993],"n_labels":2,"no_drawn_outline":false}},{"type":"Feature","geometry":{"type":"MultiPolygon","coordinates":[[[[-1.935,-5.52],[-1.893,-5.577],[-1.851,-5.591],[-1.9,-5.703],[-1.935,-5.745],[-1.935,-5.766],[-1.977,-5.809],[-2.019,-5.816],[-2.138,-5.949],[-2.173,-5.956],[-2.18,-5.893],[-2.215,-5.802],[-2.244,-5.766],[-2.286,-5.745],[-2.342,-5.731],[-2.419,-5.738],[-2.496,-5.774],[-2.524,-5.774],[-2.552,-5.788],[-2.559,-5.809],[-2.622,-5.816],[-2.629,-5.766],[-2.524,-5.724],[-2.44,-5.668],[-2.342,-5.555],[-2.3,-5.555],[-2.223,-5.598],[-2.159,-5.598],[-2.096,-5.57],[-2.082,-5.534],[-1.935,-5.52]]],[[[1.9,-5.527],[1.949,-5.527],[2.076,-5.584],[2.195,-5.591],[2.209,-5.619],[2.244,-5.633],[2.335,-5.633],[2.412,-5.584],[2.489,-5.682],[2.573,-5.738],[2.636,-5.759],[2.636,-5.774],[2.573,-5.774],[2.538,-5.759],[2.398,-5.753],[2.3,-5.788],[2.272,-5.823],[2.244,-5.879],[2.223,-5.985],[2.244,-6.322],[2.258,-6.371],[2.272,-6.371],[2.23,-6.477],[2.181,-6.463],[2.174,-6.421],[2.195,-6.357],[2.195,-6.273],[2.16,-6.062],[2.097,-5.907],[2.069,-5.879],[2.019,-5.865],[1.977,-5.802],[1.949,-5.724],[1.879,-5.626],[1.858,-5.563],[1.9,-5.527]]]]},"properties":{"abbr":"5Tr","name":"trigeminal transition zone","plate":44,"ap_bregma_mm":-7.25,"area_mm2":0.3243,"traced_fraction":[0.983,0.986],"n_labels":1,"no_drawn_outline":false}},{"type":"Feature","geometry":{"type":"MultiPolygon","coordinates":[[[[1.648,-7.096],[1.725,-7.208],[1.746,-7.215],[1.844,-7.321],[1.851,-7.349],[1.977,-7.49],[1.956,-7.49],[1.956,-7.504],[1.921,-7.518],[1.893,-7.469],[1.823,-7.419],[1.739,-7.384],[1.662,-7.377],[1.648,-7.363],[1.648,-7.342],[1.55,-7.103],[1.648,-7.096]]],[[[-1.998,-7.194],[-1.64,-7.194],[-1.718,-7.363],[-1.732,-7.37],[-1.809,-7.349],[-1.879,-7.356],[-1.942,-7.384],[-2.019,-7.461],[-2.068,-7.44],[-2.117,-7.44],[-2.04,-7.293],[-2.012,-7.201],[-1.998,-7.194]]]]},"properties":{"abbr":"A5","name":"A5 noradrenaline cells","plate":44,"ap_bregma_mm":-7.25,"area_mm2":0.1272,"traced_fraction":[0.96,0.728],"n_labels":2,"no_drawn_outline":false}},{"type":"Feature","geometry":{"type":"MultiPolygon","coordinates":[[[[-1.052,-5.359],[-0.974,-5.373],[-0.925,-5.45],[-0.918,-5.605],[-0.932,-5.633],[-0.932,-5.696],[-0.953,-5.717],[-0.974,-5.717],[-0.995,-5.689],[-1.115,-5.626],[-1.143,-5.598],[-1.129,-5.57],[-1.122,-5.443],[-1.087,-5.359],[-1.052,-5.359]]],[[[1.024,-5.422],[1.066,-5.429],[1.073,-5.45],[1.066,-5.506],[1.122,-5.52],[1.115,-5.605],[1.066,-5.619],[1.059,-5.64],[0.989,-5.689],[0.891,-5.724],[0.884,-5.584],[0.912,-5.492],[0.975,-5.429],[1.024,-5.422]]]]},"properties":{"abbr":"Bar","name":"Barrington’s nucleus","plate":44,"ap_bregma_mm":-7.25,"area_mm2":0.106,"traced_fraction":[0.986,0.985],"n_labels":2,"no_drawn_outline":false}},{"type":"Feature","geometry":{"type":"MultiPolygon","coordinates":[[[[-0.477,-5.612],[-0.322,-5.675],[-0.364,-5.788],[-0.378,-5.795],[-0.392,-5.872],[-0.449,-5.9],[-0.498,-5.907],[-0.673,-5.83],[-0.638,-5.738],[-0.582,-5.661],[-0.54,-5.626],[-0.477,-5.612]]],[[[0.442,-5.612],[0.512,-5.626],[0.561,-5.654],[0.617,-5.717],[0.659,-5.83],[0.463,-5.9],[0.379,-5.872],[0.358,-5.766],[0.295,-5.682],[0.358,-5.654],[0.372,-5.633],[0.442,-5.612]]]]},"properties":{"abbr":"CGB","name":"central gray, beta part","plate":44,"ap_bregma_mm":-7.25,"area_mm2":0.1344,"traced_fraction":[0.986,1.0],"n_labels":1,"no_drawn_outline":false}},{"type":"Feature","geometry":{"type":"MultiPolygon","coordinates":[[[[-2.545,-1.462],[-2.552,-1.511],[-2.545,-1.533],[-2.524,-1.533],[-2.524,-1.554],[-2.545,-1.568],[-2.566,-1.638],[-2.643,-1.793],[-2.657,-1.8],[-2.783,-2.046],[-2.825,-2.095],[-2.882,-2.222],[-2.895,-2.222],[-2.916,-2.257],[-3.064,-2.545],[-3.064,-2.566],[-3.078,-2.573],[-3.267,-3.249],[-3.295,-3.249],[-3.379,-3.34],[-3.407,-3.354],[-3.484,-3.34],[-3.569,-3.249],[-3.639,-3.087],[-3.709,-2.805],[-3.73,-2.588],[-3.723,-2.419],[-3.688,-2.243],[-3.611,-2.004],[-3.505,-1.786],[-3.414,-1.659],[-3.379,-1.638],[-3.33,-1.575],[-3.288,-1.554],[-3.281,-1.533],[-3.05,-1.378],[-2.846,-1.293],[-2.713,-1.293],[-2.615,-1.343],[-2.573,-1.392],[-2.545,-1.462]]],[[[3.604,-3.073],[3.562,-3.059],[3.548,-3.059],[3.548,-3.038],[3.45,-2.862],[3.401,-2.721],[3.148,-2.215],[3.029,-2.011],[2.756,-1.68],[2.629,-1.434],[2.665,-1.42],[2.665,-1.392],[2.714,-1.371],[2.714,-1.357],[2.756,-1.329],[2.882,-1.293],[3.022,-1.293],[3.197,-1.336],[3.331,-1.392],[3.366,-1.42],[3.506,-1.476],[3.548,-1.518],[3.667,-1.596],[3.828,-1.758],[3.969,-1.976],[4.025,-2.144],[4.039,-2.278],[4.025,-2.665],[3.983,-2.82],[3.92,-2.946],[3.856,-3.009],[3.737,-3.066],[3.681,-3.08],[3.604,-3.073]]]]},"properties":{"abbr":"Crus1","name":"crus 1 of the ansiform lobule","plate":44,"ap_bregma_mm":-7.25,"area_mm2":2.6572,"traced_fraction":[1.0,1.0],"n_labels":2,"no_drawn_outline":false}},{"type":"Feature","geometry":{"type":"MultiPolygon","coordinates":[[[[1.648,-7.342],[1.648,-7.363],[1.641,-7.384],[1.494,-7.461],[1.494,-7.476],[1.438,-7.525],[1.43,-7.56],[1.374,-7.602],[1.29,-7.602],[1.283,-7.342],[1.648,-7.342]]],[[[-1.718,-7.363],[-1.451,-7.37],[-1.451,-7.616],[-1.472,-7.616],[-1.479,-7.63],[-1.535,-7.616],[-1.563,-7.553],[-1.676,-7.448],[-1.676,-7.433],[-1.711,-7.412],[-1.732,-7.37],[-1.718,-7.363]]]]},"properties":{"abbr":"DLPO","name":"dorsolateral periolivary nucleus","plate":44,"ap_bregma_mm":-7.25,"area_mm2":0.1037,"traced_fraction":[0.453,0.518],"n_labels":2,"no_drawn_outline":true}},{"type":"Feature","geometry":{"type":"MultiPolygon","coordinates":[[[[0.891,-5.745],[0.898,-5.766],[0.954,-5.795],[0.926,-5.823],[0.947,-5.935],[1.157,-6.357],[1.157,-6.393],[0.947,-6.28],[0.862,-6.252],[0.771,-6.245],[0.701,-6.259],[0.631,-6.336],[0.603,-6.343],[0.512,-6.435],[0.442,-6.625],[0.428,-6.737],[0.379,-6.786],[0.218,-6.786],[0.126,-6.737],[0.049,-6.737],[-0.007,-6.786],[-0.007,-6.892],[-0.028,-6.899],[-0.056,-6.892],[-0.056,-6.814],[-0.084,-6.779],[-0.126,-6.758],[-0.259,-6.758],[-0.315,-6.779],[-0.343,-6.807],[-0.449,-6.709],[-0.519,-6.596],[-0.589,-6.526],[-0.694,-6.463],[-0.883,-6.414],[-1.037,-6.414],[-1.234,-6.442],[-1.241,-6.428],[-1.03,-6.013],[-0.946,-6.013],[-0.946,-5.837],[-0.918,-5.766],[-0.841,-5.766],[-0.673,-5.83],[-0.498,-5.907],[-0.498,-5.999],[-0.392,-6.224],[-0.35,-6.28],[-0.259,-6.322],[-0.203,-6.322],[-0.189,-6.301],[-0.161,-6.048],[-0.168,-5.978],[-0.105,-5.985],[-0.07,-6.006],[-0.014,-6.006],[0.091,-5.956],[0.091,-6.252],[0.112,-6.308],[0.175,-6.308],[0.281,-6.252],[0.337,-6.203],[0.4,-6.097],[0.463,-5.9],[0.659,-5.83],[0.891,-5.745]]]]},"properties":{"abbr":"DMTg","name":"dorsomedial tegmental area","plate":44,"ap_bregma_mm":-7.25,"area_mm2":1.2332,"traced_fraction":[0.918],"n_labels":2,"no_drawn_outline":false}},{"type":"Feature","geometry":{"type":"MultiPolygon","coordinates":[[[[0.105,-5.351],[0.028,-5.436],[0.007,-5.485],[0.007,-5.675],[0.007,-5.816],[-0.007,-5.893],[-0.028,-5.942],[-0.056,-5.935],[-0.084,-5.457],[-0.091,-5.422],[-0.126,-5.429],[-0.14,-5.422],[-0.14,-5.359],[-0.105,-5.33],[-0.056,-5.345],[0.091,-5.33],[0.105,-5.351]]]]},"properties":{"abbr":"DRC","name":"dorsal raphe nucleus, caudal part","plate":44,"ap_bregma_mm":-7.25,"area_mm2":0.058,"traced_fraction":[1.0],"n_labels":1,"no_drawn_outline":false}},{"type":"Feature","geometry":{"type":"MultiPolygon","coordinates":[[[[-0.14,-5.359],[-0.147,-5.387],[-0.14,-5.422],[-0.126,-5.429],[-0.112,-5.534],[-0.154,-5.619],[-0.189,-5.661],[-0.322,-5.675],[-0.477,-5.612],[-0.526,-5.499],[-0.526,-5.38],[-0.505,-5.33],[-0.463,-5.281],[-0.42,-5.267],[-0.336,-5.267],[-0.28,-5.295],[-0.217,-5.302],[-0.14,-5.359]]],[[[0.358,-5.288],[0.421,-5.316],[0.477,-5.387],[0.484,-5.492],[0.442,-5.612],[0.372,-5.633],[0.358,-5.654],[0.295,-5.682],[0.133,-5.661],[0.091,-5.563],[0.084,-5.485],[0.119,-5.401],[0.133,-5.401],[0.147,-5.373],[0.197,-5.338],[0.281,-5.295],[0.358,-5.288]]]]},"properties":{"abbr":"DTg","name":"dorsal tegmental nucleus","plate":44,"ap_bregma_mm":-7.25,"area_mm2":0.2555,"traced_fraction":[0.99,1.0],"n_labels":1,"no_drawn_outline":false}},{"type":"Feature","geometry":{"type":"MultiPolygon","coordinates":[[[[1.438,-2.433],[1.487,-2.454],[1.578,-2.538],[1.704,-2.735],[1.697,-2.791],[1.711,-2.813],[1.711,-2.925],[1.69,-3.024],[1.62,-3.178],[1.536,-3.242],[1.43,-3.235],[1.332,-3.178],[1.213,-3.059],[1.122,-2.918],[1.08,-2.897],[0.975,-2.7],[0.954,-2.616],[0.989,-2.616],[1.136,-2.665],[1.241,-2.665],[1.29,-2.651],[1.339,-2.623],[1.381,-2.573],[1.438,-2.433]]]]},"properties":{"abbr":"ECIC","name":"external cortex of the inferior colliculus","plate":44,"ap_bregma_mm":-7.25,"area_mm2":0.3516,"traced_fraction":[1.0],"n_labels":1,"no_drawn_outline":false}},{"type":"Feature","geometry":{"type":"MultiPolygon","coordinates":[[[[-3.548,-3.889],[-3.456,-3.952],[-3.309,-4.086],[-3.274,-4.1],[-3.274,-4.114],[-3.232,-4.142],[-3.232,-4.163],[-3.204,-4.184],[-3.204,-4.205],[-3.169,-4.254],[-3.12,-4.381],[-3.127,-4.451],[-3.113,-4.655],[-3.134,-4.775],[-3.134,-4.901],[-3.05,-5.112],[-3.19,-5.098],[-3.232,-5.141],[-3.204,-5.19],[-3.134,-5.204],[-3.071,-5.253],[-3.008,-5.351],[-2.994,-5.429],[-3.001,-5.506],[-3.029,-5.584],[-3.106,-5.654],[-3.155,-5.675],[-3.19,-5.724],[-3.197,-5.724],[-3.26,-5.717],[-3.358,-5.753],[-3.45,-5.753],[-3.527,-5.71],[-3.548,-5.661],[-3.548,-5.506],[-3.569,-5.499],[-3.59,-5.57],[-3.59,-5.717],[-3.604,-5.717],[-3.653,-5.781],[-3.744,-5.83],[-3.912,-5.844],[-4.13,-5.795],[-4.361,-5.675],[-4.48,-5.563],[-4.529,-5.464],[-4.543,-5.464],[-4.599,-5.366],[-4.599,-5.281],[-4.536,-5.169],[-4.564,-5.119],[-4.473,-5.035],[-4.424,-5.0],[-4.403,-5.0],[-4.382,-4.972],[-4.326,-4.951],[-4.312,-4.93],[-4.2,-4.88],[-4.045,-4.852],[-3.975,-4.733],[-3.975,-4.711],[-3.954,-4.698],[-3.926,-4.62],[-3.828,-4.472],[-3.814,-4.472],[-3.695,-4.339],[-3.632,-4.304],[-3.646,-4.275],[-3.639,-4.093],[-3.583,-3.917],[-3.548,-3.889]]],[[[3.905,-4.121],[3.983,-4.163],[3.983,-4.177],[3.997,-4.177],[4.06,-4.24],[4.151,-4.437],[4.207,-4.606],[4.228,-4.62],[4.235,-4.655],[4.277,-4.711],[4.452,-4.901],[4.466,-4.901],[4.572,-5.014],[4.586,-5.014],[4.544,-5.063],[4.614,-5.176],[4.614,-5.295],[4.558,-5.366],[4.536,-5.415],[4.481,-5.457],[4.431,-5.52],[4.326,-5.591],[4.179,-5.633],[4.039,-5.633],[3.962,-5.591],[3.884,-5.457],[3.842,-5.436],[3.821,-5.415],[3.667,-5.415],[3.59,-5.33],[3.499,-5.295],[3.464,-5.267],[3.211,-5.267],[3.296,-5.049],[3.338,-5.049],[3.464,-4.986],[3.884,-4.564],[3.884,-4.121],[3.905,-4.121]]]]},"properties":{"abbr":"Fl","name":"flocculus","plate":44,"ap_bregma_mm":-7.25,"area_mm2":2.7944,"traced_fraction":[0.859,0.407],"n_labels":2,"no_drawn_outline":false}},{"type":"Feature","geometry":{"type":"MultiPolygon","coordinates":[[[[-2.251,-5.077],[-2.265,-5.126],[-2.328,-5.211],[-2.342,-5.302],[-2.363,-5.323],[-2.363,-5.366],[-2.349,-5.38],[-2.342,-5.555],[-2.44,-5.668],[-2.524,-5.724],[-2.629,-5.766],[-2.706,-5.753],[-2.797,-5.781],[-2.825,-5.717],[-2.874,-5.689],[-2.987,-5.696],[-3.113,-5.745],[-3.155,-5.745],[-3.19,-5.724],[-3.155,-5.675],[-3.106,-5.654],[-3.029,-5.584],[-3.001,-5.506],[-2.994,-5.429],[-3.008,-5.351],[-3.071,-5.253],[-3.134,-5.204],[-3.204,-5.19],[-3.232,-5.141],[-3.19,-5.098],[-3.05,-5.112],[-2.931,-5.232],[-2.889,-5.309],[-2.846,-5.45],[-2.825,-5.612],[-2.804,-5.675],[-2.755,-5.717],[-2.706,-5.717],[-2.559,-5.654],[-2.468,-5.591],[-2.412,-5.513],[-2.405,-5.457],[-2.482,-5.281],[-2.496,-5.148],[-2.461,-5.126],[-2.356,-5.112],[-2.278,-5.077],[-2.251,-5.077]]],[[[3.211,-5.267],[3.464,-5.267],[3.471,-5.281],[3.59,-5.33],[3.667,-5.415],[3.821,-5.415],[3.842,-5.436],[3.898,-5.612],[3.863,-5.661],[3.821,-5.689],[3.632,-5.731],[3.52,-5.717],[3.499,-5.738],[3.45,-5.717],[3.436,-5.689],[3.401,-5.682],[3.338,-5.64],[3.31,-5.605],[3.233,-5.563],[3.176,-5.485],[3.169,-5.387],[3.211,-5.267]]]]},"properties":{"abbr":"GrC","name":"granule cell layer of cochlear nuclei","plate":44,"ap_bregma_mm":-7.25,"area_mm2":0.4427,"traced_fraction":[1.0,0.693],"n_labels":2,"no_drawn_outline":false}},{"type":"Feature","geometry":{"type":"MultiPolygon","coordinates":[[[[2.321,-5.288],[2.349,-5.295],[2.384,-5.33],[2.419,-5.415],[2.44,-5.422],[2.412,-5.584],[2.335,-5.633],[2.244,-5.633],[2.209,-5.619],[2.195,-5.591],[2.237,-5.541],[2.265,-5.401],[2.307,-5.366],[2.321,-5.288]]]]},"properties":{"abbr":"KF","name":"Kölliker–Fuse nucleus","plate":44,"ap_bregma_mm":-7.25,"area_mm2":0.0504,"traced_fraction":[0.985],"n_labels":1,"no_drawn_outline":false}},{"type":"Feature","geometry":{"type":"MultiPolygon","coordinates":[[[[0.933,-5.155],[0.975,-5.345],[1.024,-5.422],[0.975,-5.429],[0.912,-5.492],[0.884,-5.584],[0.891,-5.724],[0.891,-5.745],[0.659,-5.83],[0.603,-5.696],[0.54,-5.64],[0.442,-5.612],[0.484,-5.492],[0.477,-5.387],[0.421,-5.316],[0.358,-5.288],[0.379,-5.253],[0.442,-5.218],[0.624,-5.162],[0.736,-5.141],[0.933,-5.155]]],[[[-0.463,-5.281],[-0.505,-5.33],[-0.526,-5.38],[-0.526,-5.499],[-0.477,-5.612],[-0.54,-5.626],[-0.582,-5.661],[-0.638,-5.738],[-0.673,-5.83],[-0.841,-5.766],[-0.918,-5.766],[-0.946,-5.738],[-0.953,-5.717],[-0.932,-5.696],[-0.932,-5.633],[-0.918,-5.605],[-0.925,-5.45],[-0.974,-5.373],[-1.052,-5.359],[-0.995,-5.253],[-0.911,-5.253],[-0.911,-5.204],[-0.848,-5.19],[-0.659,-5.197],[-0.547,-5.225],[-0.463,-5.281]]]]},"properties":{"abbr":"LDTg","name":"laterodorsal tegmental nucleus","plate":44,"ap_bregma_mm":-7.25,"area_mm2":0.519,"traced_fraction":[1.0,0.961],"n_labels":2,"no_drawn_outline":false}},{"type":"Feature","geometry":{"type":"MultiPolygon","coordinates":[[[[-1.984,-7.771],[-1.949,-7.799],[-1.928,-7.799],[-1.893,-7.855],[-1.879,-7.855],[-1.816,-7.94],[-1.802,-7.94],[-1.788,-7.975],[-1.774,-7.975],[-1.774,-7.989],[-1.711,-8.045],[-1.662,-8.123],[-1.591,-8.172],[-1.542,-8.256],[-1.528,-8.313],[-1.556,-8.32],[-1.647,-8.27],[-1.816,-8.277],[-1.823,-8.299],[-1.893,-8.207],[-1.963,-8.144],[-1.991,-8.095],[-1.907,-8.031],[-1.956,-7.982],[-2.033,-7.855],[-2.033,-7.792],[-1.984,-7.771]]]]},"properties":{"abbr":"LNTB","name":"lateral nucleus of the trapezoid body","plate":44,"ap_bregma_mm":-7.25,"area_mm2":0.1148,"traced_fraction":[0.93],"n_labels":1,"no_drawn_outline":false}},{"type":"Feature","geometry":{"type":"MultiPolygon","coordinates":[[[[-1.213,-4.796],[-1.283,-4.866],[-1.416,-4.944],[-1.655,-5.007],[-1.823,-5.091],[-1.921,-5.183],[-1.991,-5.288],[-1.998,-5.323],[-2.068,-5.415],[-2.117,-5.443],[-2.173,-5.45],[-2.223,-5.38],[-2.223,-5.288],[-2.201,-5.211],[-2.173,-5.197],[-2.124,-5.126],[-1.991,-5.0],[-1.935,-4.972],[-1.83,-4.887],[-1.683,-4.824],[-1.655,-4.789],[-1.64,-4.789],[-1.514,-4.761],[-1.486,-4.74],[-1.241,-4.704],[-1.213,-4.726],[-1.213,-4.796]]],[[[1.641,-4.838],[1.879,-4.93],[2.069,-5.035],[2.174,-5.134],[2.188,-5.134],[2.279,-5.253],[2.293,-5.253],[2.321,-5.288],[2.314,-5.351],[2.265,-5.401],[2.132,-5.373],[2.048,-5.316],[2.006,-5.239],[1.872,-5.141],[1.69,-5.063],[1.367,-4.972],[1.29,-4.923],[1.255,-4.88],[1.276,-4.824],[1.304,-4.796],[1.332,-4.789],[1.641,-4.838]]]]},"properties":{"abbr":"LPBC","name":"lateral parabrachial nucleus, central part","plate":44,"ap_bregma_mm":-7.25,"area_mm2":0.4426,"traced_fraction":[1.0,1.0],"n_labels":2,"no_drawn_outline":false}},{"type":"Feature","geometry":{"type":"MultiPolygon","coordinates":[[[[-1.549,-4.669],[-1.556,-4.698],[-1.626,-4.754],[-1.64,-4.789],[-1.655,-4.789],[-1.683,-4.824],[-1.795,-4.866],[-1.991,-5.0],[-2.026,-4.958],[-2.04,-4.958],[-2.173,-5.098],[-2.236,-5.218],[-2.251,-5.218],[-2.257,-5.246],[-2.278,-5.26],[-2.286,-5.295],[-2.342,-5.302],[-2.328,-5.211],[-2.265,-5.126],[-2.251,-5.077],[-2.223,-5.028],[-2.04,-4.852],[-2.005,-4.845],[-1.991,-4.88],[-1.963,-4.887],[-1.795,-4.782],[-1.774,-4.754],[-1.613,-4.676],[-1.549,-4.669]]],[[[1.501,-4.669],[1.592,-4.683],[1.963,-4.831],[1.97,-4.845],[2.188,-4.958],[2.286,-5.049],[2.328,-5.056],[2.328,-5.077],[2.405,-5.169],[2.468,-5.19],[2.454,-5.239],[2.482,-5.288],[2.482,-5.338],[2.419,-5.323],[2.377,-5.288],[2.3,-5.176],[2.286,-5.176],[2.237,-5.112],[2.195,-5.098],[2.153,-5.07],[2.153,-5.056],[2.09,-5.014],[2.069,-5.014],[2.012,-4.965],[1.956,-4.951],[1.697,-4.796],[1.613,-4.775],[1.529,-4.726],[1.501,-4.698],[1.501,-4.669]]]]},"properties":{"abbr":"LPBCr","name":"lateral parabrachial nucleus, crescent part","plate":44,"ap_bregma_mm":-7.25,"area_mm2":0.1843,"traced_fraction":[1.0,1.0],"n_labels":2,"no_drawn_outline":false}},{"type":"Feature","geometry":{"type":"MultiPolygon","coordinates":[[[[-1.101,-4.634],[-0.939,-4.719],[-0.512,-4.768],[-0.456,-4.803],[-0.477,-4.824],[-0.666,-4.824],[-0.869,-4.852],[-0.89,-4.859],[-0.939,-4.923],[-0.974,-4.901],[-1.03,-4.901],[-1.024,-4.817],[-1.079,-4.775],[-1.108,-4.733],[-1.178,-4.69],[-1.164,-4.655],[-1.178,-4.627],[-1.15,-4.641],[-1.101,-4.634]]],[[[1.501,-4.669],[1.501,-4.698],[1.529,-4.726],[1.613,-4.775],[1.641,-4.838],[1.332,-4.789],[1.304,-4.796],[1.276,-4.824],[1.255,-4.88],[1.164,-4.88],[1.129,-4.908],[1.066,-4.923],[1.052,-4.923],[1.024,-4.88],[1.129,-4.726],[1.157,-4.698],[1.234,-4.669],[1.402,-4.676],[1.423,-4.669],[1.423,-4.655],[1.451,-4.669],[1.501,-4.669]]]]},"properties":{"abbr":"LPBI","name":"lateral parabrachial nucleus, internal part","plate":44,"ap_bregma_mm":-7.25,"area_mm2":0.1567,"traced_fraction":[1.0,1.0],"n_labels":2,"no_drawn_outline":false}},{"type":"Feature","geometry":{"type":"MultiPolygon","coordinates":[[[[1.606,-7.708],[1.781,-7.778],[1.704,-7.855],[1.634,-7.954],[1.585,-7.954],[1.578,-7.919],[1.599,-7.855],[1.592,-7.729],[1.606,-7.708]]]]},"properties":{"abbr":"LVPO","name":"lateroventral periolivary nucleus","plate":44,"ap_bregma_mm":-7.25,"area_mm2":0.0264,"traced_fraction":[0.99],"n_labels":2,"no_drawn_outline":false}},{"type":"Feature","geometry":{"type":"MultiPolygon","coordinates":[[[[1.052,-7.848],[1.073,-7.876],[1.08,-7.94],[1.066,-8.102],[1.045,-8.214],[0.968,-8.432],[0.961,-8.432],[0.933,-8.425],[0.828,-8.313],[0.687,-8.27],[0.666,-8.249],[0.659,-8.186],[0.645,-8.179],[0.631,-8.116],[0.603,-7.996],[0.666,-7.94],[0.898,-7.884],[0.954,-7.884],[1.052,-7.848]]],[[[-1.052,-7.933],[-0.974,-7.947],[-0.792,-7.933],[-0.722,-7.94],[-0.554,-8.003],[-0.519,-8.052],[-0.519,-8.116],[-0.526,-8.214],[-0.47,-8.306],[-0.47,-8.369],[-0.491,-8.397],[-0.561,-8.418],[-0.792,-8.418],[-0.876,-8.453],[-0.883,-8.453],[-0.96,-8.376],[-1.037,-8.2],[-1.052,-8.102],[-1.079,-8.031],[-1.079,-7.961],[-1.052,-7.933]]]]},"properties":{"abbr":"MNTB","name":"medial nucleus of the trapezoid body","plate":44,"ap_bregma_mm":-7.25,"area_mm2":0.4254,"traced_fraction":[0.988,1.0],"n_labels":2,"no_drawn_outline":false}},{"type":"Feature","geometry":{"type":"MultiPolygon","coordinates":[[[[2.048,-5.316],[2.132,-5.373],[2.265,-5.401],[2.237,-5.541],[2.195,-5.591],[2.076,-5.584],[1.949,-5.527],[1.9,-5.527],[1.879,-5.492],[1.837,-5.464],[1.83,-5.408],[1.935,-5.387],[1.942,-5.373],[2.012,-5.351],[2.048,-5.316]]],[[[-1.998,-5.323],[-1.956,-5.351],[-1.851,-5.366],[-1.753,-5.359],[-1.76,-5.394],[-1.802,-5.436],[-1.893,-5.506],[-1.935,-5.52],[-2.082,-5.534],[-2.145,-5.506],[-2.166,-5.485],[-2.173,-5.45],[-2.138,-5.45],[-2.068,-5.415],[-1.998,-5.323]]]]},"properties":{"abbr":"MPBE","name":"medial parabrachial nucleus, external part","plate":44,"ap_bregma_mm":-7.25,"area_mm2":0.1242,"traced_fraction":[0.976,1.0],"n_labels":2,"no_drawn_outline":false}},{"type":"Feature","geometry":{"type":"MultiPolygon","coordinates":[[[[1.522,-7.553],[1.564,-7.623],[1.571,-7.665],[1.606,-7.694],[1.606,-7.708],[1.592,-7.729],[1.599,-7.855],[1.578,-7.919],[1.585,-7.954],[1.571,-7.954],[1.564,-8.045],[1.55,-8.052],[1.501,-8.158],[1.508,-8.179],[1.487,-8.179],[1.487,-8.193],[1.423,-8.242],[1.346,-8.27],[1.283,-8.242],[1.234,-8.2],[1.213,-8.123],[1.22,-7.982],[1.276,-7.743],[1.276,-7.729],[1.374,-7.602],[1.43,-7.56],[1.522,-7.553]]],[[[-1.535,-7.616],[-1.479,-7.63],[-1.479,-7.644],[-1.388,-7.722],[-1.374,-7.75],[-1.367,-7.792],[-1.332,-7.848],[-1.318,-7.848],[-1.311,-7.884],[-1.297,-7.891],[-1.241,-8.123],[-1.241,-8.32],[-1.255,-8.362],[-1.339,-8.425],[-1.374,-8.425],[-1.465,-8.39],[-1.528,-8.313],[-1.542,-8.256],[-1.591,-8.172],[-1.598,-8.109],[-1.69,-7.869],[-1.704,-7.771],[-1.697,-7.722],[-1.64,-7.623],[-1.619,-7.609],[-1.535,-7.616]]]]},"properties":{"abbr":"MSO","name":"medial superior olive","plate":44,"ap_bregma_mm":-7.25,"area_mm2":0.4532,"traced_fraction":[0.966,1.0],"n_labels":1,"no_drawn_outline":false}},{"type":"Feature","geometry":{"type":"MultiPolygon","coordinates":[[[[1.269,-7.729],[1.276,-7.743],[1.227,-7.94],[1.213,-8.123],[1.234,-8.2],[1.283,-8.242],[1.346,-8.27],[1.318,-8.306],[1.255,-8.341],[0.968,-8.432],[1.045,-8.214],[1.066,-8.102],[1.08,-7.94],[1.073,-7.876],[1.052,-7.848],[1.129,-7.785],[1.234,-7.743],[1.241,-7.729],[1.269,-7.729]]],[[[-1.052,-7.933],[-1.079,-7.961],[-1.079,-8.031],[-1.052,-8.102],[-1.037,-8.2],[-0.96,-8.376],[-0.883,-8.453],[-0.967,-8.495],[-1.087,-8.502],[-1.262,-8.474],[-1.332,-8.446],[-1.339,-8.425],[-1.255,-8.362],[-1.241,-8.32],[-1.241,-8.123],[-1.297,-7.891],[-1.311,-7.884],[-1.318,-7.848],[-1.297,-7.841],[-1.276,-7.806],[-1.234,-7.799],[-1.129,-7.862],[-1.052,-7.933]]]]},"properties":{"abbr":"MVPO","name":"medioventral periolivary nucleus","plate":44,"ap_bregma_mm":-7.25,"area_mm2":0.2816,"traced_fraction":[0.967,0.979],"n_labels":2,"no_drawn_outline":false}},{"type":"Feature","geometry":{"type":"MultiPolygon","coordinates":[[[[1.024,-4.88],[1.024,-4.894],[1.066,-4.923],[1.129,-5.07],[1.164,-5.197],[1.164,-5.323],[1.143,-5.436],[1.073,-5.45],[1.066,-5.429],[1.073,-5.366],[1.038,-5.148],[0.996,-5.042],[0.954,-5.014],[0.933,-5.035],[0.933,-5.155],[0.736,-5.141],[0.624,-5.162],[0.442,-5.218],[0.379,-5.253],[0.358,-5.288],[0.281,-5.295],[0.197,-5.338],[0.19,-5.316],[0.161,-5.309],[0.105,-5.351],[0.091,-5.33],[0.014,-5.345],[-0.105,-5.33],[-0.14,-5.359],[-0.217,-5.302],[-0.28,-5.295],[-0.336,-5.267],[-0.42,-5.267],[-0.463,-5.281],[-0.547,-5.225],[-0.659,-5.197],[-0.848,-5.19],[-0.911,-5.204],[-0.981,-5.211],[-0.967,-5.084],[-0.988,-5.049],[-1.002,-5.049],[-1.037,-5.126],[-1.058,-5.253],[-1.079,-5.302],[-1.143,-5.274],[-1.199,-5.204],[-1.199,-5.141],[-1.136,-4.993],[-1.066,-4.937],[-1.045,-4.901],[-1.03,-4.901],[-0.974,-4.901],[-0.939,-4.923],[-0.897,-4.965],[-0.883,-5.0],[-0.82,-5.035],[-0.603,-5.098],[-0.407,-5.119],[-0.287,-5.148],[-0.154,-5.218],[-0.091,-5.274],[0.0,-5.309],[0.077,-5.288],[0.175,-5.19],[0.288,-5.126],[0.561,-5.084],[0.792,-5.021],[0.884,-4.972],[0.912,-4.915],[0.954,-4.88],[1.024,-4.88]]]]},"properties":{"abbr":"Me5","name":"mesencephalic trigeminal nucleus","plate":44,"ap_bregma_mm":-7.25,"area_mm2":0.3661,"traced_fraction":[0.998],"n_labels":2,"no_drawn_outline":false}},{"type":"Feature","geometry":{"type":"MultiPolygon","coordinates":[[[[-1.437,-5.837],[-1.388,-5.893],[-1.367,-5.978],[-1.367,-6.196],[-1.395,-6.336],[-1.458,-6.491],[-1.535,-6.568],[-1.619,-6.604],[-1.739,-6.596],[-1.844,-6.547],[-1.893,-6.519],[-1.914,-6.484],[-1.914,-6.4],[-1.9,-6.4],[-1.837,-6.463],[-1.753,-6.512],[-1.676,-6.505],[-1.598,-6.421],[-1.542,-6.181],[-1.535,-6.034],[-1.556,-5.963],[-1.619,-5.886],[-1.626,-5.858],[-1.437,-5.837]]],[[[1.43,-5.858],[1.592,-5.865],[1.522,-5.956],[1.494,-6.027],[1.48,-6.097],[1.501,-6.104],[1.501,-6.252],[1.466,-6.259],[1.346,-6.287],[1.318,-6.245],[1.318,-6.104],[1.339,-6.083],[1.346,-6.034],[1.409,-6.034],[1.409,-5.9],[1.43,-5.858]]]]},"properties":{"abbr":"P5","name":"peritrigeminal zone","plate":44,"ap_bregma_mm":-7.25,"area_mm2":0.2185,"traced_fraction":[0.986,0.647],"n_labels":2,"no_drawn_outline":false}},{"type":"Feature","geometry":{"type":"MultiPolygon","coordinates":[[[[-3.548,-3.889],[-3.583,-3.917],[-3.639,-4.093],[-3.646,-4.275],[-3.632,-4.304],[-3.695,-4.339],[-3.793,-4.437],[-3.793,-4.451],[-3.828,-4.472],[-3.926,-4.62],[-3.954,-4.698],[-3.975,-4.711],[-3.975,-4.733],[-4.045,-4.852],[-4.2,-4.88],[-4.312,-4.93],[-4.326,-4.951],[-4.382,-4.972],[-4.403,-5.0],[-4.445,-5.014],[-4.564,-5.119],[-4.599,-5.07],[-4.676,-5.077],[-4.753,-5.014],[-4.922,-4.676],[-4.978,-4.536],[-5.02,-4.374],[-5.02,-4.191],[-4.985,-4.064],[-4.901,-3.917],[-4.796,-3.804],[-4.782,-3.804],[-4.641,-3.671],[-4.487,-3.551],[-4.298,-3.439],[-4.228,-3.417],[-4.207,-3.396],[-4.151,-3.382],[-4.073,-3.34],[-4.01,-3.326],[-3.863,-3.326],[-3.8,-3.347],[-3.716,-3.403],[-3.667,-3.46],[-3.639,-3.502],[-3.653,-3.628],[-3.639,-3.748],[-3.576,-3.868],[-3.548,-3.889]]],[[[4.635,-3.431],[4.796,-3.516],[4.866,-3.572],[4.936,-3.607],[4.957,-3.635],[5.07,-3.699],[5.294,-3.917],[5.378,-4.064],[5.413,-4.205],[5.413,-4.36],[5.385,-4.409],[5.273,-4.508],[5.252,-4.55],[5.238,-4.55],[5.175,-4.655],[5.161,-4.683],[5.154,-4.698],[5.147,-4.711],[5.14,-4.726],[5.125,-4.726],[5.133,-4.74],[5.055,-4.894],[4.978,-4.972],[4.866,-5.028],[4.705,-5.021],[4.635,-4.979],[4.586,-5.014],[4.572,-5.014],[4.466,-4.901],[4.452,-4.901],[4.277,-4.711],[4.235,-4.655],[4.228,-4.62],[4.207,-4.606],[4.151,-4.437],[4.06,-4.24],[3.997,-4.177],[3.983,-4.177],[3.983,-4.163],[3.905,-4.121],[3.856,-4.093],[3.779,-4.093],[3.702,-4.114],[3.709,-4.05],[3.744,-4.008],[3.744,-3.931],[3.723,-3.903],[3.983,-3.692],[4.025,-3.671],[4.102,-3.586],[4.109,-3.593],[4.109,-3.579],[4.144,-3.544],[4.158,-3.523],[4.165,-3.53],[4.179,-3.516],[4.172,-3.509],[4.277,-3.389],[4.368,-3.347],[4.466,-3.347],[4.635,-3.431]]]]},"properties":{"abbr":"PFl","name":"paraflocculus","plate":44,"ap_bregma_mm":-7.25,"area_mm2":3.4722,"traced_fraction":[0.817,0.805],"n_labels":2,"no_drawn_outline":false}},{"type":"Feature","geometry":{"type":"MultiPolygon","coordinates":[[[[1.157,-6.393],[1.22,-6.47],[1.55,-7.103],[1.648,-7.342],[1.283,-7.342],[1.29,-7.602],[1.129,-7.665],[1.031,-7.722],[0.933,-7.799],[0.898,-7.848],[0.898,-7.884],[0.666,-7.94],[0.603,-7.996],[0.463,-7.919],[0.393,-7.905],[0.288,-7.912],[0.182,-7.94],[0.147,-7.785],[0.126,-7.743],[0.07,-7.687],[0.035,-7.665],[-0.014,-7.665],[-0.063,-7.701],[-0.154,-7.609],[-0.161,-7.3],[-0.238,-7.229],[-0.091,-6.997],[-0.056,-6.892],[-0.028,-6.899],[-0.007,-6.899],[0.028,-7.004],[0.119,-7.103],[0.211,-7.152],[0.267,-7.145],[0.295,-7.11],[0.302,-6.99],[0.218,-6.786],[0.379,-6.786],[0.428,-6.737],[0.442,-6.625],[0.512,-6.435],[0.603,-6.343],[0.631,-6.336],[0.701,-6.259],[0.771,-6.245],[0.862,-6.252],[0.947,-6.28],[1.157,-6.393]]],[[[-0.343,-6.807],[-0.364,-6.829],[-0.386,-6.913],[-0.386,-7.173],[-0.371,-7.236],[-0.35,-7.265],[-0.386,-7.293],[-0.785,-7.293],[-0.785,-7.56],[-1.024,-7.792],[-1.136,-7.715],[-1.269,-7.659],[-1.374,-7.623],[-1.451,-7.616],[-1.451,-7.37],[-1.718,-7.363],[-1.64,-7.194],[-1.549,-6.997],[-1.507,-6.955],[-1.451,-6.955],[-1.451,-6.807],[-1.29,-6.505],[-1.255,-6.449],[-1.248,-6.442],[-1.234,-6.442],[-1.037,-6.414],[-0.883,-6.414],[-0.694,-6.463],[-0.589,-6.526],[-0.519,-6.596],[-0.449,-6.709],[-0.343,-6.807]]],[[[0.407,-7.265],[0.463,-7.349],[0.463,-7.419],[0.568,-7.419],[0.568,-7.265],[0.407,-7.265]]]]},"properties":{"abbr":"PnC","name":"pontine reticular nucleus, caudal part","plate":44,"ap_bregma_mm":-7.25,"area_mm2":3.0307,"traced_fraction":[0.78,0.614,0.0],"n_labels":2,"no_drawn_outline":true}},{"type":"Feature","geometry":{"type":"MultiPolygon","coordinates":[[[[-2.173,-5.956],[-2.201,-6.196],[-2.236,-6.294],[-2.257,-6.28],[-2.272,-6.245],[-2.293,-6.09],[-2.321,-5.999],[-2.426,-5.9],[-2.517,-5.858],[-2.559,-5.809],[-2.552,-5.788],[-2.419,-5.738],[-2.342,-5.731],[-2.286,-5.745],[-2.244,-5.766],[-2.215,-5.802],[-2.18,-5.893],[-2.173,-5.956]]],[[[2.573,-5.774],[2.608,-5.83],[2.44,-5.851],[2.391,-5.879],[2.335,-5.942],[2.307,-6.027],[2.307,-6.294],[2.272,-6.371],[2.258,-6.371],[2.244,-6.322],[2.223,-6.111],[2.23,-5.935],[2.272,-5.823],[2.3,-5.788],[2.398,-5.753],[2.538,-5.759],[2.573,-5.774]]]]},"properties":{"abbr":"Pr5DM","name":"principal sensory trigeminal nucleus, dorsomedial part","plate":44,"ap_bregma_mm":-7.25,"area_mm2":0.1618,"traced_fraction":[0.991,1.0],"n_labels":2,"no_drawn_outline":false}},{"type":"Feature","geometry":{"type":"MultiPolygon","coordinates":[[[[-2.559,-5.809],[-2.517,-5.858],[-2.426,-5.9],[-2.321,-5.999],[-2.3,-6.055],[-2.272,-6.245],[-2.257,-6.28],[-2.236,-6.294],[-2.229,-6.449],[-2.335,-6.871],[-2.398,-7.025],[-2.44,-7.011],[-2.517,-6.934],[-2.636,-6.73],[-2.72,-6.632],[-2.72,-6.554],[-2.664,-6.428],[-2.65,-6.315],[-2.727,-5.978],[-2.636,-5.858],[-2.622,-5.816],[-2.559,-5.809]]],[[[2.608,-5.83],[2.686,-5.865],[2.721,-5.9],[2.749,-5.978],[2.784,-6.006],[2.742,-6.076],[2.721,-6.245],[2.657,-6.393],[2.636,-6.484],[2.622,-6.66],[2.594,-6.744],[2.433,-6.913],[2.419,-6.913],[2.279,-7.04],[2.251,-7.047],[2.237,-7.04],[2.223,-6.983],[2.195,-6.709],[2.209,-6.695],[2.216,-6.526],[2.23,-6.477],[2.272,-6.371],[2.307,-6.294],[2.307,-6.027],[2.335,-5.942],[2.391,-5.879],[2.44,-5.851],[2.608,-5.83]]]]},"properties":{"abbr":"Pr5VL","name":"principal sensory trigeminal nucleus, ventrolateral part","plate":44,"ap_bregma_mm":-7.25,"area_mm2":0.8434,"traced_fraction":[1.0,1.0],"n_labels":2,"no_drawn_outline":false}},{"type":"Feature","geometry":{"type":"MultiPolygon","coordinates":[[[[0.182,-7.94],[0.084,-8.003],[0.07,-8.003],[0.063,-7.968],[0.035,-7.94],[-0.007,-7.94],[-0.049,-8.003],[-0.07,-8.003],[-0.133,-7.947],[-0.133,-7.926],[-0.112,-7.778],[-0.063,-7.701],[-0.014,-7.665],[0.035,-7.665],[0.07,-7.687],[0.126,-7.743],[0.147,-7.785],[0.182,-7.94]]]]},"properties":{"abbr":"RMg","name":"raphe magnus nucleus","plate":44,"ap_bregma_mm":-7.25,"area_mm2":0.0756,"traced_fraction":[0.962],"n_labels":1,"no_drawn_outline":false}},{"type":"Feature","geometry":{"type":"MultiPolygon","coordinates":[[[[1.837,-7.764],[1.781,-7.778],[1.606,-7.708],[1.606,-7.694],[1.571,-7.665],[1.564,-7.623],[1.522,-7.553],[1.578,-7.504],[1.662,-7.469],[1.725,-7.469],[1.781,-7.49],[1.816,-7.518],[1.858,-7.602],[1.858,-7.715],[1.837,-7.764]]],[[[-1.64,-7.623],[-1.697,-7.722],[-1.732,-7.729],[-1.802,-7.785],[-1.928,-7.799],[-1.949,-7.799],[-1.984,-7.771],[-2.012,-7.722],[-2.005,-7.637],[-1.963,-7.553],[-1.893,-7.497],[-1.844,-7.49],[-1.788,-7.504],[-1.739,-7.546],[-1.711,-7.553],[-1.683,-7.595],[-1.64,-7.623]]]]},"properties":{"abbr":"RPO","name":"rostral periolivary nucleus","plate":44,"ap_bregma_mm":-7.25,"area_mm2":0.1538,"traced_fraction":[0.973,0.973],"n_labels":2,"no_drawn_outline":false}},{"type":"Feature","geometry":{"type":"MultiPolygon","coordinates":[[[[0.084,-8.003],[0.07,-8.045],[0.084,-8.207],[0.07,-8.256],[0.063,-8.425],[0.014,-8.432],[-0.007,-8.418],[-0.028,-8.376],[-0.042,-8.256],[-0.049,-8.003],[-0.007,-7.94],[0.035,-7.94],[0.063,-7.968],[0.07,-8.003],[0.084,-8.003]]]]},"properties":{"abbr":"RPa","name":"raphe pallidus nucleus","plate":44,"ap_bregma_mm":-7.25,"area_mm2":0.053,"traced_fraction":[1.0],"n_labels":1,"no_drawn_outline":false}},{"type":"Feature","geometry":{"type":"MultiPolygon","coordinates":[[[[0.218,-6.786],[0.302,-6.99],[0.295,-7.11],[0.267,-7.145],[0.211,-7.152],[0.119,-7.103],[0.028,-7.004],[-0.007,-6.899],[-0.007,-6.892],[-0.007,-6.786],[0.049,-6.737],[0.126,-6.737],[0.218,-6.786]]],[[[-0.056,-6.892],[-0.091,-6.997],[-0.238,-7.229],[-0.301,-7.272],[-0.35,-7.265],[-0.371,-7.236],[-0.386,-7.173],[-0.386,-6.913],[-0.364,-6.829],[-0.343,-6.807],[-0.315,-6.779],[-0.259,-6.758],[-0.126,-6.758],[-0.084,-6.779],[-0.056,-6.814],[-0.056,-6.892]]]]},"properties":{"abbr":"RtTg","name":"reticulotegmental nucleus of the pons","plate":44,"ap_bregma_mm":-7.25,"area_mm2":0.2166,"traced_fraction":[0.988,0.954],"n_labels":2,"no_drawn_outline":false}},{"type":"Feature","geometry":{"type":"MultiPolygon","coordinates":[[[[1.374,-7.602],[1.276,-7.729],[1.269,-7.729],[1.241,-7.729],[1.234,-7.743],[1.129,-7.785],[1.052,-7.848],[0.954,-7.884],[0.898,-7.884],[0.898,-7.848],[0.933,-7.799],[1.031,-7.722],[1.129,-7.665],[1.29,-7.602],[1.374,-7.602]]],[[[-1.451,-7.616],[-1.374,-7.623],[-1.269,-7.659],[-1.136,-7.715],[-1.024,-7.792],[-0.974,-7.876],[-0.974,-7.947],[-1.052,-7.933],[-1.129,-7.862],[-1.234,-7.799],[-1.276,-7.806],[-1.283,-7.827],[-1.318,-7.848],[-1.332,-7.848],[-1.367,-7.792],[-1.374,-7.75],[-1.346,-7.736],[-1.388,-7.722],[-1.444,-7.68],[-1.479,-7.63],[-1.472,-7.616],[-1.451,-7.616]]]]},"properties":{"abbr":"SPN","name":"superior periolivary nucleus","plate":44,"ap_bregma_mm":-7.25,"area_mm2":0.1161,"traced_fraction":[1.0,0.97],"n_labels":2,"no_drawn_outline":false}},{"type":"Feature","geometry":{"type":"MultiPolygon","coordinates":[[[[3.127,-6.069],[3.562,-6.069],[3.548,-6.252],[3.569,-6.259],[3.513,-6.322],[3.408,-6.385],[3.303,-6.364],[3.275,-6.336],[3.169,-6.146],[3.141,-6.118],[3.127,-6.069]]],[[[-3.442,-6.09],[-3.071,-6.097],[-3.176,-6.238],[-3.309,-6.378],[-3.393,-6.385],[-3.407,-6.406],[-3.484,-6.322],[-3.505,-6.259],[-3.471,-6.238],[-3.442,-6.09]]]]},"properties":{"abbr":"Sca","name":"spherical cell area, ventral cochlear nucleus","plate":44,"ap_bregma_mm":-7.25,"area_mm2":0.1825,"traced_fraction":[0.709,0.738],"n_labels":2,"no_drawn_outline":true}},{"type":"Feature","geometry":{"type":"MultiPolygon","coordinates":[[[[-1.374,-1.237],[-1.388,-1.265],[-1.395,-1.364],[-1.416,-1.413],[-1.409,-1.455],[-1.626,-1.863],[-1.697,-2.046],[-1.732,-2.116],[-1.753,-2.13],[-1.97,-2.609],[-1.984,-2.616],[-1.991,-2.651],[-2.145,-2.939],[-2.166,-2.939],[-2.882,-2.222],[-2.825,-2.095],[-2.783,-2.046],[-2.657,-1.8],[-2.643,-1.793],[-2.566,-1.638],[-2.559,-1.596],[-2.524,-1.554],[-2.524,-1.533],[-2.496,-1.497],[-2.496,-1.476],[-2.482,-1.476],[-2.426,-1.392],[-2.244,-1.209],[-2.201,-1.188],[-2.138,-1.125],[-1.942,-1.012],[-1.774,-0.963],[-1.591,-0.977],[-1.493,-1.026],[-1.416,-1.11],[-1.388,-1.23],[-1.374,-1.237]]],[[[2.615,-1.399],[2.629,-1.434],[2.728,-1.638],[2.84,-1.793],[3.029,-2.011],[3.148,-2.215],[3.113,-2.222],[2.307,-3.038],[2.286,-3.038],[2.174,-2.693],[2.076,-2.489],[2.027,-2.348],[1.823,-1.933],[1.823,-1.912],[1.683,-1.666],[1.599,-1.483],[1.564,-1.371],[1.571,-1.265],[1.62,-1.202],[1.76,-1.146],[1.865,-1.132],[2.048,-1.132],[2.279,-1.153],[2.384,-1.181],[2.468,-1.237],[2.587,-1.371],[2.587,-1.385],[2.615,-1.399]]]]},"properties":{"abbr":"Sim","name":"simple lobule","plate":44,"ap_bregma_mm":-7.25,"area_mm2":3.214,"traced_fraction":[0.849,0.823],"n_labels":2,"no_drawn_outline":false}},{"type":"Feature","geometry":{"type":"MultiPolygon","coordinates":[[[[1.858,-5.563],[1.879,-5.626],[1.949,-5.724],[1.977,-5.802],[2.019,-5.865],[1.956,-5.942],[1.886,-5.928],[1.823,-5.823],[1.69,-5.823],[1.592,-5.865],[1.43,-5.858],[1.353,-5.83],[1.311,-5.795],[1.297,-5.71],[1.318,-5.647],[1.557,-5.633],[1.858,-5.563]]],[[[-1.851,-5.591],[-1.528,-5.612],[-1.367,-5.605],[-1.346,-5.682],[-1.346,-5.745],[-1.353,-5.766],[-1.437,-5.837],[-1.626,-5.858],[-1.774,-5.844],[-1.844,-5.886],[-1.886,-5.935],[-1.914,-5.935],[-2.005,-6.02],[-2.019,-6.013],[-2.019,-5.942],[-1.977,-5.851],[-1.977,-5.809],[-1.935,-5.766],[-1.935,-5.745],[-1.9,-5.703],[-1.851,-5.591]]]]},"properties":{"abbr":"Su5","name":"supratrigeminal nucleus","plate":44,"ap_bregma_mm":-7.25,"area_mm2":0.3092,"traced_fraction":[1.0,0.989],"n_labels":2,"no_drawn_outline":false}},{"type":"Feature","geometry":{"type":"MultiPolygon","coordinates":[[[[-1.15,-5.598],[-1.143,-5.598],[-1.115,-5.626],[-0.995,-5.689],[-0.974,-5.717],[-0.953,-5.717],[-0.946,-5.738],[-1.002,-5.774],[-1.073,-5.795],[-1.157,-5.816],[-1.213,-5.809],[-1.234,-5.788],[-1.241,-5.753],[-1.185,-5.633],[-1.15,-5.598]]],[[[1.115,-5.605],[1.122,-5.612],[1.122,-5.64],[1.192,-5.753],[1.178,-5.823],[1.164,-5.837],[1.115,-5.844],[0.954,-5.795],[0.898,-5.766],[0.891,-5.745],[0.891,-5.724],[0.989,-5.689],[1.059,-5.64],[1.066,-5.619],[1.115,-5.605]]]]},"properties":{"abbr":"SubCA","name":"subcoeruleus nucleus, alpha part","plate":44,"ap_bregma_mm":-7.25,"area_mm2":0.0794,"traced_fraction":[0.991,0.976],"n_labels":2,"no_drawn_outline":false}},{"type":"Feature","geometry":{"type":"MultiPolygon","coordinates":[[[[-1.178,-5.549],[-1.15,-5.598],[-1.185,-5.633],[-1.241,-5.753],[-1.241,-5.774],[-1.213,-5.809],[-1.157,-5.816],[-1.073,-5.795],[-1.002,-5.774],[-0.946,-5.738],[-0.918,-5.766],[-0.946,-5.837],[-0.946,-6.013],[-1.03,-6.013],[-1.241,-6.428],[-1.248,-6.442],[-1.255,-6.449],[-1.29,-6.505],[-1.458,-6.491],[-1.395,-6.336],[-1.367,-6.196],[-1.367,-5.978],[-1.381,-5.907],[-1.437,-5.837],[-1.388,-5.802],[-1.346,-5.745],[-1.346,-5.682],[-1.367,-5.605],[-1.283,-5.591],[-1.178,-5.549]]],[[[1.122,-5.612],[1.318,-5.647],[1.297,-5.71],[1.311,-5.795],[1.353,-5.83],[1.43,-5.858],[1.409,-5.9],[1.409,-6.034],[1.346,-6.034],[1.339,-6.083],[1.318,-6.104],[1.318,-6.245],[1.346,-6.287],[1.367,-6.378],[1.423,-6.456],[1.22,-6.47],[1.157,-6.393],[1.157,-6.357],[0.947,-5.935],[0.926,-5.823],[0.954,-5.795],[1.115,-5.844],[1.164,-5.837],[1.178,-5.823],[1.192,-5.753],[1.143,-5.682],[1.122,-5.612]]]]},"properties":{"abbr":"SubCD","name":"subcoeruleus nucleus, dorsal part","plate":44,"ap_bregma_mm":-7.25,"area_mm2":0.4762,"traced_fraction":[0.894,0.85],"n_labels":2,"no_drawn_outline":false}},{"type":"Feature","geometry":{"type":"MultiPolygon","coordinates":[[[[1.423,-6.456],[1.459,-6.498],[1.473,-6.498],[1.473,-6.512],[1.592,-6.582],[1.585,-6.744],[1.627,-6.772],[1.669,-6.779],[1.662,-6.836],[1.613,-6.969],[1.648,-7.096],[1.55,-7.103],[1.22,-6.47],[1.423,-6.456]]],[[[-1.458,-6.491],[-1.29,-6.505],[-1.451,-6.807],[-1.451,-6.955],[-1.507,-6.955],[-1.549,-6.997],[-1.64,-7.194],[-1.998,-7.194],[-1.949,-7.018],[-1.942,-6.913],[-2.012,-6.843],[-2.012,-6.829],[-1.984,-6.772],[-1.921,-6.786],[-1.865,-6.786],[-1.851,-6.772],[-1.851,-6.716],[-1.879,-6.604],[-1.844,-6.547],[-1.739,-6.596],[-1.619,-6.604],[-1.535,-6.568],[-1.458,-6.491]]]]},"properties":{"abbr":"SubCV","name":"subcoeruleus nucleus, ventral part","plate":44,"ap_bregma_mm":-7.25,"area_mm2":0.4318,"traced_fraction":[0.877,0.745],"n_labels":2,"no_drawn_outline":false}},{"type":"Feature","geometry":{"type":"MultiPolygon","coordinates":[[[[3.338,-5.64],[3.387,-5.675],[3.436,-5.689],[3.45,-5.717],[3.499,-5.738],[3.499,-5.788],[3.562,-5.907],[3.562,-6.069],[3.127,-6.069],[3.106,-6.062],[3.099,-6.034],[3.043,-5.97],[3.015,-5.914],[2.945,-5.858],[2.917,-5.795],[2.917,-5.753],[2.966,-5.703],[2.994,-5.696],[3.029,-5.64],[3.099,-5.612],[3.218,-5.626],[3.275,-5.661],[3.324,-5.661],[3.338,-5.64]]],[[[-2.797,-5.781],[-3.043,-6.09],[-3.071,-6.097],[-3.442,-6.09],[-3.407,-5.97],[-3.351,-5.879],[-3.246,-5.802],[-3.197,-5.724],[-3.19,-5.724],[-3.155,-5.745],[-3.113,-5.745],[-2.987,-5.696],[-2.874,-5.689],[-2.825,-5.717],[-2.797,-5.781]]]]},"properties":{"abbr":"VCA","name":"ventral cochlear nucleus, anterior part","plate":44,"ap_bregma_mm":-7.25,"area_mm2":0.3899,"traced_fraction":[0.804,0.815],"n_labels":2,"no_drawn_outline":false}},{"type":"Feature","geometry":{"type":"MultiPolygon","coordinates":[[[[-1.528,-8.313],[-1.465,-8.39],[-1.374,-8.425],[-1.339,-8.425],[-1.332,-8.446],[-1.262,-8.474],[-1.087,-8.502],[-0.967,-8.495],[-0.883,-8.453],[-0.876,-8.453],[-0.848,-8.516],[-0.848,-8.65],[-0.869,-8.699],[-0.974,-8.791],[-0.974,-8.812],[-1.115,-8.777],[-1.29,-8.706],[-1.437,-8.629],[-1.823,-8.299],[-1.816,-8.277],[-1.647,-8.27],[-1.556,-8.32],[-1.528,-8.313]]]]},"properties":{"abbr":"VNTB","name":"ventral nucleus of the trapezoid body","plate":44,"ap_bregma_mm":-7.25,"area_mm2":0.2159,"traced_fraction":[0.961],"n_labels":1,"no_drawn_outline":false}},{"type":"Feature","geometry":{"type":"MultiPolygon","coordinates":[[[[-1.977,-5.809],[-1.977,-5.851],[-2.019,-5.942],[-2.019,-6.013],[-2.005,-6.02],[-2.082,-6.181],[-2.103,-6.357],[-2.061,-6.625],[-2.047,-6.632],[-2.026,-6.716],[-1.991,-6.765],[-2.033,-6.793],[-2.047,-6.829],[-2.18,-6.955],[-2.18,-6.969],[-2.208,-6.983],[-2.272,-7.117],[-2.307,-7.124],[-2.398,-7.025],[-2.335,-6.871],[-2.229,-6.449],[-2.236,-6.294],[-2.201,-6.196],[-2.173,-5.956],[-2.138,-5.949],[-2.019,-5.816],[-1.977,-5.809]]],[[[2.019,-5.865],[2.069,-5.879],[2.097,-5.907],[2.16,-6.062],[2.195,-6.273],[2.195,-6.357],[2.174,-6.421],[2.181,-6.463],[2.167,-6.484],[2.167,-6.653],[2.195,-6.709],[2.223,-6.983],[2.237,-7.04],[2.251,-7.047],[2.139,-7.152],[2.09,-7.222],[1.949,-6.948],[1.886,-6.871],[1.844,-6.758],[1.893,-6.639],[1.921,-6.463],[1.963,-6.343],[2.006,-6.139],[2.006,-6.041],[1.956,-5.942],[2.019,-5.865]]]]},"properties":{"abbr":"m5","name":"motor root of the trigeminal nerve","plate":44,"ap_bregma_mm":-7.25,"area_mm2":0.5181,"traced_fraction":[0.948,0.99],"n_labels":2,"no_drawn_outline":false}},{"type":"Feature","geometry":{"type":"MultiPolygon","coordinates":[[[[3.296,-5.049],[3.211,-5.267],[3.169,-5.387],[3.176,-5.485],[3.233,-5.563],[3.31,-5.605],[3.338,-5.64],[3.324,-5.661],[3.275,-5.661],[3.218,-5.626],[3.162,-5.612],[3.099,-5.612],[3.029,-5.64],[2.98,-5.549],[2.959,-5.549],[2.91,-5.654],[2.896,-5.661],[2.896,-5.682],[2.854,-5.724],[2.742,-5.738],[2.608,-5.682],[2.538,-5.626],[2.51,-5.57],[2.51,-5.464],[2.573,-5.281],[2.622,-5.19],[2.854,-4.908],[3.078,-4.529],[3.239,-4.353],[3.275,-4.36],[3.288,-4.508],[3.288,-4.775],[3.26,-4.958],[3.267,-4.972],[3.303,-4.972],[3.317,-4.986],[3.296,-5.049]]],[[[-3.12,-4.381],[-3.078,-4.381],[-2.994,-4.437],[-2.825,-4.606],[-2.755,-4.74],[-2.657,-4.88],[-2.552,-5.091],[-2.496,-5.148],[-2.482,-5.281],[-2.405,-5.457],[-2.412,-5.513],[-2.468,-5.591],[-2.559,-5.654],[-2.706,-5.717],[-2.755,-5.717],[-2.804,-5.675],[-2.825,-5.612],[-2.846,-5.45],[-2.889,-5.309],[-2.931,-5.232],[-3.05,-5.112],[-3.134,-4.901],[-3.134,-4.775],[-3.113,-4.655],[-3.127,-4.451],[-3.12,-4.381]]]]},"properties":{"abbr":"mcp","name":"middle cerebellar peduncle","plate":44,"ap_bregma_mm":-7.25,"area_mm2":1.1104,"traced_fraction":[0.984,1.0],"n_labels":2,"no_drawn_outline":false}},{"type":"Feature","geometry":{"type":"MultiPolygon","coordinates":[[[[1.129,-4.908],[1.143,-4.944],[1.255,-5.035],[1.536,-5.169],[1.634,-5.267],[1.662,-5.323],[1.725,-5.394],[1.83,-5.408],[1.837,-5.464],[1.872,-5.485],[1.9,-5.527],[1.858,-5.563],[1.557,-5.633],[1.318,-5.647],[1.122,-5.612],[1.115,-5.605],[1.122,-5.52],[1.143,-5.478],[1.143,-5.436],[1.164,-5.323],[1.164,-5.197],[1.129,-5.07],[1.066,-4.923],[1.129,-4.908]]],[[[-1.136,-4.993],[-1.199,-5.141],[-1.199,-5.204],[-1.213,-5.204],[-1.22,-5.225],[-1.22,-5.338],[-1.178,-5.549],[-1.283,-5.591],[-1.367,-5.605],[-1.528,-5.612],[-1.851,-5.591],[-1.893,-5.577],[-1.935,-5.52],[-1.893,-5.506],[-1.802,-5.436],[-1.76,-5.394],[-1.753,-5.359],[-1.647,-5.309],[-1.598,-5.232],[-1.486,-5.141],[-1.332,-5.07],[-1.248,-5.049],[-1.164,-4.993],[-1.136,-4.993]]]]},"properties":{"abbr":"me5","name":"mesencephalic trigeminal tract","plate":44,"ap_bregma_mm":-7.25,"area_mm2":0.5792,"traced_fraction":[0.995,1.0],"n_labels":1,"no_drawn_outline":false}},{"type":"Feature","geometry":{"type":"MultiPolygon","coordinates":[[[[0.288,-7.912],[0.288,-8.116],[0.631,-8.116],[0.645,-8.179],[0.659,-8.186],[0.666,-8.249],[0.687,-8.27],[0.652,-8.291],[0.645,-8.566],[0.498,-8.51],[0.344,-8.502],[0.224,-8.538],[0.147,-8.587],[0.14,-8.432],[0.063,-8.425],[0.07,-8.256],[0.084,-8.207],[0.07,-8.045],[0.084,-8.003],[0.182,-7.94],[0.288,-7.912]]],[[[-0.238,-7.926],[-0.14,-7.947],[-0.133,-7.947],[-0.112,-7.975],[-0.049,-8.003],[-0.042,-8.256],[-0.028,-8.376],[-0.007,-8.418],[-0.028,-8.432],[-0.07,-8.432],[-0.077,-8.58],[-0.161,-8.552],[-0.301,-8.552],[-0.484,-8.608],[-0.491,-8.397],[-0.47,-8.369],[-0.47,-8.306],[-0.526,-8.214],[-0.519,-8.116],[-0.238,-8.116],[-0.238,-7.926]]]]},"properties":{"abbr":"ml","name":"medial lemniscus","plate":44,"ap_bregma_mm":-7.25,"area_mm2":0.4993,"traced_fraction":[0.631,0.684],"n_labels":2,"no_drawn_outline":true}},{"type":"Feature","geometry":{"type":"MultiPolygon","coordinates":[[[[0.379,-5.872],[0.463,-5.9],[0.4,-6.097],[0.337,-6.203],[0.281,-6.252],[0.175,-6.308],[0.112,-6.308],[0.091,-6.252],[0.091,-5.956],[0.119,-5.907],[0.169,-5.886],[0.316,-5.865],[0.379,-5.872]]],[[[-0.392,-5.872],[-0.378,-5.886],[-0.231,-5.893],[-0.196,-5.914],[-0.168,-5.978],[-0.161,-6.048],[-0.189,-6.301],[-0.203,-6.322],[-0.259,-6.322],[-0.35,-6.28],[-0.392,-6.224],[-0.498,-5.999],[-0.498,-5.907],[-0.449,-5.9],[-0.392,-5.872]]]]},"properties":{"abbr":"mlf","name":"medial longitudinal fasciculus","plate":44,"ap_bregma_mm":-7.25,"area_mm2":0.231,"traced_fraction":[0.995,0.958],"n_labels":2,"no_drawn_outline":false}},{"type":"Feature","geometry":{"type":"MultiPolygon","coordinates":[[[[0.645,-8.566],[0.715,-8.608],[0.82,-8.714],[0.856,-8.784],[0.87,-8.784],[0.862,-8.798],[0.743,-8.84],[0.554,-8.868],[0.456,-8.868],[0.379,-8.861],[0.267,-8.826],[0.19,-8.784],[0.19,-8.77],[0.154,-8.749],[0.063,-8.714],[0.049,-8.714],[0.049,-8.706],[0.056,-8.699],[0.07,-8.664],[0.147,-8.587],[0.224,-8.538],[0.344,-8.502],[0.498,-8.51],[0.645,-8.566]]],[[[-0.077,-8.58],[0.014,-8.657],[0.028,-8.706],[-0.035,-8.749],[-0.056,-8.763],[-0.378,-8.981],[-0.428,-8.995],[-0.568,-8.988],[-0.785,-8.875],[-0.771,-8.826],[-0.68,-8.735],[-0.568,-8.65],[-0.484,-8.608],[-0.301,-8.552],[-0.161,-8.552],[-0.077,-8.58]]]]},"properties":{"abbr":"py","name":"pyramidal tract","plate":44,"ap_bregma_mm":-7.25,"area_mm2":0.4262,"traced_fraction":[1.0,1.0],"n_labels":2,"no_drawn_outline":false}},{"type":"Feature","geometry":{"type":"MultiPolygon","coordinates":[[[[1.844,-6.758],[1.886,-6.871],[1.949,-6.948],[2.09,-7.222],[2.118,-7.328],[2.125,-7.461],[2.097,-7.497],[1.984,-7.497],[1.977,-7.49],[1.851,-7.349],[1.844,-7.321],[1.746,-7.215],[1.725,-7.208],[1.648,-7.096],[1.613,-6.969],[1.662,-6.836],[1.669,-6.779],[1.802,-6.786],[1.844,-6.758]]],[[[-2.047,-6.829],[-2.012,-6.829],[-2.012,-6.843],[-1.942,-6.913],[-1.949,-7.018],[-1.998,-7.194],[-2.012,-7.201],[-2.04,-7.293],[-2.117,-7.44],[-2.173,-7.483],[-2.244,-7.455],[-2.278,-7.405],[-2.307,-7.286],[-2.293,-7.152],[-2.272,-7.117],[-2.208,-6.983],[-2.18,-6.969],[-2.18,-6.955],[-2.047,-6.829]]]]},"properties":{"abbr":"rs","name":"rubrospinal tract","plate":44,"ap_bregma_mm":-7.25,"area_mm2":0.3543,"traced_fraction":[0.963,0.91],"n_labels":2,"no_drawn_outline":false}},{"type":"Feature","geometry":{"type":"MultiPolygon","coordinates":[[[[-2.629,-5.766],[-2.622,-5.816],[-2.636,-5.858],[-2.727,-5.978],[-2.65,-6.315],[-2.664,-6.428],[-2.72,-6.554],[-2.72,-6.632],[-2.636,-6.73],[-2.517,-6.934],[-2.44,-7.011],[-2.398,-7.025],[-2.307,-7.124],[-2.293,-7.152],[-2.307,-7.286],[-2.356,-7.307],[-2.419,-7.307],[-2.489,-7.286],[-2.671,-7.103],[-2.671,-7.089],[-2.832,-6.913],[-2.973,-6.716],[-3.036,-6.596],[-3.078,-6.484],[-3.092,-6.393],[-3.085,-6.266],[-3.043,-6.09],[-2.797,-5.781],[-2.706,-5.753],[-2.629,-5.766]]],[[[2.286,-7.342],[2.174,-7.342],[2.118,-7.328],[2.09,-7.222],[2.139,-7.152],[2.251,-7.047],[2.279,-7.04],[2.419,-6.913],[2.433,-6.913],[2.594,-6.744],[2.622,-6.66],[2.636,-6.484],[2.657,-6.393],[2.721,-6.245],[2.742,-6.076],[2.784,-6.006],[2.847,-5.956],[2.917,-5.942],[2.973,-5.963],[3.043,-6.034],[3.078,-6.104],[3.106,-6.224],[3.106,-6.371],[3.064,-6.547],[2.994,-6.688],[2.917,-6.786],[2.721,-6.976],[2.524,-7.124],[2.286,-7.342]]]]},"properties":{"abbr":"s5","name":"sensory root of the trigeminal nerve","plate":44,"ap_bregma_mm":-7.25,"area_mm2":0.9864,"traced_fraction":[1.0,1.0],"n_labels":2,"no_drawn_outline":false}},{"type":"Feature","geometry":{"type":"MultiPolygon","coordinates":[[[[-1.079,-4.775],[-1.024,-4.817],[-1.03,-4.901],[-1.045,-4.901],[-1.045,-4.915],[-1.136,-4.993],[-1.164,-4.993],[-1.248,-5.049],[-1.332,-5.07],[-1.486,-5.141],[-1.598,-5.232],[-1.647,-5.309],[-1.753,-5.359],[-1.907,-5.359],[-1.977,-5.345],[-1.998,-5.323],[-1.991,-5.288],[-1.921,-5.183],[-1.823,-5.091],[-1.655,-5.007],[-1.416,-4.944],[-1.283,-4.866],[-1.213,-4.796],[-1.079,-4.775]]],[[[1.255,-4.88],[1.29,-4.923],[1.367,-4.972],[1.648,-5.049],[1.872,-5.141],[1.97,-5.204],[2.006,-5.239],[2.048,-5.316],[2.012,-5.351],[1.942,-5.373],[1.935,-5.387],[1.83,-5.408],[1.725,-5.394],[1.662,-5.323],[1.634,-5.267],[1.536,-5.169],[1.255,-5.035],[1.15,-4.951],[1.129,-4.908],[1.164,-4.88],[1.255,-4.88]]]]},"properties":{"abbr":"scp","name":"superior cerebellar peduncle","plate":44,"ap_bregma_mm":-7.25,"area_mm2":0.3666,"traced_fraction":[1.0,1.0],"n_labels":2,"no_drawn_outline":false}},{"type":"Feature","geometry":{"type":"MultiPolygon","coordinates":[[[[-0.238,-7.229],[-0.161,-7.3],[-0.154,-7.609],[-0.063,-7.701],[-0.112,-7.778],[-0.133,-7.926],[-0.14,-7.947],[-0.238,-7.926],[-0.28,-7.912],[-0.378,-7.919],[-0.491,-7.954],[-0.533,-7.975],[-0.554,-8.003],[-0.722,-7.94],[-0.792,-7.933],[-0.974,-7.947],[-0.974,-7.876],[-1.024,-7.792],[-0.785,-7.56],[-0.785,-7.293],[-0.386,-7.293],[-0.35,-7.265],[-0.301,-7.272],[-0.238,-7.229]]]]},"properties":{"abbr":"ts","name":"tectospinal tract","plate":44,"ap_bregma_mm":-7.25,"area_mm2":0.4888,"traced_fraction":[0.522],"n_labels":2,"no_drawn_outline":true}},{"type":"Feature","geometry":{"type":"MultiPolygon","coordinates":[[[[0.603,-7.996],[0.631,-8.116],[0.288,-8.116],[0.288,-7.912],[0.393,-7.905],[0.463,-7.919],[0.603,-7.996]]],[[[-0.238,-7.926],[-0.238,-8.116],[-0.519,-8.116],[-0.519,-8.052],[-0.554,-8.003],[-0.533,-7.975],[-0.491,-7.954],[-0.378,-7.919],[-0.28,-7.912],[-0.238,-7.926]]]]},"properties":{"abbr":"tth","name":"trigeminothalamic tract","plate":44,"ap_bregma_mm":-7.25,"area_mm2":0.114,"traced_fraction":[0.514,0.565],"n_labels":2,"no_drawn_outline":true}},{"type":"Feature","geometry":{"type":"MultiPolygon","coordinates":[[[[2.636,-5.774],[2.735,-5.795],[2.742,-5.809],[2.861,-5.851],[2.945,-5.858],[3.015,-5.914],[3.043,-5.97],[3.099,-6.034],[3.106,-6.062],[3.127,-6.069],[3.141,-6.118],[3.169,-6.146],[3.275,-6.336],[3.303,-6.364],[3.408,-6.385],[3.267,-6.54],[3.071,-6.821],[2.847,-7.103],[2.482,-7.433],[2.468,-7.433],[2.419,-7.49],[2.405,-7.49],[2.286,-7.609],[2.272,-7.609],[2.223,-7.665],[2.209,-7.665],[1.956,-7.919],[1.935,-7.961],[1.802,-8.109],[1.704,-8.249],[1.501,-8.439],[1.473,-8.418],[1.48,-8.376],[1.515,-8.348],[1.529,-8.313],[1.543,-8.313],[1.578,-8.249],[1.592,-8.249],[1.641,-8.165],[1.669,-8.144],[1.704,-8.052],[1.809,-7.933],[1.865,-7.806],[1.879,-7.806],[1.921,-7.743],[1.984,-7.708],[2.04,-7.651],[2.09,-7.588],[2.097,-7.546],[2.16,-7.511],[2.202,-7.448],[2.216,-7.448],[2.272,-7.384],[2.286,-7.342],[2.524,-7.124],[2.721,-6.976],[2.917,-6.786],[2.994,-6.688],[3.064,-6.547],[3.106,-6.371],[3.106,-6.224],[3.092,-6.146],[3.043,-6.034],[2.973,-5.963],[2.917,-5.942],[2.847,-5.956],[2.784,-6.006],[2.749,-5.978],[2.721,-5.9],[2.686,-5.865],[2.608,-5.83],[2.573,-5.774],[2.636,-5.774]]],[[[-3.043,-6.09],[-3.085,-6.266],[-3.092,-6.393],[-3.078,-6.484],[-3.036,-6.596],[-2.973,-6.716],[-2.832,-6.913],[-2.671,-7.089],[-2.671,-7.103],[-2.489,-7.286],[-2.489,-7.314],[-2.44,-7.391],[-2.307,-7.546],[-2.3,-7.574],[-2.257,-7.609],[-2.215,-7.68],[-2.061,-7.848],[-2.033,-7.855],[-1.956,-7.982],[-1.907,-8.031],[-1.991,-8.095],[-2.286,-7.806],[-2.58,-7.398],[-2.685,-7.286],[-2.783,-7.152],[-3.085,-6.85],[-3.232,-6.618],[-3.407,-6.406],[-3.393,-6.385],[-3.309,-6.378],[-3.176,-6.238],[-3.071,-6.097],[-3.043,-6.09]]],[[[0.687,-8.27],[0.828,-8.313],[0.933,-8.425],[0.961,-8.432],[0.933,-8.46],[0.933,-8.559],[0.996,-8.714],[1.024,-8.728],[0.87,-8.784],[0.856,-8.784],[0.82,-8.714],[0.715,-8.608],[0.645,-8.566],[0.652,-8.291],[0.687,-8.27]]],[[[-0.491,-8.397],[-0.484,-8.608],[-0.568,-8.65],[-0.68,-8.735],[-0.771,-8.826],[-0.785,-8.875],[-0.974,-8.812],[-0.974,-8.791],[-0.869,-8.699],[-0.848,-8.65],[-0.848,-8.516],[-0.876,-8.453],[-0.792,-8.418],[-0.561,-8.418],[-0.491,-8.397]]]]},"properties":{"abbr":"tz","name":"trapezoid body","plate":44,"ap_bregma_mm":-7.25,"area_mm2":1.0877,"traced_fraction":[1.0,0.994,0.821,0.903],"n_labels":4,"no_drawn_outline":false}},{"type":"Feature","geometry":{"type":"MultiPolygon","coordinates":[[[[-0.007,-8.418],[0.014,-8.432],[0.063,-8.425],[0.14,-8.432],[0.147,-8.587],[0.07,-8.664],[0.056,-8.699],[0.042,-8.706],[0.028,-8.706],[0.014,-8.657],[-0.077,-8.58],[-0.07,-8.432],[-0.028,-8.432],[-0.007,-8.418]]],[[[0.042,-8.706],[0.049,-8.706],[0.049,-8.714],[0.042,-8.706]]]]},"properties":{"abbr":"tzx","name":"decussation of the trapezoid body","plate":44,"ap_bregma_mm":-7.25,"area_mm2":0.0463,"traced_fraction":[0.619,1.0],"n_labels":1,"no_drawn_outline":true}},{"type":"Feature","geometry":{"type":"MultiPolygon","coordinates":[[[[-1.549,-4.669],[-1.613,-4.676],[-1.774,-4.754],[-1.795,-4.782],[-1.963,-4.887],[-1.984,-4.887],[-2.005,-4.845],[-1.858,-4.733],[-1.64,-4.627],[-1.528,-4.606],[-1.458,-4.578],[-1.381,-4.585],[-1.381,-4.599],[-1.402,-4.599],[-1.416,-4.62],[-1.549,-4.669]]],[[[-2.489,-7.286],[-2.419,-7.307],[-2.356,-7.307],[-2.307,-7.286],[-2.278,-7.405],[-2.244,-7.455],[-2.173,-7.483],[-2.117,-7.44],[-2.068,-7.44],[-2.019,-7.461],[-2.082,-7.574],[-2.075,-7.694],[-2.054,-7.771],[-2.033,-7.792],[-2.033,-7.855],[-2.061,-7.848],[-2.215,-7.68],[-2.257,-7.609],[-2.3,-7.574],[-2.307,-7.546],[-2.44,-7.391],[-2.489,-7.314],[-2.489,-7.286]]],[[[1.984,-7.497],[2.097,-7.497],[2.097,-7.546],[2.09,-7.588],[2.04,-7.651],[1.984,-7.708],[1.921,-7.743],[1.921,-7.687],[1.942,-7.63],[1.921,-7.518],[1.956,-7.504],[1.984,-7.497]]]]},"properties":{"abbr":"vsc","name":"ventral spinocerebellar tract","plate":44,"ap_bregma_mm":-7.25,"area_mm2":0.1595,"traced_fraction":[1.0,0.976,0.879],"n_labels":3,"no_drawn_outline":false}},{"type":"Feature","geometry":{"type":"Polygon","coordinates":[[[-1.255,-2.538],[-1.213,-2.637],[-1.171,-2.665],[-1.157,-2.693],[-1.087,-2.728],[-0.946,-2.742],[-0.862,-2.714],[-0.869,-2.763],[-0.946,-2.883],[-1.016,-3.038],[-1.101,-3.368],[-1.122,-3.551],[-1.122,-3.797],[-1.101,-3.966],[-1.079,-4.015],[-1.101,-4.022],[-1.115,-4.057],[-1.136,-4.064],[-1.143,-4.093],[-1.171,-4.121],[-1.171,-4.142],[-1.213,-4.205],[-1.248,-4.325],[-1.241,-4.465],[-1.227,-4.494],[-1.157,-4.564],[-1.143,-4.564],[-1.101,-4.634],[-1.15,-4.641],[-1.178,-4.627],[-1.178,-4.641],[-1.164,-4.641],[-1.178,-4.69],[-1.108,-4.733],[-1.079,-4.775],[-1.213,-4.796],[-1.213,-4.726],[-1.241,-4.704],[-1.486,-4.74],[-1.514,-4.761],[-1.64,-4.789],[-1.626,-4.754],[-1.556,-4.698],[-1.549,-4.669],[-1.444,-4.634],[-1.402,-4.599],[-1.381,-4.599],[-1.381,-4.585],[-1.458,-4.578],[-1.528,-4.606],[-1.64,-4.627],[-1.858,-4.733],[-2.005,-4.845],[-2.04,-4.852],[-2.033,-4.81],[-2.019,-4.803],[-2.019,-4.782],[-2.005,-4.775],[-1.942,-4.641],[-1.935,-4.529],[-1.956,-4.472],[-2.04,-4.395],[-2.068,-4.332],[-2.068,-4.212],[-2.054,-4.156],[-1.886,-3.86],[-1.816,-3.678],[-1.725,-3.509],[-1.598,-3.206],[-1.584,-3.199],[-1.521,-3.038],[-1.507,-3.031],[-1.43,-2.848],[-1.416,-2.841],[-1.325,-2.623],[-1.29,-2.552],[-1.255,-2.538]]]},"properties":{"abbr":null,"name":"unnamed sealed face","plate":44,"ap_bregma_mm":-7.25,"index":0}},{"type":"Feature","geometry":{"type":"Polygon","coordinates":[[[1.704,-2.735],[1.739,-2.756],[1.823,-2.904],[1.893,-3.15],[1.893,-3.326],[1.879,-3.396],[1.774,-3.628],[1.767,-3.762],[1.795,-3.91],[1.844,-4.029],[1.872,-4.057],[1.872,-4.079],[1.921,-4.156],[1.935,-4.156],[1.977,-4.226],[2.111,-4.36],[2.216,-4.522],[2.265,-4.669],[2.293,-4.901],[2.328,-5.056],[2.286,-5.049],[2.188,-4.958],[1.97,-4.845],[1.963,-4.831],[1.592,-4.683],[1.501,-4.669],[1.451,-4.669],[1.438,-4.655],[1.402,-4.676],[1.234,-4.669],[1.234,-4.62],[1.29,-4.564],[1.311,-4.479],[1.297,-4.205],[1.276,-4.121],[1.227,-4.015],[1.122,-3.91],[1.199,-3.713],[1.227,-3.46],[1.192,-3.249],[1.143,-3.094],[1.094,-2.995],[1.08,-2.897],[1.122,-2.918],[1.213,-3.059],[1.332,-3.178],[1.43,-3.235],[1.536,-3.242],[1.62,-3.178],[1.669,-3.087],[1.711,-2.925],[1.711,-2.813],[1.697,-2.791],[1.704,-2.735]]]},"properties":{"abbr":null,"name":"unnamed sealed face","plate":44,"ap_bregma_mm":-7.25,"index":1}},{"type":"Feature","geometry":{"type":"Polygon","coordinates":[[[1.129,-4.726],[1.024,-4.88],[0.954,-4.88],[0.912,-4.915],[0.849,-4.88],[0.743,-4.866],[0.288,-4.887],[0.161,-4.901],[0.021,-4.937],[-0.042,-4.937],[-0.161,-4.887],[-0.189,-4.852],[0.288,-4.852],[0.617,-4.824],[0.94,-4.768],[1.094,-4.711],[1.129,-4.726]]]},"properties":{"abbr":null,"name":"unnamed sealed face","plate":44,"ap_bregma_mm":-7.25,"index":2}},{"type":"Feature","geometry":{"type":"Polygon","coordinates":[[[1.613,-4.775],[1.697,-4.796],[1.956,-4.951],[2.012,-4.965],[2.069,-5.014],[2.09,-5.014],[2.153,-5.056],[2.153,-5.07],[2.195,-5.098],[2.237,-5.112],[2.286,-5.176],[2.3,-5.176],[2.377,-5.288],[2.419,-5.323],[2.482,-5.338],[2.482,-5.288],[2.454,-5.239],[2.468,-5.19],[2.622,-5.19],[2.573,-5.281],[2.51,-5.464],[2.51,-5.57],[2.538,-5.626],[2.608,-5.682],[2.742,-5.738],[2.854,-5.724],[2.896,-5.682],[2.896,-5.661],[2.91,-5.654],[2.959,-5.549],[2.98,-5.549],[3.029,-5.64],[3.008,-5.682],[2.938,-5.724],[2.917,-5.753],[2.917,-5.795],[2.945,-5.858],[2.861,-5.851],[2.742,-5.809],[2.735,-5.795],[2.636,-5.774],[2.636,-5.759],[2.573,-5.738],[2.489,-5.682],[2.412,-5.584],[2.44,-5.422],[2.419,-5.415],[2.384,-5.33],[2.349,-5.295],[2.321,-5.288],[2.293,-5.253],[2.279,-5.253],[2.209,-5.155],[2.069,-5.035],[1.879,-4.93],[1.641,-4.838],[1.613,-4.775]]]},"properties":{"abbr":null,"name":"unnamed sealed face","plate":44,"ap_bregma_mm":-7.25,"index":3}},{"type":"Feature","geometry":{"type":"Polygon","coordinates":[[[-1.991,-5.0],[-2.124,-5.126],[-2.166,-5.19],[-2.201,-5.211],[-2.223,-5.288],[-2.286,-5.295],[-2.278,-5.26],[-2.257,-5.246],[-2.251,-5.218],[-2.236,-5.218],[-2.145,-5.063],[-2.04,-4.958],[-2.026,-4.958],[-1.991,-5.0]]]},"properties":{"abbr":null,"name":"unnamed sealed face","plate":44,"ap_bregma_mm":-7.25,"index":4}},{"type":"Feature","geometry":{"type":"Polygon","coordinates":[[[0.954,-5.014],[0.996,-5.042],[1.038,-5.148],[1.066,-5.295],[1.066,-5.429],[1.024,-5.422],[0.975,-5.345],[0.933,-5.155],[0.933,-5.035],[0.954,-5.014]]]},"properties":{"abbr":null,"name":"unnamed sealed face","plate":44,"ap_bregma_mm":-7.25,"index":5}},{"type":"Feature","geometry":{"type":"Polygon","coordinates":[[[-0.911,-5.204],[-0.911,-5.253],[-0.995,-5.253],[-1.052,-5.359],[-1.087,-5.359],[-1.122,-5.443],[-1.129,-5.57],[-1.143,-5.598],[-1.15,-5.598],[-1.178,-5.549],[-1.22,-5.338],[-1.22,-5.225],[-1.213,-5.204],[-1.199,-5.204],[-1.143,-5.274],[-1.079,-5.302],[-1.058,-5.253],[-1.045,-5.148],[-1.002,-5.049],[-0.988,-5.049],[-0.967,-5.084],[-0.981,-5.211],[-0.911,-5.204]]]},"properties":{"abbr":null,"name":"unnamed sealed face","plate":44,"ap_bregma_mm":-7.25,"index":6}},{"type":"Feature","geometry":{"type":"Polygon","coordinates":[[[-2.223,-5.288],[-2.223,-5.38],[-2.173,-5.45],[-2.173,-5.471],[-2.145,-5.506],[-2.082,-5.534],[-2.096,-5.57],[-2.159,-5.598],[-2.223,-5.598],[-2.3,-5.555],[-2.342,-5.555],[-2.349,-5.38],[-2.363,-5.366],[-2.363,-5.323],[-2.342,-5.302],[-2.286,-5.295],[-2.223,-5.288]]]},"properties":{"abbr":null,"name":"unnamed sealed face","plate":44,"ap_bregma_mm":-7.25,"index":7}},{"type":"Feature","geometry":{"type":"Polygon","coordinates":[[[0.197,-5.338],[0.154,-5.366],[0.133,-5.401],[0.119,-5.401],[0.084,-5.485],[0.091,-5.563],[0.133,-5.661],[0.007,-5.675],[0.007,-5.485],[0.028,-5.436],[0.105,-5.351],[0.161,-5.309],[0.19,-5.316],[0.197,-5.338]]]},"properties":{"abbr":null,"name":"unnamed sealed face","plate":44,"ap_bregma_mm":-7.25,"index":8}},{"type":"Feature","geometry":{"type":"Polygon","coordinates":[[[0.007,-5.675],[0.133,-5.661],[0.295,-5.682],[0.358,-5.766],[0.379,-5.872],[0.316,-5.865],[0.169,-5.886],[0.119,-5.907],[0.091,-5.956],[-0.014,-6.006],[-0.07,-6.006],[-0.105,-5.985],[-0.168,-5.978],[-0.175,-5.942],[-0.231,-5.893],[-0.378,-5.886],[-0.392,-5.872],[-0.378,-5.795],[-0.364,-5.788],[-0.322,-5.675],[-0.21,-5.668],[-0.182,-5.654],[-0.119,-5.563],[-0.112,-5.485],[-0.126,-5.429],[-0.091,-5.422],[-0.084,-5.457],[-0.056,-5.935],[-0.028,-5.942],[-0.007,-5.893],[0.007,-5.816],[0.007,-5.675]]]},"properties":{"abbr":null,"name":"unnamed sealed face","plate":44,"ap_bregma_mm":-7.25,"index":9}},{"type":"Feature","geometry":{"type":"Polygon","coordinates":[[[-3.197,-5.724],[-3.239,-5.795],[-3.351,-5.879],[-3.407,-5.97],[-3.442,-6.09],[-3.471,-6.238],[-3.505,-6.259],[-3.534,-6.203],[-3.534,-6.062],[-3.505,-5.935],[-3.477,-5.886],[-3.428,-5.844],[-3.45,-5.753],[-3.358,-5.753],[-3.26,-5.717],[-3.197,-5.724]]]},"properties":{"abbr":null,"name":"unnamed sealed face","plate":44,"ap_bregma_mm":-7.25,"index":10}},{"type":"Feature","geometry":{"type":"Polygon","coordinates":[[[3.632,-5.731],[3.59,-5.809],[3.625,-5.9],[3.625,-6.174],[3.597,-6.238],[3.569,-6.259],[3.548,-6.252],[3.562,-6.069],[3.562,-5.907],[3.499,-5.788],[3.499,-5.738],[3.52,-5.717],[3.632,-5.731]]]},"properties":{"abbr":null,"name":"unnamed sealed face","plate":44,"ap_bregma_mm":-7.25,"index":11}},{"type":"Feature","geometry":{"type":"Polygon","coordinates":[[[1.886,-5.928],[1.956,-5.942],[1.998,-6.013],[2.006,-6.139],[1.963,-6.343],[1.921,-6.463],[1.893,-6.639],[1.844,-6.758],[1.802,-6.786],[1.669,-6.779],[1.627,-6.772],[1.585,-6.744],[1.592,-6.582],[1.473,-6.512],[1.473,-6.498],[1.459,-6.498],[1.423,-6.456],[1.367,-6.378],[1.346,-6.287],[1.466,-6.259],[1.487,-6.364],[1.557,-6.456],[1.641,-6.491],[1.76,-6.484],[1.844,-6.364],[1.893,-6.238],[1.907,-6.076],[1.886,-5.928]]]},"properties":{"abbr":null,"name":"unnamed sealed face","plate":44,"ap_bregma_mm":-7.25,"index":12}},{"type":"Feature","geometry":{"type":"Polygon","coordinates":[[[2.118,-7.328],[2.174,-7.342],[2.286,-7.342],[2.272,-7.384],[2.216,-7.448],[2.202,-7.448],[2.16,-7.511],[2.097,-7.546],[2.097,-7.497],[2.125,-7.461],[2.118,-7.328]]]},"properties":{"abbr":null,"name":"unnamed sealed face","plate":44,"ap_bregma_mm":-7.25,"index":13}},{"type":"Feature","geometry":{"type":"Polygon","coordinates":[[[-1.732,-7.37],[-1.711,-7.412],[-1.676,-7.433],[-1.676,-7.448],[-1.563,-7.553],[-1.535,-7.616],[-1.619,-7.609],[-1.64,-7.623],[-1.655,-7.623],[-1.711,-7.553],[-1.739,-7.546],[-1.774,-7.511],[-1.844,-7.49],[-1.893,-7.497],[-1.963,-7.553],[-1.998,-7.616],[-2.012,-7.722],[-1.984,-7.771],[-2.033,-7.792],[-2.054,-7.771],[-2.075,-7.694],[-2.082,-7.574],[-2.019,-7.461],[-1.942,-7.384],[-1.879,-7.356],[-1.809,-7.349],[-1.732,-7.37]]]},"properties":{"abbr":null,"name":"unnamed sealed face","plate":44,"ap_bregma_mm":-7.25,"index":14}},{"type":"Feature","geometry":{"type":"Polygon","coordinates":[[[1.662,-7.377],[1.739,-7.384],[1.823,-7.419],[1.893,-7.469],[1.921,-7.518],[1.942,-7.588],[1.921,-7.743],[1.879,-7.806],[1.865,-7.806],[1.851,-7.806],[1.851,-7.778],[1.837,-7.764],[1.858,-7.715],[1.858,-7.602],[1.816,-7.518],[1.781,-7.49],[1.725,-7.469],[1.662,-7.469],[1.578,-7.504],[1.522,-7.553],[1.43,-7.56],[1.438,-7.525],[1.494,-7.476],[1.494,-7.461],[1.641,-7.384],[1.662,-7.377]]]},"properties":{"abbr":null,"name":"unnamed sealed face","plate":44,"ap_bregma_mm":-7.25,"index":15}},{"type":"Feature","geometry":{"type":"Polygon","coordinates":[[[-1.697,-7.722],[-1.704,-7.771],[-1.69,-7.869],[-1.598,-8.109],[-1.591,-8.172],[-1.662,-8.123],[-1.711,-8.045],[-1.774,-7.989],[-1.774,-7.975],[-1.788,-7.975],[-1.802,-7.94],[-1.816,-7.94],[-1.879,-7.855],[-1.893,-7.855],[-1.928,-7.799],[-1.802,-7.785],[-1.732,-7.729],[-1.697,-7.722]]]},"properties":{"abbr":null,"name":"unnamed sealed face","plate":44,"ap_bregma_mm":-7.25,"index":16}},{"type":"Feature","geometry":{"type":"Polygon","coordinates":[[[1.837,-7.764],[1.851,-7.778],[1.851,-7.806],[1.865,-7.806],[1.809,-7.933],[1.704,-8.052],[1.669,-8.144],[1.641,-8.165],[1.543,-8.313],[1.529,-8.313],[1.515,-8.348],[1.48,-8.376],[1.473,-8.418],[1.501,-8.439],[1.473,-8.474],[1.332,-8.552],[1.248,-8.615],[1.024,-8.728],[0.996,-8.714],[0.933,-8.559],[0.933,-8.46],[0.961,-8.432],[0.968,-8.432],[1.255,-8.341],[1.318,-8.306],[1.346,-8.27],[1.423,-8.242],[1.459,-8.221],[1.487,-8.179],[1.508,-8.179],[1.501,-8.158],[1.55,-8.052],[1.564,-8.045],[1.571,-7.954],[1.585,-7.954],[1.634,-7.954],[1.704,-7.855],[1.781,-7.778],[1.837,-7.764]]]},"properties":{"abbr":null,"name":"unnamed sealed face","plate":44,"ap_bregma_mm":-7.25,"index":17}},{"type":"Feature","geometry":{"type":"MultiPolygon","coordinates":[[[[-0.392,-8.974],[-0.441,-8.988],[-0.561,-8.981],[-0.827,-8.854],[-1.108,-8.77],[-1.283,-8.699],[-1.444,-8.615],[-1.816,-8.306],[-2.04,-8.038],[-2.194,-7.898],[-2.307,-7.771],[-2.566,-7.419],[-2.797,-7.138],[-3.078,-6.85],[-3.239,-6.61],[-3.484,-6.315],[-3.534,-6.189],[-3.534,-6.076],[-3.505,-5.942],[-3.477,-5.886],[-3.428,-5.837],[-3.456,-5.738],[-3.52,-5.703],[-3.604,-5.71],[-3.66,-5.774],[-3.758,-5.823],[-3.87,-5.837],[-3.954,-5.83],[-4.08,-5.802],[-4.214,-5.753],[-4.368,-5.661],[-4.473,-5.563],[-4.599,-5.359],[-4.599,-5.281],[-4.536,-5.162],[-4.606,-5.063],[-4.676,-5.07],[-4.747,-5.014],[-4.908,-4.698],[-4.971,-4.543],[-5.02,-4.36],[-5.02,-4.205],[-4.985,-4.071],[-4.922,-3.945],[-4.81,-3.818],[-4.536,-3.586],[-4.34,-3.46],[-4.066,-3.34],[-3.996,-3.326],[-3.877,-3.326],[-3.793,-3.354],[-3.716,-3.41],[-3.646,-3.502],[-3.66,-3.664],[-3.646,-3.734],[-3.583,-3.86],[-3.288,-4.1],[-3.19,-4.064],[-3.176,-3.839],[-3.197,-3.692],[-3.232,-3.572],[-3.295,-3.46],[-3.295,-3.396],[-3.386,-3.333],[-3.414,-3.347],[-3.484,-3.333],[-3.527,-3.298],[-3.583,-3.213],[-3.632,-3.094],[-3.688,-2.897],[-3.716,-2.742],[-3.73,-2.531],[-3.716,-2.376],[-3.688,-2.25],[-3.611,-2.011],[-3.513,-1.8],[-3.442,-1.694],[-3.344,-1.589],[-3.232,-1.497],[-3.036,-1.371],[-2.839,-1.293],[-2.72,-1.293],[-2.615,-1.35],[-2.573,-1.406],[-2.559,-1.455],[-2.489,-1.476],[-2.419,-1.385],[-2.251,-1.216],[-2.124,-1.118],[-1.956,-1.019],[-1.767,-0.963],[-1.605,-0.977],[-1.493,-1.033],[-1.423,-1.11],[-1.388,-1.237],[-1.29,-1.258],[-1.122,-0.949],[-1.037,-0.85],[-0.897,-0.731],[-0.638,-0.604],[-0.386,-0.548],[-0.056,-0.555],[0.049,-0.569],[0.624,-0.562],[0.926,-0.618],[1.066,-0.681],[1.248,-0.822],[1.36,-0.977],[1.48,-1.272],[1.571,-1.265],[1.62,-1.202],[1.732,-1.153],[1.886,-1.132],[1.998,-1.132],[2.258,-1.153],[2.377,-1.181],[2.468,-1.244],[2.601,-1.399],[2.672,-1.392],[2.756,-1.329],[2.896,-1.293],[3.008,-1.293],[3.204,-1.343],[3.485,-1.469],[3.667,-1.603],[3.814,-1.75],[3.905,-1.877],[3.976,-2.011],[4.018,-2.151],[4.032,-2.313],[4.018,-2.644],[3.969,-2.834],[3.905,-2.946],[3.849,-3.002],[3.723,-3.059],[3.66,-3.073],[3.604,-3.066],[3.569,-3.108],[3.604,-3.263],[3.604,-3.424],[3.59,-3.488],[3.541,-3.6],[3.408,-3.776],[3.352,-3.966],[3.464,-4.036],[3.646,-3.924],[3.716,-3.903],[4.032,-3.656],[4.277,-3.389],[4.375,-3.347],[4.452,-3.347],[4.544,-3.382],[4.796,-3.523],[5.07,-3.706],[5.28,-3.91],[5.371,-4.064],[5.406,-4.219],[5.406,-4.353],[5.378,-4.402],[5.273,-4.5],[5.203,-4.592],[5.041,-4.894],[4.978,-4.958],[4.859,-5.021],[4.712,-5.014],[4.621,-4.972],[4.536,-5.056],[4.607,-5.176],[4.607,-5.288],[4.523,-5.415],[4.382,-5.549],[4.27,-5.605],[4.151,-5.626],[4.046,-5.626],[3.969,-5.584],[3.884,-5.612],[3.849,-5.661],[3.807,-5.682],[3.625,-5.724],[3.583,-5.816],[3.618,-5.907],[3.618,-6.16],[3.59,-6.231],[3.513,-6.308],[3.408,-6.378],[3.267,-6.533],[2.973,-6.934],[2.826,-7.11],[2.181,-7.687],[1.963,-7.905],[1.683,-8.256],[1.473,-8.46],[1.192,-8.636],[0.975,-8.742],[0.729,-8.833],[0.526,-8.861],[0.386,-8.854],[0.253,-8.812],[0.119,-8.728],[0.028,-8.699],[-0.378,-8.967],[-0.392,-8.974]]]]},"properties":{"abbr":"brain_outline","name":"outline of the section","plate":44,"ap_bregma_mm":-7.25}}]}
