{"type":"FeatureCollection","name":"GerbilAtlas plate 50","note":"Region extents cut from the atlas drawing (METHODS.md, Region extents). Coordinates are [ML, DV] in mm, ML positive to the right of the plate as printed, DV negative below the dorsal surface; AP is the plate bregma. traced_fraction is the share of each polygon boundary the atlas actually draws; below 0.5 the boundary is an estimate. no_drawn_outline marks a feature that lies only inside boundaries the atlas draws round more than one name and prints nothing within, so the whole of its outline is where the extraction cut it. Not a segmentation.","plate":50,"ap_bregma_mm":-9.35,"features":[{"type":"Feature","geometry":{"type":"MultiPolygon","coordinates":[[[[1.417,-1.391],[1.417,-1.433],[1.459,-1.504],[1.459,-1.729],[1.291,-2.045],[1.283,-2.094],[1.094,-2.277],[1.094,-2.355],[1.297,-2.763],[1.297,-2.847],[1.312,-2.854],[1.304,-3.234],[1.241,-3.262],[1.122,-3.41],[0.274,-3.41],[0.267,-3.424],[0.232,-3.424],[0.169,-3.381],[-0.014,-3.339],[-0.217,-3.346],[-0.287,-3.368],[-0.371,-3.417],[-0.385,-3.417],[-0.413,-3.381],[-1.002,-3.381],[-1.002,-3.311],[-0.974,-3.248],[-1.178,-2.861],[-1.178,-2.594],[-1.058,-2.348],[-1.002,-2.298],[-1.002,-1.883],[-1.086,-1.729],[-1.086,-1.553],[-1.101,-1.539],[-1.101,-1.49],[-1.072,-1.483],[-1.044,-1.44],[-1.023,-1.321],[-0.988,-1.258],[-0.89,-1.166],[-0.771,-1.103],[-0.406,-1.025],[0.0,-0.99],[0.176,-0.99],[0.456,-1.025],[0.779,-1.124],[0.926,-1.201],[1.178,-1.454],[1.255,-1.461],[1.417,-1.391]]]]},"properties":{"abbr":"6Cb","name":"6th cerebellar lobule","plate":50,"ap_bregma_mm":-9.35,"area_mm2":5.3645,"traced_fraction":[0.424],"n_labels":2,"no_drawn_outline":true}},{"type":"Feature","geometry":{"type":"MultiPolygon","coordinates":[[[[-1.178,-2.594],[-1.178,-2.861],[-0.974,-3.248],[-1.002,-3.311],[-1.002,-3.381],[-1.037,-3.424],[-1.051,-3.424],[-1.093,-3.353],[-1.15,-3.297],[-1.192,-3.276],[-1.248,-3.276],[-1.297,-3.297],[-1.339,-3.339],[-1.367,-3.41],[-1.367,-3.508],[-1.269,-3.775],[-1.192,-3.916],[-1.072,-4.043],[-1.058,-4.043],[-1.002,-4.12],[-1.016,-4.141],[-1.044,-4.148],[-1.213,-4.148],[-1.248,-4.141],[-1.311,-4.085],[-1.346,-4.036],[-1.409,-3.888],[-1.437,-3.761],[-1.451,-3.585],[-1.472,-3.536],[-1.549,-3.459],[-1.584,-3.445],[-1.619,-3.459],[-1.647,-3.536],[-1.64,-3.733],[-1.654,-3.888],[-1.668,-3.923],[-1.731,-3.972],[-1.872,-4.043],[-2.012,-4.085],[-2.061,-4.12],[-2.082,-4.12],[-2.11,-4.169],[-2.131,-4.169],[-2.166,-4.127],[-2.222,-4.106],[-2.215,-4.064],[-2.159,-4.085],[-2.096,-4.071],[-2.054,-3.986],[-2.047,-3.895],[-1.998,-3.895],[-1.998,-3.747],[-2.061,-3.747],[-2.096,-3.663],[-2.173,-3.6],[-2.271,-3.614],[-2.313,-3.649],[-2.334,-3.649],[-2.355,-3.691],[-2.405,-3.684],[-2.545,-3.754],[-2.636,-3.846],[-2.636,-3.923],[-2.748,-3.923],[-3.078,-3.754],[-3.428,-3.754],[-3.442,-3.768],[-3.484,-3.768],[-3.561,-3.48],[-3.568,-3.353],[-3.547,-3.297],[-3.519,-3.276],[-3.512,-3.248],[-3.498,-3.234],[-3.407,-3.22],[-3.253,-3.142],[-3.197,-3.135],[-3.162,-3.107],[-3.127,-3.107],[-3.008,-3.051],[-2.587,-2.931],[-2.405,-2.931],[-2.355,-2.96],[-2.264,-3.051],[-2.222,-3.058],[-2.222,-3.044],[-2.075,-2.903],[-1.928,-2.594],[-1.178,-2.594]]],[[[1.297,-2.763],[2.377,-2.763],[2.398,-2.798],[2.531,-2.805],[2.531,-2.819],[2.552,-2.826],[2.861,-2.847],[3.099,-2.896],[3.148,-2.889],[3.226,-2.903],[3.289,-2.924],[3.289,-2.938],[3.59,-3.023],[3.688,-3.037],[3.885,-3.03],[3.99,-3.065],[4.032,-3.107],[4.039,-3.206],[3.969,-3.339],[3.955,-3.445],[3.906,-3.593],[3.892,-3.6],[3.85,-3.698],[3.779,-3.782],[3.737,-3.874],[3.723,-3.93],[3.73,-4.043],[3.317,-4.043],[3.31,-4.092],[3.127,-4.282],[3.113,-4.282],[2.945,-4.106],[2.545,-4.099],[2.433,-3.979],[2.468,-3.93],[2.482,-3.881],[2.531,-3.874],[2.531,-3.74],[2.545,-3.733],[2.545,-3.663],[2.489,-3.656],[2.482,-3.614],[2.447,-3.585],[2.433,-3.543],[2.384,-3.543],[2.3,-3.607],[2.223,-3.529],[2.181,-3.452],[1.725,-3.452],[1.725,-3.466],[1.69,-3.466],[1.627,-3.564],[1.536,-3.895],[1.508,-3.986],[1.417,-4.085],[1.34,-4.127],[1.276,-4.141],[1.08,-4.141],[1.08,-4.127],[1.164,-4.05],[1.234,-3.951],[1.312,-3.86],[1.375,-3.705],[1.41,-3.656],[1.452,-3.536],[1.452,-3.396],[1.431,-3.318],[1.368,-3.241],[1.304,-3.234],[1.312,-2.854],[1.297,-2.847],[1.297,-2.763]]]]},"properties":{"abbr":"Crus2","name":"crus 2 of the ansiform lobule","plate":50,"ap_bregma_mm":-9.35,"area_mm2":4.8281,"traced_fraction":[0.628,0.598],"n_labels":2,"no_drawn_outline":true}},{"type":"Feature","geometry":{"type":"MultiPolygon","coordinates":[[[[1.304,-3.234],[1.368,-3.241],[1.431,-3.318],[1.452,-3.396],[1.452,-3.536],[1.41,-3.656],[1.375,-3.705],[1.312,-3.86],[1.234,-3.951],[0.87,-3.937],[0.856,-3.923],[0.793,-3.916],[0.982,-3.656],[1.122,-3.41],[1.241,-3.262],[1.304,-3.234]]],[[[-1.051,-3.424],[-1.016,-3.501],[-0.946,-3.579],[-0.89,-3.677],[-0.785,-3.811],[-0.883,-3.916],[-0.932,-3.916],[-0.953,-3.944],[-1.002,-3.951],[-1.016,-3.993],[-1.058,-4.029],[-1.058,-4.043],[-1.072,-4.043],[-1.192,-3.916],[-1.269,-3.775],[-1.367,-3.508],[-1.367,-3.41],[-1.339,-3.339],[-1.297,-3.297],[-1.248,-3.276],[-1.192,-3.276],[-1.15,-3.297],[-1.093,-3.353],[-1.051,-3.424]]]]},"properties":{"abbr":"MedDL","name":"medial cerebellar nucleus, dorsolateral protuberance","plate":50,"ap_bregma_mm":-9.35,"area_mm2":0.5081,"traced_fraction":[0.807,0.835],"n_labels":2,"no_drawn_outline":false}},{"type":"Feature","geometry":{"type":"MultiPolygon","coordinates":[[[[-1.409,-3.888],[-1.654,-3.888],[-1.64,-3.733],[-1.647,-3.536],[-1.64,-3.494],[-1.619,-3.48],[-1.605,-3.445],[-1.549,-3.459],[-1.465,-3.55],[-1.444,-3.621],[-1.437,-3.761],[-1.409,-3.888]]],[[[1.725,-3.466],[1.753,-3.529],[1.746,-3.782],[1.774,-3.86],[1.76,-3.86],[1.732,-3.895],[1.536,-3.895],[1.627,-3.564],[1.662,-3.494],[1.69,-3.466],[1.725,-3.466]]]]},"properties":{"abbr":"IntDM","name":"interposed cerebellar nucleus, dorsomedial crest","plate":50,"ap_bregma_mm":-9.35,"area_mm2":0.1477,"traced_fraction":[0.855,0.85],"n_labels":2,"no_drawn_outline":false}},{"type":"Feature","geometry":{"type":"MultiPolygon","coordinates":[[[[2.433,-3.979],[2.349,-4.029],[2.265,-4.036],[2.181,-3.993],[2.167,-3.923],[1.872,-3.93],[1.802,-3.895],[1.774,-3.86],[1.746,-3.782],[1.753,-3.529],[1.725,-3.466],[1.725,-3.452],[2.181,-3.452],[2.223,-3.529],[2.3,-3.607],[2.384,-3.543],[2.433,-3.543],[2.447,-3.585],[2.475,-3.6],[2.489,-3.656],[2.545,-3.663],[2.545,-3.733],[2.531,-3.74],[2.531,-3.874],[2.482,-3.881],[2.482,-3.902],[2.433,-3.979]]],[[[-2.215,-4.064],[-2.278,-4.008],[-2.391,-4.05],[-2.636,-3.923],[-2.636,-3.846],[-2.545,-3.754],[-2.405,-3.684],[-2.355,-3.691],[-2.334,-3.649],[-2.313,-3.649],[-2.271,-3.614],[-2.173,-3.6],[-2.096,-3.663],[-2.061,-3.747],[-1.998,-3.747],[-1.998,-3.895],[-2.047,-3.895],[-2.054,-3.986],[-2.096,-4.071],[-2.159,-4.085],[-2.215,-4.064]]]]},"properties":{"abbr":"IntDL","name":"interposed cerebellar nucleus, dorsolateral hump","plate":50,"ap_bregma_mm":-9.35,"area_mm2":0.5508,"traced_fraction":[0.563,0.504],"n_labels":2,"no_drawn_outline":true}},{"type":"Feature","geometry":{"type":"MultiPolygon","coordinates":[[[[-0.785,-3.811],[-0.771,-3.811],[-0.771,-3.825],[-0.673,-3.923],[-0.589,-3.972],[-0.455,-4.085],[-0.434,-4.127],[-0.434,-4.19],[-0.462,-4.197],[-0.476,-4.219],[-0.582,-4.24],[-0.729,-4.233],[-0.883,-4.183],[-1.002,-4.12],[-1.058,-4.043],[-1.058,-4.029],[-1.016,-3.993],[-1.002,-3.951],[-0.967,-3.951],[-0.932,-3.916],[-0.883,-3.916],[-0.785,-3.811]]],[[[0.793,-3.916],[0.856,-3.923],[0.87,-3.937],[1.234,-3.951],[1.234,-3.965],[1.08,-4.127],[1.08,-4.141],[1.045,-4.141],[0.961,-4.19],[0.828,-4.24],[0.751,-4.254],[0.638,-4.247],[0.617,-4.261],[0.547,-4.197],[0.547,-4.127],[0.631,-4.029],[0.736,-3.958],[0.793,-3.916]]]]},"properties":{"abbr":"Med","name":"medial (fastigial) cerebellar nucleus","plate":50,"ap_bregma_mm":-9.35,"area_mm2":0.304,"traced_fraction":[0.812,0.778],"n_labels":2,"no_drawn_outline":false}},{"type":"Feature","geometry":{"type":"MultiPolygon","coordinates":[[[[1.774,-3.86],[1.802,-3.895],[1.872,-3.93],[1.921,-3.972],[2.139,-4.071],[2.139,-4.092],[2.188,-4.134],[2.314,-4.331],[2.489,-4.676],[2.489,-4.718],[2.489,-4.725],[2.398,-4.704],[2.013,-4.676],[2.013,-4.669],[2.013,-4.38],[1.55,-4.38],[1.55,-4.549],[1.291,-4.577],[1.269,-4.577],[1.185,-4.57],[1.171,-4.521],[1.213,-4.331],[1.276,-4.183],[1.276,-4.141],[1.34,-4.127],[1.417,-4.085],[1.508,-3.986],[1.536,-3.895],[1.732,-3.895],[1.76,-3.86],[1.774,-3.86]]],[[[-1.654,-3.888],[-1.409,-3.888],[-1.388,-3.951],[-1.311,-4.085],[-1.248,-4.141],[-1.213,-4.148],[-1.213,-4.176],[-1.135,-4.254],[-1.072,-4.366],[-1.051,-4.444],[-1.051,-4.514],[-1.101,-4.514],[-1.29,-4.514],[-1.374,-4.5],[-1.374,-4.324],[-1.844,-4.324],[-1.844,-4.556],[-2.012,-4.598],[-2.187,-4.598],[-2.271,-4.577],[-2.271,-4.556],[-2.173,-4.387],[-2.11,-4.169],[-2.082,-4.12],[-2.061,-4.12],[-2.012,-4.085],[-1.872,-4.043],[-1.731,-3.972],[-1.668,-3.923],[-1.654,-3.888]]]]},"properties":{"abbr":"IntP","name":"interposed cerebellar nucleus, posterior part","plate":50,"ap_bregma_mm":-9.35,"area_mm2":1.0379,"traced_fraction":[0.74,0.721],"n_labels":2,"no_drawn_outline":true}},{"type":"Feature","geometry":{"type":"MultiPolygon","coordinates":[[[[-2.748,-3.923],[-2.748,-3.937],[-2.853,-4.036],[-2.966,-4.254],[-2.966,-4.303],[-3.057,-4.296],[-3.148,-4.268],[-3.302,-4.155],[-3.33,-4.106],[-3.344,-4.106],[-3.4,-4.036],[-3.463,-3.916],[-3.484,-3.768],[-3.442,-3.768],[-3.428,-3.754],[-3.078,-3.754],[-2.748,-3.923]]],[[[3.73,-4.043],[3.737,-4.155],[3.695,-4.261],[3.625,-4.366],[3.555,-4.422],[3.485,-4.451],[3.492,-4.486],[3.254,-4.493],[3.205,-4.387],[3.177,-4.366],[3.169,-4.359],[3.127,-4.282],[3.31,-4.092],[3.317,-4.043],[3.73,-4.043]]]]},"properties":{"abbr":"PM","name":"paramedian lobule","plate":50,"ap_bregma_mm":-9.35,"area_mm2":0.4547,"traced_fraction":[0.441,0.473],"n_labels":2,"no_drawn_outline":true}},{"type":"Feature","geometry":{"type":"MultiPolygon","coordinates":[[[[-2.748,-3.923],[-2.636,-3.923],[-2.391,-4.05],[-2.278,-4.008],[-2.215,-4.064],[-2.222,-4.106],[-2.166,-4.127],[-2.131,-4.169],[-2.11,-4.169],[-2.173,-4.387],[-2.271,-4.556],[-2.271,-4.577],[-2.32,-4.563],[-2.426,-4.563],[-2.475,-4.577],[-2.566,-4.612],[-2.734,-4.697],[-2.741,-4.711],[-2.832,-4.739],[-2.832,-4.619],[-2.853,-4.598],[-2.846,-4.465],[-2.86,-4.387],[-2.874,-4.324],[-2.895,-4.31],[-2.902,-4.289],[-2.923,-4.289],[-2.923,-4.303],[-2.966,-4.303],[-2.966,-4.254],[-2.853,-4.036],[-2.748,-3.937],[-2.748,-3.923]]],[[[2.433,-3.979],[2.545,-4.099],[2.945,-4.106],[3.113,-4.282],[3.127,-4.282],[3.169,-4.359],[3.177,-4.366],[3.205,-4.387],[3.254,-4.493],[3.127,-4.619],[3.078,-4.704],[2.98,-4.795],[2.966,-4.957],[2.889,-4.922],[2.889,-4.908],[2.854,-4.88],[2.672,-4.774],[2.51,-4.739],[2.496,-4.725],[2.489,-4.718],[2.489,-4.676],[2.314,-4.331],[2.188,-4.134],[2.139,-4.092],[2.139,-4.071],[1.921,-3.972],[1.872,-3.93],[2.167,-3.923],[2.181,-3.993],[2.265,-4.036],[2.349,-4.029],[2.433,-3.979]]]]},"properties":{"abbr":"Cop","name":"copula of the pyramis","plate":50,"ap_bregma_mm":-9.35,"area_mm2":1.0327,"traced_fraction":[0.626,0.651],"n_labels":2,"no_drawn_outline":true}},{"type":"Feature","geometry":{"type":"MultiPolygon","coordinates":[[[[-1.374,-4.5],[-1.598,-4.493],[-1.689,-4.507],[-1.844,-4.556],[-1.844,-4.324],[-1.374,-4.324],[-1.374,-4.5]]],[[[2.013,-4.669],[1.907,-4.605],[1.823,-4.584],[1.55,-4.549],[1.55,-4.38],[2.013,-4.38],[2.013,-4.669]]]]},"properties":{"abbr":"IntPPC","name":"interposed cerebellar nucleus, posterior parvicellular part","plate":50,"ap_bregma_mm":-9.35,"area_mm2":0.1827,"traced_fraction":[0.399,0.389],"n_labels":2,"no_drawn_outline":true}},{"type":"Feature","geometry":{"type":"MultiPolygon","coordinates":[[[[-1.002,-4.12],[-0.883,-4.183],[-0.729,-4.233],[-0.582,-4.24],[-0.476,-4.219],[-0.525,-4.331],[-0.596,-4.401],[-0.596,-4.415],[-0.652,-4.458],[-0.652,-4.472],[-0.673,-4.479],[-0.673,-4.5],[-1.051,-4.514],[-1.051,-4.444],[-1.072,-4.366],[-1.135,-4.254],[-1.213,-4.176],[-1.213,-4.148],[-1.044,-4.148],[-1.016,-4.141],[-1.002,-4.12]]],[[[1.08,-4.141],[1.276,-4.141],[1.276,-4.183],[1.213,-4.331],[1.171,-4.521],[1.185,-4.57],[1.269,-4.577],[1.241,-4.619],[1.199,-4.626],[1.136,-4.563],[0.877,-4.514],[0.863,-4.5],[0.863,-4.486],[0.821,-4.451],[0.73,-4.401],[0.638,-4.31],[0.617,-4.261],[0.638,-4.247],[0.751,-4.254],[0.828,-4.24],[0.961,-4.19],[1.045,-4.141],[1.08,-4.141]]]]},"properties":{"abbr":"MedL","name":"medial cerebellar nucleus, lateral part","plate":50,"ap_bregma_mm":-9.35,"area_mm2":0.3452,"traced_fraction":[1.0,1.0],"n_labels":2,"no_drawn_outline":false}},{"type":"Feature","geometry":{"type":"MultiPolygon","coordinates":[[[[-0.771,-3.811],[-0.413,-3.811],[-0.133,-3.958],[0.736,-3.958],[0.631,-4.029],[0.547,-4.127],[0.547,-4.197],[0.617,-4.261],[0.638,-4.31],[0.73,-4.401],[0.821,-4.451],[0.863,-4.486],[0.863,-4.5],[0.793,-4.514],[0.526,-4.521],[0.407,-4.535],[0.379,-4.542],[0.379,-4.556],[0.302,-4.563],[0.12,-4.584],[0.084,-4.57],[-0.056,-4.577],[-0.364,-4.542],[-0.589,-4.542],[-0.61,-4.514],[-0.652,-4.472],[-0.652,-4.458],[-0.638,-4.458],[-0.525,-4.331],[-0.476,-4.219],[-0.462,-4.197],[-0.434,-4.19],[-0.434,-4.127],[-0.455,-4.085],[-0.589,-3.972],[-0.673,-3.923],[-0.771,-3.825],[-0.771,-3.811]]]]},"properties":{"abbr":"9Cb","name":"9th cerebellar lobule","plate":50,"ap_bregma_mm":-9.35,"area_mm2":0.772,"traced_fraction":[0.69],"n_labels":1,"no_drawn_outline":true}},{"type":"Feature","geometry":{"type":"MultiPolygon","coordinates":[[[[-1.374,-4.5],[-1.29,-4.514],[-1.101,-4.514],[-1.086,-4.584],[-1.304,-4.556],[-1.535,-4.556],[-1.696,-4.598],[-1.76,-4.633],[-1.816,-4.69],[-1.809,-4.718],[-1.724,-4.76],[-1.654,-4.83],[-1.654,-4.873],[-1.71,-4.936],[-1.71,-4.985],[-1.689,-5.02],[-1.591,-5.112],[-1.605,-5.126],[-1.696,-5.14],[-1.724,-5.105],[-1.781,-5.07],[-1.837,-4.999],[-1.963,-4.943],[-2.124,-4.915],[-2.334,-4.922],[-2.482,-4.943],[-2.496,-4.957],[-2.629,-4.992],[-2.748,-5.055],[-2.938,-5.196],[-3.071,-5.196],[-3.127,-5.21],[-3.218,-5.21],[-3.232,-5.196],[-3.141,-5.147],[-3.043,-5.055],[-2.944,-4.844],[-2.832,-4.739],[-2.741,-4.711],[-2.734,-4.697],[-2.475,-4.577],[-2.426,-4.563],[-2.32,-4.563],[-2.271,-4.577],[-2.187,-4.598],[-2.012,-4.598],[-1.844,-4.556],[-1.689,-4.507],[-1.598,-4.493],[-1.374,-4.5]]],[[[2.013,-4.676],[2.398,-4.704],[2.489,-4.725],[2.496,-4.725],[2.51,-4.739],[2.503,-4.823],[2.545,-4.929],[2.314,-4.922],[2.069,-4.957],[1.942,-4.999],[1.795,-5.091],[1.648,-5.133],[1.627,-5.133],[1.522,-5.112],[1.445,-5.119],[1.234,-5.119],[1.066,-5.119],[1.108,-5.062],[1.192,-4.999],[1.431,-4.978],[1.599,-4.936],[1.669,-4.887],[1.704,-4.788],[1.957,-4.753],[1.999,-4.718],[2.013,-4.676]]]]},"properties":{"abbr":"LR4V","name":"lateral recess of the 4th ventricle","plate":50,"ap_bregma_mm":-9.35,"area_mm2":0.8434,"traced_fraction":[1.0,1.0],"n_labels":2,"no_drawn_outline":false}},{"type":"Feature","geometry":{"type":"MultiPolygon","coordinates":[[[[-3.561,-4.57],[-3.568,-4.591],[-3.54,-4.633],[-3.519,-4.633],[-3.498,-4.577],[-3.47,-4.521],[-3.421,-4.472],[-3.344,-4.43],[-3.267,-4.408],[-3.106,-4.401],[-3.043,-4.415],[-2.923,-4.493],[-2.895,-4.577],[-2.881,-4.598],[-2.853,-4.598],[-2.832,-4.619],[-2.832,-4.739],[-2.944,-4.844],[-3.043,-5.055],[-3.141,-5.147],[-3.232,-5.196],[-3.253,-5.196],[-3.274,-5.175],[-3.33,-5.161],[-3.477,-5.154],[-3.582,-5.175],[-3.639,-5.203],[-3.772,-5.245],[-4.066,-5.252],[-4.199,-5.224],[-4.312,-5.182],[-4.389,-5.14],[-4.403,-5.119],[-4.445,-5.105],[-4.585,-4.957],[-4.627,-4.844],[-4.627,-4.781],[-4.606,-4.69],[-4.543,-4.584],[-4.403,-4.444],[-4.263,-4.373],[-3.94,-4.352],[-3.709,-4.38],[-3.618,-4.451],[-3.582,-4.549],[-3.561,-4.57]]],[[[3.492,-4.486],[3.506,-4.521],[3.639,-4.535],[3.758,-4.591],[3.821,-4.655],[3.871,-4.774],[3.871,-5.013],[3.85,-5.112],[3.821,-5.168],[3.772,-5.21],[3.646,-5.238],[3.59,-5.274],[3.569,-5.288],[3.562,-5.281],[3.562,-5.295],[3.485,-5.351],[3.387,-5.358],[3.303,-5.323],[3.247,-5.281],[3.148,-5.182],[3.05,-5.041],[3.015,-5.013],[2.98,-5.006],[2.966,-4.957],[2.98,-4.795],[3.078,-4.704],[3.127,-4.619],[3.254,-4.493],[3.492,-4.486]]]]},"properties":{"abbr":"PFl","name":"paraflocculus","plate":50,"ap_bregma_mm":-9.35,"area_mm2":1.8251,"traced_fraction":[0.98,0.822],"n_labels":3,"no_drawn_outline":false}},{"type":"Feature","geometry":{"type":"MultiPolygon","coordinates":[[[[-0.673,-4.5],[-0.61,-4.514],[-0.589,-4.542],[-0.736,-4.598],[-0.785,-4.648],[-0.827,-4.739],[-0.827,-4.844],[-0.813,-4.88],[-0.729,-4.957],[-0.638,-5.006],[-0.518,-5.034],[-0.322,-5.027],[-0.105,-4.978],[-0.014,-4.943],[0.134,-4.936],[0.407,-5.027],[0.596,-5.07],[0.715,-5.077],[0.905,-5.041],[1.01,-4.985],[1.059,-4.922],[1.066,-4.837],[1.052,-4.746],[0.975,-4.655],[0.849,-4.612],[0.708,-4.591],[0.379,-4.591],[0.379,-4.556],[0.379,-4.542],[0.407,-4.535],[0.526,-4.521],[0.793,-4.514],[0.863,-4.5],[0.877,-4.514],[1.136,-4.563],[1.199,-4.626],[1.241,-4.619],[1.269,-4.577],[1.291,-4.577],[1.319,-4.626],[1.319,-4.676],[1.333,-4.704],[1.368,-4.697],[1.403,-4.662],[1.424,-4.662],[1.473,-4.626],[1.529,-4.612],[1.634,-4.612],[1.697,-4.648],[1.767,-4.648],[1.802,-4.626],[1.823,-4.584],[1.907,-4.605],[2.013,-4.669],[2.013,-4.676],[1.999,-4.718],[1.957,-4.753],[1.704,-4.788],[1.669,-4.887],[1.599,-4.936],[1.431,-4.978],[1.192,-4.999],[1.108,-5.062],[1.066,-5.119],[0.73,-5.154],[0.603,-5.189],[0.505,-5.238],[0.421,-5.302],[0.365,-5.365],[0.274,-5.52],[0.232,-5.646],[0.084,-5.646],[0.049,-5.625],[-0.014,-5.625],[-0.049,-5.646],[-0.168,-5.66],[-0.203,-5.548],[-0.259,-5.442],[-0.378,-5.266],[-0.462,-5.182],[-0.596,-5.119],[-0.708,-5.098],[-0.932,-5.084],[-0.967,-5.048],[-1.051,-5.02],[-1.164,-5.02],[-1.213,-5.041],[-1.227,-5.055],[-1.22,-5.077],[-1.241,-5.091],[-1.269,-5.07],[-1.325,-5.07],[-1.458,-5.077],[-1.591,-5.112],[-1.689,-5.02],[-1.71,-4.985],[-1.71,-4.936],[-1.654,-4.873],[-1.654,-4.83],[-1.724,-4.76],[-1.809,-4.718],[-1.816,-4.69],[-1.76,-4.633],[-1.696,-4.598],[-1.535,-4.556],[-1.304,-4.556],[-1.086,-4.584],[-1.101,-4.514],[-1.051,-4.514],[-0.673,-4.5]]],[[[-3.253,-5.196],[-3.232,-5.196],[-3.218,-5.21],[-2.938,-5.196],[-2.959,-5.238],[-3.057,-5.33],[-3.141,-5.323],[-3.225,-5.351],[-3.288,-5.386],[-3.358,-5.463],[-3.379,-5.499],[-3.358,-5.548],[-3.33,-5.562],[-3.225,-5.562],[-3.26,-5.667],[-3.274,-5.674],[-3.288,-5.66],[-3.407,-5.653],[-3.533,-5.59],[-3.582,-5.527],[-3.618,-5.449],[-3.618,-5.337],[-3.589,-5.295],[-3.54,-5.252],[-3.477,-5.224],[-3.379,-5.203],[-3.267,-5.21],[-3.253,-5.196]]]]},"properties":{"abbr":"chp","name":"choroid plexus","plate":50,"ap_bregma_mm":-9.35,"area_mm2":1.5704,"traced_fraction":[1.0,1.0],"n_labels":3,"no_drawn_outline":false}},{"type":"Feature","geometry":{"type":"MultiPolygon","coordinates":[[[[-0.589,-4.542],[-0.364,-4.542],[-0.056,-4.577],[0.084,-4.57],[0.12,-4.584],[0.302,-4.563],[0.295,-4.584],[0.379,-4.591],[0.708,-4.591],[0.849,-4.612],[0.975,-4.655],[1.052,-4.746],[1.066,-4.837],[1.059,-4.922],[1.01,-4.985],[0.905,-5.041],[0.793,-5.07],[0.596,-5.07],[0.407,-5.027],[0.134,-4.936],[0.021,-4.936],[-0.322,-5.027],[-0.518,-5.034],[-0.638,-5.006],[-0.729,-4.957],[-0.813,-4.88],[-0.827,-4.844],[-0.827,-4.739],[-0.785,-4.648],[-0.736,-4.598],[-0.589,-4.542]]]]},"properties":{"abbr":"10Cb","name":"10th cerebellar lobule (nodule)","plate":50,"ap_bregma_mm":-9.35,"area_mm2":0.7869,"traced_fraction":[1.0],"n_labels":1,"no_drawn_outline":false}},{"type":"Feature","geometry":{"type":"MultiPolygon","coordinates":[[[[-1.781,-5.07],[-2.089,-5.034],[-2.25,-5.041],[-2.51,-5.098],[-2.636,-5.154],[-2.818,-5.281],[-2.972,-5.442],[-3.022,-5.527],[-3.05,-5.618],[-3.071,-5.695],[-3.071,-5.801],[-3.232,-5.808],[-3.26,-5.688],[-3.26,-5.667],[-3.225,-5.562],[-3.169,-5.513],[-3.057,-5.33],[-2.959,-5.238],[-2.938,-5.196],[-2.748,-5.055],[-2.629,-4.992],[-2.496,-4.957],[-2.482,-4.943],[-2.334,-4.922],[-2.124,-4.915],[-1.963,-4.943],[-1.837,-4.999],[-1.781,-5.07]]],[[[2.545,-4.929],[2.735,-4.978],[2.861,-5.034],[3.036,-5.175],[3.183,-5.351],[3.19,-5.372],[3.211,-5.379],[3.303,-5.569],[3.324,-5.583],[3.338,-5.59],[3.338,-5.597],[3.338,-5.59],[3.401,-5.625],[3.415,-5.667],[3.415,-5.703],[3.373,-5.773],[3.338,-5.773],[3.268,-5.815],[3.134,-5.808],[3.106,-5.766],[3.092,-5.71],[3.156,-5.66],[3.156,-5.59],[3.001,-5.351],[2.812,-5.168],[2.637,-5.084],[2.391,-5.034],[2.202,-5.041],[1.984,-5.084],[1.753,-5.189],[1.669,-5.168],[1.648,-5.133],[1.795,-5.091],[1.942,-4.999],[2.069,-4.957],[2.314,-4.922],[2.545,-4.929]]]]},"properties":{"abbr":"DCFu","name":"dorsal cochlear nucleus, fusiform layer","plate":50,"ap_bregma_mm":-9.35,"area_mm2":0.5234,"traced_fraction":[1.0,1.0],"n_labels":2,"no_drawn_outline":false}},{"type":"Feature","geometry":{"type":"MultiPolygon","coordinates":[[[[-2.012,-5.126],[-1.837,-5.154],[-1.788,-5.182],[-1.977,-5.372],[-2.012,-5.372],[-2.012,-5.126]]],[[[1.627,-5.133],[1.648,-5.133],[1.669,-5.168],[1.753,-5.189],[1.753,-5.21],[1.788,-5.238],[1.872,-5.274],[1.879,-5.288],[1.62,-5.295],[1.627,-5.133]]]]},"properties":{"abbr":"das","name":"dorsal acoustic stria","plate":50,"ap_bregma_mm":-9.35,"area_mm2":0.0544,"traced_fraction":[0.75,0.559],"n_labels":2,"no_drawn_outline":true}},{"type":"Feature","geometry":{"type":"MultiPolygon","coordinates":[[[[-1.781,-5.07],[-1.724,-5.105],[-1.696,-5.14],[-1.717,-5.161],[-1.788,-5.182],[-1.837,-5.154],[-2.012,-5.126],[-2.173,-5.126],[-2.292,-5.147],[-2.538,-5.231],[-2.664,-5.309],[-2.762,-5.4],[-2.839,-5.506],[-2.895,-5.611],[-2.959,-5.801],[-2.987,-5.836],[-3.071,-5.801],[-3.071,-5.695],[-3.05,-5.618],[-3.022,-5.527],[-2.972,-5.442],[-2.818,-5.281],[-2.636,-5.154],[-2.51,-5.098],[-2.25,-5.041],[-2.089,-5.034],[-1.781,-5.07]]],[[[3.092,-5.71],[2.973,-5.548],[2.791,-5.358],[2.707,-5.302],[2.56,-5.231],[2.363,-5.175],[2.174,-5.168],[1.978,-5.21],[1.893,-5.245],[1.872,-5.274],[1.788,-5.238],[1.753,-5.21],[1.753,-5.189],[1.984,-5.084],[2.202,-5.041],[2.391,-5.034],[2.637,-5.084],[2.812,-5.168],[3.001,-5.351],[3.156,-5.59],[3.156,-5.66],[3.092,-5.71]]]]},"properties":{"abbr":"DCMo","name":"dorsal cochlear nucleus, molecular layer","plate":50,"ap_bregma_mm":-9.35,"area_mm2":0.4097,"traced_fraction":[1.0,1.0],"n_labels":2,"no_drawn_outline":false}},{"type":"Feature","geometry":{"type":"MultiPolygon","coordinates":[[[[-2.012,-5.126],[-2.012,-5.372],[-2.096,-5.372],[-2.208,-5.428],[-2.328,-5.534],[-2.468,-5.625],[-2.594,-5.766],[-2.615,-5.766],[-2.65,-5.801],[-2.72,-5.914],[-2.797,-6.068],[-2.86,-6.286],[-2.923,-6.3],[-2.93,-6.321],[-2.987,-6.244],[-2.966,-6.23],[-2.972,-6.033],[-2.959,-6.005],[-2.959,-5.984],[-2.972,-5.977],[-2.966,-5.892],[-2.987,-5.836],[-2.959,-5.801],[-2.895,-5.611],[-2.839,-5.506],[-2.762,-5.4],[-2.664,-5.309],[-2.538,-5.231],[-2.292,-5.147],[-2.173,-5.126],[-2.012,-5.126]]],[[[3.092,-5.71],[3.106,-5.766],[3.134,-5.808],[3.099,-5.85],[3.05,-5.878],[3.008,-5.892],[2.896,-5.892],[2.833,-5.85],[2.707,-5.71],[2.651,-5.688],[2.468,-5.499],[2.356,-5.428],[2.223,-5.393],[2.111,-5.393],[2.048,-5.421],[1.984,-5.358],[1.879,-5.288],[1.872,-5.274],[1.893,-5.245],[1.978,-5.21],[2.174,-5.168],[2.363,-5.175],[2.56,-5.231],[2.707,-5.302],[2.791,-5.358],[2.973,-5.548],[3.092,-5.71]]]]},"properties":{"abbr":"DCDp","name":"dorsal cochlear nucleus, deep core","plate":50,"ap_bregma_mm":-9.35,"area_mm2":0.7828,"traced_fraction":[0.937,1.0],"n_labels":2,"no_drawn_outline":false}},{"type":"Feature","geometry":{"type":"MultiPolygon","coordinates":[[[[-1.325,-5.07],[-1.304,-5.14],[-1.206,-5.295],[-1.178,-5.379],[-1.156,-5.513],[-1.178,-5.688],[-1.234,-5.85],[-1.311,-5.963],[-1.318,-6.005],[-1.563,-6.005],[-1.591,-6.019],[-1.675,-6.019],[-1.682,-5.984],[-1.781,-5.843],[-1.886,-5.59],[-1.928,-5.534],[-1.942,-5.449],[-1.977,-5.372],[-1.788,-5.182],[-1.717,-5.161],[-1.696,-5.14],[-1.605,-5.126],[-1.591,-5.112],[-1.458,-5.077],[-1.325,-5.07]]],[[[1.627,-5.133],[1.62,-5.295],[1.879,-5.288],[1.984,-5.358],[2.048,-5.421],[2.013,-5.477],[2.013,-5.569],[1.984,-5.597],[1.907,-5.773],[1.837,-5.885],[1.704,-6.054],[1.592,-6.047],[1.564,-6.033],[1.382,-6.047],[1.312,-5.899],[1.255,-5.822],[1.227,-5.731],[1.22,-5.604],[1.241,-5.491],[1.283,-5.379],[1.333,-5.288],[1.438,-5.154],[1.445,-5.119],[1.522,-5.112],[1.627,-5.133]]]]},"properties":{"abbr":"SpVe","name":"spinal vestibular nucleus","plate":50,"ap_bregma_mm":-9.35,"area_mm2":1.0915,"traced_fraction":[1.0,0.876],"n_labels":2,"no_drawn_outline":false}},{"type":"Feature","geometry":{"type":"MultiPolygon","coordinates":[[[[-1.22,-5.077],[-1.156,-5.091],[-0.932,-5.084],[-0.708,-5.098],[-0.596,-5.119],[-0.462,-5.182],[-0.378,-5.266],[-0.259,-5.442],[-0.203,-5.548],[-0.168,-5.66],[-0.119,-5.794],[-0.119,-5.829],[-0.182,-5.808],[-0.266,-5.808],[-0.308,-5.822],[-0.378,-5.878],[-0.406,-5.921],[-0.42,-5.984],[-0.399,-6.117],[-0.462,-6.11],[-0.561,-6.075],[-0.708,-5.977],[-0.785,-5.864],[-0.869,-5.604],[-0.981,-5.386],[-1.058,-5.281],[-1.241,-5.112],[-1.241,-5.091],[-1.22,-5.077]]],[[[1.066,-5.119],[1.234,-5.119],[1.234,-5.154],[1.129,-5.295],[1.045,-5.463],[0.877,-5.843],[0.814,-5.914],[0.8,-5.949],[0.723,-6.026],[0.603,-6.11],[0.484,-6.16],[0.379,-6.167],[0.442,-6.019],[0.442,-5.914],[0.428,-5.878],[0.379,-5.829],[0.316,-5.808],[0.19,-5.808],[0.232,-5.646],[0.274,-5.52],[0.365,-5.365],[0.421,-5.302],[0.505,-5.238],[0.603,-5.189],[0.73,-5.154],[1.066,-5.119]]]]},"properties":{"abbr":"MVePC","name":"medial vestibular nucleus, parvicellular part","plate":50,"ap_bregma_mm":-9.35,"area_mm2":1.1724,"traced_fraction":[1.0,1.0],"n_labels":2,"no_drawn_outline":false}},{"type":"Feature","geometry":{"type":"MultiPolygon","coordinates":[[[[-1.928,-5.534],[-1.886,-5.59],[-1.781,-5.843],[-1.935,-5.85],[-1.984,-5.899],[-2.033,-5.871],[-2.103,-5.871],[-2.159,-5.892],[-2.152,-5.85],[-2.019,-5.695],[-1.97,-5.611],[-1.956,-5.555],[-1.928,-5.534]]],[[[2.013,-5.569],[2.132,-5.695],[2.132,-5.71],[2.153,-5.717],[2.405,-5.97],[2.426,-6.026],[2.391,-6.019],[2.3,-5.963],[2.202,-5.942],[2.083,-5.949],[2.006,-5.984],[1.999,-5.885],[1.837,-5.885],[1.907,-5.773],[1.984,-5.597],[2.013,-5.569]]]]},"properties":{"abbr":"X","name":"nucleus X","plate":50,"ap_bregma_mm":-9.35,"area_mm2":0.1687,"traced_fraction":[0.864,0.871],"n_labels":2,"no_drawn_outline":false}},{"type":"Feature","geometry":{"type":"MultiPolygon","coordinates":[[[[-2.012,-5.372],[-1.977,-5.372],[-1.942,-5.449],[-1.928,-5.534],[-1.956,-5.555],[-1.97,-5.611],[-2.019,-5.695],[-2.152,-5.85],[-2.159,-5.892],[-2.299,-6.026],[-2.482,-6.258],[-2.601,-6.504],[-2.65,-6.659],[-2.664,-6.757],[-2.804,-6.757],[-2.825,-6.476],[-2.804,-6.455],[-2.804,-6.321],[-2.755,-6.061],[-2.713,-5.963],[-2.671,-5.906],[-2.671,-5.885],[-2.594,-5.787],[-2.594,-5.766],[-2.468,-5.625],[-2.328,-5.534],[-2.208,-5.428],[-2.096,-5.372],[-2.012,-5.372]]],[[[2.651,-5.688],[2.665,-5.738],[2.756,-5.864],[2.826,-5.998],[2.889,-6.174],[2.917,-6.329],[2.945,-6.378],[2.952,-6.385],[2.938,-6.736],[2.924,-6.786],[2.777,-6.779],[2.742,-6.575],[2.658,-6.343],[2.552,-6.16],[2.426,-6.026],[2.405,-5.97],[2.153,-5.717],[2.132,-5.71],[2.132,-5.695],[2.013,-5.569],[2.013,-5.477],[2.048,-5.421],[2.111,-5.393],[2.223,-5.393],[2.356,-5.428],[2.468,-5.499],[2.651,-5.688]]]]},"properties":{"abbr":"icp","name":"inferior cerebellar peduncle (restiform body)","plate":50,"ap_bregma_mm":-9.35,"area_mm2":0.9656,"traced_fraction":[0.977,0.971],"n_labels":2,"no_drawn_outline":false}},{"type":"Feature","geometry":{"type":"MultiPolygon","coordinates":[[[[-1.781,-5.843],[-1.682,-5.984],[-1.675,-6.019],[-1.773,-6.033],[-1.823,-6.061],[-1.907,-6.068],[-1.935,-6.089],[-2.047,-6.132],[-2.033,-6.075],[-1.97,-5.991],[-1.97,-5.928],[-1.984,-5.899],[-1.935,-5.85],[-1.781,-5.843]]],[[[1.837,-5.885],[1.999,-5.885],[2.006,-5.984],[1.95,-6.033],[1.95,-6.103],[1.963,-6.125],[1.816,-6.11],[1.746,-6.089],[1.704,-6.054],[1.837,-5.885]]]]},"properties":{"abbr":"Mx","name":"matrix region of the medulla","plate":50,"ap_bregma_mm":-9.35,"area_mm2":0.1076,"traced_fraction":[0.856,0.766],"n_labels":2,"no_drawn_outline":false}},{"type":"Feature","geometry":{"type":"MultiPolygon","coordinates":[[[[-1.325,-5.07],[-1.269,-5.07],[-1.241,-5.091],[-1.241,-5.112],[-1.058,-5.281],[-0.981,-5.386],[-0.869,-5.604],[-0.785,-5.864],[-0.708,-5.977],[-0.561,-6.075],[-0.462,-6.11],[-0.399,-6.117],[-0.371,-6.132],[-0.322,-6.195],[-0.54,-6.202],[-0.575,-6.202],[-0.617,-6.181],[-0.687,-6.174],[-0.799,-6.139],[-0.96,-6.075],[-1.114,-6.054],[-1.318,-6.005],[-1.311,-5.963],[-1.234,-5.85],[-1.178,-5.688],[-1.156,-5.513],[-1.178,-5.379],[-1.206,-5.295],[-1.304,-5.14],[-1.325,-5.07]]],[[[1.445,-5.119],[1.438,-5.154],[1.333,-5.288],[1.283,-5.379],[1.241,-5.491],[1.22,-5.604],[1.227,-5.731],[1.255,-5.822],[1.312,-5.899],[1.382,-6.047],[1.234,-6.096],[0.877,-6.174],[0.652,-6.216],[0.575,-6.223],[0.393,-6.223],[0.33,-6.216],[0.316,-6.202],[0.379,-6.167],[0.456,-6.167],[0.603,-6.11],[0.723,-6.026],[0.8,-5.949],[0.814,-5.914],[0.877,-5.843],[1.045,-5.463],[1.129,-5.295],[1.234,-5.154],[1.234,-5.119],[1.445,-5.119]]]]},"properties":{"abbr":"MVeMC","name":"medial vestibular nucleus, magnocellular part","plate":50,"ap_bregma_mm":-9.35,"area_mm2":0.729,"traced_fraction":[1.0,1.0],"n_labels":2,"no_drawn_outline":false}},{"type":"Feature","geometry":{"type":"MultiPolygon","coordinates":[[[[0.379,-6.167],[0.316,-6.202],[0.169,-6.188],[0.126,-6.16],[0.084,-6.082],[0.084,-5.977],[0.19,-5.808],[0.316,-5.808],[0.379,-5.829],[0.428,-5.878],[0.442,-5.914],[0.442,-6.019],[0.379,-6.167]]],[[[-0.119,-5.829],[-0.042,-5.935],[-0.028,-5.984],[-0.028,-6.075],[-0.042,-6.125],[-0.056,-6.132],[-0.049,-6.153],[-0.14,-6.202],[-0.238,-6.209],[-0.322,-6.195],[-0.322,-6.181],[-0.399,-6.117],[-0.42,-5.984],[-0.406,-5.921],[-0.378,-5.878],[-0.308,-5.822],[-0.266,-5.808],[-0.182,-5.808],[-0.119,-5.829]]]]},"properties":{"abbr":"Pr","name":"prepositus nucleus","plate":50,"ap_bregma_mm":-9.35,"area_mm2":0.2413,"traced_fraction":[1.0,1.0],"n_labels":2,"no_drawn_outline":false}},{"type":"Feature","geometry":{"type":"MultiPolygon","coordinates":[[[[-1.984,-5.899],[-1.97,-5.928],[-1.97,-5.991],[-2.033,-6.075],[-2.047,-6.132],[-1.935,-6.089],[-1.935,-6.202],[-1.921,-6.223],[-1.914,-6.343],[-2.222,-6.343],[-2.257,-6.392],[-2.257,-6.413],[-2.285,-6.434],[-2.328,-6.518],[-2.398,-6.61],[-2.433,-6.68],[-2.468,-6.821],[-2.447,-7.004],[-2.412,-7.151],[-2.383,-7.222],[-2.341,-7.285],[-2.328,-7.285],[-2.306,-7.376],[-2.32,-7.426],[-2.355,-7.461],[-2.412,-7.468],[-2.496,-7.44],[-2.531,-7.44],[-2.545,-7.454],[-2.573,-7.419],[-2.566,-7.412],[-2.58,-7.412],[-2.643,-7.341],[-2.678,-7.271],[-2.685,-7.257],[-2.671,-7.243],[-2.671,-7.165],[-2.685,-7.13],[-2.692,-6.947],[-2.664,-6.757],[-2.657,-6.687],[-2.601,-6.504],[-2.482,-6.258],[-2.299,-6.026],[-2.159,-5.892],[-2.103,-5.871],[-2.033,-5.871],[-1.984,-5.899]]],[[[2.426,-6.026],[2.552,-6.16],[2.658,-6.343],[2.742,-6.575],[2.777,-6.779],[2.777,-7.011],[2.749,-7.13],[2.672,-7.243],[2.672,-7.306],[2.503,-7.503],[2.391,-7.517],[2.342,-7.51],[2.293,-7.461],[2.272,-7.419],[2.3,-7.327],[2.398,-7.264],[2.461,-7.201],[2.531,-7.081],[2.56,-6.954],[2.552,-6.842],[2.503,-6.694],[2.37,-6.427],[2.321,-6.378],[2.279,-6.3],[2.146,-6.202],[2.125,-6.202],[2.125,-6.343],[1.963,-6.343],[1.978,-6.209],[1.999,-6.174],[1.999,-6.153],[1.963,-6.125],[1.95,-6.103],[1.95,-6.033],[2.006,-5.984],[2.083,-5.949],[2.202,-5.942],[2.3,-5.963],[2.391,-6.019],[2.426,-6.026]]]]},"properties":{"abbr":"sp5","name":"spinal trigeminal tract","plate":50,"ap_bregma_mm":-9.35,"area_mm2":0.9835,"traced_fraction":[0.943,0.943],"n_labels":3,"no_drawn_outline":false}},{"type":"Feature","geometry":{"type":"MultiPolygon","coordinates":[[[[-1.823,-6.061],[-1.809,-6.082],[-1.781,-6.082],[-1.703,-6.132],[-1.64,-6.146],[-1.654,-6.188],[-1.612,-6.265],[-1.605,-6.371],[-1.619,-6.434],[-1.654,-6.476],[-1.654,-6.497],[-1.781,-6.589],[-1.844,-6.61],[-1.907,-6.673],[-1.956,-6.779],[-1.984,-6.765],[-2.061,-6.631],[-2.145,-6.525],[-2.257,-6.413],[-2.257,-6.392],[-2.222,-6.343],[-1.914,-6.343],[-1.921,-6.223],[-1.935,-6.202],[-1.935,-6.089],[-1.907,-6.068],[-1.823,-6.061]]],[[[1.816,-6.11],[1.963,-6.125],[1.999,-6.153],[1.978,-6.209],[1.963,-6.343],[2.125,-6.343],[2.125,-6.202],[2.146,-6.202],[2.244,-6.265],[2.3,-6.329],[2.321,-6.378],[2.258,-6.434],[2.237,-6.476],[2.216,-6.483],[2.188,-6.539],[2.132,-6.603],[2.069,-6.736],[2.027,-6.779],[1.963,-6.659],[1.929,-6.624],[1.704,-6.511],[1.641,-6.406],[1.641,-6.3],[1.697,-6.209],[1.816,-6.11]]]]},"properties":{"abbr":"Sp5O","name":"spinal trigeminal nucleus, oral part","plate":50,"ap_bregma_mm":-9.35,"area_mm2":0.4654,"traced_fraction":[0.885,0.85],"n_labels":2,"no_drawn_outline":false}},{"type":"Feature","geometry":{"type":"MultiPolygon","coordinates":[[[[-1.114,-6.054],[-0.96,-6.075],[-0.799,-6.139],[-0.932,-6.314],[-1.058,-6.448],[-1.058,-6.462],[-1.185,-6.589],[-1.241,-6.666],[-1.5,-6.919],[-1.5,-6.933],[-1.682,-7.123],[-1.689,-7.144],[-1.781,-7.13],[-1.907,-7.144],[-1.984,-7.18],[-2.054,-7.243],[-2.075,-7.215],[-2.012,-7.088],[-1.956,-6.779],[-1.907,-6.673],[-1.844,-6.61],[-1.781,-6.589],[-1.654,-6.497],[-1.619,-6.518],[-1.493,-6.518],[-1.388,-6.476],[-1.353,-6.441],[-1.318,-6.343],[-1.304,-6.336],[-1.269,-6.174],[-1.178,-6.139],[-1.129,-6.089],[-1.114,-6.054]]],[[[1.234,-6.096],[1.269,-6.146],[1.34,-6.167],[1.333,-6.209],[1.354,-6.336],[1.368,-6.343],[1.403,-6.441],[1.445,-6.483],[1.55,-6.525],[1.662,-6.525],[1.704,-6.511],[1.929,-6.624],[1.963,-6.659],[2.027,-6.779],[2.02,-6.87],[2.041,-7.039],[2.069,-7.137],[2.125,-7.229],[2.076,-7.25],[1.992,-7.201],[1.865,-7.158],[1.774,-7.158],[1.683,-7.187],[1.62,-7.088],[1.382,-6.821],[1.038,-6.378],[0.905,-6.23],[0.877,-6.174],[1.234,-6.096]]]]},"properties":{"abbr":"PCRt","name":"parvicellular reticular nucleus","plate":50,"ap_bregma_mm":-9.35,"area_mm2":1.0244,"traced_fraction":[1.0,1.0],"n_labels":2,"no_drawn_outline":false}},{"type":"Feature","geometry":{"type":"MultiPolygon","coordinates":[[[[-2.804,-6.757],[-2.664,-6.757],[-2.692,-6.947],[-2.685,-7.13],[-2.671,-7.165],[-2.671,-7.243],[-2.685,-7.257],[-2.734,-7.18],[-2.776,-7.039],[-2.804,-6.757]]],[[[2.777,-6.779],[2.924,-6.786],[2.91,-6.898],[2.833,-7.095],[2.735,-7.257],[2.672,-7.306],[2.672,-7.243],[2.728,-7.172],[2.77,-7.046],[2.777,-6.779]]]]},"properties":{"abbr":"oc","name":"olivocerebellar tract","plate":50,"ap_bregma_mm":-9.35,"area_mm2":0.0925,"traced_fraction":[0.936,0.923],"n_labels":2,"no_drawn_outline":false}},{"type":"Feature","geometry":{"type":"MultiPolygon","coordinates":[[[[2.321,-6.378],[2.37,-6.427],[2.503,-6.694],[2.552,-6.842],[2.56,-6.954],[2.531,-7.081],[2.461,-7.201],[2.398,-7.264],[2.3,-7.327],[2.209,-7.306],[2.125,-7.229],[2.069,-7.137],[2.041,-7.039],[2.02,-6.87],[2.027,-6.779],[2.069,-6.736],[2.132,-6.603],[2.188,-6.539],[2.216,-6.483],[2.23,-6.483],[2.258,-6.434],[2.321,-6.378]]],[[[-2.257,-6.413],[-2.145,-6.525],[-2.061,-6.631],[-2.005,-6.736],[-1.97,-6.779],[-1.956,-6.779],[-2.012,-7.088],[-2.075,-7.215],[-2.194,-7.285],[-2.328,-7.285],[-2.341,-7.285],[-2.383,-7.222],[-2.412,-7.151],[-2.447,-7.004],[-2.468,-6.821],[-2.454,-6.743],[-2.398,-6.61],[-2.328,-6.518],[-2.285,-6.434],[-2.257,-6.413]]]]},"properties":{"abbr":"Sp5I","name":"spinal trigeminal nucleus, interpolar part","plate":50,"ap_bregma_mm":-9.35,"area_mm2":0.6558,"traced_fraction":[0.997,1.0],"n_labels":2,"no_drawn_outline":false}},{"type":"Feature","geometry":{"type":"MultiPolygon","coordinates":[[[[-0.799,-6.139],[-0.687,-6.174],[-0.617,-6.181],[-0.575,-6.202],[-0.729,-6.476],[-0.75,-6.49],[-0.757,-6.518],[-0.841,-6.624],[-0.869,-6.68],[-0.918,-6.722],[-0.925,-6.779],[-0.981,-6.828],[-1.002,-6.877],[-1.065,-6.94],[-1.072,-6.99],[-1.122,-7.032],[-1.241,-7.215],[-1.374,-7.348],[-1.493,-7.257],[-1.647,-7.18],[-1.689,-7.144],[-1.682,-7.123],[-1.5,-6.933],[-1.5,-6.919],[-1.241,-6.666],[-1.185,-6.589],[-1.058,-6.462],[-1.058,-6.448],[-0.932,-6.314],[-0.799,-6.139]]],[[[0.877,-6.174],[0.905,-6.23],[1.038,-6.378],[1.382,-6.821],[1.62,-7.088],[1.683,-7.187],[1.669,-7.201],[1.606,-7.236],[1.459,-7.292],[1.459,-7.306],[1.333,-7.362],[1.178,-7.151],[1.073,-6.954],[0.975,-6.814],[0.891,-6.652],[0.702,-6.357],[0.659,-6.272],[0.652,-6.216],[0.877,-6.174]]]]},"properties":{"abbr":"IRt","name":"intermediate reticular nucleus","plate":50,"ap_bregma_mm":-9.35,"area_mm2":0.8431,"traced_fraction":[0.906,0.995],"n_labels":2,"no_drawn_outline":false}},{"type":"Feature","geometry":{"type":"MultiPolygon","coordinates":[[[[0.183,-6.631],[0.295,-6.659],[0.372,-6.659],[0.372,-6.905],[0.141,-6.905],[0.183,-6.631]]],[[[-0.175,-6.638],[-0.154,-6.891],[-0.35,-6.891],[-0.35,-6.659],[-0.273,-6.659],[-0.175,-6.638]]]]},"properties":{"abbr":"ts","name":"tectospinal tract","plate":50,"ap_bregma_mm":-9.35,"area_mm2":0.0983,"traced_fraction":[0.561,0.575],"n_labels":2,"no_drawn_outline":true}},{"type":"Feature","geometry":{"type":"MultiPolygon","coordinates":[[[[-0.575,-6.202],[-0.54,-6.202],[-0.561,-6.441],[-0.533,-6.554],[-0.476,-6.624],[-0.413,-6.652],[-0.35,-6.659],[-0.35,-6.891],[-0.154,-6.891],[-0.126,-7.229],[-0.091,-7.341],[-0.049,-7.397],[-0.042,-7.433],[-0.077,-7.728],[-0.063,-7.932],[-0.119,-7.939],[-0.189,-7.974],[-0.329,-7.904],[-0.589,-7.827],[-0.911,-7.756],[-1.03,-7.749],[-1.079,-7.742],[-1.107,-7.721],[-1.114,-7.693],[-1.171,-7.623],[-1.227,-7.531],[-1.255,-7.51],[-1.262,-7.482],[-1.311,-7.44],[-1.374,-7.348],[-1.241,-7.215],[-1.122,-7.032],[-1.072,-6.99],[-1.065,-6.94],[-1.023,-6.905],[-0.981,-6.828],[-0.925,-6.779],[-0.918,-6.722],[-0.869,-6.68],[-0.841,-6.624],[-0.757,-6.518],[-0.75,-6.49],[-0.729,-6.476],[-0.575,-6.202]]],[[[0.652,-6.216],[0.659,-6.272],[0.702,-6.357],[0.807,-6.511],[0.975,-6.814],[1.073,-6.954],[1.178,-7.151],[1.333,-7.362],[1.22,-7.482],[1.178,-7.587],[1.164,-7.665],[1.122,-7.707],[0.905,-7.721],[0.561,-7.798],[0.267,-7.911],[0.162,-7.988],[0.141,-7.988],[0.126,-7.967],[0.07,-7.939],[0.007,-7.925],[0.007,-7.77],[0.028,-7.637],[0.028,-7.397],[0.07,-7.355],[0.098,-7.257],[0.141,-6.905],[0.372,-6.905],[0.372,-6.659],[0.491,-6.638],[0.575,-6.546],[0.596,-6.455],[0.596,-6.343],[0.582,-6.314],[0.575,-6.223],[0.652,-6.216]]]]},"properties":{"abbr":"Gi","name":"gigantocellular reticular nucleus","plate":50,"ap_bregma_mm":-9.35,"area_mm2":2.5093,"traced_fraction":[0.864,0.911],"n_labels":2,"no_drawn_outline":false}},{"type":"Feature","geometry":{"type":"MultiPolygon","coordinates":[[[[-1.689,-7.144],[-1.647,-7.18],[-1.647,-7.292],[-1.682,-7.292],[-1.682,-7.355],[-2.11,-7.355],[-2.11,-7.327],[-2.054,-7.243],[-1.984,-7.18],[-1.907,-7.144],[-1.823,-7.13],[-1.689,-7.144]]],[[[2.076,-7.25],[2.132,-7.355],[1.942,-7.362],[1.942,-7.433],[1.669,-7.433],[1.669,-7.201],[1.683,-7.187],[1.774,-7.158],[1.865,-7.158],[1.992,-7.201],[2.076,-7.25]]]]},"properties":{"abbr":"7DL","name":"facial nucleus, dorsolateral subnucleus","plate":50,"ap_bregma_mm":-9.35,"area_mm2":0.1771,"traced_fraction":[0.517,0.458],"n_labels":2,"no_drawn_outline":true}},{"type":"Feature","geometry":{"type":"MultiPolygon","coordinates":[[[[-2.075,-7.215],[-2.054,-7.243],[-2.103,-7.313],[-2.11,-7.355],[-2.124,-7.362],[-2.131,-7.405],[-2.138,-7.552],[-2.11,-7.665],[-2.026,-7.791],[-2.054,-7.82],[-2.089,-7.82],[-2.138,-7.869],[-2.159,-7.848],[-2.166,-7.855],[-2.405,-7.609],[-2.398,-7.601],[-2.426,-7.573],[-2.433,-7.58],[-2.545,-7.454],[-2.531,-7.44],[-2.496,-7.44],[-2.412,-7.468],[-2.355,-7.461],[-2.32,-7.426],[-2.306,-7.376],[-2.328,-7.285],[-2.194,-7.285],[-2.075,-7.215]]],[[[2.125,-7.229],[2.209,-7.306],[2.3,-7.327],[2.272,-7.419],[2.293,-7.461],[2.342,-7.51],[2.391,-7.517],[2.503,-7.503],[2.405,-7.658],[2.279,-7.791],[2.244,-7.812],[2.181,-7.805],[2.153,-7.77],[2.111,-7.756],[2.167,-7.665],[2.167,-7.51],[2.146,-7.369],[2.132,-7.355],[2.076,-7.25],[2.125,-7.229]]]]},"properties":{"abbr":"rs","name":"rubrospinal tract","plate":50,"ap_bregma_mm":-9.35,"area_mm2":0.2466,"traced_fraction":[0.96,0.95],"n_labels":2,"no_drawn_outline":false}},{"type":"Feature","geometry":{"type":"MultiPolygon","coordinates":[[[[2.132,-7.355],[2.146,-7.369],[2.167,-7.51],[1.942,-7.51],[1.942,-7.433],[1.942,-7.362],[2.132,-7.355]]],[[[-2.131,-7.405],[-1.9,-7.405],[-1.9,-7.552],[-2.138,-7.552],[-2.131,-7.405]]]]},"properties":{"abbr":"7L","name":"facial nucleus, lateral subnucleus","plate":50,"ap_bregma_mm":-9.35,"area_mm2":0.0669,"traced_fraction":[0.296,0.274],"n_labels":2,"no_drawn_outline":true}},{"type":"Feature","geometry":{"type":"MultiPolygon","coordinates":[[[[-1.556,-7.44],[-1.311,-7.44],[-1.262,-7.482],[-1.255,-7.51],[-1.227,-7.531],[-1.171,-7.623],[-1.556,-7.623],[-1.556,-7.44]]]]},"properties":{"abbr":"7DM","name":"facial nucleus, dorsomedial subnucleus","plate":50,"ap_bregma_mm":-9.35,"area_mm2":0.0591,"traced_fraction":[0.285],"n_labels":2,"no_drawn_outline":true}},{"type":"Feature","geometry":{"type":"MultiPolygon","coordinates":[[[[0.028,-7.397],[0.028,-7.637],[0.007,-7.77],[0.007,-7.925],[-0.014,-7.953],[-0.021,-8.002],[-0.042,-8.024],[-0.07,-7.974],[-0.063,-7.932],[-0.077,-7.728],[-0.042,-7.433],[-0.049,-7.397],[-0.021,-7.376],[0.007,-7.376],[0.028,-7.397]]]]},"properties":{"abbr":"ROb","name":"raphe obscurus nucleus","plate":50,"ap_bregma_mm":-9.35,"area_mm2":0.0487,"traced_fraction":[0.985],"n_labels":1,"no_drawn_outline":false}},{"type":"Feature","geometry":{"type":"MultiPolygon","coordinates":[[[[1.676,-8.031],[1.669,-8.045],[1.494,-8.129],[1.494,-7.834],[1.676,-7.834],[1.676,-8.031]]],[[[-1.465,-8.136],[-1.661,-8.038],[-1.654,-7.862],[-1.465,-7.862],[-1.465,-8.136]]]]},"properties":{"abbr":"P7","name":"perifacial zone","plate":50,"ap_bregma_mm":-9.35,"area_mm2":0.0894,"traced_fraction":[0.312,0.317],"n_labels":2,"no_drawn_outline":true}},{"type":"Feature","geometry":{"type":"MultiPolygon","coordinates":[[[[-1.037,-7.869],[-1.03,-8.059],[-1.072,-8.052],[-1.199,-8.136],[-1.262,-8.157],[-1.346,-8.164],[-1.346,-7.876],[-1.037,-7.869]]],[[[1.066,-7.897],[1.396,-7.897],[1.396,-8.178],[1.333,-8.192],[1.241,-8.157],[1.101,-8.045],[1.073,-7.981],[1.066,-7.897]]]]},"properties":{"abbr":"7VM","name":"facial nucleus, ventromedial subnucleus","plate":50,"ap_bregma_mm":-9.35,"area_mm2":0.1523,"traced_fraction":[0.421,0.49],"n_labels":2,"no_drawn_outline":true}},{"type":"Feature","geometry":{"type":"MultiPolygon","coordinates":[[[[1.122,-7.707],[1.073,-7.805],[1.066,-7.897],[1.073,-7.981],[1.101,-8.045],[1.087,-8.045],[0.891,-8.241],[0.758,-8.319],[0.617,-8.375],[0.519,-8.389],[0.372,-8.375],[0.344,-8.333],[0.274,-8.15],[0.162,-7.988],[0.267,-7.911],[0.561,-7.798],[0.905,-7.721],[1.122,-7.707]]],[[[-1.03,-7.749],[-0.911,-7.756],[-0.589,-7.827],[-0.329,-7.904],[-0.189,-7.974],[-0.266,-8.031],[-0.266,-8.045],[-0.28,-8.045],[-0.28,-8.059],[-0.294,-8.059],[-0.357,-8.129],[-0.441,-8.256],[-0.491,-8.375],[-0.512,-8.382],[-0.533,-8.361],[-0.617,-8.34],[-0.834,-8.235],[-0.932,-8.164],[-1.03,-8.059],[-1.037,-7.869],[-1.044,-7.841],[-1.03,-7.749]]]]},"properties":{"abbr":"LPGiA","name":"lateral paragigantocellular nucleus, alpha part","plate":50,"ap_bregma_mm":-9.35,"area_mm2":0.7422,"traced_fraction":[1.0,0.933],"n_labels":2,"no_drawn_outline":false}},{"type":"Feature","geometry":{"type":"MultiPolygon","coordinates":[[[[0.007,-7.925],[0.07,-7.939],[0.126,-7.967],[0.141,-7.988],[0.162,-7.988],[0.274,-8.15],[0.344,-8.333],[0.372,-8.375],[0.365,-8.396],[0.316,-8.389],[0.26,-8.354],[0.169,-8.354],[0.113,-8.171],[0.07,-8.115],[-0.042,-8.038],[-0.042,-8.024],[-0.021,-8.002],[-0.014,-7.953],[0.007,-7.925]]]]},"properties":{"abbr":"GiA","name":"gigantocellular reticular nucleus, alpha part","plate":50,"ap_bregma_mm":-9.35,"area_mm2":0.0784,"traced_fraction":[1.0],"n_labels":1,"no_drawn_outline":false}},{"type":"Feature","geometry":{"type":"MultiPolygon","coordinates":[[[[1.101,-8.045],[1.241,-8.157],[1.333,-8.192],[1.304,-8.249],[1.248,-8.305],[1.108,-8.403],[0.786,-8.572],[0.723,-8.586],[0.73,-8.551],[0.702,-8.467],[0.617,-8.389],[0.617,-8.375],[0.758,-8.319],[0.891,-8.241],[1.087,-8.045],[1.101,-8.045]]],[[[-1.03,-8.059],[-0.932,-8.164],[-0.834,-8.235],[-0.617,-8.34],[-0.533,-8.361],[-0.512,-8.382],[-0.645,-8.481],[-0.68,-8.488],[-0.701,-8.452],[-0.736,-8.439],[-0.736,-8.417],[-0.89,-8.417],[-0.897,-8.502],[-0.96,-8.495],[-1.058,-8.46],[-1.262,-8.354],[-1.388,-8.249],[-1.43,-8.171],[-1.346,-8.164],[-1.262,-8.157],[-1.171,-8.122],[-1.072,-8.052],[-1.03,-8.059]]]]},"properties":{"abbr":"LPGiE","name":"lateral paragigantocellular nucleus, external part","plate":50,"ap_bregma_mm":-9.35,"area_mm2":0.3607,"traced_fraction":[1.0,0.99],"n_labels":2,"no_drawn_outline":false}},{"type":"Feature","geometry":{"type":"MultiPolygon","coordinates":[[[[-0.175,-8.671],[-0.294,-8.769],[-0.441,-8.825],[-0.617,-8.825],[-0.778,-8.769],[-0.89,-8.706],[-0.869,-8.664],[-0.736,-8.572],[-0.617,-8.537],[-0.483,-8.53],[-0.385,-8.551],[-0.259,-8.6],[-0.21,-8.628],[-0.175,-8.671]]],[[[0.54,-8.544],[0.582,-8.579],[0.638,-8.593],[0.666,-8.621],[0.694,-8.621],[0.723,-8.685],[0.687,-8.713],[0.687,-8.727],[0.575,-8.797],[0.47,-8.818],[0.246,-8.825],[0.176,-8.804],[0.056,-8.692],[0.021,-8.678],[0.021,-8.671],[0.155,-8.586],[0.316,-8.537],[0.421,-8.53],[0.54,-8.544]]]]},"properties":{"abbr":"py","name":"pyramidal tract","plate":50,"ap_bregma_mm":-9.35,"area_mm2":0.2926,"traced_fraction":[1.0,1.0],"n_labels":2,"no_drawn_outline":false}},{"type":"Feature","geometry":{"type":"MultiPolygon","coordinates":[[[[0.617,-8.375],[0.617,-8.389],[0.702,-8.467],[0.73,-8.551],[0.723,-8.586],[0.694,-8.621],[0.666,-8.621],[0.638,-8.593],[0.582,-8.579],[0.54,-8.544],[0.512,-8.495],[0.519,-8.389],[0.617,-8.375]]]]},"properties":{"abbr":"PPy","name":"parapyramidal nucleus","plate":50,"ap_bregma_mm":-9.35,"area_mm2":0.0356,"traced_fraction":[1.0],"n_labels":2,"no_drawn_outline":false}},{"type":"Feature","geometry":{"type":"MultiPolygon","coordinates":[[[[4.081,-3.03],[4.025,-3.016],[3.927,-2.953],[3.899,-2.953],[3.885,-3.03],[3.688,-3.037],[3.59,-3.023],[3.289,-2.938],[3.289,-2.924],[3.226,-2.903],[3.148,-2.889],[3.099,-2.896],[2.861,-2.847],[2.552,-2.826],[2.531,-2.819],[2.531,-2.805],[2.398,-2.798],[2.377,-2.763],[1.297,-2.763],[1.094,-2.355],[1.094,-2.277],[1.283,-2.094],[1.291,-2.045],[1.459,-1.729],[1.459,-1.504],[1.417,-1.433],[1.417,-1.391],[1.634,-1.335],[1.999,-1.3],[2.552,-1.3],[2.735,-1.314],[2.994,-1.349],[3.338,-1.419],[3.625,-1.518],[3.787,-1.602],[3.829,-1.637],[3.927,-1.679],[4.039,-1.785],[4.088,-1.813],[4.193,-1.94],[4.27,-2.08],[4.319,-2.235],[4.326,-2.404],[4.305,-2.559],[4.376,-2.77],[4.376,-2.882],[4.305,-2.974],[4.179,-3.03],[4.081,-3.03]]],[[[-1.423,-1.447],[-1.409,-1.454],[-1.416,-1.461],[-1.402,-1.475],[-1.395,-1.469],[-1.381,-1.475],[-1.36,-1.49],[-1.234,-1.525],[-1.156,-1.511],[-1.129,-1.504],[-1.101,-1.49],[-1.101,-1.539],[-1.086,-1.553],[-1.086,-1.729],[-1.002,-1.883],[-1.002,-2.298],[-1.058,-2.348],[-1.178,-2.594],[-1.928,-2.594],[-2.075,-2.903],[-2.222,-3.044],[-2.222,-3.058],[-2.264,-3.051],[-2.355,-2.96],[-2.405,-2.931],[-2.587,-2.931],[-3.008,-3.051],[-3.127,-3.107],[-3.162,-3.107],[-3.197,-3.135],[-3.253,-3.142],[-3.407,-3.22],[-3.498,-3.234],[-3.512,-3.248],[-3.568,-3.241],[-3.582,-3.22],[-3.576,-3.164],[-3.547,-3.114],[-3.625,-3.128],[-3.744,-3.135],[-3.835,-3.051],[-3.863,-2.974],[-3.863,-2.882],[-3.835,-2.784],[-3.828,-2.749],[-3.807,-2.65],[-3.807,-2.137],[-3.765,-1.975],[-3.667,-1.764],[-3.561,-1.651],[-3.561,-1.637],[-3.477,-1.56],[-3.379,-1.511],[-3.218,-1.461],[-3.043,-1.426],[-2.846,-1.419],[-2.496,-1.321],[-2.159,-1.314],[-2.005,-1.349],[-1.851,-1.335],[-1.675,-1.342],[-1.5,-1.391],[-1.423,-1.447]]]]},"properties":{"abbr":"Crus1","name":"crus 1 of the ansiform lobule","plate":50,"ap_bregma_mm":-9.35,"area_mm2":8.3294,"traced_fraction":[0.712,0.722],"n_labels":4,"no_drawn_outline":true}},{"type":"Feature","geometry":{"type":"MultiPolygon","coordinates":[[[[1.122,-3.41],[0.982,-3.656],[0.793,-3.916],[0.736,-3.958],[-0.133,-3.958],[-0.413,-3.811],[-0.771,-3.811],[-0.785,-3.811],[-0.89,-3.677],[-0.946,-3.579],[-1.016,-3.501],[-1.051,-3.424],[-1.037,-3.424],[-1.002,-3.381],[-0.413,-3.381],[-0.385,-3.417],[-0.371,-3.417],[-0.287,-3.368],[-0.217,-3.346],[-0.014,-3.339],[0.169,-3.381],[0.232,-3.424],[0.267,-3.424],[0.274,-3.41],[1.122,-3.41]]]]},"properties":{"abbr":"5Cb","name":"5th cerebellar lobule","plate":50,"ap_bregma_mm":-9.35,"area_mm2":0.98,"traced_fraction":[0.386],"n_labels":1,"no_drawn_outline":true}},{"type":"Feature","geometry":{"type":"MultiPolygon","coordinates":[[[[0.232,-5.646],[0.19,-5.808],[0.084,-5.977],[0.035,-5.991],[-0.028,-5.984],[-0.042,-5.935],[-0.119,-5.829],[-0.119,-5.794],[-0.168,-5.66],[-0.049,-5.646],[-0.014,-5.625],[0.049,-5.625],[0.084,-5.646],[0.232,-5.646]]]]},"properties":{"abbr":"4V","name":"4th ventricle","plate":50,"ap_bregma_mm":-9.35,"area_mm2":0.0951,"traced_fraction":[1.0],"n_labels":1,"no_drawn_outline":false}},{"type":"Feature","geometry":{"type":"MultiPolygon","coordinates":[[[[2.651,-5.688],[2.707,-5.71],[2.833,-5.85],[2.896,-5.892],[3.008,-5.892],[3.05,-5.878],[3.099,-5.85],[3.134,-5.808],[3.268,-5.815],[3.338,-5.773],[3.373,-5.773],[3.345,-5.85],[3.205,-6.04],[3.057,-6.174],[3.036,-6.216],[2.952,-6.385],[2.945,-6.378],[2.917,-6.329],[2.889,-6.174],[2.826,-5.998],[2.756,-5.864],[2.665,-5.738],[2.651,-5.688]]],[[[-3.071,-5.801],[-2.987,-5.836],[-2.966,-5.892],[-2.972,-5.977],[-2.959,-5.984],[-2.972,-6.033],[-2.966,-6.23],[-2.987,-6.244],[-3.127,-6.047],[-3.232,-5.836],[-3.232,-5.808],[-3.071,-5.801]]]]},"properties":{"abbr":"GrC","name":"granule cell layer of cochlear nuclei","plate":50,"ap_bregma_mm":-9.35,"area_mm2":0.2279,"traced_fraction":[1.0,0.976],"n_labels":2,"no_drawn_outline":false}},{"type":"Feature","geometry":{"type":"MultiPolygon","coordinates":[[[[-1.318,-6.005],[-1.114,-6.054],[-1.129,-6.089],[-1.178,-6.139],[-1.269,-6.174],[-1.479,-6.181],[-1.64,-6.146],[-1.703,-6.132],[-1.781,-6.082],[-1.809,-6.082],[-1.823,-6.061],[-1.773,-6.033],[-1.675,-6.019],[-1.591,-6.019],[-1.563,-6.005],[-1.318,-6.005]]],[[[1.704,-6.054],[1.746,-6.089],[1.725,-6.117],[1.564,-6.146],[1.543,-6.16],[1.396,-6.174],[1.34,-6.167],[1.269,-6.146],[1.234,-6.096],[1.382,-6.047],[1.564,-6.033],[1.592,-6.047],[1.704,-6.054]]]]},"properties":{"abbr":"Sol","name":"nucleus of the solitary tract","plate":50,"ap_bregma_mm":-9.35,"area_mm2":0.1389,"traced_fraction":[1.0,1.0],"n_labels":1,"no_drawn_outline":false}},{"type":"Feature","geometry":{"type":"MultiPolygon","coordinates":[[[[0.126,-6.16],[0.169,-6.188],[0.169,-6.216],[0.197,-6.272],[0.183,-6.631],[0.141,-6.905],[0.098,-7.257],[0.07,-7.355],[0.028,-7.397],[0.007,-7.376],[-0.021,-7.376],[-0.049,-7.397],[-0.091,-7.341],[-0.126,-7.229],[-0.154,-6.891],[-0.175,-6.638],[-0.175,-6.364],[-0.168,-6.286],[-0.14,-6.202],[-0.049,-6.153],[0.035,-6.146],[0.126,-6.16]]]]},"properties":{"abbr":"mlf","name":"medial longitudinal fasciculus","plate":50,"ap_bregma_mm":-9.35,"area_mm2":0.3679,"traced_fraction":[1.0],"n_labels":1,"no_drawn_outline":false}},{"type":"Feature","geometry":{"type":"MultiPolygon","coordinates":[[[[0.169,-6.188],[0.316,-6.202],[0.33,-6.216],[0.393,-6.223],[0.575,-6.223],[0.582,-6.314],[0.596,-6.343],[0.596,-6.455],[0.575,-6.546],[0.491,-6.638],[0.372,-6.659],[0.295,-6.659],[0.183,-6.631],[0.197,-6.272],[0.169,-6.216],[0.169,-6.188]]],[[[-0.322,-6.195],[-0.238,-6.209],[-0.14,-6.202],[-0.168,-6.286],[-0.175,-6.364],[-0.175,-6.638],[-0.273,-6.659],[-0.35,-6.659],[-0.413,-6.652],[-0.476,-6.624],[-0.533,-6.554],[-0.561,-6.441],[-0.54,-6.202],[-0.322,-6.195]]]]},"properties":{"abbr":"DPGi","name":"dorsal paragigantocellular nucleus","plate":50,"ap_bregma_mm":-9.35,"area_mm2":0.3339,"traced_fraction":[1.0,1.0],"n_labels":2,"no_drawn_outline":false}},{"type":"Feature","geometry":{"type":"MultiPolygon","coordinates":[[[[-1.647,-7.18],[-1.493,-7.257],[-1.374,-7.348],[-1.311,-7.44],[-1.556,-7.44],[-1.682,-7.44],[-1.682,-7.355],[-1.682,-7.292],[-1.647,-7.292],[-1.647,-7.18]]]]},"properties":{"abbr":"7DI","name":"facial nucleus, dorsal intermediate subnucleus","plate":50,"ap_bregma_mm":-9.35,"area_mm2":0.0586,"traced_fraction":[0.423],"n_labels":1,"no_drawn_outline":true}},{"type":"Feature","geometry":{"type":"MultiPolygon","coordinates":[[[[1.669,-7.201],[1.669,-7.433],[1.942,-7.433],[1.942,-7.51],[2.167,-7.51],[2.167,-7.665],[2.111,-7.756],[1.907,-7.904],[1.676,-8.031],[1.676,-7.834],[1.494,-7.834],[1.494,-8.129],[1.487,-8.143],[1.396,-8.178],[1.396,-7.897],[1.066,-7.897],[1.073,-7.805],[1.122,-7.707],[1.164,-7.665],[1.178,-7.587],[1.22,-7.482],[1.333,-7.362],[1.459,-7.306],[1.459,-7.355],[1.606,-7.355],[1.606,-7.236],[1.669,-7.201]]],[[[-2.11,-7.355],[-1.682,-7.355],[-1.682,-7.44],[-1.556,-7.44],[-1.556,-7.623],[-1.171,-7.623],[-1.114,-7.693],[-1.107,-7.721],[-1.079,-7.742],[-1.079,-7.77],[-1.044,-7.841],[-1.037,-7.869],[-1.346,-7.876],[-1.346,-8.164],[-1.43,-8.171],[-1.465,-8.136],[-1.465,-7.862],[-1.654,-7.862],[-1.661,-8.038],[-1.865,-7.918],[-1.886,-7.89],[-1.956,-7.855],[-2.026,-7.791],[-2.11,-7.665],[-2.138,-7.552],[-1.9,-7.552],[-1.9,-7.405],[-2.131,-7.405],[-2.124,-7.362],[-2.11,-7.355]]]]},"properties":{"abbr":"7VI","name":"facial nucleus, ventral intermediate subnucleus","plate":50,"ap_bregma_mm":-9.35,"area_mm2":0.9048,"traced_fraction":[0.457,0.328],"n_labels":2,"no_drawn_outline":true}},{"type":"Feature","geometry":{"type":"MultiPolygon","coordinates":[[[[2.111,-7.756],[2.153,-7.77],[2.181,-7.805],[2.244,-7.812],[2.139,-7.932],[2.069,-7.988],[2.041,-7.995],[2.02,-8.024],[1.802,-8.101],[1.669,-8.171],[1.536,-8.263],[1.515,-8.277],[1.501,-8.284],[1.494,-8.277],[1.494,-8.291],[1.48,-8.298],[1.473,-8.291],[1.473,-8.305],[1.452,-8.319],[1.431,-8.333],[1.417,-8.34],[1.41,-8.333],[1.41,-8.347],[1.396,-8.354],[1.094,-8.558],[0.821,-8.635],[0.786,-8.664],[0.723,-8.685],[0.694,-8.621],[0.723,-8.586],[0.786,-8.572],[1.108,-8.403],[1.248,-8.305],[1.304,-8.249],[1.333,-8.192],[1.396,-8.178],[1.417,-8.178],[1.494,-8.129],[1.669,-8.045],[1.676,-8.031],[1.907,-7.904],[2.111,-7.756]]],[[[-2.026,-7.791],[-1.956,-7.855],[-1.886,-7.89],[-1.865,-7.918],[-1.661,-8.038],[-1.465,-8.136],[-1.43,-8.171],[-1.388,-8.249],[-1.262,-8.354],[-1.058,-8.46],[-0.96,-8.495],[-0.897,-8.502],[-0.834,-8.537],[-0.743,-8.53],[-0.736,-8.572],[-0.869,-8.664],[-0.89,-8.706],[-0.995,-8.656],[-1.199,-8.516],[-1.22,-8.502],[-1.444,-8.347],[-1.556,-8.291],[-1.584,-8.277],[-1.598,-8.27],[-1.745,-8.199],[-1.837,-8.136],[-2.145,-7.876],[-2.138,-7.869],[-2.089,-7.82],[-2.054,-7.82],[-2.026,-7.791]]]]},"properties":{"abbr":"vsc","name":"ventral spinocerebellar tract","plate":50,"ap_bregma_mm":-9.35,"area_mm2":0.4423,"traced_fraction":[0.976,0.971],"n_labels":2,"no_drawn_outline":false}},{"type":"Feature","geometry":{"type":"MultiPolygon","coordinates":[[[[-0.042,-8.038],[0.035,-8.087],[0.098,-8.15],[0.169,-8.354],[0.021,-8.431],[0.007,-8.431],[0.007,-8.354],[-0.014,-8.291],[-0.042,-8.27],[-0.077,-8.27],[-0.119,-8.319],[-0.14,-8.389],[-0.14,-8.445],[-0.294,-8.375],[-0.273,-8.291],[-0.189,-8.143],[-0.126,-8.073],[-0.042,-8.038]]]]},"properties":{"abbr":"RMg","name":"raphe magnus nucleus","plate":50,"ap_bregma_mm":-9.35,"area_mm2":0.1044,"traced_fraction":[1.0],"n_labels":1,"no_drawn_outline":false}},{"type":"Feature","geometry":{"type":"MultiPolygon","coordinates":[[[[0.169,-8.354],[0.26,-8.354],[0.316,-8.389],[0.365,-8.396],[0.414,-8.445],[0.512,-8.495],[0.54,-8.544],[0.421,-8.53],[0.316,-8.537],[0.155,-8.586],[0.021,-8.671],[0.014,-8.671],[-0.028,-8.649],[-0.007,-8.495],[0.021,-8.431],[0.169,-8.354]]],[[[-0.294,-8.375],[-0.14,-8.445],[-0.14,-8.565],[-0.112,-8.656],[-0.175,-8.671],[-0.21,-8.628],[-0.259,-8.6],[-0.385,-8.551],[-0.483,-8.53],[-0.575,-8.53],[-0.736,-8.572],[-0.743,-8.53],[-0.68,-8.488],[-0.645,-8.481],[-0.512,-8.382],[-0.491,-8.375],[-0.434,-8.361],[-0.294,-8.375]]],[[[0.014,-8.671],[0.021,-8.671],[0.021,-8.678],[0.014,-8.671]]]]},"properties":{"abbr":"ml","name":"medial lemniscus","plate":50,"ap_bregma_mm":-9.35,"area_mm2":0.1845,"traced_fraction":[1.0,1.0,1.0],"n_labels":2,"no_drawn_outline":false}},{"type":"Feature","geometry":{"type":"MultiPolygon","coordinates":[[[[0.021,-8.431],[-0.007,-8.495],[-0.028,-8.649],[-0.112,-8.656],[-0.14,-8.565],[-0.14,-8.445],[-0.14,-8.389],[-0.119,-8.319],[-0.077,-8.27],[-0.042,-8.27],[-0.014,-8.291],[0.007,-8.354],[0.007,-8.431],[0.021,-8.431]]]]},"properties":{"abbr":"RPa","name":"raphe pallidus nucleus","plate":50,"ap_bregma_mm":-9.35,"area_mm2":0.0471,"traced_fraction":[1.0],"n_labels":1,"no_drawn_outline":false}},{"type":"Feature","geometry":{"type":"Polygon","coordinates":[[[1.55,-4.549],[1.823,-4.584],[1.802,-4.626],[1.767,-4.648],[1.697,-4.648],[1.634,-4.612],[1.529,-4.612],[1.473,-4.626],[1.424,-4.662],[1.403,-4.662],[1.368,-4.697],[1.333,-4.704],[1.319,-4.676],[1.319,-4.626],[1.291,-4.577],[1.55,-4.549]]]},"properties":{"abbr":null,"name":"unnamed sealed face","plate":50,"ap_bregma_mm":-9.35,"index":0}},{"type":"Feature","geometry":{"type":"Polygon","coordinates":[[[2.51,-4.739],[2.672,-4.774],[2.854,-4.88],[2.889,-4.908],[2.889,-4.922],[2.966,-4.957],[2.98,-5.006],[3.001,-5.006],[3.05,-5.041],[3.148,-5.182],[3.247,-5.281],[3.183,-5.351],[3.036,-5.175],[2.861,-5.034],[2.735,-4.978],[2.545,-4.929],[2.503,-4.823],[2.51,-4.739]]]},"properties":{"abbr":null,"name":"unnamed sealed face","plate":50,"ap_bregma_mm":-9.35,"index":1}},{"type":"Feature","geometry":{"type":"Polygon","coordinates":[[[-3.253,-5.196],[-3.267,-5.21],[-3.379,-5.203],[-3.477,-5.224],[-3.54,-5.252],[-3.589,-5.295],[-3.639,-5.203],[-3.582,-5.175],[-3.477,-5.154],[-3.33,-5.161],[-3.274,-5.175],[-3.253,-5.196]]]},"properties":{"abbr":null,"name":"unnamed sealed face","plate":50,"ap_bregma_mm":-9.35,"index":2}},{"type":"Feature","geometry":{"type":"Polygon","coordinates":[[[-3.057,-5.33],[-3.169,-5.513],[-3.225,-5.562],[-3.33,-5.562],[-3.358,-5.548],[-3.379,-5.52],[-3.358,-5.463],[-3.288,-5.386],[-3.225,-5.351],[-3.141,-5.323],[-3.057,-5.33]]]},"properties":{"abbr":null,"name":"unnamed sealed face","plate":50,"ap_bregma_mm":-9.35,"index":3}},{"type":"Feature","geometry":{"type":"Polygon","coordinates":[[[-2.594,-5.766],[-2.594,-5.787],[-2.671,-5.885],[-2.671,-5.906],[-2.713,-5.963],[-2.755,-6.061],[-2.797,-6.265],[-2.804,-6.455],[-2.825,-6.476],[-2.93,-6.321],[-2.923,-6.3],[-2.86,-6.286],[-2.797,-6.068],[-2.72,-5.914],[-2.65,-5.801],[-2.615,-5.766],[-2.594,-5.766]]]},"properties":{"abbr":null,"name":"unnamed sealed face","plate":50,"ap_bregma_mm":-9.35,"index":4}},{"type":"Feature","geometry":{"type":"Polygon","coordinates":[[[0.084,-5.977],[0.084,-6.082],[0.126,-6.16],[0.035,-6.146],[-0.049,-6.153],[-0.056,-6.132],[-0.042,-6.125],[-0.028,-6.075],[-0.028,-5.984],[0.035,-5.991],[0.084,-5.977]]]},"properties":{"abbr":null,"name":"unnamed sealed face","plate":50,"ap_bregma_mm":-9.35,"index":5}},{"type":"Feature","geometry":{"type":"Polygon","coordinates":[[[1.746,-6.089],[1.816,-6.11],[1.697,-6.209],[1.641,-6.3],[1.641,-6.406],[1.704,-6.511],[1.662,-6.525],[1.55,-6.525],[1.445,-6.483],[1.403,-6.441],[1.368,-6.343],[1.354,-6.336],[1.333,-6.209],[1.34,-6.167],[1.396,-6.174],[1.543,-6.16],[1.564,-6.146],[1.725,-6.117],[1.746,-6.089]]]},"properties":{"abbr":null,"name":"unnamed sealed face","plate":50,"ap_bregma_mm":-9.35,"index":6}},{"type":"Feature","geometry":{"type":"Polygon","coordinates":[[[-1.64,-6.146],[-1.479,-6.181],[-1.269,-6.174],[-1.304,-6.336],[-1.318,-6.343],[-1.353,-6.441],[-1.388,-6.476],[-1.493,-6.518],[-1.619,-6.518],[-1.654,-6.497],[-1.654,-6.476],[-1.619,-6.434],[-1.605,-6.371],[-1.612,-6.265],[-1.654,-6.188],[-1.64,-6.146]]]},"properties":{"abbr":null,"name":"unnamed sealed face","plate":50,"ap_bregma_mm":-9.35,"index":7}},{"type":"Feature","geometry":{"type":"Polygon","coordinates":[[[-0.063,-7.932],[-0.07,-7.974],[-0.042,-8.024],[-0.042,-8.038],[-0.126,-8.073],[-0.147,-8.108],[-0.168,-8.115],[-0.273,-8.291],[-0.294,-8.375],[-0.357,-8.361],[-0.491,-8.375],[-0.441,-8.256],[-0.357,-8.129],[-0.294,-8.059],[-0.28,-8.059],[-0.28,-8.045],[-0.266,-8.045],[-0.266,-8.031],[-0.189,-7.974],[-0.119,-7.939],[-0.063,-7.932]]]},"properties":{"abbr":null,"name":"unnamed sealed face","plate":50,"ap_bregma_mm":-9.35,"index":8}},{"type":"Feature","geometry":{"type":"Polygon","coordinates":[[[-0.68,-8.488],[-0.743,-8.53],[-0.834,-8.537],[-0.897,-8.502],[-0.89,-8.417],[-0.736,-8.417],[-0.736,-8.439],[-0.701,-8.452],[-0.68,-8.488]]]},"properties":{"abbr":null,"name":"unnamed sealed face","plate":50,"ap_bregma_mm":-9.35,"index":9}},{"type":"Feature","geometry":{"type":"MultiPolygon","coordinates":[[[[0.456,-8.811],[0.253,-8.818],[0.197,-8.804],[0.134,-8.769],[0.049,-8.685],[-0.035,-8.642],[-0.091,-8.642],[-0.189,-8.671],[-0.315,-8.769],[-0.399,-8.804],[-0.462,-8.818],[-0.603,-8.818],[-0.659,-8.804],[-0.771,-8.762],[-1.002,-8.642],[-1.444,-8.347],[-1.752,-8.185],[-1.844,-8.122],[-2.103,-7.911],[-2.25,-7.77],[-2.503,-7.503],[-2.636,-7.341],[-2.727,-7.187],[-2.776,-7.025],[-2.811,-6.694],[-2.818,-6.49],[-3.134,-6.026],[-3.232,-5.822],[-3.26,-5.688],[-3.295,-5.653],[-3.4,-5.646],[-3.519,-5.597],[-3.582,-5.52],[-3.618,-5.435],[-3.618,-5.344],[-3.589,-5.295],[-3.646,-5.196],[-3.744,-5.231],[-3.877,-5.245],[-4.052,-5.245],[-4.192,-5.217],[-4.326,-5.168],[-4.452,-5.091],[-4.585,-4.95],[-4.627,-4.83],[-4.62,-4.732],[-4.592,-4.662],[-4.536,-4.577],[-4.41,-4.451],[-4.347,-4.408],[-4.256,-4.373],[-3.975,-4.352],[-3.716,-4.38],[-3.625,-4.451],[-3.576,-4.57],[-3.498,-4.577],[-3.47,-4.521],[-3.421,-4.472],[-3.337,-4.43],[-3.253,-4.408],[-3.134,-4.401],[-3.057,-4.415],[-2.993,-4.444],[-2.938,-4.493],[-2.846,-4.465],[-2.881,-4.303],[-3.05,-4.289],[-3.162,-4.254],[-3.288,-4.162],[-3.393,-4.036],[-3.463,-3.909],[-3.491,-3.733],[-3.561,-3.466],[-3.568,-3.36],[-3.547,-3.304],[-3.582,-3.206],[-3.576,-3.164],[-3.631,-3.121],[-3.737,-3.128],[-3.779,-3.107],[-3.835,-3.044],[-3.863,-2.96],[-3.863,-2.896],[-3.807,-2.629],[-3.807,-2.151],[-3.751,-1.933],[-3.66,-1.757],[-3.54,-1.616],[-3.484,-1.567],[-3.393,-1.518],[-3.239,-1.469],[-3.029,-1.426],[-2.86,-1.419],[-2.489,-1.321],[-2.187,-1.314],[-1.984,-1.349],[-1.809,-1.335],[-1.633,-1.349],[-1.493,-1.398],[-1.339,-1.504],[-1.213,-1.525],[-1.079,-1.483],[-1.051,-1.447],[-1.016,-1.307],[-0.981,-1.25],[-0.89,-1.166],[-0.764,-1.103],[-0.392,-1.025],[-0.133,-0.997],[0.141,-0.99],[0.442,-1.025],[0.786,-1.131],[0.926,-1.208],[1.178,-1.454],[1.241,-1.461],[1.431,-1.384],[1.648,-1.335],[2.034,-1.3],[2.496,-1.3],[2.707,-1.314],[2.973,-1.349],[3.324,-1.419],[3.632,-1.525],[3.927,-1.686],[4.095,-1.827],[4.193,-1.954],[4.256,-2.066],[4.312,-2.242],[4.319,-2.369],[4.298,-2.545],[4.368,-2.777],[4.368,-2.868],[4.34,-2.924],[4.298,-2.967],[4.165,-3.023],[4.081,-3.023],[4.025,-3.107],[4.032,-3.192],[3.962,-3.346],[3.941,-3.459],[3.899,-3.579],[3.843,-3.691],[3.772,-3.782],[3.73,-3.881],[3.716,-3.944],[3.73,-4.141],[3.702,-4.226],[3.632,-4.345],[3.548,-4.415],[3.478,-4.444],[3.499,-4.521],[3.625,-4.535],[3.688,-4.556],[3.758,-4.598],[3.815,-4.655],[3.864,-4.781],[3.864,-4.992],[3.843,-5.098],[3.815,-5.161],[3.779,-5.196],[3.632,-5.238],[3.478,-5.344],[3.394,-5.351],[3.317,-5.323],[3.247,-5.274],[3.177,-5.351],[3.211,-5.393],[3.296,-5.562],[3.401,-5.632],[3.408,-5.688],[3.338,-5.843],[3.19,-6.04],[3.057,-6.167],[2.98,-6.307],[2.945,-6.392],[2.931,-6.708],[2.903,-6.884],[2.812,-7.116],[2.721,-7.257],[2.63,-7.341],[2.524,-7.468],[2.391,-7.658],[2.146,-7.911],[2.069,-7.974],[1.984,-8.031],[1.809,-8.094],[1.662,-8.171],[1.101,-8.544],[0.828,-8.628],[0.723,-8.678],[0.631,-8.755],[0.561,-8.79],[0.484,-8.804],[0.456,-8.811]]]]},"properties":{"abbr":"brain_outline","name":"outline of the section","plate":50,"ap_bregma_mm":-9.35}}]}
