{"type":"FeatureCollection","name":"GerbilAtlas plate 46","note":"Region extents cut from the atlas drawing (METHODS.md, Region extents). Coordinates are [ML, DV] in mm, ML positive to the right of the plate as printed, DV negative below the dorsal surface; AP is the plate bregma. traced_fraction is the share of each polygon boundary the atlas actually draws; below 0.5 the boundary is an estimate. no_drawn_outline marks a feature that lies only inside boundaries the atlas draws round more than one name and prints nothing within, so the whole of its outline is where the extraction cut it. Not a segmentation.","plate":46,"ap_bregma_mm":-7.95,"features":[{"type":"Feature","geometry":{"type":"MultiPolygon","coordinates":[[[[-0.842,-0.963],[-0.835,-1.125],[-0.863,-1.287],[-0.905,-1.392],[-0.926,-1.413],[-1.003,-1.589],[-1.017,-1.596],[-1.017,-1.617],[-1.101,-1.751],[-1.108,-1.793],[-1.29,-2.025],[-1.417,-2.222],[-1.459,-2.25],[-1.578,-2.468],[-1.697,-2.419],[-2.216,-1.899],[-2.216,-1.878],[-2.174,-1.814],[-2.174,-1.779],[-2.097,-1.631],[-2.083,-1.631],[-1.964,-1.505],[-1.83,-1.322],[-1.725,-1.083],[-1.732,-1.048],[-1.711,-0.886],[-1.69,-0.858],[-1.669,-0.851],[-1.662,-0.83],[-1.529,-0.717],[-1.438,-0.682],[-1.431,-0.668],[-1.375,-0.647],[-1.213,-0.647],[-1.094,-0.689],[-1.031,-0.745],[-0.975,-0.773],[-0.877,-0.872],[-0.856,-0.956],[-0.842,-0.963]]],[[[1.9,-0.808],[1.9,-0.83],[1.914,-0.83],[1.907,-0.851],[1.928,-0.9],[1.942,-1.048],[1.928,-1.062],[1.935,-1.188],[1.984,-1.364],[2.047,-1.477],[2.131,-1.561],[2.131,-1.575],[2.201,-1.631],[2.236,-1.688],[2.278,-1.779],[2.271,-1.8],[2.369,-2.117],[2.068,-2.264],[1.928,-2.264],[1.914,-2.286],[1.584,-2.447],[1.57,-2.44],[1.542,-2.349],[1.451,-2.152],[1.409,-2.103],[1.262,-1.807],[1.185,-1.688],[1.128,-1.442],[1.128,-1.28],[1.149,-1.132],[1.192,-0.991],[1.206,-0.991],[1.269,-0.858],[1.367,-0.759],[1.528,-0.675],[1.647,-0.668],[1.738,-0.696],[1.858,-0.794],[1.9,-0.808]]]]},"properties":{"abbr":"Sim","name":"simple lobule","plate":46,"ap_bregma_mm":-7.95,"area_mm2":2.785,"traced_fraction":[0.86,0.83],"n_labels":2,"no_drawn_outline":false}},{"type":"Feature","geometry":{"type":"MultiPolygon","coordinates":[[[[0.245,-1.378],[0.245,-1.716],[-0.035,-1.716],[-0.035,-1.385],[0.245,-1.378]]]]},"properties":{"abbr":"5Cb","name":"5th cerebellar lobule","plate":46,"ap_bregma_mm":-7.95,"area_mm2":0.0937,"traced_fraction":[0.279],"n_labels":1,"no_drawn_outline":true}},{"type":"Feature","geometry":{"type":"MultiPolygon","coordinates":[[[[0.245,-1.378],[0.736,-1.392],[0.757,-1.42],[0.848,-1.442],[0.897,-1.463],[0.911,-1.484],[0.932,-1.484],[0.946,-1.505],[1.002,-1.533],[1.002,-1.547],[1.023,-1.554],[1.128,-1.667],[1.185,-1.688],[1.262,-1.807],[1.409,-2.103],[1.451,-2.152],[1.542,-2.349],[1.57,-2.44],[1.584,-2.447],[1.766,-2.933],[1.851,-3.228],[1.009,-3.235],[0.876,-3.376],[0.505,-3.291],[0.238,-3.27],[0.238,-2.736],[-0.05,-2.736],[-0.05,-3.277],[-0.267,-3.298],[-0.393,-3.326],[-0.477,-3.326],[-0.758,-3.418],[-0.828,-3.46],[-0.856,-3.523],[-1.031,-3.523],[-1.683,-4.184],[-1.802,-4.135],[-2.041,-3.896],[-2.041,-3.587],[-2.132,-3.418],[-2.132,-3.383],[-1.921,-2.954],[-1.732,-2.954],[-1.578,-2.468],[-1.459,-2.25],[-1.417,-2.222],[-1.29,-2.025],[-1.108,-1.793],[-1.017,-1.751],[-0.94,-1.674],[-0.779,-1.561],[-0.603,-1.47],[-0.498,-1.442],[-0.449,-1.413],[-0.442,-1.392],[-0.035,-1.385],[-0.035,-1.716],[0.245,-1.716],[0.245,-1.378]]]]},"properties":{"abbr":"4Cb","name":"4th cerebellar lobule","plate":46,"ap_bregma_mm":-7.95,"area_mm2":5.9912,"traced_fraction":[0.547],"n_labels":1,"no_drawn_outline":true}},{"type":"Feature","geometry":{"type":"MultiPolygon","coordinates":[[[[0.238,-3.27],[-0.05,-3.277],[-0.05,-2.736],[0.238,-2.736],[0.238,-3.27]]]]},"properties":{"abbr":"3Cb","name":"3rd cerebellar lobule","plate":46,"ap_bregma_mm":-7.95,"area_mm2":0.1547,"traced_fraction":[0.209],"n_labels":1,"no_drawn_outline":true}},{"type":"Feature","geometry":{"type":"MultiPolygon","coordinates":[[[[2.369,-2.117],[2.531,-2.637],[2.531,-2.658],[2.517,-2.658],[2.517,-3.27],[2.804,-3.552],[2.804,-3.734],[2.734,-3.805],[2.629,-3.748],[2.566,-3.756],[2.524,-3.819],[2.524,-3.945],[2.615,-4.177],[2.72,-4.36],[2.797,-4.529],[2.825,-4.663],[2.832,-4.789],[1.907,-4.789],[1.808,-4.67],[1.738,-4.628],[1.654,-4.599],[1.493,-4.592],[1.353,-4.613],[1.241,-4.649],[1.143,-4.719],[1.128,-4.796],[1.065,-4.817],[0.974,-4.881],[0.96,-4.782],[0.932,-4.726],[0.862,-4.656],[0.792,-4.613],[0.694,-4.613],[0.554,-4.691],[0.469,-4.719],[0.189,-4.754],[-0.155,-4.747],[-0.302,-4.726],[-0.456,-4.684],[-0.603,-4.599],[-0.688,-4.599],[-0.73,-4.621],[-0.765,-4.621],[-0.856,-4.677],[-0.926,-4.747],[-0.961,-4.839],[-0.975,-4.839],[-1.031,-4.775],[-1.108,-4.74],[-1.164,-4.733],[-1.234,-4.67],[-1.34,-4.613],[-1.543,-4.55],[-1.529,-4.501],[-1.683,-4.206],[-1.683,-4.184],[-1.031,-3.523],[-0.856,-3.523],[-0.828,-3.46],[-0.758,-3.418],[-0.505,-3.333],[-0.05,-3.277],[0.238,-3.27],[0.505,-3.291],[0.876,-3.376],[1.009,-3.235],[1.851,-3.228],[1.766,-2.933],[1.584,-2.447],[1.914,-2.286],[1.928,-2.264],[2.068,-2.264],[2.369,-2.117]]]]},"properties":{"abbr":"2Cb","name":"2nd cerebellar lobule","plate":46,"ap_bregma_mm":-7.95,"area_mm2":6.5304,"traced_fraction":[0.633],"n_labels":1,"no_drawn_outline":true}},{"type":"Feature","geometry":{"type":"MultiPolygon","coordinates":[[[[4.171,-2.996],[4.241,-3.003],[4.249,-3.017],[4.347,-3.059],[4.41,-3.115],[4.438,-3.228],[4.452,-3.242],[4.438,-3.263],[4.438,-3.277],[4.452,-3.277],[4.424,-3.326],[4.396,-3.453],[4.277,-3.692],[4.277,-3.981],[4.249,-4.002],[4.179,-4.156],[3.926,-4.403],[3.863,-4.529],[3.863,-4.761],[3.779,-4.74],[3.645,-4.74],[3.526,-4.754],[3.484,-4.775],[3.428,-4.775],[3.414,-4.782],[3.414,-4.839],[3.295,-4.951],[3.281,-4.993],[3.232,-5.036],[3.232,-5.064],[3.113,-5.028],[3.113,-5.014],[3.064,-4.993],[3.057,-4.965],[3.106,-4.902],[3.113,-4.811],[3.064,-4.663],[2.993,-4.522],[2.965,-4.494],[2.944,-4.417],[2.916,-4.17],[2.839,-3.995],[2.846,-3.966],[2.811,-3.896],[2.734,-3.819],[2.734,-3.805],[2.804,-3.734],[2.804,-3.552],[2.867,-3.516],[3.337,-3.516],[3.533,-3.622],[3.575,-3.622],[3.645,-3.495],[3.765,-3.326],[3.793,-3.305],[3.807,-3.27],[3.835,-3.263],[3.947,-3.144],[4.003,-3.108],[4.08,-3.031],[4.171,-2.996]]],[[[-3.422,-3.84],[-2.84,-3.847],[-2.847,-4.079],[-3.31,-4.079],[-3.31,-3.966],[-3.422,-3.854],[-3.422,-3.84]]]]},"properties":{"abbr":"mcp","name":"middle cerebellar peduncle","plate":46,"ap_bregma_mm":-7.95,"area_mm2":1.9613,"traced_fraction":[0.636,0.194],"n_labels":2,"no_drawn_outline":true}},{"type":"Feature","geometry":{"type":"MultiPolygon","coordinates":[[[[-2.602,-4.107],[-2.721,-4.501],[-2.847,-4.501],[-2.91,-4.459],[-2.854,-4.367],[-2.84,-4.22],[-2.847,-4.079],[-2.84,-3.847],[-2.791,-3.748],[-2.707,-3.671],[-2.63,-3.636],[-2.616,-3.615],[-2.595,-3.615],[-2.559,-3.643],[-2.546,-3.685],[-2.546,-3.84],[-2.602,-4.107]]],[[[2.734,-3.805],[2.734,-3.819],[2.811,-3.896],[2.846,-3.966],[2.839,-3.995],[2.867,-4.044],[2.881,-4.107],[2.916,-4.17],[2.944,-4.417],[2.965,-4.494],[2.937,-4.494],[2.895,-4.529],[2.797,-4.529],[2.72,-4.36],[2.615,-4.177],[2.524,-3.945],[2.524,-3.819],[2.566,-3.756],[2.629,-3.748],[2.734,-3.805]]]]},"properties":{"abbr":"Lat","name":"lateral (dentate) cerebellar nucleus","plate":46,"ap_bregma_mm":-7.95,"area_mm2":0.387,"traced_fraction":[1.0,1.0],"n_labels":2,"no_drawn_outline":false}},{"type":"Feature","geometry":{"type":"MultiPolygon","coordinates":[[[[-4.228,-2.933],[-4.165,-2.933],[-4.137,-2.982],[-4.039,-3.08],[-3.822,-3.228],[-3.632,-3.326],[-3.583,-3.376],[-3.562,-3.404],[-3.555,-3.509],[-3.534,-3.558],[-3.541,-3.594],[-3.506,-3.699],[-3.464,-3.812],[-3.443,-3.84],[-3.422,-3.84],[-3.422,-3.854],[-3.31,-3.966],[-3.31,-4.079],[-2.847,-4.079],[-2.847,-4.325],[-2.854,-4.367],[-2.91,-4.459],[-2.938,-4.48],[-2.994,-4.592],[-3.029,-4.635],[-3.05,-4.733],[-3.043,-4.775],[-2.959,-4.881],[-2.959,-4.902],[-3.008,-4.902],[-3.05,-4.93],[-3.169,-4.951],[-3.282,-5.007],[-3.331,-5.099],[-3.324,-5.141],[-3.303,-5.155],[-3.317,-5.162],[-3.303,-5.289],[-3.324,-5.352],[-3.352,-5.373],[-3.352,-5.394],[-3.499,-5.542],[-3.695,-5.662],[-3.702,-5.085],[-3.78,-4.951],[-3.78,-4.832],[-3.836,-4.775],[-3.836,-4.677],[-3.983,-4.698],[-4.186,-4.761],[-4.305,-4.775],[-4.319,-4.789],[-4.467,-4.789],[-4.621,-4.839],[-4.74,-4.909],[-4.768,-4.86],[-4.782,-4.86],[-4.985,-4.958],[-5.105,-4.965],[-5.182,-4.888],[-5.196,-4.888],[-5.259,-4.811],[-5.308,-4.705],[-5.336,-4.564],[-5.343,-4.353],[-5.315,-4.184],[-5.287,-4.128],[-5.175,-4.037],[-5.168,-4.044],[-5.154,-4.03],[-5.161,-4.023],[-5.154,-3.924],[-5.105,-3.777],[-5.014,-3.608],[-4.908,-3.467],[-4.663,-3.221],[-4.565,-3.158],[-4.558,-3.137],[-4.425,-3.038],[-4.326,-2.996],[-4.228,-2.933]]],[[[4.487,-3.27],[4.592,-3.291],[4.781,-3.397],[4.894,-3.495],[4.936,-3.516],[4.971,-3.566],[5.013,-3.594],[5.09,-3.699],[5.146,-3.826],[5.202,-4.037],[5.202,-4.142],[5.188,-4.17],[5.23,-4.177],[5.293,-4.234],[5.335,-4.304],[5.384,-4.417],[5.433,-4.628],[5.412,-4.881],[5.37,-5.0],[5.272,-5.155],[5.223,-5.19],[5.188,-5.239],[5.174,-5.239],[5.146,-5.275],[5.104,-5.289],[5.09,-5.31],[4.985,-5.352],[4.844,-5.352],[4.739,-5.317],[4.69,-5.289],[4.606,-5.176],[4.585,-5.169],[4.508,-5.028],[4.417,-4.951],[4.34,-4.923],[4.249,-4.923],[4.129,-4.874],[4.08,-4.874],[4.031,-4.839],[3.87,-4.775],[3.863,-4.761],[3.863,-4.529],[3.926,-4.403],[4.179,-4.156],[4.249,-4.002],[4.277,-3.981],[4.277,-3.692],[4.396,-3.453],[4.424,-3.326],[4.452,-3.277],[4.487,-3.27]]]]},"properties":{"abbr":"PFl","name":"paraflocculus","plate":46,"ap_bregma_mm":-7.95,"area_mm2":5.5161,"traced_fraction":[0.721,0.703],"n_labels":2,"no_drawn_outline":true}},{"type":"Feature","geometry":{"type":"MultiPolygon","coordinates":[[[[-2.91,-4.459],[-2.847,-4.501],[-2.721,-4.501],[-2.77,-4.761],[-2.784,-4.761],[-2.812,-4.86],[-2.854,-4.916],[-2.959,-4.902],[-2.959,-4.881],[-3.043,-4.775],[-3.05,-4.733],[-3.029,-4.635],[-2.994,-4.592],[-2.938,-4.48],[-2.91,-4.459]]],[[[2.965,-4.494],[2.993,-4.522],[3.064,-4.663],[3.113,-4.811],[3.106,-4.902],[3.057,-4.965],[3.064,-4.993],[2.972,-5.0],[2.846,-5.064],[2.818,-5.043],[2.818,-4.972],[2.832,-4.951],[2.832,-4.789],[2.825,-4.663],[2.797,-4.529],[2.895,-4.529],[2.937,-4.494],[2.965,-4.494]]]]},"properties":{"abbr":"LatPC","name":"lateral cerebellar nucleus, parvicellular part","plate":46,"ap_bregma_mm":-7.95,"area_mm2":0.2243,"traced_fraction":[0.934,1.0],"n_labels":2,"no_drawn_outline":false}},{"type":"Feature","geometry":{"type":"MultiPolygon","coordinates":[[[[-1.543,-4.55],[-1.34,-4.613],[-1.234,-4.67],[-1.164,-4.733],[-1.178,-4.796],[-1.206,-4.832],[-1.361,-4.916],[-1.641,-4.979],[-1.774,-4.993],[-1.887,-4.986],[-2.062,-5.014],[-2.062,-4.923],[-2.013,-4.782],[-2.02,-4.754],[-1.97,-4.663],[-1.893,-4.578],[-1.767,-4.529],[-1.655,-4.529],[-1.543,-4.55]]],[[[1.907,-4.789],[1.984,-4.958],[2.019,-5.092],[1.963,-5.092],[1.808,-5.043],[1.661,-5.028],[1.535,-4.986],[1.325,-4.944],[1.198,-4.881],[1.128,-4.796],[1.143,-4.719],[1.241,-4.649],[1.353,-4.613],[1.493,-4.592],[1.654,-4.599],[1.738,-4.628],[1.808,-4.67],[1.907,-4.789]]]]},"properties":{"abbr":"scp","name":"superior cerebellar peduncle","plate":46,"ap_bregma_mm":-7.95,"area_mm2":0.5892,"traced_fraction":[1.0,1.0],"n_labels":2,"no_drawn_outline":false}},{"type":"Feature","geometry":{"type":"MultiPolygon","coordinates":[[[[-2.041,-3.896],[-1.802,-4.135],[-1.683,-4.184],[-1.683,-4.206],[-1.529,-4.501],[-1.543,-4.55],[-1.655,-4.529],[-1.767,-4.529],[-1.893,-4.578],[-1.97,-4.663],[-2.02,-4.754],[-2.013,-4.782],[-2.062,-4.923],[-2.062,-5.014],[-2.188,-5.282],[-2.7,-5.282],[-2.707,-5.268],[-2.7,-5.211],[-2.749,-5.099],[-2.749,-4.993],[-2.798,-4.944],[-2.847,-4.93],[-2.854,-4.916],[-2.812,-4.86],[-2.784,-4.761],[-2.77,-4.761],[-2.721,-4.501],[-2.602,-4.107],[-2.51,-4.128],[-2.041,-3.896]]],[[[1.907,-4.789],[2.832,-4.789],[2.832,-4.951],[2.818,-4.972],[2.818,-5.043],[2.846,-5.064],[2.783,-5.148],[2.741,-5.247],[2.734,-5.345],[2.755,-5.373],[2.734,-5.38],[2.215,-5.373],[2.075,-5.19],[2.019,-5.092],[1.984,-4.958],[1.907,-4.789]]]]},"properties":{"abbr":"icp","name":"inferior cerebellar peduncle (restiform body)","plate":46,"ap_bregma_mm":-7.95,"area_mm2":1.4867,"traced_fraction":[0.586,0.522],"n_labels":2,"no_drawn_outline":true}},{"type":"Feature","geometry":{"type":"MultiPolygon","coordinates":[[[[-1.164,-4.733],[-1.108,-4.74],[-1.031,-4.775],[-0.975,-4.839],[-0.961,-4.839],[-0.919,-4.979],[-0.982,-5.007],[-1.024,-4.972],[-1.101,-4.944],[-1.206,-4.944],[-1.361,-4.972],[-1.361,-4.916],[-1.206,-4.832],[-1.178,-4.796],[-1.164,-4.733]]],[[[1.128,-4.796],[1.198,-4.881],[1.325,-4.944],[1.346,-5.043],[1.156,-5.036],[1.1,-5.071],[1.044,-5.085],[1.044,-5.057],[1.023,-5.028],[0.953,-5.007],[0.953,-4.93],[0.974,-4.881],[1.065,-4.817],[1.128,-4.796]]]]},"properties":{"abbr":"VeCb","name":"vestibulocerebellar nucleus","plate":46,"ap_bregma_mm":-7.95,"area_mm2":0.1293,"traced_fraction":[0.982,1.0],"n_labels":2,"no_drawn_outline":false}},{"type":"Feature","geometry":{"type":"MultiPolygon","coordinates":[[[[0.974,-4.881],[0.953,-4.93],[0.953,-5.007],[0.841,-5.127],[0.764,-5.183],[0.666,-5.232],[0.539,-5.268],[0.252,-5.282],[0.098,-5.261],[-0.197,-5.261],[-0.365,-5.239],[-0.617,-5.155],[-0.828,-5.043],[-0.863,-5.036],[-0.919,-4.979],[-0.961,-4.839],[-0.926,-4.747],[-0.856,-4.677],[-0.765,-4.621],[-0.73,-4.621],[-0.688,-4.599],[-0.603,-4.599],[-0.456,-4.684],[-0.302,-4.726],[-0.155,-4.747],[0.189,-4.754],[0.469,-4.719],[0.554,-4.691],[0.694,-4.613],[0.792,-4.613],[0.862,-4.656],[0.932,-4.726],[0.96,-4.782],[0.974,-4.881]]]]},"properties":{"abbr":"1Cb","name":"1st cerebellar lobule (lingula)","plate":46,"ap_bregma_mm":-7.95,"area_mm2":0.9651,"traced_fraction":[1.0],"n_labels":1,"no_drawn_outline":false}},{"type":"Feature","geometry":{"type":"MultiPolygon","coordinates":[[[[-3.695,-5.662],[-3.801,-5.725],[-3.997,-5.774],[-4.067,-5.774],[-4.137,-5.753],[-4.242,-5.704],[-4.305,-5.69],[-4.439,-5.619],[-4.761,-5.401],[-4.789,-5.359],[-4.845,-5.317],[-4.887,-5.218],[-4.887,-5.19],[-4.852,-5.064],[-4.817,-5.036],[-4.782,-4.979],[-4.726,-4.944],[-4.74,-4.909],[-4.621,-4.839],[-4.467,-4.789],[-4.319,-4.789],[-4.305,-4.775],[-4.186,-4.761],[-3.983,-4.698],[-3.836,-4.677],[-3.836,-4.775],[-3.78,-4.832],[-3.78,-4.951],[-3.702,-5.085],[-3.695,-5.662]]],[[[3.863,-4.761],[3.87,-4.775],[3.926,-4.789],[4.08,-4.874],[4.129,-4.874],[4.249,-4.923],[4.34,-4.923],[4.417,-4.951],[4.508,-5.028],[4.585,-5.169],[4.606,-5.176],[4.69,-5.289],[4.676,-5.31],[4.676,-5.338],[4.69,-5.345],[4.648,-5.443],[4.466,-5.626],[4.431,-5.64],[4.333,-5.725],[4.115,-5.837],[4.01,-5.866],[3.793,-5.866],[3.667,-5.83],[3.491,-5.725],[3.365,-5.612],[3.337,-5.563],[3.316,-5.472],[3.323,-5.401],[3.372,-5.296],[3.372,-5.204],[3.344,-5.134],[3.232,-5.064],[3.232,-5.036],[3.281,-4.993],[3.295,-4.951],[3.414,-4.839],[3.414,-4.782],[3.428,-4.775],[3.484,-4.775],[3.526,-4.754],[3.645,-4.74],[3.779,-4.74],[3.863,-4.761]]]]},"properties":{"abbr":"Fl","name":"flocculus","plate":46,"ap_bregma_mm":-7.95,"area_mm2":2.1136,"traced_fraction":[0.54,0.758],"n_labels":2,"no_drawn_outline":true}},{"type":"Feature","geometry":{"type":"MultiPolygon","coordinates":[[[[-3.352,-5.394],[-3.352,-5.373],[-3.324,-5.352],[-3.303,-5.289],[-3.317,-5.176],[-3.303,-5.155],[-3.233,-5.043],[-3.127,-4.993],[-3.05,-4.993],[-3.001,-5.014],[-2.973,-5.05],[-2.973,-5.127],[-2.987,-5.183],[-3.057,-5.296],[-3.127,-5.352],[-3.205,-5.387],[-3.24,-5.422],[-3.24,-5.479],[-3.289,-5.507],[-3.324,-5.507],[-3.324,-5.394],[-3.352,-5.394]]]]},"properties":{"abbr":"chp","name":"choroid plexus","plate":46,"ap_bregma_mm":-7.95,"area_mm2":0.112,"traced_fraction":[1.0],"n_labels":1,"no_drawn_outline":false}},{"type":"Feature","geometry":{"type":"MultiPolygon","coordinates":[[[[-2.7,-5.282],[-2.188,-5.282],[-2.23,-5.366],[-2.23,-5.394],[-2.244,-5.401],[-2.272,-5.486],[-2.314,-5.556],[-2.377,-5.514],[-2.461,-5.521],[-2.475,-5.458],[-2.489,-5.436],[-2.517,-5.429],[-2.546,-5.436],[-2.567,-5.486],[-2.637,-5.493],[-2.672,-5.451],[-2.672,-5.352],[-2.7,-5.282]]],[[[2.215,-5.373],[2.734,-5.38],[2.713,-5.401],[2.685,-5.493],[2.629,-5.556],[2.573,-5.556],[2.545,-5.528],[2.489,-5.521],[2.468,-5.542],[2.454,-5.605],[2.369,-5.612],[2.355,-5.605],[2.342,-5.556],[2.215,-5.394],[2.215,-5.373]]]]},"properties":{"abbr":"PCGS","name":"paracochlear glial substance","plate":46,"ap_bregma_mm":-7.95,"area_mm2":0.1711,"traced_fraction":[0.711,0.672],"n_labels":2,"no_drawn_outline":true}},{"type":"Feature","geometry":{"type":"MultiPolygon","coordinates":[[[[-1.361,-4.916],[-1.361,-4.972],[-1.382,-4.986],[-1.382,-5.007],[-1.487,-5.148],[-1.487,-5.169],[-1.522,-5.19],[-1.55,-5.239],[-1.718,-5.429],[-1.739,-5.472],[-1.781,-5.507],[-1.887,-5.668],[-2.16,-5.619],[-2.3,-5.619],[-2.314,-5.598],[-2.314,-5.556],[-2.272,-5.486],[-2.188,-5.282],[-2.062,-5.014],[-1.887,-4.986],[-1.774,-4.993],[-1.641,-4.979],[-1.361,-4.916]]],[[[1.325,-4.944],[1.451,-4.965],[1.661,-5.028],[1.808,-5.043],[1.963,-5.092],[2.019,-5.092],[2.075,-5.19],[2.215,-5.373],[2.215,-5.394],[2.342,-5.556],[2.355,-5.605],[2.369,-5.612],[2.299,-5.676],[2.278,-5.76],[1.977,-5.781],[1.921,-5.802],[1.893,-5.802],[1.858,-5.739],[1.647,-5.521],[1.507,-5.345],[1.493,-5.31],[1.458,-5.282],[1.346,-5.043],[1.325,-4.944]]]]},"properties":{"abbr":"SuVe","name":"superior vestibular nucleus","plate":46,"ap_bregma_mm":-7.95,"area_mm2":0.8586,"traced_fraction":[1.0,1.0],"n_labels":2,"no_drawn_outline":false}},{"type":"Feature","geometry":{"type":"MultiPolygon","coordinates":[[[[-0.982,-5.007],[-0.982,-5.12],[-0.912,-5.31],[-0.884,-5.338],[-0.835,-5.451],[-0.765,-5.556],[-0.68,-5.647],[-0.554,-5.697],[-0.575,-5.753],[-0.575,-5.901],[-0.87,-5.901],[-0.877,-5.936],[-0.926,-5.908],[-1.157,-5.662],[-1.305,-5.443],[-1.332,-5.422],[-1.445,-5.211],[-1.487,-5.169],[-1.487,-5.148],[-1.382,-5.007],[-1.382,-4.986],[-1.361,-4.972],[-1.206,-4.944],[-1.101,-4.944],[-1.024,-4.972],[-0.982,-5.007]]],[[[1.346,-5.043],[1.458,-5.282],[1.43,-5.296],[1.36,-5.436],[1.325,-5.472],[1.325,-5.493],[1.297,-5.514],[1.227,-5.633],[1.177,-5.683],[1.156,-5.732],[1.016,-5.915],[0.589,-5.915],[0.582,-5.844],[0.518,-5.704],[0.666,-5.668],[0.764,-5.598],[0.953,-5.31],[1.044,-5.085],[1.1,-5.071],[1.156,-5.036],[1.346,-5.043]]]]},"properties":{"abbr":"MVePC","name":"medial vestibular nucleus, parvicellular part","plate":46,"ap_bregma_mm":-7.95,"area_mm2":0.8575,"traced_fraction":[0.894,0.869],"n_labels":2,"no_drawn_outline":false}},{"type":"Feature","geometry":{"type":"MultiPolygon","coordinates":[[[[3.372,-5.204],[3.372,-5.296],[3.323,-5.401],[3.316,-5.472],[3.288,-5.479],[3.281,-5.528],[3.288,-5.711],[3.225,-5.683],[3.176,-5.633],[3.176,-5.612],[3.204,-5.605],[3.232,-5.577],[3.232,-5.549],[3.035,-5.338],[3.022,-5.289],[2.993,-5.261],[2.993,-5.183],[3.022,-5.127],[3.057,-5.099],[3.148,-5.092],[3.246,-5.113],[3.337,-5.197],[3.372,-5.204]]]]},"properties":{"abbr":"LR4V","name":"lateral recess of the 4th ventricle","plate":46,"ap_bregma_mm":-7.95,"area_mm2":0.1262,"traced_fraction":[1.0],"n_labels":1,"no_drawn_outline":false}},{"type":"Feature","geometry":{"type":"MultiPolygon","coordinates":[[[[-1.487,-5.169],[-1.445,-5.211],[-1.332,-5.422],[-1.305,-5.443],[-1.157,-5.662],[-0.926,-5.908],[-0.877,-5.936],[-0.8,-6.062],[-0.933,-6.083],[-1.122,-6.154],[-1.227,-6.034],[-1.262,-6.02],[-1.332,-5.95],[-1.473,-5.844],[-1.627,-5.767],[-1.655,-5.767],[-1.683,-5.746],[-1.725,-5.739],[-1.732,-5.725],[-1.795,-5.711],[-1.887,-5.668],[-1.781,-5.507],[-1.739,-5.472],[-1.718,-5.429],[-1.648,-5.359],[-1.522,-5.19],[-1.487,-5.169]]],[[[1.458,-5.282],[1.493,-5.31],[1.507,-5.345],[1.647,-5.521],[1.858,-5.739],[1.893,-5.802],[1.745,-5.83],[1.682,-5.83],[1.563,-5.866],[1.318,-5.964],[1.143,-6.069],[1.058,-6.161],[1.03,-6.161],[0.883,-6.083],[1.016,-5.915],[1.156,-5.732],[1.177,-5.683],[1.227,-5.633],[1.297,-5.514],[1.325,-5.493],[1.325,-5.472],[1.36,-5.436],[1.43,-5.296],[1.458,-5.282]]]]},"properties":{"abbr":"MVeMC","name":"medial vestibular nucleus, magnocellular part","plate":46,"ap_bregma_mm":-7.95,"area_mm2":0.7439,"traced_fraction":[1.0,1.0],"n_labels":2,"no_drawn_outline":false}},{"type":"Feature","geometry":{"type":"MultiPolygon","coordinates":[[[[-3.289,-5.725],[-3.233,-5.774],[-3.036,-5.83],[-3.036,-5.894],[-3.345,-5.894],[-3.345,-5.739],[-3.289,-5.725]]],[[[3.316,-5.879],[3.316,-6.048],[3.035,-6.048],[3.078,-5.964],[3.134,-5.922],[3.225,-5.887],[3.316,-5.879]]]]},"properties":{"abbr":"VCA","name":"ventral cochlear nucleus, anterior part","plate":46,"ap_bregma_mm":-7.95,"area_mm2":0.071,"traced_fraction":[0.376,0.517],"n_labels":2,"no_drawn_outline":true}},{"type":"Feature","geometry":{"type":"MultiPolygon","coordinates":[[[[-2.3,-5.619],[-2.16,-5.619],[-1.887,-5.668],[-1.795,-5.711],[-1.802,-5.774],[-1.915,-5.767],[-1.957,-5.781],[-2.041,-5.837],[-2.09,-5.894],[-2.132,-5.872],[-2.279,-5.872],[-2.363,-5.908],[-2.44,-5.971],[-2.461,-5.957],[-2.461,-5.943],[-2.37,-5.851],[-2.335,-5.788],[-2.335,-5.711],[-2.363,-5.683],[-2.363,-5.662],[-2.3,-5.619]]],[[[2.278,-5.76],[2.412,-5.774],[2.419,-5.837],[2.517,-5.943],[2.503,-5.957],[2.489,-6.027],[2.489,-6.14],[2.468,-6.14],[2.405,-6.055],[2.299,-5.964],[2.208,-5.915],[2.096,-5.887],[2.054,-5.851],[1.935,-5.823],[1.921,-5.802],[1.977,-5.781],[2.278,-5.76]]]]},"properties":{"abbr":"ocb","name":"olivocochlear bundle","plate":46,"ap_bregma_mm":-7.95,"area_mm2":0.2,"traced_fraction":[0.996,1.0],"n_labels":2,"no_drawn_outline":false}},{"type":"Feature","geometry":{"type":"MultiPolygon","coordinates":[[[[-2.707,-5.268],[-2.7,-5.282],[-2.672,-5.352],[-2.679,-5.422],[-2.658,-5.472],[-2.637,-5.493],[-2.581,-5.493],[-2.553,-5.472],[-2.546,-5.436],[-2.517,-5.429],[-2.489,-5.436],[-2.475,-5.458],[-2.461,-5.521],[-2.468,-5.57],[-2.504,-5.612],[-2.51,-5.647],[-2.581,-5.654],[-2.679,-5.697],[-2.847,-5.809],[-2.889,-5.851],[-2.91,-5.837],[-3.036,-5.83],[-3.233,-5.774],[-3.289,-5.725],[-3.317,-5.69],[-3.338,-5.626],[-3.31,-5.605],[-3.212,-5.584],[-3.05,-5.514],[-2.903,-5.373],[-2.812,-5.324],[-2.798,-5.303],[-2.707,-5.268]]],[[[2.755,-5.373],[2.832,-5.451],[2.832,-5.464],[2.846,-5.464],[2.972,-5.584],[3.007,-5.598],[3.029,-5.626],[3.26,-5.788],[3.344,-5.83],[3.379,-5.872],[3.316,-5.879],[3.225,-5.887],[3.134,-5.922],[3.078,-5.964],[3.035,-6.048],[3.014,-6.112],[2.986,-6.105],[2.951,-6.062],[2.937,-6.062],[2.741,-5.837],[2.594,-5.732],[2.503,-5.697],[2.468,-5.654],[2.454,-5.605],[2.468,-5.542],[2.489,-5.521],[2.545,-5.528],[2.573,-5.556],[2.629,-5.556],[2.685,-5.493],[2.713,-5.401],[2.734,-5.38],[2.755,-5.373]]]]},"properties":{"abbr":"Sca","name":"spherical cell area, ventral cochlear nucleus","plate":46,"ap_bregma_mm":-7.95,"area_mm2":0.5247,"traced_fraction":[1.0,1.0],"n_labels":2,"no_drawn_outline":false}},{"type":"Feature","geometry":{"type":"MultiPolygon","coordinates":[[[[-2.51,-5.647],[-2.405,-5.647],[-2.363,-5.662],[-2.363,-5.683],[-2.335,-5.711],[-2.335,-5.788],[-2.37,-5.851],[-2.461,-5.943],[-2.461,-5.957],[-2.517,-5.999],[-2.623,-6.048],[-2.791,-6.21],[-2.805,-6.21],[-2.924,-6.33],[-2.994,-6.47],[-3.008,-6.597],[-2.98,-6.731],[-2.91,-6.871],[-2.798,-7.005],[-2.882,-7.005],[-2.896,-7.026],[-2.924,-7.026],[-2.959,-7.068],[-3.008,-7.026],[-3.043,-6.97],[-3.127,-6.899],[-3.12,-6.892],[-3.135,-6.892],[-3.191,-6.836],[-3.205,-6.829],[-3.205,-6.808],[-3.219,-6.815],[-3.31,-6.801],[-3.352,-6.815],[-3.38,-6.843],[-3.387,-6.836],[-3.387,-6.85],[-3.408,-6.864],[-3.45,-6.949],[-3.52,-7.195],[-3.597,-7.314],[-3.674,-7.385],[-3.765,-7.434],[-3.822,-7.448],[-4.053,-7.441],[-4.186,-7.392],[-4.242,-7.321],[-4.235,-7.181],[-4.165,-7.047],[-3.99,-6.864],[-3.927,-6.759],[-3.885,-6.576],[-3.878,-6.407],[-3.892,-6.358],[-3.899,-6.33],[-3.892,-6.323],[-3.85,-6.323],[-3.801,-6.344],[-3.688,-6.344],[-3.534,-6.302],[-3.296,-6.175],[-3.057,-6.027],[-2.889,-5.851],[-2.847,-5.809],[-2.679,-5.697],[-2.581,-5.654],[-2.51,-5.647]]],[[[2.503,-5.697],[2.594,-5.732],[2.741,-5.837],[2.881,-5.992],[2.881,-6.006],[2.986,-6.105],[3.014,-6.112],[3.014,-6.126],[3.162,-6.266],[3.309,-6.372],[3.463,-6.456],[3.632,-6.506],[3.744,-6.506],[3.8,-6.484],[3.807,-6.47],[3.842,-6.47],[3.835,-6.667],[3.856,-6.766],[4.024,-7.216],[4.038,-7.427],[4.01,-7.469],[3.856,-7.511],[3.695,-7.511],[3.618,-7.483],[3.505,-7.364],[3.379,-7.124],[3.316,-7.047],[3.267,-6.977],[3.176,-6.92],[3.078,-6.92],[3.014,-6.963],[3.007,-6.956],[3.007,-6.97],[2.993,-6.977],[2.958,-6.949],[2.804,-6.934],[2.797,-6.92],[2.797,-6.899],[2.895,-6.794],[2.916,-6.738],[2.93,-6.632],[2.909,-6.513],[2.853,-6.365],[2.776,-6.238],[2.72,-6.182],[2.622,-6.034],[2.517,-5.943],[2.419,-5.837],[2.412,-5.774],[2.412,-5.746],[2.426,-5.746],[2.44,-5.718],[2.503,-5.697]]]]},"properties":{"abbr":"8n","name":"vestibulocochlear nerve","plate":46,"ap_bregma_mm":-7.95,"area_mm2":2.2588,"traced_fraction":[0.98,0.972],"n_labels":4,"no_drawn_outline":false}},{"type":"Feature","geometry":{"type":"MultiPolygon","coordinates":[[[[-0.575,-5.901],[-0.575,-5.908],[-0.561,-5.985],[-0.519,-6.14],[-0.603,-6.133],[-0.617,-6.105],[-0.673,-6.062],[-0.8,-6.062],[-0.877,-5.936],[-0.87,-5.901],[-0.575,-5.901]]],[[[0.589,-5.915],[1.016,-5.915],[0.883,-6.083],[0.722,-6.069],[0.645,-6.112],[0.56,-6.126],[0.589,-5.915]]]]},"properties":{"abbr":"CGG","name":"central gray, gamma part","plate":46,"ap_bregma_mm":-7.95,"area_mm2":0.1187,"traced_fraction":[0.735,0.695],"n_labels":2,"no_drawn_outline":true}},{"type":"Feature","geometry":{"type":"MultiPolygon","coordinates":[[[[-0.561,-5.985],[-0.575,-5.908],[-0.484,-5.894],[-0.428,-5.844],[-0.365,-5.844],[-0.288,-5.879],[-0.246,-5.922],[-0.225,-5.971],[-0.239,-6.069],[-0.26,-6.091],[-0.316,-6.105],[-0.421,-6.091],[-0.484,-6.034],[-0.505,-5.978],[-0.561,-5.985]]],[[[0.427,-6.175],[0.364,-6.196],[0.357,-6.112],[0.287,-6.083],[0.259,-6.055],[0.252,-6.027],[0.273,-5.929],[0.343,-5.872],[0.392,-5.858],[0.448,-5.866],[0.505,-5.929],[0.511,-5.999],[0.483,-6.069],[0.441,-6.098],[0.399,-6.105],[0.399,-6.133],[0.427,-6.175]]]]},"properties":{"abbr":"SGe","name":"supragenual nucleus","plate":46,"ap_bregma_mm":-7.95,"area_mm2":0.1162,"traced_fraction":[0.951,0.924],"n_labels":2,"no_drawn_outline":false}},{"type":"Feature","geometry":{"type":"MultiPolygon","coordinates":[[[[-1.802,-5.774],[-1.718,-5.823],[-1.634,-5.901],[-1.634,-5.915],[-1.69,-5.978],[-1.774,-6.034],[-2.02,-6.168],[-2.062,-6.175],[-2.069,-6.126],[-2.048,-6.062],[-2.048,-5.971],[-2.09,-5.894],[-2.041,-5.837],[-1.957,-5.781],[-1.915,-5.767],[-1.802,-5.774]]],[[[1.893,-5.802],[1.921,-5.802],[1.935,-5.823],[2.054,-5.851],[2.096,-5.887],[2.026,-5.915],[1.963,-5.999],[1.949,-6.062],[1.956,-6.182],[1.907,-6.168],[1.774,-6.091],[1.717,-6.027],[1.696,-5.971],[1.703,-5.922],[1.745,-5.858],[1.745,-5.83],[1.893,-5.802]]]]},"properties":{"abbr":"5Tr","name":"trigeminal transition zone","plate":46,"ap_bregma_mm":-7.95,"area_mm2":0.1963,"traced_fraction":[1.0,1.0],"n_labels":2,"no_drawn_outline":false}},{"type":"Feature","geometry":{"type":"MultiPolygon","coordinates":[[[[-3.338,-5.626],[-3.324,-5.676],[-3.289,-5.725],[-3.345,-5.739],[-3.345,-5.894],[-3.036,-5.894],[-3.036,-5.83],[-2.91,-5.837],[-2.889,-5.851],[-3.057,-6.027],[-3.296,-6.175],[-3.534,-6.302],[-3.688,-6.344],[-3.801,-6.344],[-3.85,-6.323],[-3.892,-6.323],[-3.899,-6.33],[-3.906,-6.309],[-3.913,-6.287],[-3.941,-6.21],[-3.941,-6.119],[-3.906,-6.055],[-3.836,-5.992],[-3.836,-6.013],[-3.801,-6.013],[-3.744,-5.971],[-3.632,-5.774],[-3.485,-5.704],[-3.394,-5.64],[-3.338,-5.626]]],[[[3.379,-5.872],[3.428,-5.887],[3.547,-5.957],[3.618,-6.034],[3.632,-6.034],[3.632,-6.048],[3.695,-6.105],[3.723,-6.154],[3.737,-6.154],[3.744,-6.182],[3.758,-6.182],[3.807,-6.245],[3.87,-6.273],[3.87,-6.379],[3.842,-6.47],[3.807,-6.47],[3.8,-6.484],[3.744,-6.506],[3.632,-6.506],[3.463,-6.456],[3.309,-6.372],[3.162,-6.266],[3.014,-6.126],[3.014,-6.112],[3.035,-6.048],[3.316,-6.048],[3.316,-5.879],[3.379,-5.872]]],[[[3.863,-6.231],[3.87,-6.245],[3.856,-6.245],[3.863,-6.231]]]]},"properties":{"abbr":"Gca","name":"globular cell area, ventral cochlear nucleus","plate":46,"ap_bregma_mm":-7.95,"area_mm2":0.6619,"traced_fraction":[0.817,0.835,1.0],"n_labels":2,"no_drawn_outline":false}},{"type":"Feature","geometry":{"type":"MultiPolygon","coordinates":[[[[-1.795,-5.711],[-1.732,-5.725],[-1.725,-5.739],[-1.683,-5.746],[-1.655,-5.767],[-1.627,-5.767],[-1.473,-5.844],[-1.375,-5.915],[-1.262,-6.02],[-1.227,-6.034],[-1.122,-6.154],[-1.347,-6.302],[-1.368,-6.294],[-1.403,-6.21],[-1.452,-6.154],[-1.543,-5.999],[-1.62,-5.915],[-1.634,-5.915],[-1.634,-5.901],[-1.718,-5.823],[-1.802,-5.774],[-1.795,-5.711]]],[[[1.745,-5.83],[1.745,-5.858],[1.703,-5.922],[1.696,-5.971],[1.619,-5.992],[1.507,-6.069],[1.395,-6.189],[1.297,-6.358],[1.248,-6.33],[1.128,-6.217],[1.065,-6.182],[1.058,-6.161],[1.143,-6.069],[1.318,-5.964],[1.563,-5.866],[1.682,-5.83],[1.745,-5.83]]]]},"properties":{"abbr":"veme","name":"vestibulomesencephalic tract","plate":46,"ap_bregma_mm":-7.95,"area_mm2":0.2681,"traced_fraction":[0.996,1.0],"n_labels":2,"no_drawn_outline":false}},{"type":"Feature","geometry":{"type":"MultiPolygon","coordinates":[[[[-0.554,-5.697],[-0.372,-5.718],[-0.274,-5.76],[-0.204,-5.83],[-0.169,-5.894],[-0.155,-5.943],[-0.162,-6.154],[-0.148,-6.203],[-0.225,-6.21],[-0.407,-6.182],[-0.491,-6.161],[-0.519,-6.14],[-0.561,-5.985],[-0.505,-5.978],[-0.484,-6.034],[-0.421,-6.091],[-0.316,-6.105],[-0.26,-6.091],[-0.239,-6.069],[-0.225,-5.971],[-0.246,-5.922],[-0.288,-5.879],[-0.365,-5.844],[-0.428,-5.844],[-0.484,-5.894],[-0.575,-5.908],[-0.575,-5.901],[-0.575,-5.753],[-0.554,-5.697]]],[[[0.518,-5.704],[0.518,-5.725],[0.568,-5.802],[0.589,-5.915],[0.56,-6.126],[0.518,-6.154],[0.427,-6.175],[0.399,-6.133],[0.399,-6.105],[0.441,-6.098],[0.483,-6.069],[0.505,-6.027],[0.511,-5.957],[0.49,-5.901],[0.462,-5.872],[0.427,-5.858],[0.364,-5.866],[0.308,-5.894],[0.273,-5.929],[0.252,-5.992],[0.259,-6.055],[0.287,-6.083],[0.357,-6.112],[0.364,-6.196],[0.224,-6.224],[0.161,-6.217],[0.189,-6.098],[0.182,-5.915],[0.217,-5.837],[0.287,-5.767],[0.343,-5.739],[0.427,-5.711],[0.518,-5.704]]]]},"properties":{"abbr":"CGA","name":"central gray, alpha part","plate":46,"ap_bregma_mm":-7.95,"area_mm2":0.2267,"traced_fraction":[0.98,0.972],"n_labels":1,"no_drawn_outline":false}},{"type":"Feature","geometry":{"type":"MultiPolygon","coordinates":[[[[-2.09,-5.894],[-2.048,-5.971],[-2.048,-6.062],[-2.069,-6.126],[-2.062,-6.175],[-2.09,-6.21],[-2.125,-6.302],[-2.16,-6.344],[-2.202,-6.463],[-2.202,-6.498],[-2.223,-6.513],[-2.293,-6.442],[-2.356,-6.414],[-2.468,-6.414],[-2.574,-6.435],[-2.553,-6.28],[-2.504,-6.175],[-2.496,-6.041],[-2.482,-6.006],[-2.44,-5.971],[-2.363,-5.908],[-2.279,-5.872],[-2.132,-5.872],[-2.09,-5.894]]],[[[2.096,-5.887],[2.208,-5.915],[2.299,-5.964],[2.405,-6.055],[2.468,-6.14],[2.489,-6.14],[2.489,-6.365],[2.503,-6.498],[2.419,-6.477],[2.285,-6.477],[2.25,-6.491],[2.215,-6.534],[2.152,-6.576],[2.005,-6.323],[1.956,-6.182],[1.949,-6.062],[1.963,-5.999],[2.026,-5.915],[2.096,-5.887]]]]},"properties":{"abbr":"Pr5DM","name":"principal sensory trigeminal nucleus, dorsomedial part","plate":46,"ap_bregma_mm":-7.95,"area_mm2":0.4907,"traced_fraction":[0.996,1.0],"n_labels":2,"no_drawn_outline":false}},{"type":"Feature","geometry":{"type":"MultiPolygon","coordinates":[[[[-1.634,-5.915],[-1.62,-5.915],[-1.543,-5.999],[-1.522,-6.048],[-1.403,-6.21],[-1.368,-6.294],[-1.347,-6.302],[-1.347,-6.484],[-1.361,-6.519],[-1.382,-6.534],[-1.41,-6.407],[-1.48,-6.337],[-1.571,-6.309],[-1.662,-6.309],[-1.76,-6.344],[-1.844,-6.449],[-1.851,-6.576],[-1.816,-6.646],[-1.739,-6.731],[-1.872,-6.815],[-2.02,-6.949],[-2.034,-6.949],[-2.139,-7.068],[-2.181,-7.082],[-2.195,-7.047],[-2.132,-6.942],[-2.111,-6.878],[-2.104,-6.773],[-2.139,-6.639],[-2.223,-6.513],[-2.202,-6.498],[-2.202,-6.463],[-2.16,-6.344],[-2.125,-6.302],[-2.118,-6.266],[-2.062,-6.175],[-2.02,-6.168],[-1.774,-6.034],[-1.69,-5.978],[-1.634,-5.915]]],[[[1.696,-5.971],[1.717,-6.027],[1.774,-6.091],[1.865,-6.147],[1.956,-6.182],[2.005,-6.323],[2.152,-6.576],[2.068,-6.752],[2.04,-6.942],[2.075,-7.04],[2.103,-7.068],[2.18,-7.096],[2.166,-7.146],[2.096,-7.11],[1.9,-6.949],[1.753,-6.85],[1.661,-6.759],[1.675,-6.738],[1.745,-6.717],[1.802,-6.653],[1.823,-6.569],[1.823,-6.477],[1.787,-6.393],[1.724,-6.33],[1.675,-6.302],[1.542,-6.28],[1.472,-6.294],[1.423,-6.323],[1.346,-6.414],[1.297,-6.372],[1.297,-6.358],[1.395,-6.189],[1.507,-6.069],[1.619,-5.992],[1.696,-5.971]]]]},"properties":{"abbr":"PCRt","name":"parvicellular reticular nucleus","plate":46,"ap_bregma_mm":-7.95,"area_mm2":0.744,"traced_fraction":[1.0,1.0],"n_labels":2,"no_drawn_outline":false}},{"type":"Feature","geometry":{"type":"MultiPolygon","coordinates":[[[[1.661,-6.759],[1.605,-6.731],[1.563,-6.731],[1.437,-6.66],[1.381,-6.59],[1.36,-6.534],[1.346,-6.414],[1.423,-6.323],[1.472,-6.294],[1.542,-6.28],[1.675,-6.302],[1.724,-6.33],[1.787,-6.393],[1.823,-6.477],[1.823,-6.569],[1.802,-6.653],[1.745,-6.717],[1.675,-6.738],[1.661,-6.759]]],[[[-1.382,-6.534],[-1.396,-6.611],[-1.41,-6.611],[-1.438,-6.653],[-1.543,-6.731],[-1.634,-6.759],[-1.669,-6.759],[-1.739,-6.731],[-1.816,-6.646],[-1.851,-6.576],[-1.844,-6.449],[-1.76,-6.344],[-1.662,-6.309],[-1.571,-6.309],[-1.48,-6.337],[-1.417,-6.393],[-1.382,-6.534]]]]},"properties":{"abbr":"P5","name":"peritrigeminal zone","plate":46,"ap_bregma_mm":-7.95,"area_mm2":0.333,"traced_fraction":[1.0,1.0],"n_labels":2,"no_drawn_outline":false}},{"type":"Feature","geometry":{"type":"MultiPolygon","coordinates":[[[[-0.148,-6.203],[-0.05,-6.266],[0.021,-6.266],[0.161,-6.217],[0.224,-6.224],[0.203,-6.4],[0.168,-6.513],[0.098,-6.66],[0.014,-6.752],[-0.029,-6.752],[-0.099,-6.667],[-0.183,-6.484],[-0.218,-6.344],[-0.225,-6.21],[-0.148,-6.203]]]]},"properties":{"abbr":"mlf","name":"medial longitudinal fasciculus","plate":46,"ap_bregma_mm":-7.95,"area_mm2":0.1639,"traced_fraction":[1.0],"n_labels":1,"no_drawn_outline":false}},{"type":"Feature","geometry":{"type":"MultiPolygon","coordinates":[[[[2.517,-5.943],[2.622,-6.034],[2.72,-6.182],[2.776,-6.238],[2.853,-6.365],[2.909,-6.513],[2.93,-6.632],[2.916,-6.738],[2.895,-6.794],[2.797,-6.899],[2.797,-6.92],[2.783,-6.92],[2.72,-7.005],[2.622,-7.096],[2.538,-7.216],[2.503,-7.216],[2.426,-7.258],[2.327,-7.258],[2.25,-7.223],[2.166,-7.146],[2.18,-7.096],[2.222,-7.096],[2.327,-7.061],[2.601,-6.857],[2.664,-6.787],[2.678,-6.717],[2.657,-6.632],[2.573,-6.541],[2.503,-6.498],[2.489,-6.365],[2.489,-6.14],[2.489,-6.027],[2.503,-5.957],[2.517,-5.943]]],[[[-2.461,-5.957],[-2.44,-5.971],[-2.482,-6.006],[-2.496,-6.041],[-2.504,-6.175],[-2.553,-6.28],[-2.574,-6.435],[-2.623,-6.491],[-2.679,-6.519],[-2.749,-6.583],[-2.763,-6.611],[-2.763,-6.667],[-2.749,-6.695],[-2.665,-6.787],[-2.616,-6.815],[-2.475,-6.956],[-2.398,-7.012],[-2.265,-7.061],[-2.195,-7.047],[-2.181,-7.082],[-2.251,-7.16],[-2.335,-7.188],[-2.454,-7.188],[-2.595,-7.146],[-2.644,-7.146],[-2.658,-7.146],[-2.798,-7.005],[-2.896,-6.892],[-2.98,-6.731],[-3.008,-6.597],[-2.994,-6.47],[-2.924,-6.33],[-2.805,-6.21],[-2.791,-6.21],[-2.623,-6.048],[-2.517,-5.999],[-2.461,-5.957]]]]},"properties":{"abbr":"s5","name":"sensory root of the trigeminal nerve","plate":46,"ap_bregma_mm":-7.95,"area_mm2":0.7374,"traced_fraction":[1.0,0.998],"n_labels":2,"no_drawn_outline":false}},{"type":"Feature","geometry":{"type":"MultiPolygon","coordinates":[[[[-2.223,-6.513],[-2.139,-6.639],[-2.104,-6.773],[-2.111,-6.878],[-2.132,-6.942],[-2.195,-7.047],[-2.265,-7.061],[-2.398,-7.012],[-2.475,-6.956],[-2.616,-6.815],[-2.665,-6.787],[-2.749,-6.695],[-2.763,-6.667],[-2.763,-6.611],[-2.749,-6.583],[-2.679,-6.519],[-2.623,-6.491],[-2.574,-6.435],[-2.468,-6.414],[-2.356,-6.414],[-2.293,-6.442],[-2.223,-6.513]]],[[[2.503,-6.498],[2.573,-6.541],[2.657,-6.632],[2.678,-6.717],[2.664,-6.787],[2.601,-6.857],[2.327,-7.061],[2.222,-7.096],[2.18,-7.096],[2.103,-7.068],[2.075,-7.04],[2.04,-6.942],[2.068,-6.752],[2.152,-6.576],[2.166,-6.576],[2.25,-6.491],[2.285,-6.477],[2.419,-6.477],[2.503,-6.498]]]]},"properties":{"abbr":"Pr5VL","name":"principal sensory trigeminal nucleus, ventrolateral part","plate":46,"ap_bregma_mm":-7.95,"area_mm2":0.5659,"traced_fraction":[1.0,1.0],"n_labels":2,"no_drawn_outline":false}},{"type":"Feature","geometry":{"type":"MultiPolygon","coordinates":[[[[1.36,-6.534],[1.381,-6.59],[1.437,-6.66],[1.416,-6.688],[1.409,-6.759],[1.388,-6.78],[1.325,-6.787],[1.297,-6.773],[1.248,-6.709],[1.248,-6.59],[1.29,-6.534],[1.36,-6.534]]],[[[-1.227,-6.541],[-1.199,-6.59],[-1.213,-6.681],[-1.269,-6.794],[-1.332,-6.857],[-1.382,-6.857],[-1.403,-6.815],[-1.396,-6.695],[-1.368,-6.625],[-1.326,-6.583],[-1.227,-6.541]]]]},"properties":{"abbr":"5ADi","name":"motor trigeminal nucleus, anterior digastric part","plate":46,"ap_bregma_mm":-7.95,"area_mm2":0.077,"traced_fraction":[1.0,0.974],"n_labels":2,"no_drawn_outline":false}},{"type":"Feature","geometry":{"type":"MultiPolygon","coordinates":[[[[-1.171,-6.498],[-1.129,-6.653],[-1.136,-6.899],[-1.206,-7.209],[-1.311,-7.476],[-1.445,-7.427],[-1.571,-7.427],[-1.571,-7.209],[-1.655,-7.209],[-1.655,-7.047],[-1.711,-6.998],[-1.62,-6.878],[-1.62,-6.794],[-1.634,-6.759],[-1.543,-6.731],[-1.438,-6.653],[-1.41,-6.611],[-1.396,-6.611],[-1.368,-6.625],[-1.396,-6.695],[-1.403,-6.815],[-1.382,-6.857],[-1.332,-6.857],[-1.29,-6.822],[-1.227,-6.723],[-1.199,-6.625],[-1.199,-6.59],[-1.227,-6.541],[-1.192,-6.498],[-1.171,-6.498]]],[[[1.177,-6.555],[1.227,-6.59],[1.248,-6.59],[1.248,-6.709],[1.276,-6.752],[1.325,-6.787],[1.388,-6.78],[1.409,-6.759],[1.416,-6.688],[1.437,-6.66],[1.563,-6.731],[1.493,-6.801],[1.493,-6.822],[1.605,-6.92],[1.689,-7.047],[1.823,-7.209],[1.802,-7.223],[1.437,-7.223],[1.444,-7.42],[1.36,-7.42],[1.311,-7.434],[1.269,-7.364],[1.241,-7.258],[1.22,-7.23],[1.213,-7.174],[1.156,-7.026],[1.121,-6.857],[1.115,-6.653],[1.135,-6.59],[1.177,-6.555]]]]},"properties":{"abbr":"IRt","name":"intermediate reticular nucleus","plate":46,"ap_bregma_mm":-7.95,"area_mm2":0.6145,"traced_fraction":[0.837,0.818],"n_labels":2,"no_drawn_outline":false}},{"type":"Feature","geometry":{"type":"MultiPolygon","coordinates":[[[[-0.603,-6.133],[-0.519,-6.14],[-0.491,-6.161],[-0.407,-6.182],[-0.225,-6.21],[-0.218,-6.344],[-0.183,-6.484],[-0.099,-6.667],[-0.029,-6.752],[-0.056,-6.808],[-0.063,-7.286],[-0.042,-7.743],[-0.169,-7.757],[-0.316,-7.8],[-0.498,-7.898],[-0.68,-8.032],[-0.694,-8.011],[-0.688,-7.87],[-0.645,-7.455],[-0.617,-7.307],[-0.603,-7.075],[-0.603,-6.984],[-0.617,-6.977],[-0.716,-6.963],[-0.73,-6.991],[-0.73,-7.082],[-0.765,-7.265],[-0.772,-7.448],[-0.8,-7.659],[-0.814,-7.961],[-0.828,-7.989],[-0.849,-7.982],[-0.905,-7.863],[-0.989,-7.786],[-0.989,-7.61],[-1.248,-7.61],[-1.255,-7.546],[-1.311,-7.476],[-1.206,-7.209],[-1.136,-6.899],[-1.129,-6.653],[-1.171,-6.498],[-1.045,-6.407],[-0.673,-6.21],[-0.603,-6.133]]],[[[-0.554,-6.245],[-0.61,-6.259],[-0.667,-6.302],[-0.667,-6.33],[-0.603,-6.386],[-0.505,-6.428],[-0.428,-6.428],[-0.365,-6.386],[-0.358,-6.316],[-0.386,-6.273],[-0.463,-6.245],[-0.554,-6.245]]],[[[0.49,-6.942],[0.505,-7.075],[0.308,-7.075],[0.308,-6.942],[0.49,-6.942]]]]},"properties":{"abbr":"ts","name":"tectospinal tract","plate":46,"ap_bregma_mm":-7.95,"area_mm2":1.5727,"traced_fraction":[0.939,0.982,0.292],"n_labels":2,"no_drawn_outline":false}},{"type":"Feature","geometry":{"type":"MultiPolygon","coordinates":[[[[2.797,-6.92],[2.804,-6.934],[2.958,-6.949],[2.993,-6.977],[2.965,-6.998],[2.888,-7.124],[2.867,-7.131],[2.839,-7.188],[2.818,-7.202],[2.685,-7.441],[2.552,-7.582],[2.552,-7.596],[1.907,-8.215],[1.893,-8.229],[1.886,-8.222],[1.851,-8.264],[1.837,-8.264],[1.851,-8.271],[1.83,-8.285],[1.816,-8.299],[1.802,-8.313],[1.542,-8.573],[1.374,-8.7],[1.353,-8.679],[1.353,-8.651],[1.388,-8.622],[1.402,-8.573],[1.444,-8.524],[1.479,-8.51],[1.528,-8.447],[1.795,-8.137],[1.83,-8.095],[1.837,-8.053],[1.935,-7.982],[2.166,-7.722],[2.194,-7.715],[2.348,-7.553],[2.419,-7.427],[2.489,-7.342],[2.538,-7.216],[2.622,-7.096],[2.72,-7.005],[2.762,-6.942],[2.797,-6.92]]],[[[-2.798,-7.005],[-2.658,-7.146],[-2.644,-7.146],[-2.644,-7.174],[-2.51,-7.328],[-2.496,-7.378],[-2.398,-7.511],[-2.251,-7.666],[-2.174,-7.708],[-2.132,-7.786],[-2.055,-7.863],[-2.041,-7.863],[-1.985,-7.926],[-1.746,-8.116],[-1.76,-8.144],[-1.872,-8.116],[-1.893,-8.137],[-1.872,-8.193],[-1.788,-8.264],[-1.571,-8.559],[-1.529,-8.587],[-1.501,-8.587],[-1.487,-8.573],[-1.501,-8.503],[-1.452,-8.503],[-1.431,-8.552],[-1.375,-8.608],[-1.403,-8.629],[-1.403,-8.665],[-1.361,-8.714],[-1.361,-8.742],[-1.403,-8.735],[-1.564,-8.651],[-1.718,-8.503],[-1.992,-8.151],[-2.616,-7.518],[-2.721,-7.364],[-2.763,-7.328],[-2.868,-7.174],[-2.959,-7.068],[-2.924,-7.026],[-2.896,-7.026],[-2.882,-7.005],[-2.798,-7.005]]],[[[-1.305,-7.863],[-1.269,-7.87],[-1.277,-7.919],[-1.262,-7.968],[-1.171,-8.095],[-1.059,-8.165],[-0.975,-8.186],[-0.912,-8.186],[-0.919,-8.222],[-1.003,-8.313],[-1.045,-8.397],[-1.052,-8.475],[-1.038,-8.538],[-0.989,-8.594],[-0.947,-8.601],[-0.905,-8.587],[-0.758,-8.454],[-0.582,-8.348],[-0.554,-8.376],[-0.4,-8.383],[-0.561,-8.594],[-0.582,-8.665],[-0.709,-8.756],[-0.842,-8.904],[-0.842,-8.925],[-0.975,-8.855],[-1.185,-8.812],[-1.234,-8.777],[-1.213,-8.756],[-1.052,-8.742],[-0.989,-8.707],[-1.01,-8.651],[-1.08,-8.587],[-1.178,-8.524],[-1.234,-8.517],[-1.213,-8.334],[-1.227,-8.229],[-1.262,-8.158],[-1.319,-8.116],[-1.368,-8.116],[-1.403,-8.137],[-1.403,-8.151],[-1.438,-8.179],[-1.452,-8.222],[-1.48,-8.236],[-1.515,-8.144],[-1.459,-8.116],[-1.41,-8.067],[-1.305,-7.863]]],[[[1.248,-8.102],[1.192,-8.25],[1.198,-8.412],[1.248,-8.538],[1.213,-8.524],[1.164,-8.531],[1.058,-8.644],[1.009,-8.728],[1.009,-8.742],[1.072,-8.791],[1.198,-8.763],[1.241,-8.77],[1.192,-8.819],[1.107,-8.869],[0.89,-8.946],[0.89,-8.925],[0.82,-8.826],[0.687,-8.7],[0.589,-8.644],[0.56,-8.573],[0.455,-8.426],[0.427,-8.404],[0.413,-8.369],[0.511,-8.369],[0.589,-8.32],[0.666,-8.404],[0.694,-8.412],[0.75,-8.468],[0.771,-8.517],[0.813,-8.559],[0.883,-8.594],[0.967,-8.594],[1.037,-8.517],[1.051,-8.412],[1.037,-8.334],[1.009,-8.285],[0.96,-8.229],[0.897,-8.186],[0.904,-8.158],[0.967,-8.179],[1.072,-8.179],[1.156,-8.151],[1.213,-8.102],[1.248,-8.102]]]]},"properties":{"abbr":"tz","name":"trapezoid body","plate":46,"ap_bregma_mm":-7.95,"area_mm2":1.2824,"traced_fraction":[0.869,0.972,0.955,0.954],"n_labels":4,"no_drawn_outline":false}},{"type":"Feature","geometry":{"type":"MultiPolygon","coordinates":[[[[1.823,-7.209],[1.935,-7.279],[1.949,-7.3],[2.068,-7.364],[2.054,-7.518],[1.914,-7.476],[1.865,-7.476],[1.851,-7.441],[1.808,-7.434],[1.802,-7.42],[1.802,-7.223],[1.823,-7.209]]],[[[-1.992,-7.216],[-1.992,-7.483],[-2.09,-7.532],[-2.118,-7.497],[-2.125,-7.279],[-2.104,-7.258],[-1.992,-7.216]]]]},"properties":{"abbr":"rs","name":"rubrospinal tract","plate":46,"ap_bregma_mm":-7.95,"area_mm2":0.0863,"traced_fraction":[0.736,0.478],"n_labels":2,"no_drawn_outline":true}},{"type":"Feature","geometry":{"type":"MultiPolygon","coordinates":[[[[-1.711,-6.998],[-1.655,-7.047],[-1.655,-7.209],[-1.571,-7.209],[-1.571,-7.427],[-1.585,-7.427],[-1.613,-7.413],[-1.781,-7.427],[-1.866,-7.448],[-1.887,-7.483],[-1.992,-7.483],[-1.992,-7.216],[-1.992,-7.202],[-1.921,-7.167],[-1.893,-7.131],[-1.781,-7.054],[-1.739,-7.005],[-1.711,-6.998]]],[[[1.802,-7.223],[1.802,-7.42],[1.682,-7.399],[1.493,-7.399],[1.451,-7.42],[1.444,-7.42],[1.437,-7.223],[1.802,-7.223]]]]},"properties":{"abbr":"A5","name":"A5 noradrenaline cells","plate":46,"ap_bregma_mm":-7.95,"area_mm2":0.2036,"traced_fraction":[0.574,0.41],"n_labels":2,"no_drawn_outline":true}},{"type":"Feature","geometry":{"type":"MultiPolygon","coordinates":[[[[-1.739,-6.731],[-1.669,-6.759],[-1.634,-6.759],[-1.62,-6.794],[-1.62,-6.878],[-1.711,-6.998],[-1.739,-7.005],[-1.781,-7.054],[-1.823,-7.075],[-1.921,-7.167],[-1.992,-7.202],[-1.992,-7.216],[-2.104,-7.258],[-2.125,-7.279],[-2.3,-7.349],[-2.398,-7.357],[-2.51,-7.328],[-2.644,-7.174],[-2.644,-7.146],[-2.595,-7.146],[-2.454,-7.188],[-2.335,-7.188],[-2.251,-7.16],[-2.181,-7.082],[-2.139,-7.068],[-2.034,-6.949],[-2.02,-6.949],[-1.872,-6.815],[-1.739,-6.731]]],[[[1.563,-6.731],[1.605,-6.731],[1.661,-6.759],[1.753,-6.85],[1.9,-6.949],[2.096,-7.11],[2.166,-7.146],[2.25,-7.223],[2.327,-7.258],[2.426,-7.258],[2.503,-7.216],[2.538,-7.216],[2.489,-7.342],[2.419,-7.427],[2.271,-7.427],[2.068,-7.364],[1.949,-7.3],[1.935,-7.279],[1.823,-7.209],[1.689,-7.047],[1.605,-6.92],[1.493,-6.822],[1.493,-6.801],[1.563,-6.731]]]]},"properties":{"abbr":"7n","name":"facial nerve","plate":46,"ap_bregma_mm":-7.95,"area_mm2":0.4457,"traced_fraction":[1.0,1.0],"n_labels":2,"no_drawn_outline":false}},{"type":"Feature","geometry":{"type":"MultiPolygon","coordinates":[[[[0.554,-6.815],[0.582,-6.815],[0.631,-6.991],[0.666,-7.23],[0.694,-7.328],[0.75,-7.891],[0.785,-8.067],[0.778,-8.116],[0.722,-8.109],[0.715,-8.067],[0.631,-7.982],[0.568,-7.448],[0.539,-7.357],[0.532,-7.223],[0.505,-7.075],[0.49,-6.942],[0.476,-6.843],[0.532,-6.822],[0.554,-6.815]]],[[[-0.68,-8.032],[-0.68,-8.046],[-0.737,-8.095],[-0.737,-8.116],[-0.821,-8.13],[-0.828,-7.989],[-0.814,-7.961],[-0.8,-7.659],[-0.772,-7.448],[-0.765,-7.265],[-0.73,-7.082],[-0.73,-6.991],[-0.716,-6.963],[-0.617,-6.977],[-0.603,-6.984],[-0.603,-7.075],[-0.617,-7.307],[-0.645,-7.455],[-0.688,-7.87],[-0.694,-8.011],[-0.68,-8.032]]]]},"properties":{"abbr":"6n","name":"abducens nerve","plate":46,"ap_bregma_mm":-7.95,"area_mm2":0.318,"traced_fraction":[0.973,0.976],"n_labels":2,"no_drawn_outline":false}},{"type":"Feature","geometry":{"type":"MultiPolygon","coordinates":[[[[-0.029,-6.752],[0.014,-6.752],[0.028,-6.787],[0.049,-7.033],[0.049,-7.216],[0.07,-7.314],[0.07,-7.532],[0.049,-7.736],[-0.042,-7.743],[-0.063,-7.286],[-0.056,-6.808],[-0.029,-6.752]]]]},"properties":{"abbr":"RIP","name":"raphe interpositus nucleus","plate":46,"ap_bregma_mm":-7.95,"area_mm2":0.1075,"traced_fraction":[1.0],"n_labels":1,"no_drawn_outline":false}},{"type":"Feature","geometry":{"type":"MultiPolygon","coordinates":[[[[0.645,-6.112],[0.659,-6.182],[0.729,-6.252],[0.827,-6.316],[0.995,-6.393],[1.177,-6.555],[1.135,-6.59],[1.115,-6.653],[1.121,-6.857],[1.156,-7.026],[1.213,-7.174],[1.22,-7.23],[1.241,-7.258],[1.269,-7.364],[1.311,-7.434],[1.241,-7.518],[1.227,-7.631],[0.939,-7.631],[0.946,-7.856],[0.89,-7.912],[0.848,-8.004],[0.855,-8.109],[0.904,-8.158],[0.897,-8.186],[0.799,-8.144],[0.778,-8.116],[0.785,-8.067],[0.75,-7.891],[0.694,-7.328],[0.666,-7.23],[0.631,-6.991],[0.582,-6.815],[0.582,-6.801],[0.554,-6.815],[0.532,-6.822],[0.476,-6.843],[0.49,-6.942],[0.308,-6.942],[0.308,-7.075],[0.505,-7.075],[0.532,-7.223],[0.539,-7.357],[0.568,-7.448],[0.631,-7.982],[0.441,-7.856],[0.308,-7.793],[0.049,-7.736],[0.07,-7.532],[0.07,-7.314],[0.056,-7.286],[0.049,-7.033],[0.028,-6.787],[0.014,-6.752],[0.098,-6.66],[0.168,-6.513],[0.203,-6.4],[0.224,-6.224],[0.364,-6.196],[0.427,-6.175],[0.518,-6.154],[0.56,-6.126],[0.645,-6.112]]],[[[0.42,-6.245],[0.364,-6.266],[0.329,-6.309],[0.329,-6.372],[0.357,-6.414],[0.518,-6.414],[0.61,-6.337],[0.61,-6.294],[0.56,-6.259],[0.511,-6.245],[0.42,-6.245]]]]},"properties":{"abbr":"PnC","name":"pontine reticular nucleus, caudal part","plate":46,"ap_bregma_mm":-7.95,"area_mm2":1.501,"traced_fraction":[0.88,1.0],"n_labels":1,"no_drawn_outline":false}},{"type":"Feature","geometry":{"type":"MultiPolygon","coordinates":[[[[1.802,-7.42],[1.808,-7.434],[1.851,-7.441],[1.865,-7.476],[1.781,-7.546],[1.689,-7.694],[1.647,-7.722],[1.633,-7.708],[1.626,-7.631],[1.591,-7.546],[1.521,-7.469],[1.5,-7.469],[1.451,-7.42],[1.493,-7.399],[1.682,-7.399],[1.802,-7.42]]],[[[-1.585,-7.427],[-1.585,-7.469],[-1.62,-7.518],[-1.641,-7.596],[-1.641,-7.743],[-1.662,-7.743],[-1.683,-7.722],[-1.746,-7.61],[-1.887,-7.483],[-1.866,-7.448],[-1.781,-7.427],[-1.683,-7.413],[-1.613,-7.413],[-1.585,-7.427]]]]},"properties":{"abbr":"DLPO","name":"dorsolateral periolivary nucleus","plate":46,"ap_bregma_mm":-7.95,"area_mm2":0.1129,"traced_fraction":[1.0,1.0],"n_labels":2,"no_drawn_outline":false}},{"type":"Feature","geometry":{"type":"MultiPolygon","coordinates":[[[[-1.248,-7.61],[-0.989,-7.61],[-0.989,-7.786],[-1.08,-7.757],[-1.143,-7.757],[-1.185,-7.771],[-1.213,-7.807],[-1.227,-7.807],[-1.269,-7.87],[-1.305,-7.863],[-1.277,-7.778],[-1.248,-7.61]]],[[[1.227,-7.631],[1.262,-7.757],[1.332,-7.842],[1.402,-7.961],[1.43,-7.975],[1.507,-8.06],[1.598,-8.109],[1.766,-8.095],[1.795,-8.137],[1.528,-8.447],[1.458,-8.44],[1.458,-8.313],[1.444,-8.243],[1.381,-8.095],[1.339,-8.06],[1.262,-8.081],[1.262,-8.053],[1.297,-7.975],[1.297,-7.919],[1.255,-7.828],[1.206,-7.786],[1.156,-7.764],[1.093,-7.771],[1.037,-7.793],[0.946,-7.856],[0.939,-7.631],[1.227,-7.631]]]]},"properties":{"abbr":"DPO","name":"dorsal periolivary nucleus","plate":46,"ap_bregma_mm":-7.95,"area_mm2":0.219,"traced_fraction":[0.652,0.714],"n_labels":2,"no_drawn_outline":true}},{"type":"Feature","geometry":{"type":"MultiPolygon","coordinates":[[[[1.444,-7.42],[1.451,-7.42],[1.5,-7.469],[1.521,-7.469],[1.591,-7.546],[1.626,-7.631],[1.633,-7.708],[1.647,-7.722],[1.689,-7.694],[1.781,-7.546],[1.865,-7.476],[1.914,-7.476],[2.054,-7.518],[2.152,-7.617],[2.166,-7.722],[2.096,-7.814],[2.026,-7.877],[2.026,-7.891],[1.935,-7.982],[1.837,-8.053],[1.83,-8.095],[1.795,-8.137],[1.766,-8.095],[1.598,-8.109],[1.507,-8.06],[1.43,-7.975],[1.402,-7.961],[1.332,-7.842],[1.262,-7.757],[1.227,-7.631],[1.241,-7.518],[1.311,-7.434],[1.36,-7.42],[1.444,-7.42]]],[[[-1.585,-7.427],[-1.571,-7.427],[-1.445,-7.427],[-1.311,-7.476],[-1.255,-7.546],[-1.248,-7.61],[-1.248,-7.652],[-1.305,-7.863],[-1.41,-8.067],[-1.459,-8.116],[-1.515,-8.144],[-1.62,-8.158],[-1.746,-8.116],[-1.936,-7.968],[-2.041,-7.863],[-2.055,-7.863],[-2.132,-7.786],[-2.174,-7.708],[-2.167,-7.631],[-2.146,-7.589],[-2.09,-7.532],[-1.992,-7.483],[-1.887,-7.483],[-1.746,-7.61],[-1.683,-7.722],[-1.662,-7.743],[-1.641,-7.743],[-1.641,-7.596],[-1.62,-7.518],[-1.585,-7.469],[-1.585,-7.427]]]]},"properties":{"abbr":"LSO","name":"lateral superior olive","plate":46,"ap_bregma_mm":-7.95,"area_mm2":0.8643,"traced_fraction":[0.982,1.0],"n_labels":2,"no_drawn_outline":false}},{"type":"Feature","geometry":{"type":"MultiPolygon","coordinates":[[[[-0.989,-7.786],[-0.905,-7.863],[-0.849,-7.982],[-0.828,-7.989],[-0.821,-8.13],[-0.912,-8.186],[-0.975,-8.186],[-1.059,-8.165],[-1.171,-8.095],[-1.262,-7.968],[-1.277,-7.919],[-1.269,-7.87],[-1.227,-7.807],[-1.213,-7.807],[-1.185,-7.771],[-1.143,-7.757],[-1.08,-7.757],[-0.989,-7.786]]],[[[1.262,-8.081],[1.255,-8.088],[1.248,-8.102],[1.213,-8.102],[1.156,-8.151],[1.072,-8.179],[0.967,-8.179],[0.904,-8.158],[0.855,-8.109],[0.848,-8.004],[0.89,-7.912],[0.946,-7.856],[1.037,-7.793],[1.093,-7.771],[1.156,-7.764],[1.206,-7.786],[1.255,-7.828],[1.297,-7.919],[1.297,-7.975],[1.262,-8.053],[1.262,-8.081]]]]},"properties":{"abbr":"SPN","name":"superior periolivary nucleus","plate":46,"ap_bregma_mm":-7.95,"area_mm2":0.2788,"traced_fraction":[1.0,1.0],"n_labels":2,"no_drawn_outline":false}},{"type":"Feature","geometry":{"type":"MultiPolygon","coordinates":[[[[0.252,-8.25],[0.035,-8.264],[0.035,-8.193],[0.014,-8.123],[-0.007,-8.102],[-0.029,-8.102],[-0.05,-8.13],[-0.071,-8.271],[-0.134,-8.25],[-0.204,-8.25],[-0.267,-8.271],[-0.267,-8.215],[-0.155,-7.912],[-0.084,-7.849],[-0.014,-7.828],[0.084,-7.849],[0.133,-7.905],[0.175,-7.997],[0.252,-8.25]]]]},"properties":{"abbr":"RMg","name":"raphe magnus nucleus","plate":46,"ap_bregma_mm":-7.95,"area_mm2":0.1478,"traced_fraction":[0.985],"n_labels":1,"no_drawn_outline":false}},{"type":"Feature","geometry":{"type":"MultiPolygon","coordinates":[[[[0.035,-8.264],[0.007,-8.426],[-0.029,-8.426],[-0.056,-8.369],[-0.071,-8.271],[-0.056,-8.158],[-0.029,-8.102],[-0.007,-8.102],[0.014,-8.123],[0.035,-8.193],[0.035,-8.264]]]]},"properties":{"abbr":"RPa","name":"raphe pallidus nucleus","plate":46,"ap_bregma_mm":-7.95,"area_mm2":0.0257,"traced_fraction":[0.936],"n_labels":1,"no_drawn_outline":false}},{"type":"Feature","geometry":{"type":"MultiPolygon","coordinates":[[[[1.528,-8.447],[1.479,-8.51],[1.444,-8.524],[1.402,-8.573],[1.325,-8.58],[1.248,-8.538],[1.22,-8.489],[1.192,-8.369],[1.192,-8.25],[1.248,-8.102],[1.255,-8.088],[1.262,-8.081],[1.339,-8.06],[1.381,-8.095],[1.444,-8.243],[1.458,-8.313],[1.458,-8.44],[1.528,-8.447]]],[[[-1.746,-8.116],[-1.62,-8.158],[-1.515,-8.144],[-1.48,-8.236],[-1.452,-8.222],[-1.438,-8.179],[-1.403,-8.151],[-1.403,-8.137],[-1.368,-8.116],[-1.319,-8.116],[-1.262,-8.158],[-1.227,-8.229],[-1.213,-8.334],[-1.234,-8.517],[-1.255,-8.566],[-1.305,-8.608],[-1.375,-8.608],[-1.431,-8.552],[-1.452,-8.503],[-1.501,-8.503],[-1.571,-8.362],[-1.585,-8.362],[-1.697,-8.201],[-1.76,-8.158],[-1.76,-8.144],[-1.746,-8.116]]]]},"properties":{"abbr":"MSO","name":"medial superior olive","plate":46,"ap_bregma_mm":-7.95,"area_mm2":0.2665,"traced_fraction":[0.935,0.97],"n_labels":2,"no_drawn_outline":false}},{"type":"Feature","geometry":{"type":"MultiPolygon","coordinates":[[[[0.722,-8.109],[0.778,-8.116],[0.799,-8.144],[0.897,-8.186],[0.96,-8.229],[1.009,-8.285],[1.037,-8.334],[1.051,-8.412],[1.037,-8.517],[0.967,-8.594],[0.883,-8.594],[0.813,-8.559],[0.771,-8.517],[0.75,-8.468],[0.694,-8.412],[0.666,-8.404],[0.589,-8.32],[0.547,-8.25],[0.547,-8.201],[0.56,-8.172],[0.624,-8.123],[0.722,-8.109]]],[[[-0.737,-8.116],[-0.631,-8.123],[-0.561,-8.172],[-0.554,-8.285],[-0.582,-8.348],[-0.758,-8.454],[-0.905,-8.587],[-0.947,-8.601],[-0.989,-8.594],[-1.038,-8.538],[-1.052,-8.475],[-1.045,-8.397],[-1.003,-8.313],[-0.919,-8.222],[-0.912,-8.186],[-0.821,-8.13],[-0.737,-8.116]]]]},"properties":{"abbr":"MNTB","name":"medial nucleus of the trapezoid body","plate":46,"ap_bregma_mm":-7.95,"area_mm2":0.3063,"traced_fraction":[0.981,0.995],"n_labels":2,"no_drawn_outline":false}},{"type":"Feature","geometry":{"type":"MultiPolygon","coordinates":[[[[-1.234,-8.517],[-1.136,-8.545],[-1.045,-8.615],[-0.989,-8.693],[-0.989,-8.707],[-1.031,-8.735],[-1.129,-8.756],[-1.213,-8.756],[-1.234,-8.777],[-1.361,-8.742],[-1.361,-8.714],[-1.403,-8.665],[-1.403,-8.629],[-1.375,-8.608],[-1.305,-8.608],[-1.255,-8.566],[-1.234,-8.517]]],[[[1.248,-8.538],[1.325,-8.58],[1.402,-8.573],[1.388,-8.622],[1.353,-8.651],[1.353,-8.679],[1.374,-8.7],[1.353,-8.721],[1.241,-8.77],[1.198,-8.763],[1.072,-8.791],[1.051,-8.784],[1.009,-8.728],[1.058,-8.644],[1.164,-8.531],[1.213,-8.524],[1.248,-8.538]]]]},"properties":{"abbr":"VNTB","name":"ventral nucleus of the trapezoid body","plate":46,"ap_bregma_mm":-7.95,"area_mm2":0.1321,"traced_fraction":[1.0,1.0],"n_labels":2,"no_drawn_outline":false}},{"type":"Feature","geometry":{"type":"MultiPolygon","coordinates":[[[[0.589,-8.644],[0.617,-8.651],[0.722,-8.728],[0.848,-8.862],[0.89,-8.925],[0.89,-8.946],[0.631,-9.002],[0.385,-8.995],[0.147,-8.855],[0.077,-8.833],[-0.021,-8.833],[-0.056,-8.848],[-0.141,-8.883],[-0.267,-8.988],[-0.407,-9.044],[-0.589,-9.044],[-0.659,-9.023],[-0.842,-8.925],[-0.842,-8.904],[-0.786,-8.855],[-0.758,-8.805],[-0.659,-8.714],[-0.582,-8.665],[-0.379,-8.622],[-0.232,-8.622],[-0.092,-8.651],[-0.035,-8.686],[-0.0,-8.728],[0.021,-8.728],[0.049,-8.686],[0.126,-8.644],[0.301,-8.608],[0.413,-8.608],[0.589,-8.644]]]]},"properties":{"abbr":"py","name":"pyramidal tract","plate":46,"ap_bregma_mm":-7.95,"area_mm2":0.4856,"traced_fraction":[1.0],"n_labels":2,"no_drawn_outline":false}},{"type":"Feature","geometry":{"type":"MultiPolygon","coordinates":[[[[-1.711,-0.823],[-1.718,-0.837],[-1.69,-0.858],[-1.711,-0.886],[-1.732,-1.048],[-1.725,-1.083],[-1.83,-1.322],[-1.964,-1.505],[-2.083,-1.631],[-2.097,-1.631],[-2.174,-1.779],[-2.174,-1.814],[-2.195,-1.835],[-2.216,-1.899],[-1.697,-2.419],[-1.578,-2.468],[-1.732,-2.954],[-1.921,-2.954],[-2.132,-3.383],[-2.132,-3.418],[-2.041,-3.587],[-2.041,-3.896],[-2.51,-4.128],[-2.602,-4.107],[-2.546,-3.84],[-2.546,-3.685],[-2.559,-3.643],[-2.581,-3.622],[-2.616,-3.615],[-2.63,-3.636],[-2.707,-3.671],[-2.791,-3.748],[-2.84,-3.847],[-3.422,-3.84],[-3.443,-3.84],[-3.464,-3.812],[-3.506,-3.699],[-3.541,-3.594],[-3.534,-3.558],[-3.555,-3.509],[-3.562,-3.404],[-3.583,-3.376],[-3.632,-3.326],[-3.822,-3.228],[-4.039,-3.08],[-4.137,-2.982],[-4.165,-2.933],[-4.186,-2.876],[-4.207,-2.532],[-4.172,-2.293],[-4.088,-2.025],[-3.969,-1.793],[-3.892,-1.695],[-3.864,-1.681],[-3.807,-1.596],[-3.695,-1.491],[-3.583,-1.42],[-3.576,-1.399],[-3.492,-1.343],[-3.352,-1.28],[-3.338,-1.259],[-3.156,-1.167],[-2.861,-1.048],[-1.915,-0.752],[-1.809,-0.759],[-1.76,-0.801],[-1.711,-0.823]]],[[[3.961,-1.547],[4.129,-1.638],[4.262,-1.765],[4.319,-1.842],[4.515,-2.243],[4.55,-2.377],[4.55,-2.475],[4.536,-2.532],[4.48,-2.644],[4.368,-2.764],[4.34,-2.813],[4.228,-2.911],[4.228,-2.926],[4.206,-2.926],[4.192,-2.954],[4.171,-2.961],[4.171,-2.996],[4.08,-3.031],[4.003,-3.108],[3.947,-3.144],[3.835,-3.263],[3.807,-3.27],[3.793,-3.305],[3.765,-3.326],[3.645,-3.495],[3.575,-3.622],[3.533,-3.622],[3.337,-3.516],[2.867,-3.516],[2.804,-3.552],[2.517,-3.27],[2.517,-2.658],[2.531,-2.658],[2.531,-2.637],[2.369,-2.117],[2.271,-1.8],[2.278,-1.779],[2.236,-1.688],[2.201,-1.631],[2.18,-1.624],[2.047,-1.477],[1.984,-1.364],[1.935,-1.188],[1.928,-1.062],[1.942,-1.048],[1.928,-0.9],[1.907,-0.851],[1.914,-0.83],[1.928,-0.808],[2.012,-0.773],[2.236,-0.794],[2.86,-0.963],[3.225,-1.09],[3.414,-1.188],[3.758,-1.427],[3.961,-1.547]]]]},"properties":{"abbr":"Crus1","name":"crus 1 of the ansiform lobule","plate":46,"ap_bregma_mm":-7.95,"area_mm2":10.1292,"traced_fraction":[0.72,0.803],"n_labels":3,"no_drawn_outline":false}},{"type":"Feature","geometry":{"type":"MultiPolygon","coordinates":[[[[-0.919,-4.979],[-0.863,-5.036],[-0.828,-5.043],[-0.617,-5.155],[-0.365,-5.239],[-0.372,-5.718],[-0.554,-5.697],[-0.68,-5.647],[-0.765,-5.556],[-0.835,-5.451],[-0.884,-5.338],[-0.912,-5.31],[-0.975,-5.141],[-0.989,-5.085],[-0.982,-5.007],[-0.919,-4.979]]]]},"properties":{"abbr":"SMV","name":"superior medullary velum","plate":46,"ap_bregma_mm":-7.95,"area_mm2":0.275,"traced_fraction":[0.804],"n_labels":1,"no_drawn_outline":false}},{"type":"Feature","geometry":{"type":"MultiPolygon","coordinates":[[[[0.953,-5.007],[1.023,-5.028],[1.044,-5.057],[1.044,-5.085],[0.953,-5.31],[0.764,-5.598],[0.666,-5.668],[0.518,-5.704],[0.427,-5.711],[0.343,-5.739],[0.287,-5.767],[0.217,-5.837],[0.182,-5.915],[0.189,-6.098],[0.161,-6.217],[0.021,-6.266],[-0.05,-6.266],[-0.148,-6.203],[-0.162,-6.154],[-0.155,-5.943],[-0.169,-5.894],[-0.204,-5.83],[-0.274,-5.76],[-0.372,-5.718],[-0.365,-5.239],[-0.197,-5.261],[0.098,-5.261],[0.252,-5.282],[0.539,-5.268],[0.666,-5.232],[0.764,-5.183],[0.841,-5.127],[0.953,-5.007]]]]},"properties":{"abbr":"4V","name":"4th ventricle","plate":46,"ap_bregma_mm":-7.95,"area_mm2":0.7952,"traced_fraction":[0.905],"n_labels":1,"no_drawn_outline":false}},{"type":"Feature","geometry":{"type":"MultiPolygon","coordinates":[[[[-0.8,-6.062],[-0.673,-6.062],[-0.638,-6.083],[-0.603,-6.133],[-0.673,-6.21],[-1.045,-6.407],[-1.171,-6.498],[-1.192,-6.498],[-1.227,-6.541],[-1.29,-6.562],[-1.368,-6.625],[-1.396,-6.611],[-1.382,-6.534],[-1.361,-6.519],[-1.347,-6.484],[-1.347,-6.302],[-1.122,-6.154],[-0.933,-6.083],[-0.8,-6.062]]],[[[0.883,-6.083],[1.03,-6.161],[1.058,-6.161],[1.065,-6.182],[1.128,-6.217],[1.248,-6.33],[1.297,-6.358],[1.297,-6.372],[1.346,-6.414],[1.36,-6.534],[1.29,-6.534],[1.248,-6.59],[1.227,-6.59],[1.177,-6.555],[0.995,-6.393],[0.827,-6.316],[0.729,-6.252],[0.659,-6.182],[0.645,-6.112],[0.722,-6.069],[0.883,-6.083]]]]},"properties":{"abbr":"g7","name":"genu of the facial nerve","plate":46,"ap_bregma_mm":-7.95,"area_mm2":0.3485,"traced_fraction":[1.0,1.0],"n_labels":2,"no_drawn_outline":false}},{"type":"Feature","geometry":{"type":"MultiPolygon","coordinates":[[[[-0.554,-6.245],[-0.463,-6.245],[-0.386,-6.273],[-0.358,-6.316],[-0.365,-6.386],[-0.428,-6.428],[-0.505,-6.428],[-0.603,-6.386],[-0.667,-6.33],[-0.667,-6.302],[-0.624,-6.266],[-0.554,-6.245]]],[[[0.42,-6.245],[0.511,-6.245],[0.56,-6.259],[0.61,-6.294],[0.61,-6.337],[0.518,-6.414],[0.357,-6.414],[0.329,-6.372],[0.329,-6.309],[0.364,-6.266],[0.42,-6.245]]]]},"properties":{"abbr":"Pa6","name":"paraabducens nucleus","plate":46,"ap_bregma_mm":-7.95,"area_mm2":0.0825,"traced_fraction":[0.982,1.0],"n_labels":1,"no_drawn_outline":false}},{"type":"Feature","geometry":{"type":"MultiPolygon","coordinates":[[[[-2.125,-7.279],[-2.118,-7.497],[-2.09,-7.532],[-2.146,-7.589],[-2.167,-7.631],[-2.174,-7.708],[-2.251,-7.666],[-2.398,-7.511],[-2.496,-7.378],[-2.51,-7.328],[-2.398,-7.357],[-2.3,-7.349],[-2.125,-7.279]]],[[[2.068,-7.364],[2.271,-7.427],[2.419,-7.427],[2.348,-7.553],[2.194,-7.715],[2.166,-7.722],[2.152,-7.617],[2.054,-7.518],[2.068,-7.364]]]]},"properties":{"abbr":"vsc","name":"ventral spinocerebellar tract","plate":46,"ap_bregma_mm":-7.95,"area_mm2":0.1599,"traced_fraction":[0.845,0.909],"n_labels":2,"no_drawn_outline":false}},{"type":"Feature","geometry":{"type":"MultiPolygon","coordinates":[[[[0.049,-7.736],[0.308,-7.793],[0.441,-7.856],[0.631,-7.982],[0.715,-8.067],[0.722,-8.109],[0.624,-8.123],[0.56,-8.172],[0.547,-8.201],[0.547,-8.25],[0.589,-8.32],[0.511,-8.369],[0.413,-8.369],[0.399,-8.369],[0.343,-8.299],[0.252,-8.25],[0.175,-7.997],[0.133,-7.905],[0.084,-7.849],[-0.014,-7.828],[-0.084,-7.849],[-0.155,-7.912],[-0.267,-8.215],[-0.267,-8.271],[-0.351,-8.327],[-0.4,-8.383],[-0.554,-8.376],[-0.582,-8.348],[-0.554,-8.285],[-0.561,-8.172],[-0.631,-8.123],[-0.737,-8.116],[-0.737,-8.095],[-0.68,-8.046],[-0.68,-8.032],[-0.498,-7.898],[-0.316,-7.8],[-0.169,-7.757],[-0.042,-7.743],[0.049,-7.736]]]]},"properties":{"abbr":"PnV","name":"pontine reticular nucleus, ventral part","plate":46,"ap_bregma_mm":-7.95,"area_mm2":0.438,"traced_fraction":[0.939],"n_labels":2,"no_drawn_outline":false}},{"type":"Feature","geometry":{"type":"MultiPolygon","coordinates":[[[[-0.071,-8.271],[-0.056,-8.369],[-0.029,-8.426],[-0.042,-8.426],[-0.084,-8.475],[-0.092,-8.651],[-0.232,-8.622],[-0.379,-8.622],[-0.582,-8.665],[-0.561,-8.594],[-0.4,-8.383],[-0.351,-8.327],[-0.267,-8.271],[-0.204,-8.25],[-0.134,-8.25],[-0.071,-8.271]]],[[[0.252,-8.25],[0.343,-8.299],[0.392,-8.362],[0.413,-8.369],[0.427,-8.404],[0.455,-8.426],[0.56,-8.573],[0.589,-8.644],[0.413,-8.608],[0.301,-8.608],[0.126,-8.644],[0.119,-8.531],[0.063,-8.531],[0.063,-8.475],[0.007,-8.426],[0.035,-8.264],[0.252,-8.25]]]]},"properties":{"abbr":"ml","name":"medial lemniscus","plate":46,"ap_bregma_mm":-7.95,"area_mm2":0.2858,"traced_fraction":[0.856,0.851],"n_labels":2,"no_drawn_outline":false}},{"type":"Feature","geometry":{"type":"MultiPolygon","coordinates":[[[[-0.029,-8.426],[0.007,-8.426],[0.063,-8.475],[0.063,-8.531],[0.119,-8.531],[0.126,-8.644],[0.049,-8.686],[0.021,-8.728],[-0.0,-8.728],[-0.035,-8.686],[-0.092,-8.651],[-0.084,-8.475],[-0.042,-8.426],[-0.029,-8.426]]]]},"properties":{"abbr":"tzx","name":"decussation of the trapezoid body","plate":46,"ap_bregma_mm":-7.95,"area_mm2":0.0457,"traced_fraction":[0.492],"n_labels":1,"no_drawn_outline":true}},{"type":"Feature","geometry":{"type":"Polygon","coordinates":[[[1.192,-0.991],[1.149,-1.132],[1.128,-1.28],[1.128,-1.442],[1.185,-1.688],[1.128,-1.667],[1.023,-1.554],[1.002,-1.547],[1.002,-1.533],[0.946,-1.505],[0.932,-1.484],[0.911,-1.484],[0.897,-1.463],[0.848,-1.442],[0.757,-1.42],[0.736,-1.392],[0.245,-1.378],[-0.035,-1.385],[-0.442,-1.392],[-0.449,-1.413],[-0.498,-1.442],[-0.568,-1.456],[-0.744,-1.54],[-0.94,-1.674],[-1.017,-1.751],[-1.108,-1.793],[-1.101,-1.751],[-1.017,-1.617],[-1.017,-1.596],[-1.003,-1.589],[-1.003,-1.568],[-0.989,-1.561],[-0.989,-1.54],[-0.975,-1.533],[-0.863,-1.287],[-0.835,-1.125],[-0.842,-0.963],[-0.772,-0.956],[-0.758,-0.879],[-0.68,-0.731],[-0.596,-0.654],[-0.512,-0.612],[-0.267,-0.548],[-0.007,-0.513],[0.385,-0.513],[0.547,-0.534],[0.708,-0.576],[0.813,-0.612],[0.946,-0.682],[1.058,-0.801],[1.086,-0.865],[1.093,-0.963],[1.192,-0.991]]]},"properties":{"abbr":null,"name":"unnamed sealed face","plate":46,"ap_bregma_mm":-7.95,"index":0}},{"type":"Feature","geometry":{"type":"Polygon","coordinates":[[[-2.959,-4.902],[-2.854,-4.916],[-2.847,-4.93],[-2.798,-4.944],[-2.749,-4.993],[-2.749,-5.099],[-2.7,-5.211],[-2.707,-5.268],[-2.798,-5.303],[-2.812,-5.324],[-2.903,-5.373],[-3.05,-5.514],[-3.212,-5.584],[-3.31,-5.605],[-3.338,-5.626],[-3.366,-5.626],[-3.485,-5.704],[-3.632,-5.774],[-3.744,-5.971],[-3.801,-6.013],[-3.836,-6.013],[-3.836,-5.992],[-3.794,-5.929],[-3.744,-5.788],[-3.744,-5.774],[-3.801,-5.725],[-3.695,-5.662],[-3.499,-5.542],[-3.352,-5.394],[-3.324,-5.394],[-3.324,-5.507],[-3.289,-5.507],[-3.24,-5.479],[-3.24,-5.422],[-3.205,-5.387],[-3.127,-5.352],[-3.057,-5.296],[-3.008,-5.225],[-2.973,-5.127],[-2.973,-5.05],[-3.001,-5.014],[-3.05,-4.993],[-3.127,-4.993],[-3.233,-5.043],[-3.303,-5.155],[-3.324,-5.141],[-3.331,-5.099],[-3.282,-5.007],[-3.169,-4.951],[-3.05,-4.93],[-3.008,-4.902],[-2.959,-4.902]]]},"properties":{"abbr":null,"name":"unnamed sealed face","plate":46,"ap_bregma_mm":-7.95,"index":1}},{"type":"Feature","geometry":{"type":"Polygon","coordinates":[[[3.064,-4.993],[3.113,-5.014],[3.113,-5.028],[3.232,-5.064],[3.323,-5.113],[3.358,-5.155],[3.372,-5.204],[3.337,-5.197],[3.246,-5.113],[3.148,-5.092],[3.057,-5.099],[3.022,-5.127],[2.993,-5.183],[2.993,-5.261],[3.022,-5.289],[3.035,-5.338],[3.232,-5.549],[3.232,-5.577],[3.204,-5.605],[3.176,-5.612],[3.176,-5.633],[3.225,-5.683],[3.288,-5.711],[3.281,-5.528],[3.288,-5.479],[3.316,-5.472],[3.337,-5.563],[3.365,-5.612],[3.491,-5.725],[3.667,-5.83],[3.603,-5.922],[3.772,-6.069],[3.828,-6.147],[3.863,-6.231],[3.856,-6.245],[3.87,-6.245],[3.87,-6.273],[3.807,-6.245],[3.807,-6.231],[3.744,-6.182],[3.737,-6.154],[3.723,-6.154],[3.632,-6.034],[3.618,-6.034],[3.547,-5.957],[3.484,-5.915],[3.379,-5.872],[3.344,-5.83],[3.26,-5.788],[3.029,-5.626],[3.007,-5.598],[2.972,-5.584],[2.846,-5.464],[2.832,-5.464],[2.832,-5.451],[2.755,-5.373],[2.734,-5.345],[2.741,-5.247],[2.783,-5.148],[2.846,-5.064],[2.972,-5.0],[3.064,-4.993]]]},"properties":{"abbr":null,"name":"unnamed sealed face","plate":46,"ap_bregma_mm":-7.95,"index":2}},{"type":"Feature","geometry":{"type":"Polygon","coordinates":[[[-2.314,-5.556],[-2.314,-5.598],[-2.3,-5.619],[-2.363,-5.662],[-2.405,-5.647],[-2.51,-5.647],[-2.504,-5.612],[-2.468,-5.57],[-2.461,-5.521],[-2.377,-5.514],[-2.314,-5.556]]]},"properties":{"abbr":null,"name":"unnamed sealed face","plate":46,"ap_bregma_mm":-7.95,"index":3}},{"type":"Feature","geometry":{"type":"Polygon","coordinates":[[[2.454,-5.605],[2.468,-5.654],[2.503,-5.697],[2.44,-5.718],[2.426,-5.746],[2.412,-5.746],[2.412,-5.774],[2.278,-5.76],[2.299,-5.676],[2.369,-5.612],[2.454,-5.605]]]},"properties":{"abbr":null,"name":"unnamed sealed face","plate":46,"ap_bregma_mm":-7.95,"index":4}},{"type":"Feature","geometry":{"type":"Polygon","coordinates":[[[-1.76,-8.144],[-1.76,-8.158],[-1.697,-8.201],[-1.585,-8.362],[-1.571,-8.362],[-1.501,-8.503],[-1.487,-8.559],[-1.501,-8.587],[-1.529,-8.587],[-1.571,-8.559],[-1.788,-8.264],[-1.872,-8.193],[-1.893,-8.158],[-1.893,-8.137],[-1.872,-8.116],[-1.76,-8.144]]]},"properties":{"abbr":null,"name":"unnamed sealed face","plate":46,"ap_bregma_mm":-7.95,"index":5}},{"type":"Feature","geometry":{"type":"MultiPolygon","coordinates":[[[[-0.421,-9.037],[-0.554,-9.044],[-0.652,-9.016],[-0.982,-8.848],[-1.178,-8.805],[-1.262,-8.763],[-1.403,-8.728],[-1.571,-8.637],[-1.704,-8.51],[-2.006,-8.137],[-2.602,-7.525],[-2.882,-7.16],[-3.064,-6.949],[-3.226,-6.808],[-3.296,-6.794],[-3.338,-6.801],[-3.408,-6.857],[-3.45,-6.934],[-3.513,-7.153],[-3.555,-7.237],[-3.611,-7.314],[-3.681,-7.378],[-3.78,-7.427],[-3.843,-7.441],[-4.046,-7.434],[-4.186,-7.385],[-4.242,-7.314],[-4.235,-7.188],[-4.165,-7.047],[-3.997,-6.864],[-3.934,-6.766],[-3.892,-6.625],[-3.878,-6.414],[-3.941,-6.196],[-3.941,-6.126],[-3.906,-6.055],[-3.857,-6.013],[-3.801,-5.936],[-3.744,-5.774],[-3.807,-5.718],[-3.948,-5.76],[-4.053,-5.767],[-4.109,-5.753],[-4.298,-5.683],[-4.425,-5.619],[-4.726,-5.422],[-4.845,-5.31],[-4.887,-5.204],[-4.859,-5.078],[-4.796,-4.993],[-4.726,-4.937],[-4.775,-4.853],[-5.0,-4.951],[-5.105,-4.958],[-5.217,-4.86],[-5.266,-4.789],[-5.308,-4.691],[-5.343,-4.501],[-5.343,-4.374],[-5.315,-4.192],[-5.287,-4.128],[-5.189,-4.051],[-5.154,-4.002],[-5.154,-3.931],[-5.126,-3.84],[-5.091,-3.748],[-5.006,-3.601],[-4.901,-3.46],[-4.677,-3.235],[-4.432,-3.045],[-4.235,-2.94],[-4.186,-2.869],[-4.207,-2.553],[-4.172,-2.3],[-4.081,-2.011],[-3.962,-1.786],[-3.794,-1.582],[-3.667,-1.47],[-3.499,-1.35],[-3.184,-1.181],[-2.854,-1.048],[-1.908,-0.752],[-1.816,-0.759],[-1.732,-0.816],[-1.662,-0.83],[-1.508,-0.703],[-1.368,-0.647],[-1.227,-0.647],[-1.115,-0.682],[-0.975,-0.78],[-0.884,-0.872],[-0.856,-0.963],[-0.779,-0.963],[-0.758,-0.879],[-0.68,-0.731],[-0.596,-0.654],[-0.505,-0.612],[-0.26,-0.548],[0.021,-0.513],[0.35,-0.513],[0.526,-0.534],[0.694,-0.576],[0.82,-0.619],[0.925,-0.675],[0.967,-0.703],[1.051,-0.801],[1.079,-0.872],[1.086,-0.963],[1.198,-0.991],[1.185,-1.02],[1.276,-0.851],[1.36,-0.766],[1.493,-0.689],[1.563,-0.668],[1.633,-0.668],[1.745,-0.703],[1.879,-0.808],[1.935,-0.808],[2.019,-0.773],[2.222,-0.794],[2.867,-0.97],[3.232,-1.097],[3.414,-1.195],[3.828,-1.47],[4.129,-1.646],[4.249,-1.758],[4.319,-1.856],[4.508,-2.25],[4.543,-2.384],[4.543,-2.461],[4.522,-2.539],[4.466,-2.644],[4.319,-2.82],[4.22,-2.911],[4.234,-3.01],[4.34,-3.059],[4.403,-3.115],[4.438,-3.235],[4.487,-3.27],[4.585,-3.291],[4.781,-3.404],[4.943,-3.53],[5.027,-3.622],[5.09,-3.713],[5.139,-3.833],[5.195,-4.044],[5.195,-4.135],[5.307,-4.262],[5.377,-4.424],[5.427,-4.642],[5.405,-4.867],[5.363,-4.986],[5.314,-5.078],[5.258,-5.155],[5.146,-5.261],[5.041,-5.324],[4.971,-5.345],[4.851,-5.345],[4.746,-5.31],[4.676,-5.345],[4.641,-5.436],[4.473,-5.605],[4.333,-5.711],[4.122,-5.823],[3.996,-5.858],[3.807,-5.858],[3.667,-5.823],[3.596,-5.915],[3.758,-6.062],[3.828,-6.161],[3.863,-6.238],[3.863,-6.365],[3.835,-6.463],[3.828,-6.646],[3.856,-6.78],[4.017,-7.223],[4.031,-7.413],[4.003,-7.462],[3.842,-7.504],[3.702,-7.504],[3.618,-7.476],[3.512,-7.364],[3.372,-7.117],[3.267,-6.977],[3.19,-6.92],[3.12,-6.906],[3.064,-6.92],[2.965,-6.991],[2.79,-7.237],[2.671,-7.441],[2.524,-7.61],[1.549,-8.552],[1.346,-8.714],[1.262,-8.749],[1.164,-8.826],[1.037,-8.89],[0.897,-8.939],[0.61,-8.995],[0.385,-8.988],[0.154,-8.855],[0.063,-8.826],[-0.014,-8.826],[-0.127,-8.869],[-0.288,-8.988],[-0.4,-9.03],[-0.421,-9.037]]]]},"properties":{"abbr":"brain_outline","name":"outline of the section","plate":46,"ap_bregma_mm":-7.95}}]}
