{"type":"FeatureCollection","name":"GerbilAtlas plate 26","note":"Region extents cut from the atlas drawing (METHODS.md, Region extents). Coordinates are [ML, DV] in mm, ML positive to the right of the plate as printed, DV negative below the dorsal surface; AP is the plate bregma. traced_fraction is the share of each polygon boundary the atlas actually draws; below 0.5 the boundary is an estimate. no_drawn_outline marks a feature that lies only inside boundaries the atlas draws round more than one name and prints nothing within, so the whole of its outline is where the extraction cut it. Not a segmentation.","plate":26,"ap_bregma_mm":-0.95,"features":[{"type":"Feature","geometry":{"type":"MultiPolygon","coordinates":[[[[-5.824,-6.739],[-5.845,-6.83],[-5.845,-6.999],[-5.796,-7.182],[-5.691,-7.322],[-5.642,-7.463],[-5.6,-7.54],[-5.404,-7.765],[-5.404,-7.779],[-5.256,-7.927],[-5.242,-7.927],[-5.186,-7.998],[-5.165,-8.054],[-5.102,-8.145],[-5.004,-8.208],[-4.92,-8.23],[-4.871,-8.307],[-4.801,-8.37],[-4.695,-8.412],[-4.59,-8.483],[-4.562,-8.483],[-4.548,-8.511],[-4.576,-8.56],[-4.597,-8.743],[-4.59,-8.834],[-4.737,-8.792],[-4.857,-8.736],[-4.899,-8.701],[-4.913,-8.708],[-4.92,-8.708],[-4.927,-8.687],[-5.158,-8.525],[-5.172,-8.497],[-5.228,-8.462],[-5.249,-8.427],[-5.341,-8.349],[-5.446,-8.215],[-5.474,-8.201],[-5.628,-7.983],[-5.642,-7.983],[-5.649,-7.955],[-5.663,-7.955],[-5.67,-7.927],[-5.782,-7.772],[-5.887,-7.667],[-5.993,-7.526],[-6.063,-7.372],[-6.105,-7.224],[-6.147,-6.816],[-5.901,-6.746],[-5.824,-6.739]]],[[[5.675,-6.879],[5.702,-6.879],[5.759,-6.907],[5.934,-7.013],[5.934,-7.055],[5.871,-7.252],[5.773,-7.484],[5.759,-7.491],[5.752,-7.526],[5.66,-7.688],[5.506,-7.913],[5.478,-7.927],[5.373,-8.068],[5.345,-8.082],[5.233,-8.208],[5.12,-8.293],[5.114,-8.314],[4.805,-8.525],[4.791,-8.546],[4.7,-8.595],[4.7,-8.609],[4.686,-8.616],[4.679,-8.609],[4.679,-8.623],[4.665,-8.63],[4.651,-8.638],[4.63,-8.652],[4.518,-8.715],[4.469,-8.743],[4.454,-8.75],[4.44,-8.757],[4.433,-8.757],[4.419,-8.757],[4.391,-8.708],[4.37,-8.49],[4.384,-8.455],[4.426,-8.448],[4.574,-8.37],[4.665,-8.265],[4.973,-8.082],[5.114,-7.927],[5.317,-7.73],[5.471,-7.463],[5.492,-7.449],[5.653,-7.21],[5.696,-7.104],[5.696,-7.034],[5.66,-6.928],[5.675,-6.879]]],[[[2.344,-8.004],[2.477,-8.11],[2.582,-8.159],[2.589,-8.173],[2.709,-8.215],[2.681,-8.3],[2.624,-8.37],[2.582,-8.363],[2.484,-8.314],[2.281,-8.194],[2.267,-8.166],[2.253,-8.166],[2.232,-8.11],[2.253,-8.103],[2.344,-8.004]]],[[[-2.368,-8.061],[-2.326,-8.103],[-2.284,-8.208],[-2.262,-8.215],[-2.262,-8.23],[-2.284,-8.237],[-2.305,-8.237],[-2.333,-8.265],[-2.48,-8.335],[-2.501,-8.349],[-2.501,-8.37],[-2.522,-8.377],[-2.55,-8.377],[-2.592,-8.405],[-2.634,-8.434],[-2.648,-8.441],[-2.922,-8.56],[-2.928,-8.574],[-3.048,-8.616],[-3.09,-8.525],[-3.097,-8.441],[-3.048,-8.419],[-3.027,-8.391],[-2.922,-8.321],[-2.887,-8.279],[-2.767,-8.215],[-2.676,-8.201],[-2.676,-8.18],[-2.627,-8.152],[-2.592,-8.138],[-2.438,-8.131],[-2.396,-8.11],[-2.368,-8.061]]],[[[4.433,-8.757],[4.44,-8.757],[4.433,-8.764],[4.433,-8.757]]]]},"properties":{"abbr":"1","name":"layer 1 of cortex","plate":26,"ap_bregma_mm":-0.95,"area_mm2":1.6752,"traced_fraction":[1.0,1.0,1.0,0.965,1.0],"n_labels":4,"no_drawn_outline":false}},{"type":"Feature","geometry":{"type":"MultiPolygon","coordinates":[[[[-5.824,-6.739],[-5.803,-6.739],[-5.754,-6.802],[-5.705,-6.999],[-5.67,-7.076],[-5.614,-7.132],[-5.537,-7.182],[-5.439,-7.287],[-5.404,-7.336],[-5.369,-7.456],[-5.312,-7.561],[-5.214,-7.702],[-5.095,-7.836],[-5.151,-7.836],[-5.242,-7.927],[-5.256,-7.927],[-5.404,-7.779],[-5.404,-7.765],[-5.6,-7.54],[-5.642,-7.463],[-5.691,-7.322],[-5.796,-7.182],[-5.845,-6.999],[-5.845,-6.83],[-5.824,-6.739]]],[[[5.632,-6.858],[5.675,-6.879],[5.66,-6.928],[5.688,-6.999],[5.696,-7.104],[5.653,-7.21],[5.492,-7.449],[5.471,-7.463],[5.317,-7.73],[5.114,-7.927],[5.099,-7.927],[5.099,-7.906],[5.022,-7.836],[5.022,-7.815],[5.268,-7.533],[5.408,-7.315],[5.52,-7.203],[5.534,-7.125],[5.569,-7.083],[5.569,-6.978],[5.632,-6.858]]],[[[-2.466,-7.913],[-2.396,-7.983],[-2.368,-8.061],[-2.396,-8.11],[-2.438,-8.131],[-2.592,-8.138],[-2.627,-8.152],[-2.655,-8.103],[-2.655,-8.04],[-2.62,-7.998],[-2.55,-7.927],[-2.466,-7.913]]]]},"properties":{"abbr":"2","name":"layer 2 of cortex","plate":26,"ap_bregma_mm":-0.95,"area_mm2":0.451,"traced_fraction":[0.966,0.973,1.0],"n_labels":3,"no_drawn_outline":false}},{"type":"Feature","geometry":{"type":"MultiPolygon","coordinates":[[[[4.791,-6.288],[4.763,-6.338],[4.763,-6.366],[4.84,-6.429],[5.114,-6.591],[5.604,-6.83],[5.632,-6.858],[5.569,-6.978],[5.569,-7.083],[5.534,-7.125],[5.52,-7.203],[5.408,-7.315],[5.268,-7.533],[5.022,-7.815],[5.008,-7.815],[4.952,-7.878],[4.812,-7.983],[4.777,-8.026],[4.581,-8.159],[4.497,-8.237],[4.356,-8.307],[4.342,-7.948],[4.328,-7.941],[4.328,-7.878],[4.419,-7.878],[4.56,-7.779],[4.623,-7.751],[4.777,-7.618],[4.812,-7.561],[4.833,-7.491],[4.84,-7.315],[4.889,-7.118],[4.889,-6.943],[4.812,-6.746],[4.763,-6.675],[4.728,-6.591],[4.7,-6.57],[4.7,-6.38],[4.686,-6.309],[4.791,-6.288]]],[[[-4.731,-6.38],[-4.723,-6.38],[-4.716,-6.415],[-4.737,-6.535],[-4.716,-6.619],[-4.759,-6.633],[-4.822,-6.696],[-4.962,-6.893],[-4.983,-6.992],[-4.969,-7.266],[-4.983,-7.294],[-4.976,-7.428],[-4.941,-7.526],[-4.892,-7.611],[-4.752,-7.744],[-4.555,-7.864],[-4.485,-7.885],[-4.464,-7.913],[-4.345,-7.976],[-4.422,-8.096],[-4.513,-8.314],[-4.541,-8.307],[-4.716,-8.187],[-4.934,-7.962],[-5.039,-7.892],[-5.095,-7.836],[-5.214,-7.702],[-5.312,-7.561],[-5.369,-7.456],[-5.404,-7.336],[-5.439,-7.287],[-5.537,-7.182],[-5.614,-7.132],[-5.67,-7.076],[-5.705,-6.999],[-5.754,-6.802],[-5.803,-6.739],[-5.768,-6.703],[-5.425,-6.612],[-5.032,-6.478],[-4.906,-6.45],[-4.731,-6.38]]],[[[2.786,-7.547],[2.828,-7.561],[2.828,-7.674],[2.779,-7.794],[2.695,-7.794],[2.695,-7.744],[2.681,-7.744],[2.632,-7.688],[2.632,-7.674],[2.702,-7.604],[2.786,-7.547]]],[[[-2.774,-7.639],[-2.746,-7.639],[-2.746,-7.66],[-2.711,-7.695],[-2.599,-7.765],[-2.473,-7.892],[-2.466,-7.913],[-2.55,-7.927],[-2.62,-7.998],[-2.908,-7.983],[-2.866,-7.885],[-2.837,-7.709],[-2.774,-7.639]]]]},"properties":{"abbr":"3","name":"layer 3 of cortex","plate":26,"ap_bregma_mm":-0.95,"area_mm2":2.0336,"traced_fraction":[0.981,0.999,0.765,0.821],"n_labels":4,"no_drawn_outline":false}},{"type":"Feature","geometry":{"type":"MultiPolygon","coordinates":[[[[0.858,-4.073],[0.802,-4.171],[0.724,-4.242],[0.633,-4.291],[0.437,-4.354],[0.374,-4.389],[0.17,-4.403],[0.093,-4.432],[-0.019,-4.432],[-0.138,-4.389],[-0.299,-4.382],[-0.369,-4.375],[-0.447,-4.34],[-0.587,-4.199],[-0.741,-4.115],[-0.832,-4.01],[-0.853,-3.932],[-0.755,-3.876],[-0.692,-3.869],[-0.657,-3.883],[-0.643,-3.911],[-0.65,-3.967],[-0.559,-4.017],[-0.51,-4.073],[-0.496,-4.073],[-0.461,-4.143],[-0.419,-4.178],[-0.369,-4.178],[-0.348,-4.15],[-0.348,-4.115],[-0.419,-4.017],[-0.425,-3.982],[-0.461,-3.946],[-0.461,-3.932],[-0.432,-3.918],[-0.348,-3.939],[-0.229,-3.925],[-0.187,-3.982],[-0.117,-3.995],[-0.096,-4.045],[-0.061,-4.08],[0.03,-4.066],[0.079,-4.122],[0.128,-4.115],[0.185,-4.045],[0.248,-4.031],[0.339,-3.946],[0.367,-3.946],[0.353,-4.017],[0.276,-4.087],[0.283,-4.143],[0.318,-4.185],[0.381,-4.185],[0.402,-4.164],[0.409,-4.108],[0.43,-4.094],[0.535,-4.087],[0.57,-4.052],[0.577,-3.953],[0.675,-3.953],[0.717,-3.974],[0.774,-4.038],[0.858,-4.073]]],[[[-0.068,-6.682],[0.016,-6.682],[0.002,-6.957],[0.002,-7.111],[-0.068,-7.111],[-0.075,-6.964],[-0.068,-6.682]]]]},"properties":{"abbr":"3V","name":"3rd ventricle","plate":26,"ap_bregma_mm":-0.95,"area_mm2":0.5248,"traced_fraction":[1.0,0.967],"n_labels":2,"no_drawn_outline":false}},{"type":"Feature","geometry":{"type":"MultiPolygon","coordinates":[[[[2.807,-7.372],[2.772,-7.407],[2.758,-7.456],[2.498,-7.456],[2.491,-7.189],[2.695,-7.189],[2.695,-7.238],[2.716,-7.28],[2.807,-7.372]]],[[[-2.501,-7.568],[-2.62,-7.583],[-2.746,-7.639],[-2.774,-7.639],[-2.774,-7.561],[-2.823,-7.491],[-2.704,-7.372],[-2.704,-7.287],[-2.501,-7.287],[-2.501,-7.568]]]]},"properties":{"abbr":"AA","name":"anterior amygdaloid area","plate":26,"ap_bregma_mm":-0.95,"area_mm2":0.1463,"traced_fraction":[0.393,0.437],"n_labels":2,"no_drawn_outline":true}},{"type":"Feature","geometry":{"type":"MultiPolygon","coordinates":[[[[2.905,-7.547],[3.045,-7.765],[3.108,-7.829],[3.221,-7.906],[3.347,-7.969],[3.557,-8.04],[3.739,-8.082],[3.865,-8.082],[3.893,-8.082],[3.872,-8.398],[3.865,-8.483],[3.88,-8.504],[3.859,-8.518],[3.83,-8.659],[3.809,-8.806],[3.816,-8.855],[3.676,-8.863],[3.669,-8.841],[3.592,-8.827],[3.508,-8.792],[3.494,-8.799],[3.473,-8.792],[3.459,-8.785],[3.227,-8.687],[3.213,-8.68],[3.178,-8.666],[3.164,-8.659],[3.15,-8.652],[3.129,-8.645],[3.122,-8.645],[3.115,-8.623],[3.101,-8.63],[3.08,-8.623],[3.08,-8.609],[3.066,-8.616],[3.052,-8.609],[3.031,-8.602],[3.031,-8.588],[2.807,-8.483],[2.8,-8.469],[2.779,-8.469],[2.772,-8.455],[2.751,-8.455],[2.73,-8.434],[2.709,-8.434],[2.624,-8.37],[2.681,-8.3],[2.709,-8.215],[2.737,-8.159],[2.737,-8.047],[2.779,-7.794],[2.828,-7.674],[2.828,-7.561],[2.905,-7.547]]],[[[-2.922,-7.688],[-2.837,-7.709],[-2.866,-7.885],[-2.908,-7.983],[-2.992,-8.103],[-3.09,-8.286],[-3.104,-8.398],[-3.097,-8.441],[-3.09,-8.525],[-3.048,-8.616],[-3.125,-8.666],[-3.202,-8.687],[-3.209,-8.701],[-3.546,-8.813],[-3.693,-8.841],[-3.693,-8.863],[-3.728,-8.863],[-3.98,-8.891],[-3.98,-8.841],[-4.057,-8.553],[-4.071,-8.455],[-4.064,-8.265],[-4.015,-8.138],[-4.001,-8.054],[-4.001,-8.047],[-3.721,-8.04],[-3.377,-7.983],[-3.055,-7.829],[-2.971,-7.744],[-2.957,-7.744],[-2.922,-7.688]]]]},"properties":{"abbr":"ACo","name":"anterior cortical amygdaloid nucleus","plate":26,"ap_bregma_mm":-0.95,"area_mm2":1.7509,"traced_fraction":[1.0,1.0],"n_labels":2,"no_drawn_outline":false}},{"type":"Feature","geometry":{"type":"MultiPolygon","coordinates":[[[[-1.26,-3.7],[-1.239,-3.728],[-1.169,-3.77],[-1.029,-3.813],[-0.923,-3.862],[-0.853,-3.932],[-0.832,-4.01],[-0.846,-4.01],[-0.86,-4.038],[-0.86,-4.185],[-0.839,-4.277],[-0.762,-4.46],[-0.664,-4.565],[-0.643,-4.607],[-0.629,-4.713],[-0.657,-4.706],[-0.734,-4.622],[-0.748,-4.622],[-0.762,-4.586],[-0.797,-4.558],[-1.0,-4.284],[-1.021,-4.277],[-1.021,-4.263],[-1.197,-4.094],[-1.197,-4.08],[-1.232,-4.059],[-1.386,-3.897],[-1.484,-3.834],[-1.533,-3.778],[-1.512,-3.749],[-1.435,-3.714],[-1.379,-3.7],[-1.26,-3.7]]],[[[1.51,-3.855],[1.44,-3.932],[1.348,-3.989],[1.257,-4.08],[1.096,-4.298],[1.054,-4.333],[1.04,-4.368],[0.984,-4.418],[0.97,-4.453],[0.837,-4.607],[0.816,-4.65],[0.759,-4.678],[0.689,-4.748],[0.654,-4.755],[0.661,-4.671],[0.759,-4.572],[0.865,-4.375],[0.928,-4.171],[0.921,-4.031],[0.921,-4.017],[0.991,-3.967],[1.012,-3.925],[1.096,-3.869],[1.173,-3.778],[1.229,-3.763],[1.397,-3.77],[1.461,-3.806],[1.51,-3.855]]]]},"properties":{"abbr":"AD","name":"anterodorsal thalamic nucleus","plate":26,"ap_bregma_mm":-0.95,"area_mm2":0.4899,"traced_fraction":[0.99,1.0],"n_labels":2,"no_drawn_outline":false}},{"type":"Feature","geometry":{"type":"MultiPolygon","coordinates":[[[[0.304,-6.464],[0.689,-6.464],[0.696,-6.528],[0.759,-6.598],[0.823,-6.626],[0.886,-6.633],[0.879,-7.217],[0.745,-7.153],[0.64,-7.16],[0.542,-7.21],[0.465,-7.287],[0.43,-7.407],[0.416,-7.526],[0.423,-7.639],[0.451,-7.744],[0.479,-7.8],[0.535,-7.857],[0.647,-7.885],[0.774,-7.878],[0.829,-7.857],[0.858,-7.878],[0.865,-7.92],[0.879,-7.927],[0.886,-8.012],[0.703,-8.166],[0.57,-8.237],[0.479,-8.265],[0.451,-8.3],[0.248,-8.321],[0.248,-8.307],[0.276,-8.293],[0.339,-8.215],[0.339,-8.075],[0.297,-7.948],[0.276,-7.906],[0.255,-7.906],[0.248,-7.843],[0.191,-7.716],[0.128,-7.625],[0.093,-7.597],[0.072,-7.597],[0.065,-7.59],[0.065,-6.964],[0.157,-6.788],[0.255,-6.675],[0.29,-6.612],[0.304,-6.464]]],[[[-0.762,-6.506],[-0.362,-6.506],[-0.348,-6.619],[-0.299,-6.71],[-0.285,-6.71],[-0.25,-6.774],[-0.166,-6.858],[-0.145,-6.9],[-0.145,-6.964],[-0.145,-7.069],[-0.131,-7.118],[-0.131,-7.611],[-0.152,-7.611],[-0.208,-7.674],[-0.222,-7.709],[-0.236,-7.709],[-0.271,-7.772],[-0.278,-7.829],[-0.306,-7.829],[-0.348,-7.899],[-0.376,-8.004],[-0.362,-8.159],[-0.32,-8.23],[-0.243,-8.293],[-0.32,-8.307],[-0.419,-8.265],[-0.741,-8.208],[-0.895,-8.131],[-0.881,-7.948],[-0.825,-7.976],[-0.762,-7.976],[-0.636,-7.941],[-0.601,-7.913],[-0.559,-7.695],[-0.552,-7.547],[-0.594,-7.343],[-0.629,-7.273],[-0.699,-7.196],[-0.755,-7.168],[-0.944,-7.175],[-0.958,-6.682],[-0.909,-6.689],[-0.825,-6.661],[-0.783,-6.612],[-0.762,-6.506]]]]},"properties":{"abbr":"AHA","name":"anterior hypothalamic area, anterior part","plate":26,"ap_bregma_mm":-0.95,"area_mm2":1.8222,"traced_fraction":[0.817,0.835],"n_labels":2,"no_drawn_outline":false}},{"type":"Feature","geometry":{"type":"MultiPolygon","coordinates":[[[[4.987,-5.557],[5.071,-5.592],[5.156,-5.655],[5.233,-5.691],[5.247,-5.712],[5.317,-5.747],[5.478,-5.866],[5.618,-5.944],[6.053,-6.232],[6.172,-6.288],[6.228,-6.338],[6.256,-6.338],[6.151,-6.457],[6.074,-6.492],[6.011,-6.549],[6.018,-6.584],[5.976,-6.921],[5.976,-6.957],[5.955,-6.957],[5.934,-7.013],[5.759,-6.907],[5.702,-6.879],[5.675,-6.879],[5.632,-6.858],[5.604,-6.83],[5.114,-6.591],[4.84,-6.429],[4.763,-6.366],[4.763,-6.338],[4.791,-6.288],[4.798,-6.281],[4.854,-6.239],[4.854,-6.211],[4.938,-6.211],[4.924,-5.937],[4.903,-5.895],[4.875,-5.873],[4.882,-5.817],[4.952,-5.677],[4.987,-5.557]]],[[[-4.934,-5.592],[-4.878,-5.733],[-4.85,-5.852],[-4.871,-5.866],[-4.864,-6.098],[-4.836,-6.19],[-4.815,-6.211],[-4.78,-6.302],[-4.731,-6.359],[-4.731,-6.38],[-4.906,-6.45],[-5.032,-6.478],[-5.586,-6.661],[-5.768,-6.703],[-5.803,-6.739],[-5.824,-6.739],[-5.901,-6.746],[-6.147,-6.816],[-6.168,-6.52],[-6.189,-6.464],[-6.217,-6.422],[-6.231,-6.422],[-6.245,-6.408],[-6.245,-6.387],[-6.259,-6.394],[-6.28,-6.366],[-6.28,-6.345],[-6.329,-6.281],[-6.371,-6.183],[-6.21,-6.127],[-5.972,-6.014],[-5.768,-5.944],[-5.579,-5.852],[-5.369,-5.782],[-5.263,-5.726],[-4.934,-5.592]]]]},"properties":{"abbr":"AI","name":"agranular insular cortex","plate":26,"ap_bregma_mm":-0.95,"area_mm2":2.1461,"traced_fraction":[0.933,1.0],"n_labels":2,"no_drawn_outline":false}},{"type":"Feature","geometry":{"type":"MultiPolygon","coordinates":[[[[-0.958,-4.692],[-0.867,-4.833],[-0.825,-4.945],[-0.811,-4.952],[-0.776,-5.044],[-0.685,-5.205],[-0.601,-5.29],[-0.496,-5.297],[-0.482,-5.388],[-0.496,-5.388],[-0.503,-5.409],[-0.531,-5.543],[-0.601,-5.634],[-0.748,-5.698],[-0.853,-5.684],[-0.902,-5.662],[-1.029,-5.557],[-1.05,-5.501],[-1.127,-5.423],[-1.253,-5.233],[-1.281,-5.17],[-1.288,-5.093],[-1.26,-4.917],[-1.218,-4.833],[-1.134,-4.755],[-1.035,-4.699],[-0.958,-4.692]]],[[[1.005,-4.706],[1.082,-4.727],[1.201,-4.804],[1.278,-4.882],[1.334,-5.037],[1.341,-5.072],[1.355,-5.072],[1.313,-5.177],[1.215,-5.318],[1.138,-5.402],[1.096,-5.48],[0.949,-5.62],[0.851,-5.669],[0.823,-5.669],[0.724,-5.627],[0.605,-5.529],[0.535,-5.388],[0.549,-5.36],[0.563,-5.36],[0.724,-5.184],[0.844,-4.973],[0.865,-4.959],[0.893,-4.889],[0.991,-4.748],[1.005,-4.706]]]]},"properties":{"abbr":"AM","name":"anteromedial thalamic nucleus","plate":26,"ap_bregma_mm":-0.95,"area_mm2":0.8977,"traced_fraction":[0.979,1.0],"n_labels":2,"no_drawn_outline":false}},{"type":"Feature","geometry":{"type":"MultiPolygon","coordinates":[[[[4.104,-6.359],[4.041,-6.38],[4.027,-6.401],[3.978,-6.408],[3.865,-6.471],[3.859,-6.098],[4.104,-6.098],[4.104,-6.359]]],[[[-3.377,-6.176],[-3.223,-6.345],[-3.069,-6.457],[-3.09,-6.478],[-3.09,-6.499],[-3.23,-6.443],[-3.279,-6.422],[-3.384,-6.415],[-3.532,-6.45],[-3.609,-6.499],[-3.665,-6.556],[-3.721,-6.654],[-3.742,-6.668],[-3.763,-6.633],[-3.861,-6.542],[-3.861,-6.528],[-3.861,-6.211],[-3.412,-6.211],[-3.377,-6.176]]]]},"properties":{"abbr":"ASt","name":"amygdalostriatal transition area","plate":26,"ap_bregma_mm":-0.95,"area_mm2":0.2625,"traced_fraction":[0.293,0.641],"n_labels":2,"no_drawn_outline":true}},{"type":"Feature","geometry":{"type":"MultiPolygon","coordinates":[[[[-1.484,-3.834],[-1.386,-3.897],[-1.232,-4.059],[-1.197,-4.08],[-1.197,-4.094],[-1.021,-4.263],[-1.021,-4.277],[-1.0,-4.284],[-0.797,-4.558],[-0.762,-4.586],[-0.748,-4.622],[-0.839,-4.636],[-0.937,-4.671],[-0.958,-4.692],[-1.035,-4.699],[-1.113,-4.614],[-1.12,-4.565],[-1.169,-4.523],[-1.26,-4.389],[-1.351,-4.389],[-1.351,-4.27],[-1.365,-4.242],[-1.484,-4.08],[-1.512,-4.017],[-1.582,-3.96],[-1.484,-3.834]]],[[[1.44,-3.932],[1.489,-3.989],[1.489,-4.01],[1.397,-4.193],[1.355,-4.291],[1.341,-4.361],[1.292,-4.453],[1.264,-4.474],[1.25,-4.509],[1.082,-4.727],[1.005,-4.706],[0.9,-4.664],[0.816,-4.65],[0.837,-4.607],[0.872,-4.579],[0.984,-4.418],[1.04,-4.368],[1.054,-4.333],[1.096,-4.298],[1.257,-4.08],[1.348,-3.989],[1.44,-3.932]]]]},"properties":{"abbr":"AVDM","name":"anterovent thalamic nucleus, dorsomedial part","plate":26,"ap_bregma_mm":-0.95,"area_mm2":0.4363,"traced_fraction":[0.878,0.975],"n_labels":2,"no_drawn_outline":false}},{"type":"Feature","geometry":{"type":"MultiPolygon","coordinates":[[[[-1.582,-3.96],[-1.512,-4.017],[-1.484,-4.08],[-1.365,-4.242],[-1.351,-4.27],[-1.351,-4.389],[-1.26,-4.389],[-1.169,-4.523],[-1.12,-4.565],[-1.113,-4.614],[-1.035,-4.699],[-1.134,-4.755],[-1.218,-4.833],[-1.26,-4.917],[-1.288,-5.093],[-1.309,-5.093],[-1.358,-5.029],[-1.547,-4.678],[-1.596,-4.614],[-1.617,-4.544],[-1.673,-4.481],[-1.835,-4.129],[-1.807,-4.122],[-1.779,-4.094],[-1.695,-4.066],[-1.582,-3.96]]]]},"properties":{"abbr":"AVVL","name":"anteroventral thalamic nucleus, ventrolateral part","plate":26,"ap_bregma_mm":-0.95,"area_mm2":0.365,"traced_fraction":[0.906],"n_labels":1,"no_drawn_outline":false}},{"type":"Feature","geometry":{"type":"MultiPolygon","coordinates":[[[[4.027,-6.401],[4.041,-6.422],[4.083,-6.429],[4.286,-6.436],[4.321,-6.57],[4.328,-6.654],[4.377,-6.816],[4.419,-6.872],[4.476,-6.893],[4.469,-7.097],[4.405,-7.111],[4.335,-7.196],[4.314,-7.273],[4.314,-7.336],[4.349,-7.456],[4.335,-7.477],[4.167,-7.561],[4.048,-7.568],[3.964,-7.54],[3.872,-7.463],[3.83,-7.4],[3.683,-7.083],[3.669,-6.971],[3.669,-6.703],[3.739,-6.577],[3.865,-6.471],[3.978,-6.408],[4.027,-6.401]]],[[[-4.078,-6.422],[-4.001,-6.443],[-3.861,-6.528],[-3.861,-6.542],[-3.763,-6.633],[-3.742,-6.668],[-3.721,-6.809],[-3.721,-7.055],[-3.735,-7.118],[-3.812,-7.252],[-3.917,-7.379],[-3.987,-7.519],[-4.036,-7.561],[-4.071,-7.575],[-4.184,-7.568],[-4.184,-7.484],[-4.198,-7.442],[-4.331,-7.224],[-4.415,-7.132],[-4.464,-7.104],[-4.499,-7.104],[-4.485,-7.027],[-4.457,-6.992],[-4.429,-6.9],[-4.373,-6.577],[-4.331,-6.528],[-4.226,-6.478],[-4.114,-6.457],[-4.078,-6.422]]]]},"properties":{"abbr":"BLA","name":"basolateral amygdaloid nucleus, anterior part","plate":26,"ap_bregma_mm":-0.95,"area_mm2":1.2883,"traced_fraction":[1.0,0.983],"n_labels":2,"no_drawn_outline":false}},{"type":"Feature","geometry":{"type":"MultiPolygon","coordinates":[[[[-4.338,-7.519],[-4.184,-7.568],[-4.071,-7.575],[-4.036,-7.561],[-4.029,-7.597],[-4.043,-7.625],[-4.043,-7.843],[-4.001,-7.998],[-4.001,-8.047],[-4.001,-8.054],[-4.135,-8.04],[-4.345,-7.976],[-4.464,-7.913],[-4.485,-7.885],[-4.338,-7.519]]],[[[3.964,-7.54],[4.048,-7.568],[4.167,-7.561],[4.174,-7.597],[4.223,-7.667],[4.23,-7.702],[4.328,-7.878],[4.328,-7.941],[4.293,-7.955],[4.251,-7.998],[4.23,-7.998],[4.146,-8.047],[3.893,-8.082],[3.865,-8.082],[3.901,-7.779],[3.964,-7.54]]]]},"properties":{"abbr":"BLV","name":"basolateral amygdaloid nucleus, ventral part","plate":26,"ap_bregma_mm":-0.95,"area_mm2":0.352,"traced_fraction":[0.984,0.988],"n_labels":2,"no_drawn_outline":false}},{"type":"Feature","geometry":{"type":"MultiPolygon","coordinates":[[[[2.982,-7.139],[3.017,-7.153],[3.08,-7.21],[3.227,-7.287],[3.242,-7.308],[3.213,-7.343],[3.213,-7.393],[3.234,-7.428],[3.312,-7.498],[3.41,-7.54],[3.543,-7.561],[3.746,-7.554],[3.823,-7.526],[3.872,-7.463],[3.964,-7.54],[3.901,-7.779],[3.865,-8.082],[3.739,-8.082],[3.557,-8.04],[3.347,-7.969],[3.221,-7.906],[3.143,-7.857],[3.045,-7.765],[2.905,-7.547],[2.947,-7.484],[2.947,-7.414],[2.912,-7.35],[2.926,-7.224],[2.94,-7.182],[2.982,-7.139]]],[[[-3.104,-7.294],[-3.104,-7.336],[-3.076,-7.364],[-3.069,-7.393],[-2.957,-7.505],[-2.978,-7.533],[-2.985,-7.604],[-2.971,-7.646],[-2.922,-7.688],[-2.957,-7.744],[-2.971,-7.744],[-3.055,-7.829],[-3.377,-7.983],[-3.721,-8.04],[-4.001,-8.047],[-4.001,-7.998],[-4.043,-7.843],[-4.043,-7.625],[-4.029,-7.597],[-4.001,-7.597],[-3.917,-7.653],[-3.777,-7.688],[-3.567,-7.695],[-3.51,-7.681],[-3.391,-7.632],[-3.293,-7.554],[-3.258,-7.456],[-3.258,-7.364],[-3.104,-7.294]]]]},"properties":{"abbr":"BMA","name":"basomedial amygdaloid nucleus, anterior part","plate":26,"ap_bregma_mm":-0.95,"area_mm2":0.932,"traced_fraction":[0.998,0.993],"n_labels":2,"no_drawn_outline":false}},{"type":"Feature","geometry":{"type":"MultiPolygon","coordinates":[[[[-0.138,-5.276],[-0.054,-5.304],[0.058,-5.304],[0.157,-5.276],[0.185,-5.36],[0.269,-5.501],[0.206,-5.529],[0.185,-5.557],[0.121,-5.55],[0.079,-5.529],[-0.026,-5.529],[-0.11,-5.557],[-0.222,-5.529],[-0.243,-5.494],[-0.173,-5.388],[-0.138,-5.276]]]]},"properties":{"abbr":"CM","name":"central medial thalamic nucleus","plate":26,"ap_bregma_mm":-0.95,"area_mm2":0.0999,"traced_fraction":[1.0],"n_labels":1,"no_drawn_outline":false}},{"type":"Feature","geometry":{"type":"MultiPolygon","coordinates":[[[[4.125,-3.398],[4.139,-3.419],[4.272,-3.503],[4.433,-3.658],[4.448,-3.658],[4.77,-3.989],[4.833,-4.094],[4.952,-4.361],[5.029,-4.692],[5.043,-4.825],[5.036,-5.142],[4.91,-5.578],[4.875,-5.641],[4.812,-5.845],[4.714,-6.042],[4.588,-6.204],[4.469,-6.274],[4.356,-6.317],[4.202,-6.331],[4.188,-6.345],[4.104,-6.359],[4.104,-6.098],[3.859,-6.098],[3.865,-6.471],[3.739,-6.577],[3.669,-6.703],[3.641,-6.689],[3.494,-6.535],[3.424,-6.485],[3.298,-6.429],[3.221,-6.422],[3.143,-6.429],[3.087,-6.45],[3.08,-6.38],[3.15,-6.345],[3.255,-6.246],[3.298,-6.225],[3.368,-6.155],[3.452,-6.007],[3.487,-5.902],[3.515,-5.74],[3.508,-5.297],[3.438,-4.896],[3.361,-4.579],[3.227,-4.185],[3.178,-4.108],[3.052,-3.989],[2.94,-3.932],[2.828,-3.918],[2.786,-3.897],[2.723,-3.897],[2.645,-3.967],[2.603,-3.89],[2.547,-3.834],[2.498,-3.834],[2.456,-3.82],[2.358,-3.693],[2.323,-3.524],[2.232,-3.348],[2.169,-3.292],[2.028,-3.236],[2.028,-3.222],[1.993,-3.194],[1.86,-3.116],[1.839,-3.074],[1.839,-3.046],[1.895,-3.039],[2.092,-2.948],[2.162,-2.905],[2.19,-2.863],[2.253,-2.842],[2.554,-2.849],[2.947,-2.891],[3.164,-2.934],[3.494,-3.046],[3.901,-3.25],[4.125,-3.398]]],[[[-2.403,-2.877],[-2.403,-2.898],[-2.382,-2.919],[-2.22,-2.969],[-2.157,-3.011],[-2.171,-3.109],[-2.206,-3.159],[-2.262,-3.292],[-2.508,-3.623],[-2.641,-3.623],[-2.753,-3.721],[-2.837,-3.911],[-2.866,-4.143],[-2.894,-4.214],[-2.936,-4.221],[-3.006,-4.277],[-3.076,-4.354],[-3.16,-4.418],[-3.279,-4.551],[-3.356,-4.678],[-3.405,-4.79],[-3.496,-5.107],[-3.538,-5.48],[-3.532,-5.698],[-3.483,-5.979],[-3.44,-6.077],[-3.377,-6.176],[-3.412,-6.211],[-3.861,-6.211],[-3.861,-6.528],[-4.001,-6.443],[-4.078,-6.422],[-4.24,-6.359],[-4.408,-6.366],[-4.464,-6.352],[-4.527,-6.302],[-4.597,-6.19],[-4.597,-6.162],[-4.688,-5.993],[-4.773,-5.796],[-4.843,-5.571],[-4.885,-5.353],[-4.899,-5.262],[-4.899,-5.065],[-4.871,-4.65],[-4.829,-4.41],[-4.759,-4.235],[-4.457,-3.792],[-4.303,-3.637],[-4.022,-3.44],[-3.532,-3.18],[-3.37,-3.116],[-2.725,-2.912],[-2.55,-2.884],[-2.403,-2.877]]]]},"properties":{"abbr":"CPu","name":"caudate putamen (striatum)","plate":26,"ap_bregma_mm":-0.95,"area_mm2":10.5465,"traced_fraction":[0.93,0.924],"n_labels":2,"no_drawn_outline":false}},{"type":"Feature","geometry":{"type":"MultiPolygon","coordinates":[[[[-3.23,-6.443],[-3.23,-6.893],[-2.887,-6.893],[-2.9,-6.985],[-2.949,-7.111],[-2.999,-7.189],[-3.104,-7.294],[-3.258,-7.364],[-3.426,-7.343],[-3.553,-7.287],[-3.735,-7.118],[-3.721,-7.055],[-3.721,-6.809],[-3.742,-6.668],[-3.721,-6.654],[-3.665,-6.556],[-3.609,-6.499],[-3.532,-6.45],[-3.384,-6.415],[-3.279,-6.422],[-3.23,-6.443]]],[[[3.221,-6.422],[3.298,-6.429],[3.424,-6.485],[3.494,-6.535],[3.641,-6.689],[3.669,-6.703],[3.669,-6.971],[3.683,-7.083],[3.669,-7.083],[3.641,-7.125],[3.508,-7.245],[3.389,-7.294],[3.242,-7.308],[3.227,-7.287],[3.15,-7.252],[2.982,-7.139],[2.891,-7.041],[2.835,-6.957],[2.807,-6.879],[2.807,-6.774],[3.221,-6.774],[3.221,-6.422]]]]},"properties":{"abbr":"CeC","name":"central amygdaloid nucleus, capsular part","plate":26,"ap_bregma_mm":-0.95,"area_mm2":0.9952,"traced_fraction":[0.749,0.748],"n_labels":2,"no_drawn_outline":true}},{"type":"Feature","geometry":{"type":"MultiPolygon","coordinates":[[[[3.221,-6.422],[3.221,-6.774],[2.807,-6.774],[2.835,-6.696],[2.926,-6.577],[3.024,-6.485],[3.087,-6.45],[3.143,-6.429],[3.221,-6.422]]],[[[-3.23,-6.443],[-3.09,-6.499],[-3.09,-6.513],[-2.978,-6.591],[-2.928,-6.654],[-2.879,-6.781],[-2.872,-6.837],[-2.887,-6.893],[-3.23,-6.893],[-3.23,-6.443]]]]},"properties":{"abbr":"CeM","name":"central amygdaloid nucleus, medial division","plate":26,"ap_bregma_mm":-0.95,"area_mm2":0.2219,"traced_fraction":[0.455,0.478],"n_labels":2,"no_drawn_outline":true}},{"type":"Feature","geometry":{"type":"MultiPolygon","coordinates":[[[[-0.362,-1.056],[-0.201,-1.126],[-0.18,-1.14],[-0.187,-1.147],[-0.173,-1.147],[-0.152,-1.161],[-0.159,-1.168],[-0.145,-1.168],[-0.117,-1.189],[-0.124,-1.196],[-0.11,-1.196],[-0.089,-1.21],[-0.096,-1.217],[-0.082,-1.232],[-0.075,-1.224],[-0.068,-1.224],[-0.068,-1.246],[-0.047,-1.246],[-0.033,-1.253],[-0.04,-1.267],[-0.026,-1.267],[0.002,-1.302],[0.023,-1.302],[0.121,-1.175],[0.136,-1.175],[0.213,-1.098],[0.29,-1.063],[0.542,-1.365],[0.774,-1.71],[0.977,-2.118],[1.096,-2.483],[0.949,-2.497],[0.949,-2.483],[0.879,-2.413],[0.823,-2.378],[0.738,-2.293],[0.444,-2.083],[0.311,-2.012],[0.149,-1.956],[-0.005,-1.949],[-0.243,-2.047],[-0.468,-2.174],[-0.643,-2.315],[-0.783,-2.455],[-0.846,-2.54],[-0.951,-2.504],[-0.902,-2.301],[-0.748,-1.829],[-0.692,-1.724],[-0.657,-1.618],[-0.362,-1.056]]]]},"properties":{"abbr":"Cg1","name":"cingulate cortex, area 1","plate":26,"ap_bregma_mm":-0.95,"area_mm2":1.4361,"traced_fraction":[1.0],"n_labels":2,"no_drawn_outline":false}},{"type":"Feature","geometry":{"type":"MultiPolygon","coordinates":[[[[0.949,-2.497],[0.9,-2.526],[0.865,-2.568],[0.766,-2.793],[0.738,-2.898],[0.668,-2.955],[0.598,-2.983],[0.402,-3.025],[0.297,-3.025],[0.269,-2.997],[0.185,-2.99],[0.051,-3.032],[-0.047,-2.997],[-0.047,-2.891],[-0.18,-2.891],[-0.18,-3.018],[-0.201,-3.053],[-0.299,-3.046],[-0.44,-3.004],[-0.587,-2.905],[-0.601,-2.856],[-0.678,-2.751],[-0.727,-2.652],[-0.846,-2.54],[-0.783,-2.455],[-0.643,-2.315],[-0.468,-2.174],[-0.243,-2.047],[-0.005,-1.949],[0.149,-1.956],[0.311,-2.012],[0.444,-2.083],[0.738,-2.293],[0.823,-2.378],[0.879,-2.413],[0.949,-2.483],[0.949,-2.497]]]]},"properties":{"abbr":"Cg2","name":"cingulate cortex, area 2","plate":26,"ap_bregma_mm":-0.95,"area_mm2":1.3401,"traced_fraction":[0.929],"n_labels":2,"no_drawn_outline":false}},{"type":"Feature","geometry":{"type":"MultiPolygon","coordinates":[[[[4.356,-8.314],[4.37,-8.448],[4.384,-8.455],[4.37,-8.49],[4.209,-8.546],[3.971,-8.532],[3.88,-8.504],[3.865,-8.483],[3.872,-8.398],[3.915,-8.384],[4.055,-8.391],[4.139,-8.377],[4.321,-8.314],[4.356,-8.314]]],[[[-4.506,-8.328],[-4.31,-8.405],[-4.135,-8.427],[-4.071,-8.455],[-4.057,-8.553],[-4.078,-8.553],[-4.127,-8.595],[-4.247,-8.595],[-4.45,-8.553],[-4.548,-8.511],[-4.562,-8.483],[-4.527,-8.349],[-4.506,-8.328]]]]},"properties":{"abbr":"CxA","name":"cortex-amygdala transition zone","plate":26,"ap_bregma_mm":-0.95,"area_mm2":0.1661,"traced_fraction":[1.0,1.0],"n_labels":2,"no_drawn_outline":false}},{"type":"Feature","geometry":{"type":"MultiPolygon","coordinates":[[[[-4.85,-5.852],[-4.815,-5.902],[-4.759,-6.049],[-4.723,-6.092],[-4.688,-6.169],[-4.66,-6.19],[-4.625,-6.267],[-4.653,-6.281],[-4.681,-6.338],[-4.723,-6.38],[-4.731,-6.38],[-4.731,-6.359],[-4.78,-6.302],[-4.815,-6.211],[-4.836,-6.19],[-4.864,-6.098],[-4.871,-5.866],[-4.85,-5.852]]],[[[4.875,-5.873],[4.903,-5.895],[4.924,-5.937],[4.938,-6.211],[4.854,-6.211],[4.854,-6.239],[4.798,-6.281],[4.791,-6.288],[4.686,-6.309],[4.658,-6.267],[4.665,-6.232],[4.777,-6.077],[4.805,-5.993],[4.875,-5.873]]]]},"properties":{"abbr":"DCl","name":"dorsal part of claustrum","plate":26,"ap_bregma_mm":-0.95,"area_mm2":0.1185,"traced_fraction":[1.0,0.707],"n_labels":2,"no_drawn_outline":false}},{"type":"Feature","geometry":{"type":"MultiPolygon","coordinates":[[[[4.56,-6.57],[4.616,-6.619],[4.651,-6.612],[4.686,-6.57],[4.7,-6.57],[4.728,-6.591],[4.763,-6.675],[4.812,-6.746],[4.889,-6.943],[4.889,-7.118],[4.84,-7.315],[4.77,-7.343],[4.679,-7.357],[4.503,-7.322],[4.476,-7.224],[4.461,-7.182],[4.469,-7.097],[4.476,-6.893],[4.511,-6.732],[4.532,-6.682],[4.532,-6.612],[4.56,-6.57]]],[[[-4.716,-6.619],[-4.625,-6.746],[-4.562,-6.788],[-4.534,-6.788],[-4.52,-6.858],[-4.52,-6.999],[-4.534,-7.013],[-4.541,-7.104],[-4.541,-7.393],[-4.604,-7.414],[-4.752,-7.407],[-4.843,-7.372],[-4.955,-7.266],[-4.969,-7.266],[-4.983,-6.992],[-4.962,-6.893],[-4.822,-6.696],[-4.759,-6.633],[-4.716,-6.619]]]]},"properties":{"abbr":"DEn","name":"dorsal endopiriform nucleus","plate":26,"ap_bregma_mm":-0.95,"area_mm2":0.5486,"traced_fraction":[1.0,1.0],"n_labels":2,"no_drawn_outline":false}},{"type":"Feature","geometry":{"type":"MultiPolygon","coordinates":[[[[5.107,-5.107],[5.156,-5.114],[5.499,-5.247],[5.801,-5.339],[6.067,-5.444],[6.488,-5.571],[6.74,-5.662],[6.733,-5.698],[6.677,-5.782],[6.642,-5.866],[6.544,-5.993],[6.537,-6.021],[6.523,-6.021],[6.516,-6.049],[6.488,-6.07],[6.467,-6.113],[6.453,-6.113],[6.446,-6.141],[6.432,-6.141],[6.404,-6.19],[6.383,-6.197],[6.334,-6.267],[6.256,-6.338],[6.228,-6.338],[6.172,-6.288],[6.053,-6.232],[5.618,-5.944],[5.478,-5.866],[5.359,-5.775],[5.247,-5.712],[5.233,-5.691],[5.156,-5.655],[5.071,-5.592],[4.987,-5.557],[5.057,-5.339],[5.107,-5.107]]],[[[-4.997,-5.17],[-4.99,-5.177],[-4.976,-5.353],[-4.934,-5.592],[-5.263,-5.726],[-5.369,-5.782],[-5.579,-5.852],[-5.768,-5.944],[-5.972,-6.014],[-6.21,-6.127],[-6.371,-6.183],[-6.406,-6.127],[-6.42,-6.127],[-6.427,-6.105],[-6.427,-6.084],[-6.518,-5.937],[-6.518,-5.916],[-6.61,-5.761],[-6.638,-5.684],[-6.042,-5.501],[-5.656,-5.367],[-5.221,-5.24],[-5.074,-5.184],[-4.997,-5.17]]]]},"properties":{"abbr":"DI","name":"dysgranular insular cortex","plate":26,"ap_bregma_mm":-0.95,"area_mm2":1.8488,"traced_fraction":[1.0,1.0],"n_labels":2,"no_drawn_outline":false}},{"type":"Feature","geometry":{"type":"MultiPolygon","coordinates":[[[[1.993,-6.478],[2.043,-6.506],[2.176,-6.542],[2.176,-6.746],[1.993,-6.746],[1.993,-6.478]]],[[[-1.996,-6.612],[-1.996,-6.879],[-2.178,-6.879],[-2.178,-6.661],[-1.996,-6.612]]]]},"properties":{"abbr":"EA","name":"sublenticular extended amygdala","plate":26,"ap_bregma_mm":-0.95,"area_mm2":0.0862,"traced_fraction":[0.306,0.288],"n_labels":2,"no_drawn_outline":true}},{"type":"Feature","geometry":{"type":"MultiPolygon","coordinates":[[[[-4.997,-4.868],[-4.997,-5.17],[-5.074,-5.184],[-5.221,-5.24],[-5.656,-5.367],[-6.042,-5.501],[-6.638,-5.684],[-6.701,-5.571],[-6.701,-5.55],[-6.736,-5.522],[-6.743,-5.487],[-6.75,-5.473],[-6.813,-5.311],[-6.757,-5.283],[-6.673,-5.276],[-6.504,-5.226],[-6.294,-5.191],[-6.035,-5.114],[-5.621,-5.022],[-5.579,-5.001],[-5.242,-4.924],[-5.095,-4.875],[-4.997,-4.868]]],[[[5.128,-4.889],[5.177,-4.889],[5.436,-4.98],[6.207,-5.191],[6.873,-5.339],[6.817,-5.529],[6.74,-5.662],[6.488,-5.571],[6.067,-5.444],[5.801,-5.339],[5.562,-5.269],[5.177,-5.121],[5.107,-5.107],[5.099,-5.072],[5.128,-4.889]]]]},"properties":{"abbr":"GI","name":"granular insular cortex","plate":26,"ap_bregma_mm":-0.95,"area_mm2":1.113,"traced_fraction":[1.0,1.0],"n_labels":2,"no_drawn_outline":false}},{"type":"Feature","geometry":{"type":"MultiPolygon","coordinates":[[[[2.828,-3.918],[2.94,-3.932],[3.052,-3.989],[3.178,-4.108],[3.227,-4.185],[3.361,-4.579],[3.438,-4.896],[3.508,-5.297],[3.515,-5.74],[3.487,-5.902],[3.452,-6.007],[3.368,-6.155],[3.178,-6.324],[3.08,-6.38],[2.624,-6.535],[2.491,-6.556],[2.295,-6.556],[2.295,-6.26],[2.204,-6.26],[2.204,-6.542],[2.176,-6.542],[2.043,-6.506],[1.993,-6.478],[1.902,-6.408],[1.783,-6.274],[1.692,-6.113],[1.664,-6.007],[1.671,-5.895],[1.685,-5.888],[1.741,-5.909],[1.811,-5.909],[2.035,-5.789],[2.351,-5.458],[2.526,-5.205],[2.66,-4.903],[2.828,-4.572],[2.912,-4.34],[2.926,-4.242],[2.919,-4.143],[2.835,-3.989],[2.828,-3.918]]],[[[-2.894,-4.214],[-2.936,-4.453],[-2.922,-4.678],[-2.816,-5.029],[-2.774,-5.135],[-2.648,-5.367],[-2.55,-5.501],[-2.403,-5.655],[-2.171,-5.831],[-1.982,-5.958],[-1.835,-6.035],[-1.73,-6.049],[-1.695,-6.021],[-1.646,-6.035],[-1.646,-6.218],[-1.709,-6.352],[-1.779,-6.45],[-1.849,-6.52],[-1.996,-6.612],[-2.178,-6.661],[-2.417,-6.668],[-2.627,-6.64],[-2.908,-6.549],[-3.069,-6.457],[-3.223,-6.345],[-3.377,-6.176],[-3.44,-6.077],[-3.483,-5.979],[-3.532,-5.698],[-3.538,-5.48],[-3.496,-5.107],[-3.405,-4.79],[-3.356,-4.678],[-3.279,-4.551],[-3.258,-4.537],[-3.244,-4.502],[-3.006,-4.277],[-2.936,-4.221],[-2.894,-4.214]]]]},"properties":{"abbr":"GP","name":"globus pallidus","plate":26,"ap_bregma_mm":-0.95,"area_mm2":4.7136,"traced_fraction":[0.916,1.0],"n_labels":2,"no_drawn_outline":false}},{"type":"Feature","geometry":{"type":"MultiPolygon","coordinates":[[[[4.469,-6.274],[4.49,-6.295],[4.37,-6.401],[4.286,-6.436],[4.083,-6.429],[4.041,-6.422],[4.027,-6.401],[4.041,-6.38],[4.104,-6.359],[4.188,-6.345],[4.202,-6.331],[4.356,-6.317],[4.469,-6.274]]],[[[4.469,-7.097],[4.461,-7.182],[4.476,-7.224],[4.454,-7.231],[4.448,-7.287],[4.454,-7.407],[4.37,-7.456],[4.349,-7.456],[4.314,-7.336],[4.321,-7.238],[4.342,-7.182],[4.405,-7.111],[4.469,-7.097]]],[[[-4.499,-7.104],[-4.464,-7.104],[-4.415,-7.132],[-4.331,-7.224],[-4.198,-7.442],[-4.184,-7.484],[-4.184,-7.568],[-4.338,-7.519],[-4.457,-7.414],[-4.45,-7.35],[-4.492,-7.224],[-4.499,-7.104]]]]},"properties":{"abbr":"I","name":"intercalated nuclei of the amygdala","plate":26,"ap_bregma_mm":-0.95,"area_mm2":0.1508,"traced_fraction":[1.0,1.0,1.0],"n_labels":4,"no_drawn_outline":false}},{"type":"Feature","geometry":{"type":"MultiPolygon","coordinates":[[[[-0.748,-4.622],[-0.734,-4.622],[-0.657,-4.706],[-0.629,-4.713],[-0.594,-4.797],[-0.58,-4.804],[-0.524,-5.015],[-0.496,-5.184],[-0.496,-5.297],[-0.601,-5.29],[-0.685,-5.205],[-0.755,-5.086],[-0.811,-4.952],[-0.825,-4.945],[-0.867,-4.833],[-0.958,-4.692],[-0.902,-4.657],[-0.748,-4.622]]],[[[0.816,-4.65],[0.9,-4.664],[1.005,-4.706],[0.991,-4.748],[0.893,-4.889],[0.865,-4.959],[0.844,-4.973],[0.724,-5.184],[0.675,-5.247],[0.563,-5.36],[0.549,-5.36],[0.535,-5.346],[0.535,-5.128],[0.605,-4.854],[0.654,-4.755],[0.689,-4.748],[0.759,-4.678],[0.816,-4.65]]]]},"properties":{"abbr":"IAD","name":"interanterodorsal thalamic nucleus","plate":26,"ap_bregma_mm":-0.95,"area_mm2":0.3223,"traced_fraction":[0.968,1.0],"n_labels":2,"no_drawn_outline":false}},{"type":"Feature","geometry":{"type":"MultiPolygon","coordinates":[[[[3.683,-7.083],[3.774,-7.287],[3.872,-7.463],[3.823,-7.526],[3.746,-7.554],[3.543,-7.561],[3.41,-7.54],[3.312,-7.498],[3.234,-7.428],[3.213,-7.393],[3.213,-7.343],[3.242,-7.308],[3.389,-7.294],[3.508,-7.245],[3.55,-7.217],[3.669,-7.083],[3.683,-7.083]]],[[[-3.735,-7.118],[-3.553,-7.287],[-3.426,-7.343],[-3.258,-7.364],[-3.258,-7.456],[-3.293,-7.554],[-3.391,-7.632],[-3.51,-7.681],[-3.567,-7.695],[-3.777,-7.688],[-3.917,-7.653],[-3.973,-7.611],[-4.029,-7.597],[-4.036,-7.561],[-3.987,-7.519],[-3.917,-7.379],[-3.812,-7.252],[-3.735,-7.118]]]]},"properties":{"abbr":"IM","name":"intercalated amygdaloid nucleus, main part","plate":26,"ap_bregma_mm":-0.95,"area_mm2":0.4439,"traced_fraction":[1.0,1.0],"n_labels":2,"no_drawn_outline":false}},{"type":"Feature","geometry":{"type":"MultiPolygon","coordinates":[[[[0.879,-7.217],[0.928,-7.28],[0.949,-7.357],[0.949,-7.583],[0.893,-7.779],[0.829,-7.843],[0.829,-7.857],[0.724,-7.885],[0.591,-7.878],[0.535,-7.857],[0.479,-7.8],[0.451,-7.744],[0.423,-7.639],[0.416,-7.526],[0.43,-7.407],[0.465,-7.287],[0.521,-7.224],[0.668,-7.153],[0.774,-7.16],[0.879,-7.217]]],[[[-0.881,-7.948],[-0.937,-7.892],[-0.993,-7.794],[-1.071,-7.484],[-1.063,-7.315],[-1.021,-7.231],[-0.944,-7.175],[-0.755,-7.168],[-0.699,-7.196],[-0.629,-7.273],[-0.594,-7.343],[-0.552,-7.547],[-0.559,-7.695],[-0.601,-7.913],[-0.636,-7.941],[-0.762,-7.976],[-0.825,-7.976],[-0.881,-7.948]]]]},"properties":{"abbr":"LA","name":"lateroanterior hypothalamic nucleus","plate":26,"ap_bregma_mm":-0.95,"area_mm2":0.6596,"traced_fraction":[0.98,1.0],"n_labels":2,"no_drawn_outline":false}},{"type":"Feature","geometry":{"type":"MultiPolygon","coordinates":[[[[2.632,-7.688],[2.681,-7.744],[2.695,-7.744],[2.695,-7.794],[2.779,-7.794],[2.737,-8.047],[2.737,-8.159],[2.709,-8.215],[2.589,-8.173],[2.582,-8.159],[2.477,-8.11],[2.344,-8.004],[2.435,-7.871],[2.617,-7.688],[2.632,-7.688]]],[[[-2.908,-7.983],[-2.62,-7.998],[-2.655,-8.04],[-2.655,-8.103],[-2.627,-8.152],[-2.669,-8.173],[-2.676,-8.201],[-2.767,-8.215],[-2.887,-8.279],[-2.922,-8.321],[-3.027,-8.391],[-3.104,-8.398],[-3.09,-8.286],[-2.992,-8.103],[-2.908,-7.983]]]]},"properties":{"abbr":"LOT","name":"nucleus of the lateral olfactory tract","plate":26,"ap_bregma_mm":-0.95,"area_mm2":0.2405,"traced_fraction":[0.882,0.788],"n_labels":2,"no_drawn_outline":false}},{"type":"Feature","geometry":{"type":"MultiPolygon","coordinates":[[[[1.405,-2.877],[1.44,-2.919],[1.503,-2.941],[1.622,-2.941],[1.678,-2.927],[1.636,-2.976],[1.615,-3.039],[1.643,-3.067],[1.79,-3.144],[1.797,-3.166],[1.839,-3.194],[1.881,-3.292],[1.951,-3.32],[1.951,-3.334],[2.043,-3.405],[2.078,-3.454],[2.106,-3.531],[2.197,-3.616],[2.239,-3.707],[2.246,-3.778],[2.014,-3.672],[1.72,-3.412],[1.559,-3.292],[1.405,-3.208],[1.363,-3.194],[0.984,-3.208],[0.816,-3.18],[0.759,-3.159],[0.717,-3.109],[0.759,-3.067],[0.844,-3.025],[1.082,-2.969],[1.271,-2.898],[1.405,-2.877]]]]},"properties":{"abbr":"LV","name":"lateral ventricle","plate":26,"ap_bregma_mm":-0.95,"area_mm2":0.3871,"traced_fraction":[1.0],"n_labels":1,"no_drawn_outline":false}},{"type":"Feature","geometry":{"type":"MultiPolygon","coordinates":[[[[4.511,-6.732],[4.476,-6.893],[4.419,-6.872],[4.377,-6.816],[4.328,-6.654],[4.321,-6.57],[4.286,-6.436],[4.37,-6.401],[4.49,-6.295],[4.525,-6.288],[4.553,-6.302],[4.56,-6.324],[4.511,-6.478],[4.497,-6.682],[4.497,-6.724],[4.511,-6.732]]],[[[-4.408,-6.387],[-4.324,-6.436],[-4.233,-6.464],[-4.226,-6.478],[-4.31,-6.513],[-4.373,-6.577],[-4.401,-6.689],[-4.415,-6.844],[-4.457,-6.992],[-4.485,-7.027],[-4.52,-6.999],[-4.52,-6.858],[-4.534,-6.788],[-4.513,-6.492],[-4.492,-6.457],[-4.45,-6.401],[-4.408,-6.387]]]]},"properties":{"abbr":"La","name":"lateral amygdaloid nucleus","plate":26,"ap_bregma_mm":-0.95,"area_mm2":0.1732,"traced_fraction":[1.0,0.969],"n_labels":1,"no_drawn_outline":false}},{"type":"Feature","geometry":{"type":"MultiPolygon","coordinates":[[[[1.503,-0.788],[1.587,-2.104],[1.601,-2.504],[1.418,-2.512],[1.363,-2.497],[1.236,-1.682],[1.166,-1.407],[1.131,-1.196],[1.068,-0.999],[1.033,-0.838],[1.503,-0.788]]],[[[-1.61,-0.901],[-1.148,-0.901],[-1.218,-2.04],[-1.225,-2.49],[-1.274,-2.504],[-1.477,-2.504],[-1.61,-0.901]]]]},"properties":{"abbr":"M1","name":"primary motor cortex","plate":26,"ap_bregma_mm":-0.95,"area_mm2":1.1416,"traced_fraction":[1.0,1.0],"n_labels":2,"no_drawn_outline":false}},{"type":"Feature","geometry":{"type":"MultiPolygon","coordinates":[[[[1.033,-0.838],[1.068,-0.999],[1.131,-1.196],[1.166,-1.407],[1.236,-1.682],[1.363,-2.497],[1.166,-2.497],[1.096,-2.483],[0.977,-2.118],[0.774,-1.71],[0.584,-1.421],[0.29,-1.063],[0.29,-1.042],[0.514,-0.943],[0.528,-0.936],[0.542,-0.943],[0.605,-0.915],[0.78,-0.873],[1.033,-0.838]]],[[[-1.148,-0.901],[-0.86,-0.901],[-0.86,-0.922],[-0.72,-0.936],[-0.517,-0.985],[-0.369,-1.042],[-0.362,-1.056],[-0.474,-1.253],[-0.748,-1.829],[-0.902,-2.301],[-0.951,-2.504],[-1.014,-2.49],[-1.225,-2.49],[-1.218,-2.04],[-1.148,-0.901]]]]},"properties":{"abbr":"M2","name":"secondary motor cortex","plate":26,"ap_bregma_mm":-0.95,"area_mm2":1.5996,"traced_fraction":[1.0,1.0],"n_labels":2,"no_drawn_outline":false}},{"type":"Feature","geometry":{"type":"MultiPolygon","coordinates":[[[[2.758,-7.456],[2.758,-7.498],[2.786,-7.547],[2.702,-7.604],[2.632,-7.674],[2.632,-7.688],[2.617,-7.688],[2.435,-7.871],[2.344,-8.004],[2.253,-8.103],[2.232,-8.11],[2.197,-8.096],[2.197,-8.082],[2.19,-8.033],[2.12,-7.934],[1.993,-7.808],[1.916,-7.765],[1.902,-7.744],[1.951,-7.688],[2.078,-7.604],[2.218,-7.533],[2.337,-7.491],[2.498,-7.456],[2.758,-7.456]]],[[[-1.996,-7.941],[-2.094,-8.054],[-2.136,-8.075],[-2.185,-8.124],[-2.178,-8.159],[-2.227,-8.18],[-2.262,-8.215],[-2.284,-8.208],[-2.326,-8.103],[-2.368,-8.061],[-2.396,-7.983],[-2.466,-7.913],[-2.473,-7.892],[-2.599,-7.765],[-2.711,-7.695],[-2.746,-7.66],[-2.746,-7.639],[-2.62,-7.583],[-2.501,-7.568],[-2.431,-7.561],[-2.298,-7.583],[-2.199,-7.618],[-2.066,-7.695],[-2.003,-7.8],[-1.996,-7.941]]]]},"properties":{"abbr":"MeAD","name":"medial amygdaloid nucleus, anterodorsal part","plate":26,"ap_bregma_mm":-0.95,"area_mm2":0.5375,"traced_fraction":[1.0,1.0],"n_labels":2,"no_drawn_outline":false}},{"type":"Feature","geometry":{"type":"MultiPolygon","coordinates":[[[[1.664,-6.007],[1.692,-6.113],[1.783,-6.274],[1.902,-6.408],[1.993,-6.478],[1.993,-6.746],[2.176,-6.746],[2.176,-6.542],[2.204,-6.542],[2.295,-6.556],[2.491,-6.556],[2.624,-6.535],[3.08,-6.38],[3.087,-6.45],[3.024,-6.485],[2.926,-6.577],[2.835,-6.696],[2.807,-6.774],[2.807,-6.879],[2.835,-6.957],[2.891,-7.041],[2.982,-7.139],[2.94,-7.182],[2.912,-7.35],[2.835,-7.35],[2.807,-7.372],[2.716,-7.28],[2.695,-7.238],[2.695,-7.189],[2.491,-7.189],[2.498,-7.456],[2.337,-7.491],[2.218,-7.533],[2.078,-7.604],[1.951,-7.688],[1.902,-7.744],[1.72,-7.695],[1.461,-7.695],[1.341,-7.723],[1.278,-7.765],[1.278,-7.787],[1.089,-7.871],[0.886,-8.012],[0.879,-7.927],[0.865,-7.92],[0.858,-7.878],[0.829,-7.857],[0.829,-7.843],[0.893,-7.779],[0.949,-7.583],[0.949,-7.357],[0.928,-7.28],[0.879,-7.217],[0.886,-6.633],[1.012,-6.633],[1.068,-6.57],[1.068,-6.471],[1.054,-6.436],[0.942,-6.338],[0.949,-6.042],[1.103,-6.084],[1.257,-6.098],[1.51,-6.07],[1.559,-6.056],[1.636,-6.007],[1.664,-6.007]]],[[[-1.646,-6.035],[-1.477,-6.077],[-1.204,-6.098],[-1.092,-6.092],[-0.93,-6.056],[-0.916,-6.373],[-1.021,-6.464],[-1.042,-6.506],[-1.035,-6.612],[-0.993,-6.668],[-0.958,-6.682],[-0.944,-7.175],[-1.021,-7.231],[-1.063,-7.315],[-1.071,-7.484],[-0.993,-7.794],[-0.937,-7.892],[-0.881,-7.948],[-0.895,-8.131],[-1.042,-8.047],[-1.141,-7.962],[-1.281,-7.899],[-1.302,-7.864],[-1.428,-7.808],[-1.435,-7.794],[-1.498,-7.772],[-1.624,-7.772],[-1.8,-7.822],[-1.884,-7.871],[-1.947,-7.927],[-1.996,-7.941],[-2.003,-7.8],[-2.066,-7.695],[-2.199,-7.618],[-2.298,-7.583],[-2.431,-7.561],[-2.501,-7.568],[-2.501,-7.287],[-2.704,-7.287],[-2.704,-7.372],[-2.823,-7.491],[-2.908,-7.477],[-2.957,-7.505],[-3.069,-7.393],[-3.076,-7.364],[-3.104,-7.336],[-3.104,-7.294],[-2.999,-7.189],[-2.949,-7.111],[-2.9,-6.985],[-2.887,-6.893],[-2.872,-6.837],[-2.879,-6.781],[-2.928,-6.654],[-2.978,-6.591],[-3.09,-6.513],[-3.09,-6.499],[-3.09,-6.478],[-3.069,-6.457],[-2.908,-6.549],[-2.627,-6.64],[-2.417,-6.668],[-2.178,-6.661],[-2.178,-6.879],[-1.996,-6.879],[-1.996,-6.612],[-1.849,-6.52],[-1.779,-6.45],[-1.709,-6.352],[-1.646,-6.218],[-1.646,-6.035]]]]},"properties":{"abbr":"PLH","name":"peduncular part of lateral hypothalamus","plate":26,"ap_bregma_mm":-0.95,"area_mm2":5.001,"traced_fraction":[0.749,0.771],"n_labels":2,"no_drawn_outline":false}},{"type":"Feature","geometry":{"type":"MultiPolygon","coordinates":[[[[0.423,-4.537],[0.514,-4.643],[0.591,-4.671],[0.661,-4.671],[0.654,-4.755],[0.605,-4.854],[0.535,-5.128],[0.535,-5.346],[0.549,-5.36],[0.535,-5.388],[0.367,-5.487],[0.269,-5.501],[0.219,-5.43],[0.157,-5.276],[0.149,-5.177],[0.185,-5.001],[0.297,-4.734],[0.311,-4.727],[0.381,-4.579],[0.423,-4.537]]],[[[-0.348,-4.593],[-0.257,-4.748],[-0.194,-4.903],[-0.159,-5.044],[-0.138,-5.276],[-0.173,-5.388],[-0.243,-5.494],[-0.306,-5.487],[-0.482,-5.388],[-0.496,-5.297],[-0.496,-5.184],[-0.524,-5.015],[-0.58,-4.804],[-0.594,-4.797],[-0.629,-4.713],[-0.643,-4.607],[-0.594,-4.614],[-0.531,-4.657],[-0.447,-4.657],[-0.397,-4.636],[-0.362,-4.593],[-0.348,-4.593]]]]},"properties":{"abbr":"PT","name":"paratenial thalamic nucleus","plate":26,"ap_bregma_mm":-0.95,"area_mm2":0.5849,"traced_fraction":[1.0,1.0],"n_labels":2,"no_drawn_outline":false}},{"type":"Feature","geometry":{"type":"MultiPolygon","coordinates":[[[[-0.299,-4.382],[-0.138,-4.389],[-0.019,-4.432],[0.093,-4.432],[0.17,-4.403],[0.374,-4.389],[0.423,-4.537],[0.381,-4.579],[0.353,-4.65],[0.297,-4.734],[0.185,-5.001],[0.149,-5.177],[0.157,-5.276],[0.058,-5.304],[-0.054,-5.304],[-0.138,-5.276],[-0.159,-5.044],[-0.194,-4.903],[-0.222,-4.818],[-0.348,-4.593],[-0.313,-4.509],[-0.299,-4.382]]]]},"properties":{"abbr":"PVA","name":"paraventricular thalamic nucleus, anterior part","plate":26,"ap_bregma_mm":-0.95,"area_mm2":0.4388,"traced_fraction":[1.0],"n_labels":1,"no_drawn_outline":false}},{"type":"Feature","geometry":{"type":"MultiPolygon","coordinates":[[[[0.016,-6.682],[-0.068,-6.682],[-0.082,-6.535],[-0.075,-6.38],[-0.054,-6.274],[-0.026,-6.232],[0.016,-6.239],[0.037,-6.302],[0.016,-6.682]]]]},"properties":{"abbr":"PaAP","name":"paraventricular hypothalamic nucleus, anterior parvicellular part","plate":26,"ap_bregma_mm":-0.95,"area_mm2":0.0435,"traced_fraction":[0.98],"n_labels":1,"no_drawn_outline":false}},{"type":"Feature","geometry":{"type":"MultiPolygon","coordinates":[[[[-0.068,-7.111],[0.002,-7.111],[0.009,-7.899],[-0.019,-7.962],[-0.047,-7.955],[-0.075,-7.857],[-0.082,-7.224],[-0.068,-7.111]]]]},"properties":{"abbr":"Pe","name":"periventricular hypothalamic nucleus","plate":26,"ap_bregma_mm":-0.95,"area_mm2":0.0685,"traced_fraction":[0.992],"n_labels":1,"no_drawn_outline":false}},{"type":"Feature","geometry":{"type":"MultiPolygon","coordinates":[[[[5.022,-7.815],[5.022,-7.836],[5.099,-7.906],[5.099,-7.927],[5.114,-7.927],[4.973,-8.082],[4.665,-8.265],[4.574,-8.37],[4.426,-8.448],[4.384,-8.455],[4.37,-8.448],[4.356,-8.314],[4.356,-8.307],[4.497,-8.237],[4.553,-8.18],[4.777,-8.026],[4.812,-7.983],[5.022,-7.815]]],[[[-5.095,-7.836],[-5.039,-7.892],[-4.934,-7.962],[-4.716,-8.187],[-4.541,-8.307],[-4.513,-8.314],[-4.506,-8.328],[-4.527,-8.349],[-4.562,-8.483],[-4.59,-8.483],[-4.695,-8.412],[-4.801,-8.37],[-4.871,-8.307],[-4.92,-8.23],[-5.004,-8.208],[-5.102,-8.145],[-5.165,-8.054],[-5.186,-7.998],[-5.242,-7.927],[-5.151,-7.836],[-5.095,-7.836]]]]},"properties":{"abbr":"Pir","name":"piriform cortex","plate":26,"ap_bregma_mm":-0.95,"area_mm2":0.2987,"traced_fraction":[0.954,0.95],"n_labels":2,"no_drawn_outline":false}},{"type":"Feature","geometry":{"type":"MultiPolygon","coordinates":[[[[0.121,-5.55],[0.185,-5.557],[0.304,-5.55],[0.451,-5.494],[0.5,-5.494],[0.542,-5.515],[0.584,-5.564],[0.612,-5.62],[0.633,-5.754],[0.612,-5.831],[0.465,-5.958],[0.283,-6.07],[0.198,-6.098],[0.114,-6.105],[0.072,-6.077],[0.058,-6.035],[0.044,-5.747],[0.065,-5.613],[0.121,-5.55]]],[[[-0.222,-5.529],[-0.11,-5.557],[-0.054,-5.613],[-0.04,-5.669],[-0.026,-5.986],[-0.04,-6.042],[-0.075,-6.092],[-0.159,-6.113],[-0.229,-6.092],[-0.538,-5.923],[-0.594,-5.873],[-0.629,-5.803],[-0.622,-5.733],[-0.594,-5.677],[-0.545,-5.627],[-0.474,-5.585],[-0.362,-5.543],[-0.222,-5.529]]]]},"properties":{"abbr":"Re","name":"reuniens thalamic nucleus","plate":26,"ap_bregma_mm":-0.95,"area_mm2":0.5263,"traced_fraction":[1.0,1.0],"n_labels":2,"no_drawn_outline":false}},{"type":"Feature","geometry":{"type":"MultiPolygon","coordinates":[[[[-2.052,-4.059],[-1.94,-4.059],[-1.835,-4.129],[-1.673,-4.481],[-1.68,-4.53],[-1.638,-4.629],[-1.561,-4.91],[-1.351,-5.297],[-1.197,-5.451],[-1.204,-6.098],[-1.477,-6.077],[-1.646,-6.035],[-1.695,-6.021],[-1.709,-6.007],[-1.744,-5.866],[-1.933,-5.529],[-1.982,-5.374],[-2.073,-5.198],[-2.143,-5.121],[-2.305,-5.037],[-2.403,-4.945],[-2.487,-4.818],[-2.529,-4.72],[-2.529,-4.629],[-2.487,-4.544],[-2.41,-4.474],[-2.269,-4.396],[-2.22,-4.354],[-2.22,-4.333],[-2.143,-4.319],[-2.08,-4.27],[-2.052,-4.164],[-2.052,-4.059]]],[[[1.951,-4.291],[1.958,-4.333],[1.951,-4.46],[1.979,-4.551],[2.05,-4.6],[2.19,-4.6],[2.232,-4.586],[2.33,-4.593],[2.358,-4.629],[2.358,-4.762],[2.302,-4.924],[2.197,-5.058],[2.056,-5.276],[1.811,-5.592],[1.727,-5.508],[1.412,-5.494],[1.278,-5.36],[1.376,-5.226],[1.433,-5.1],[1.461,-5.079],[1.475,-5.015],[1.489,-5.008],[1.482,-4.987],[1.538,-4.889],[1.566,-4.783],[1.566,-4.762],[1.594,-4.734],[1.636,-4.643],[1.769,-4.432],[1.881,-4.319],[1.951,-4.291]]]]},"properties":{"abbr":"Rt","name":"reticular thalamic nucleus","plate":26,"ap_bregma_mm":-0.95,"area_mm2":2.0281,"traced_fraction":[0.886,0.855],"n_labels":2,"no_drawn_outline":false}},{"type":"Feature","geometry":{"type":"MultiPolygon","coordinates":[[[[-1.533,-3.778],[-1.484,-3.834],[-1.582,-3.96],[-1.673,-4.052],[-1.835,-4.129],[-1.94,-4.059],[-1.933,-4.038],[-1.772,-3.96],[-1.617,-3.82],[-1.568,-3.785],[-1.533,-3.778]]],[[[1.51,-3.855],[1.65,-3.96],[1.762,-4.01],[1.832,-4.059],[1.86,-4.059],[1.867,-4.073],[1.923,-4.094],[2.064,-4.108],[2.078,-4.122],[2.022,-4.193],[1.951,-4.221],[1.797,-4.164],[1.587,-4.052],[1.559,-4.024],[1.489,-4.01],[1.489,-3.989],[1.44,-3.932],[1.51,-3.855]]]]},"properties":{"abbr":"RtSt","name":"reticluostrial nucleus","plate":26,"ap_bregma_mm":-0.95,"area_mm2":0.1318,"traced_fraction":[1.0,0.99],"n_labels":2,"no_drawn_outline":false}},{"type":"Feature","geometry":{"type":"MultiPolygon","coordinates":[[[[6.291,-3.004],[6.425,-3.173],[6.425,-3.194],[6.474,-3.25],[6.516,-3.334],[6.53,-3.334],[6.544,-3.355],[6.551,-3.37],[6.677,-3.602],[6.719,-3.686],[6.733,-3.686],[6.726,-3.714],[6.775,-3.806],[6.796,-3.897],[6.572,-3.967],[6.53,-3.995],[5.913,-4.193],[5.071,-4.432],[5.008,-4.221],[4.91,-4.017],[4.903,-3.974],[5.541,-3.538],[5.632,-3.461],[6.011,-3.208],[6.025,-3.187],[6.186,-3.088],[6.291,-3.004]]],[[[-6.259,-3.194],[-4.773,-3.989],[-4.794,-4.052],[-4.871,-4.178],[-4.92,-4.333],[-5.018,-4.319],[-5.102,-4.284],[-5.249,-4.256],[-5.691,-4.122],[-5.803,-4.101],[-5.908,-4.059],[-6.0,-4.045],[-6.701,-3.82],[-6.694,-3.763],[-6.581,-3.588],[-6.568,-3.588],[-6.539,-3.531],[-6.455,-3.433],[-6.441,-3.398],[-6.427,-3.398],[-6.413,-3.363],[-6.378,-3.334],[-6.364,-3.299],[-6.35,-3.299],[-6.308,-3.236],[-6.259,-3.194]]]]},"properties":{"abbr":"S1","name":"primary somatosensory cortex","plate":26,"ap_bregma_mm":-0.95,"area_mm2":2.3748,"traced_fraction":[1.0,1.0],"n_labels":2,"no_drawn_outline":false}},{"type":"Feature","geometry":{"type":"MultiPolygon","coordinates":[[[[3.487,-1.133],[3.536,-1.147],[3.571,-1.154],[3.599,-1.161],[3.634,-1.168],[3.634,-1.182],[3.655,-1.189],[3.964,-1.26],[4.23,-1.344],[4.567,-1.485],[4.938,-1.682],[5.12,-1.801],[5.135,-1.822],[5.163,-1.829],[5.324,-1.963],[5.345,-1.963],[5.45,-2.061],[5.429,-2.068],[5.429,-2.083],[5.324,-2.195],[5.128,-2.455],[5.086,-2.49],[4.973,-2.645],[4.868,-2.758],[4.798,-2.863],[4.714,-2.948],[4.419,-3.327],[4.356,-3.391],[4.335,-3.391],[4.251,-3.32],[4.153,-3.264],[4.139,-3.243],[3.957,-3.123],[3.571,-2.927],[3.501,-2.905],[3.277,-2.786],[2.975,-2.687],[3.129,-2.237],[3.15,-2.139],[3.171,-2.111],[3.221,-2.111],[3.221,-1.928],[3.487,-1.133]]],[[[-3.461,-1.365],[-3.174,-2.195],[-3.167,-2.258],[-3.153,-2.265],[-3.146,-2.315],[-3.097,-2.42],[-2.985,-2.758],[-3.223,-2.856],[-3.398,-2.948],[-3.595,-3.018],[-3.763,-3.102],[-3.77,-3.116],[-4.015,-3.243],[-4.31,-3.44],[-4.331,-3.433],[-4.429,-3.292],[-4.604,-3.102],[-4.773,-2.877],[-4.899,-2.744],[-5.067,-2.519],[-5.333,-2.209],[-5.277,-2.16],[-5.277,-2.146],[-5.039,-1.984],[-5.025,-1.963],[-4.997,-1.956],[-4.85,-1.85],[-4.646,-1.752],[-4.646,-1.738],[-4.632,-1.731],[-4.583,-1.717],[-4.583,-1.71],[-4.562,-1.696],[-4.548,-1.703],[-4.373,-1.625],[-4.043,-1.527],[-3.756,-1.471],[-3.588,-1.4],[-3.461,-1.365]]],[[[-4.618,-1.682],[-4.632,-1.689],[-4.632,-1.66],[-4.618,-1.682]]]]},"properties":{"abbr":"S1BF","name":"primary somatosensory cortex, barrel field","plate":26,"ap_bregma_mm":-0.95,"area_mm2":6.0032,"traced_fraction":[0.975,0.999,1.0],"n_labels":2,"no_drawn_outline":false}},{"type":"Feature","geometry":{"type":"MultiPolygon","coordinates":[[[[3.192,-1.028],[3.2,-1.028],[3.2,-1.049],[3.326,-1.077],[3.487,-1.133],[3.221,-1.928],[3.221,-2.111],[3.171,-2.111],[3.15,-2.139],[3.129,-2.237],[2.975,-2.687],[2.723,-2.617],[2.807,-2.343],[2.821,-2.251],[2.87,-2.125],[2.891,-1.998],[2.926,-1.928],[3.08,-1.358],[3.171,-1.056],[3.192,-1.028]]],[[[-3.349,-1.33],[-3.174,-1.864],[-3.146,-1.914],[-3.132,-1.984],[-3.048,-2.202],[-3.034,-2.272],[-3.006,-2.322],[-2.894,-2.687],[-2.872,-2.715],[-2.915,-2.744],[-2.985,-2.758],[-3.097,-2.42],[-3.146,-2.315],[-3.153,-2.265],[-3.167,-2.258],[-3.174,-2.195],[-3.461,-1.365],[-3.349,-1.33]]]]},"properties":{"abbr":"S1DZ","name":"primary somatosensory cortex, dysgranular zone","plate":26,"ap_bregma_mm":-0.95,"area_mm2":0.6543,"traced_fraction":[0.957,0.998],"n_labels":2,"no_drawn_outline":false}},{"type":"Feature","geometry":{"type":"MultiPolygon","coordinates":[[[[1.629,-0.767],[1.902,-0.774],[2.085,-0.774],[2.085,-0.795],[2.309,-0.817],[2.393,-0.838],[2.379,-0.852],[2.358,-0.943],[2.351,-1.063],[2.134,-2.526],[1.657,-2.519],[1.601,-2.504],[1.587,-2.104],[1.503,-0.788],[1.622,-0.788],[1.629,-0.767]]],[[[-1.624,-0.901],[-1.61,-0.901],[-1.477,-2.504],[-1.835,-2.526],[-1.856,-2.547],[-2.101,-2.547],[-2.178,-2.251],[-2.241,-1.921],[-2.34,-1.548],[-2.361,-1.407],[-2.431,-1.168],[-2.445,-1.063],[-2.122,-0.985],[-1.758,-0.929],[-1.631,-0.922],[-1.624,-0.901]]]]},"properties":{"abbr":"S1HL","name":"primary somatosensory cortex, hindlimb region","plate":26,"ap_bregma_mm":-0.95,"area_mm2":2.3829,"traced_fraction":[1.0,1.0],"n_labels":2,"no_drawn_outline":false}},{"type":"Feature","geometry":{"type":"MultiPolygon","coordinates":[[[[2.393,-0.838],[2.435,-0.838],[2.905,-0.95],[2.919,-0.95],[2.94,-0.957],[2.961,-0.964],[2.982,-0.971],[3.003,-0.978],[3.143,-1.028],[3.192,-1.028],[3.157,-1.098],[3.045,-1.52],[2.94,-1.843],[2.926,-1.928],[2.891,-1.998],[2.87,-2.125],[2.821,-2.251],[2.807,-2.343],[2.723,-2.617],[2.267,-2.547],[2.134,-2.526],[2.351,-1.063],[2.358,-0.943],[2.372,-0.873],[2.393,-0.838]]],[[[2.905,-0.943],[2.919,-0.95],[2.905,-0.95],[2.905,-0.943]]],[[[-2.445,-1.063],[-2.431,-1.168],[-2.361,-1.407],[-2.34,-1.548],[-2.241,-1.921],[-2.178,-2.251],[-2.101,-2.547],[-2.424,-2.589],[-2.739,-2.687],[-2.872,-2.715],[-2.894,-2.687],[-3.006,-2.322],[-3.034,-2.272],[-3.048,-2.202],[-3.132,-1.984],[-3.146,-1.914],[-3.174,-1.864],[-3.349,-1.33],[-2.943,-1.189],[-2.445,-1.063]]]]},"properties":{"abbr":"S1Sh","name":"primary somatosensory cortex, shoulder region","plate":26,"ap_bregma_mm":-0.95,"area_mm2":2.4877,"traced_fraction":[1.0,1.0,1.0],"n_labels":2,"no_drawn_outline":false}},{"type":"Feature","geometry":{"type":"MultiPolygon","coordinates":[[[[5.45,-2.061],[5.871,-2.462],[5.864,-2.476],[5.906,-2.512],[5.934,-2.561],[5.948,-2.561],[6.032,-2.68],[6.046,-2.68],[6.074,-2.73],[6.088,-2.73],[6.088,-2.744],[6.137,-2.786],[6.165,-2.835],[6.186,-2.842],[6.207,-2.863],[6.207,-2.891],[6.291,-3.004],[6.186,-3.088],[6.025,-3.187],[6.011,-3.208],[5.632,-3.461],[5.541,-3.538],[4.903,-3.974],[4.861,-3.939],[4.819,-3.862],[4.7,-3.728],[4.7,-3.714],[4.454,-3.482],[4.44,-3.482],[4.412,-3.44],[4.356,-3.405],[4.356,-3.391],[4.419,-3.327],[4.714,-2.948],[4.798,-2.863],[4.868,-2.758],[4.91,-2.723],[5.015,-2.575],[5.128,-2.455],[5.324,-2.195],[5.359,-2.167],[5.429,-2.068],[5.45,-2.061]]],[[[-5.333,-2.209],[-5.067,-2.519],[-4.899,-2.744],[-4.773,-2.877],[-4.604,-3.102],[-4.429,-3.292],[-4.331,-3.433],[-4.31,-3.44],[-4.478,-3.602],[-4.681,-3.869],[-4.709,-3.925],[-4.773,-3.989],[-6.259,-3.194],[-6.217,-3.123],[-6.196,-3.116],[-6.168,-3.067],[-6.147,-3.06],[-5.958,-2.821],[-5.943,-2.821],[-5.915,-2.772],[-5.901,-2.772],[-5.873,-2.723],[-5.859,-2.723],[-5.859,-2.701],[-5.824,-2.659],[-5.817,-2.673],[-5.817,-2.659],[-5.775,-2.624],[-5.782,-2.617],[-5.761,-2.589],[-5.747,-2.596],[-5.747,-2.575],[-5.726,-2.554],[-5.719,-2.561],[-5.607,-2.441],[-5.593,-2.441],[-5.593,-2.427],[-5.579,-2.427],[-5.579,-2.413],[-5.453,-2.315],[-5.418,-2.265],[-5.333,-2.209]]]]},"properties":{"abbr":"S1ULp","name":"primary somatosensory cortex, upper lip region","plate":26,"ap_bregma_mm":-0.95,"area_mm2":3.4676,"traced_fraction":[1.0,1.0],"n_labels":2,"no_drawn_outline":false}},{"type":"Feature","geometry":{"type":"MultiPolygon","coordinates":[[[[-6.701,-3.82],[-6.0,-4.045],[-5.908,-4.059],[-5.803,-4.101],[-5.691,-4.122],[-5.249,-4.256],[-5.102,-4.284],[-5.018,-4.319],[-4.92,-4.333],[-4.92,-4.382],[-4.962,-4.537],[-4.997,-4.868],[-5.095,-4.875],[-5.242,-4.924],[-5.579,-5.001],[-5.621,-5.022],[-5.979,-5.1],[-6.294,-5.191],[-6.504,-5.226],[-6.673,-5.276],[-6.757,-5.283],[-6.813,-5.311],[-6.911,-5.093],[-6.953,-4.896],[-6.96,-4.551],[-6.939,-4.389],[-6.939,-4.368],[-6.932,-4.34],[-6.925,-4.312],[-6.918,-4.277],[-6.904,-4.277],[-6.876,-4.157],[-6.785,-3.932],[-6.729,-3.827],[-6.701,-3.82]]],[[[6.796,-3.897],[6.852,-4.017],[6.866,-4.087],[6.887,-4.087],[6.887,-4.108],[6.887,-4.157],[6.901,-4.157],[6.908,-4.185],[6.915,-4.214],[6.923,-4.235],[6.915,-4.263],[6.929,-4.263],[6.936,-4.291],[6.929,-4.319],[6.957,-4.453],[6.972,-4.657],[6.965,-4.959],[6.936,-5.142],[6.873,-5.339],[6.207,-5.191],[5.436,-4.98],[5.177,-4.889],[5.128,-4.889],[5.114,-4.692],[5.071,-4.432],[5.913,-4.193],[6.53,-3.995],[6.572,-3.967],[6.796,-3.897]]],[[[-6.939,-4.368],[-6.939,-4.389],[-6.946,-4.389],[-6.939,-4.368]]]]},"properties":{"abbr":"S2","name":"secondary somatosensory cortex","plate":26,"ap_bregma_mm":-0.95,"area_mm2":3.7843,"traced_fraction":[1.0,1.0,1.0],"n_labels":2,"no_drawn_outline":false}},{"type":"Feature","geometry":{"type":"MultiPolygon","coordinates":[[[[0.002,-6.957],[0.065,-6.964],[0.065,-7.59],[0.072,-7.597],[0.079,-7.878],[0.051,-7.983],[-0.005,-8.026],[-0.033,-8.026],[-0.082,-7.99],[-0.124,-7.92],[-0.131,-7.611],[-0.131,-7.118],[-0.145,-7.069],[-0.145,-6.964],[-0.075,-6.964],[-0.068,-7.111],[-0.082,-7.224],[-0.075,-7.857],[-0.04,-7.962],[-0.012,-7.955],[0.009,-7.899],[0.002,-7.111],[0.002,-6.957]]]]},"properties":{"abbr":"SChDL","name":"suprachiasmatic nucleus, dorsolateral part","plate":26,"ap_bregma_mm":-0.95,"area_mm2":0.1269,"traced_fraction":[1.0],"n_labels":1,"no_drawn_outline":false}},{"type":"Feature","geometry":{"type":"MultiPolygon","coordinates":[[[[1.902,-7.744],[1.916,-7.765],[1.993,-7.808],[2.12,-7.934],[2.19,-8.033],[2.197,-8.082],[2.176,-8.082],[2.134,-8.047],[2.12,-8.054],[2.106,-8.033],[2.078,-8.012],[2.071,-8.012],[2.071,-7.998],[2.035,-7.969],[1.944,-7.934],[1.79,-7.934],[1.755,-7.843],[1.699,-7.8],[1.629,-7.772],[1.531,-7.751],[1.426,-7.751],[1.278,-7.787],[1.278,-7.765],[1.313,-7.737],[1.461,-7.695],[1.72,-7.695],[1.902,-7.744]]],[[[-1.281,-7.899],[-1.33,-7.899],[-1.477,-7.857],[-1.582,-7.871],[-1.659,-7.927],[-1.688,-8.019],[-1.758,-8.004],[-1.828,-8.004],[-1.856,-8.019],[-1.877,-8.026],[-1.891,-8.033],[-1.94,-8.04],[-2.052,-8.096],[-2.052,-8.11],[-2.066,-8.117],[-2.08,-8.124],[-2.094,-8.131],[-2.108,-8.138],[-2.15,-8.159],[-2.178,-8.159],[-2.185,-8.124],[-2.136,-8.075],[-2.094,-8.054],[-1.996,-7.941],[-1.947,-7.927],[-1.884,-7.871],[-1.8,-7.822],[-1.624,-7.772],[-1.498,-7.772],[-1.435,-7.794],[-1.428,-7.808],[-1.302,-7.864],[-1.281,-7.899]]]]},"properties":{"abbr":"SO","name":"supraoptic nucleus","plate":26,"ap_bregma_mm":-0.95,"area_mm2":0.199,"traced_fraction":[1.0,1.0],"n_labels":2,"no_drawn_outline":false}},{"type":"Feature","geometry":{"type":"MultiPolygon","coordinates":[[[[-0.482,-5.388],[-0.306,-5.487],[-0.243,-5.494],[-0.222,-5.529],[-0.362,-5.543],[-0.474,-5.585],[-0.545,-5.627],[-0.594,-5.677],[-0.622,-5.733],[-0.629,-5.803],[-0.594,-5.873],[-0.559,-5.909],[-0.355,-6.028],[-0.187,-6.105],[-0.124,-6.113],[-0.075,-6.092],[-0.04,-6.042],[-0.026,-5.986],[-0.04,-5.669],[-0.054,-5.613],[-0.11,-5.557],[-0.026,-5.529],[0.079,-5.529],[0.121,-5.55],[0.065,-5.613],[0.044,-5.747],[0.058,-6.035],[0.072,-6.077],[0.114,-6.105],[0.198,-6.098],[0.283,-6.07],[0.465,-5.958],[0.612,-5.831],[0.633,-5.754],[0.612,-5.62],[0.584,-5.564],[0.542,-5.515],[0.5,-5.494],[0.451,-5.494],[0.304,-5.55],[0.185,-5.557],[0.185,-5.543],[0.269,-5.501],[0.367,-5.487],[0.535,-5.388],[0.605,-5.529],[0.724,-5.627],[0.78,-5.655],[0.851,-5.669],[0.949,-5.62],[0.963,-5.648],[0.914,-5.691],[0.893,-5.691],[0.759,-5.775],[0.71,-5.824],[0.71,-5.859],[0.774,-5.93],[0.865,-6.0],[0.949,-6.042],[0.942,-6.338],[0.893,-6.317],[0.774,-6.324],[0.696,-6.394],[0.689,-6.464],[0.304,-6.464],[0.297,-6.373],[0.227,-6.26],[0.213,-6.26],[0.177,-6.211],[0.107,-6.162],[0.037,-6.134],[-0.019,-6.134],[-0.138,-6.19],[-0.264,-6.309],[-0.32,-6.387],[-0.362,-6.506],[-0.762,-6.506],[-0.769,-6.415],[-0.811,-6.366],[-0.895,-6.359],[-0.916,-6.373],[-0.93,-6.056],[-0.762,-5.965],[-0.699,-5.888],[-0.699,-5.838],[-0.713,-5.817],[-0.832,-5.733],[-0.853,-5.684],[-0.748,-5.698],[-0.601,-5.634],[-0.531,-5.543],[-0.503,-5.409],[-0.496,-5.388],[-0.482,-5.388]]]]},"properties":{"abbr":"STMP","name":"bed nucleus of the stria terminalis, medial division, posterior part","plate":26,"ap_bregma_mm":-0.95,"area_mm2":0.8886,"traced_fraction":[0.881],"n_labels":2,"no_drawn_outline":false}},{"type":"Feature","geometry":{"type":"MultiPolygon","coordinates":[[[[-4.625,-6.267],[-4.604,-6.281],[-4.597,-6.317],[-4.576,-6.338],[-4.541,-6.443],[-4.534,-6.45],[-4.527,-6.492],[-4.513,-6.492],[-4.534,-6.788],[-4.562,-6.788],[-4.625,-6.746],[-4.716,-6.619],[-4.737,-6.535],[-4.716,-6.415],[-4.723,-6.38],[-4.681,-6.338],[-4.653,-6.281],[-4.625,-6.267]]],[[[4.658,-6.267],[4.686,-6.309],[4.7,-6.38],[4.7,-6.57],[4.637,-6.619],[4.602,-6.612],[4.56,-6.57],[4.546,-6.485],[4.574,-6.38],[4.588,-6.373],[4.623,-6.288],[4.658,-6.267]]]]},"properties":{"abbr":"VCl","name":"ventral part of claustrum","plate":26,"ap_bregma_mm":-0.95,"area_mm2":0.1175,"traced_fraction":[0.994,1.0],"n_labels":2,"no_drawn_outline":false}},{"type":"Feature","geometry":{"type":"MultiPolygon","coordinates":[[[[-4.969,-7.266],[-4.955,-7.266],[-4.843,-7.372],[-4.752,-7.407],[-4.604,-7.414],[-4.541,-7.393],[-4.506,-7.414],[-4.457,-7.414],[-4.338,-7.519],[-4.485,-7.885],[-4.555,-7.864],[-4.752,-7.744],[-4.892,-7.611],[-4.941,-7.526],[-4.976,-7.428],[-4.983,-7.294],[-4.969,-7.266]]],[[[4.84,-7.315],[4.833,-7.491],[4.812,-7.561],[4.777,-7.618],[4.623,-7.751],[4.56,-7.779],[4.419,-7.878],[4.328,-7.878],[4.293,-7.829],[4.223,-7.667],[4.174,-7.597],[4.167,-7.561],[4.335,-7.477],[4.349,-7.456],[4.37,-7.456],[4.454,-7.407],[4.49,-7.407],[4.503,-7.393],[4.503,-7.322],[4.679,-7.357],[4.77,-7.343],[4.84,-7.315]]]]},"properties":{"abbr":"VEn","name":"ventral endopiriform nucleus","plate":26,"ap_bregma_mm":-0.95,"area_mm2":0.4378,"traced_fraction":[0.981,0.989],"n_labels":2,"no_drawn_outline":false}},{"type":"Feature","geometry":{"type":"MultiPolygon","coordinates":[[[[1.278,-5.36],[1.412,-5.494],[1.727,-5.508],[1.811,-5.592],[1.685,-5.768],[1.685,-5.888],[1.671,-5.895],[1.664,-6.007],[1.636,-6.007],[1.573,-6.049],[1.51,-6.07],[1.257,-6.098],[1.103,-6.084],[0.949,-6.042],[0.865,-6.0],[0.774,-5.93],[0.71,-5.859],[0.71,-5.824],[0.759,-5.775],[0.893,-5.691],[0.914,-5.691],[0.963,-5.648],[1.082,-5.564],[1.278,-5.36]]],[[[-1.197,-5.451],[-1.078,-5.543],[-1.029,-5.557],[-0.902,-5.662],[-0.853,-5.684],[-0.832,-5.733],[-0.713,-5.817],[-0.699,-5.838],[-0.699,-5.888],[-0.762,-5.965],[-0.93,-6.056],[-1.092,-6.092],[-1.204,-6.098],[-1.197,-5.451]]]]},"properties":{"abbr":"ZIR","name":"zona incerta, rostral part","plate":26,"ap_bregma_mm":-0.95,"area_mm2":0.6971,"traced_fraction":[0.812,0.683],"n_labels":2,"no_drawn_outline":false}},{"type":"Feature","geometry":{"type":"MultiPolygon","coordinates":[[[[2.267,-2.547],[2.723,-2.617],[2.975,-2.687],[3.206,-2.758],[3.501,-2.905],[3.571,-2.927],[3.957,-3.123],[4.139,-3.243],[4.153,-3.264],[4.132,-3.271],[4.125,-3.398],[3.901,-3.25],[3.494,-3.046],[3.164,-2.934],[2.947,-2.891],[2.554,-2.849],[2.253,-2.842],[2.19,-2.863],[2.176,-2.849],[2.106,-2.835],[1.951,-2.828],[1.587,-2.842],[1.405,-2.877],[1.271,-2.898],[1.082,-2.969],[0.844,-3.025],[0.759,-3.067],[0.717,-3.109],[0.668,-3.109],[0.528,-3.166],[0.262,-3.201],[0.248,-3.215],[0.065,-3.222],[-0.117,-3.215],[-0.166,-3.236],[-0.173,-3.208],[-0.299,-3.18],[-0.299,-3.046],[-0.201,-3.053],[0.037,-3.067],[0.058,-3.053],[0.213,-3.053],[0.29,-3.039],[0.297,-3.025],[0.402,-3.025],[0.598,-2.983],[0.668,-2.955],[0.738,-2.898],[0.872,-2.863],[1.047,-2.744],[1.271,-2.659],[1.489,-2.631],[1.867,-2.617],[2.113,-2.624],[2.246,-2.61],[2.267,-2.547]]]]},"properties":{"abbr":"cc","name":"corpus callosum","plate":26,"ap_bregma_mm":-0.95,"area_mm2":0.872,"traced_fraction":[0.981],"n_labels":1,"no_drawn_outline":false}},{"type":"Feature","geometry":{"type":"MultiPolygon","coordinates":[[[[1.096,-2.483],[1.166,-2.497],[1.363,-2.497],[1.418,-2.512],[1.601,-2.504],[1.657,-2.519],[2.134,-2.526],[2.267,-2.547],[2.246,-2.61],[2.113,-2.624],[1.867,-2.617],[1.489,-2.631],[1.271,-2.659],[1.047,-2.744],[0.872,-2.863],[0.738,-2.898],[0.766,-2.793],[0.865,-2.568],[0.9,-2.526],[0.949,-2.497],[1.096,-2.483]]],[[[-1.225,-2.49],[-1.014,-2.49],[-0.951,-2.504],[-0.846,-2.54],[-0.727,-2.652],[-0.678,-2.751],[-0.601,-2.856],[-0.587,-2.905],[-0.629,-2.898],[-0.72,-2.849],[-0.755,-2.814],[-0.783,-2.807],[-0.923,-2.708],[-1.141,-2.624],[-1.47,-2.568],[-1.856,-2.561],[-1.856,-2.547],[-1.835,-2.526],[-1.477,-2.504],[-1.274,-2.504],[-1.225,-2.49]]]]},"properties":{"abbr":"cg","name":"cingulum","plate":26,"ap_bregma_mm":-0.95,"area_mm2":0.3726,"traced_fraction":[0.994,1.0],"n_labels":2,"no_drawn_outline":false}},{"type":"Feature","geometry":{"type":"MultiPolygon","coordinates":[[[[-2.08,-2.786],[-2.066,-2.807],[-1.912,-2.877],[-1.87,-2.891],[-1.758,-2.891],[-1.667,-2.927],[-1.582,-3.011],[-1.582,-3.053],[-1.646,-3.06],[-1.716,-3.018],[-1.807,-3.018],[-1.905,-3.046],[-1.982,-3.095],[-2.066,-3.194],[-2.326,-3.637],[-2.333,-3.721],[-2.319,-3.749],[-2.29,-3.763],[-2.34,-3.848],[-2.34,-3.904],[-2.311,-3.932],[-2.256,-3.953],[-2.206,-4.003],[-2.277,-4.01],[-2.389,-3.974],[-2.48,-3.932],[-2.592,-3.848],[-2.585,-3.763],[-2.508,-3.623],[-2.262,-3.292],[-2.248,-3.243],[-2.171,-3.109],[-2.157,-3.011],[-2.031,-2.962],[-2.024,-2.927],[-2.038,-2.905],[-2.129,-2.856],[-2.164,-2.807],[-2.08,-2.786]]],[[[-0.517,-3.785],[-0.496,-3.82],[-0.453,-3.841],[-0.383,-3.841],[-0.355,-3.813],[-0.145,-3.834],[-0.026,-3.869],[0.093,-3.869],[0.164,-3.883],[0.311,-3.883],[0.458,-3.855],[0.823,-3.834],[0.795,-3.897],[0.802,-3.946],[0.844,-3.982],[0.9,-3.995],[0.921,-4.017],[0.921,-4.031],[0.858,-4.073],[0.774,-4.038],[0.717,-3.974],[0.675,-3.953],[0.577,-3.953],[0.57,-4.052],[0.535,-4.087],[0.43,-4.094],[0.409,-4.108],[0.402,-4.164],[0.381,-4.185],[0.318,-4.185],[0.283,-4.143],[0.276,-4.087],[0.353,-4.017],[0.367,-3.946],[0.339,-3.946],[0.248,-4.031],[0.185,-4.045],[0.128,-4.115],[0.079,-4.122],[0.03,-4.066],[-0.061,-4.08],[-0.096,-4.045],[-0.117,-3.995],[-0.187,-3.982],[-0.229,-3.925],[-0.348,-3.939],[-0.432,-3.918],[-0.461,-3.932],[-0.461,-3.946],[-0.425,-3.982],[-0.419,-4.017],[-0.348,-4.115],[-0.348,-4.15],[-0.369,-4.178],[-0.419,-4.178],[-0.461,-4.143],[-0.496,-4.073],[-0.51,-4.073],[-0.559,-4.017],[-0.65,-3.967],[-0.643,-3.911],[-0.657,-3.883],[-0.727,-3.869],[-0.776,-3.883],[-0.853,-3.932],[-0.923,-3.862],[-1.029,-3.813],[-1.169,-3.77],[-1.239,-3.728],[-1.26,-3.7],[-1.239,-3.679],[-1.057,-3.679],[-0.769,-3.778],[-0.517,-3.785]]]]},"properties":{"abbr":"chp","name":"choroid plexus","plate":26,"ap_bregma_mm":-0.95,"area_mm2":0.6175,"traced_fraction":[0.989,1.0],"n_labels":2,"no_drawn_outline":false}},{"type":"Feature","geometry":{"type":"MultiPolygon","coordinates":[[[[2.912,-7.35],[2.947,-7.414],[2.947,-7.484],[2.905,-7.547],[2.828,-7.561],[2.786,-7.547],[2.758,-7.498],[2.758,-7.456],[2.772,-7.407],[2.807,-7.372],[2.835,-7.35],[2.912,-7.35]]],[[[-2.823,-7.491],[-2.774,-7.561],[-2.774,-7.639],[-2.837,-7.709],[-2.922,-7.688],[-2.971,-7.646],[-2.985,-7.604],[-2.978,-7.533],[-2.957,-7.505],[-2.908,-7.477],[-2.823,-7.491]]]]},"properties":{"abbr":"cst","name":"commissural stria terminalis","plate":26,"ap_bregma_mm":-0.95,"area_mm2":0.0694,"traced_fraction":[1.0,1.0],"n_labels":2,"no_drawn_outline":false}},{"type":"Feature","geometry":{"type":"MultiPolygon","coordinates":[[[[-0.601,-3.109],[-0.552,-3.109],[-0.447,-3.152],[-0.299,-3.18],[-0.173,-3.208],[-0.166,-3.236],[-0.173,-3.243],[-0.201,-3.257],[-0.292,-3.264],[-0.44,-3.229],[-0.559,-3.18],[-0.594,-3.144],[-0.601,-3.109]]]]},"properties":{"abbr":"df","name":"dorsal fornix","plate":26,"ap_bregma_mm":-0.95,"area_mm2":0.0302,"traced_fraction":[1.0],"n_labels":1,"no_drawn_outline":false}},{"type":"Feature","geometry":{"type":"MultiPolygon","coordinates":[[[[-1.856,-2.547],[-1.856,-2.561],[-1.47,-2.568],[-1.141,-2.624],[-0.923,-2.708],[-0.783,-2.807],[-0.755,-2.814],[-0.72,-2.849],[-0.629,-2.898],[-0.587,-2.905],[-0.44,-3.004],[-0.299,-3.046],[-0.299,-3.18],[-0.447,-3.152],[-0.552,-3.109],[-0.601,-3.109],[-0.643,-3.074],[-0.741,-3.053],[-0.825,-2.969],[-0.993,-2.884],[-1.218,-2.807],[-1.414,-2.765],[-1.561,-2.744],[-1.814,-2.737],[-2.003,-2.758],[-2.08,-2.786],[-2.164,-2.807],[-2.22,-2.8],[-2.284,-2.814],[-2.403,-2.877],[-2.55,-2.884],[-2.725,-2.912],[-3.37,-3.116],[-3.532,-3.18],[-4.022,-3.44],[-4.303,-3.637],[-4.457,-3.792],[-4.759,-4.235],[-4.829,-4.41],[-4.871,-4.65],[-4.899,-5.065],[-4.899,-5.262],[-4.885,-5.353],[-4.843,-5.571],[-4.773,-5.796],[-4.688,-5.993],[-4.597,-6.162],[-4.597,-6.19],[-4.527,-6.302],[-4.464,-6.352],[-4.408,-6.366],[-4.408,-6.387],[-4.45,-6.401],[-4.492,-6.457],[-4.534,-6.45],[-4.541,-6.443],[-4.576,-6.338],[-4.597,-6.317],[-4.604,-6.281],[-4.625,-6.267],[-4.66,-6.19],[-4.688,-6.169],[-4.723,-6.092],[-4.759,-6.049],[-4.815,-5.902],[-4.85,-5.852],[-4.878,-5.733],[-4.934,-5.592],[-4.976,-5.353],[-4.99,-5.177],[-4.997,-5.17],[-4.997,-4.868],[-4.962,-4.537],[-4.92,-4.382],[-4.92,-4.333],[-4.871,-4.178],[-4.794,-4.052],[-4.773,-3.989],[-4.709,-3.925],[-4.681,-3.869],[-4.478,-3.602],[-4.31,-3.44],[-4.015,-3.243],[-3.77,-3.116],[-3.763,-3.102],[-3.595,-3.018],[-3.398,-2.948],[-3.223,-2.856],[-2.985,-2.758],[-2.915,-2.744],[-2.872,-2.715],[-2.739,-2.687],[-2.424,-2.589],[-2.101,-2.547],[-1.856,-2.547]]],[[[4.153,-3.264],[4.251,-3.32],[4.335,-3.391],[4.356,-3.391],[4.356,-3.405],[4.412,-3.44],[4.44,-3.482],[4.454,-3.482],[4.7,-3.714],[4.7,-3.728],[4.819,-3.862],[4.861,-3.939],[4.903,-3.974],[4.91,-4.017],[5.008,-4.221],[5.071,-4.432],[5.114,-4.692],[5.128,-4.889],[5.099,-5.072],[5.107,-5.107],[5.057,-5.339],[4.987,-5.557],[4.952,-5.677],[4.882,-5.817],[4.875,-5.873],[4.805,-5.993],[4.777,-6.077],[4.665,-6.232],[4.658,-6.267],[4.623,-6.288],[4.588,-6.373],[4.574,-6.38],[4.546,-6.485],[4.56,-6.57],[4.532,-6.612],[4.532,-6.682],[4.511,-6.732],[4.497,-6.724],[4.511,-6.478],[4.56,-6.324],[4.553,-6.302],[4.525,-6.288],[4.49,-6.295],[4.469,-6.274],[4.588,-6.204],[4.714,-6.042],[4.812,-5.845],[4.875,-5.641],[4.91,-5.578],[5.036,-5.142],[5.043,-4.825],[5.029,-4.692],[4.952,-4.361],[4.833,-4.094],[4.77,-3.989],[4.448,-3.658],[4.433,-3.658],[4.272,-3.503],[4.139,-3.419],[4.125,-3.398],[4.132,-3.271],[4.153,-3.264]]]]},"properties":{"abbr":"ec","name":"external capsule","plate":26,"ap_bregma_mm":-0.95,"area_mm2":1.512,"traced_fraction":[0.994,0.989],"n_labels":2,"no_drawn_outline":false}},{"type":"Feature","geometry":{"type":"MultiPolygon","coordinates":[[[[0.942,-6.338],[1.054,-6.436],[1.068,-6.471],[1.068,-6.57],[1.012,-6.633],[0.886,-6.633],[0.823,-6.626],[0.759,-6.598],[0.696,-6.528],[0.689,-6.464],[0.696,-6.394],[0.774,-6.324],[0.893,-6.317],[0.942,-6.338]]],[[[-0.762,-6.506],[-0.783,-6.612],[-0.825,-6.661],[-0.909,-6.689],[-0.958,-6.682],[-0.993,-6.668],[-1.035,-6.612],[-1.042,-6.506],[-1.021,-6.464],[-0.916,-6.373],[-0.895,-6.359],[-0.811,-6.366],[-0.769,-6.415],[-0.762,-6.506]]]]},"properties":{"abbr":"f","name":"fornix","plate":26,"ap_bregma_mm":-0.95,"area_mm2":0.1678,"traced_fraction":[1.0,1.0],"n_labels":2,"no_drawn_outline":false}},{"type":"Feature","geometry":{"type":"MultiPolygon","coordinates":[[[[-0.839,-3.095],[-0.825,-3.159],[-0.769,-3.215],[-0.58,-3.32],[-0.292,-3.398],[0.002,-3.433],[0.388,-3.398],[0.626,-3.334],[0.745,-3.278],[0.802,-3.222],[0.816,-3.18],[0.984,-3.208],[1.215,-3.208],[1.257,-3.194],[1.363,-3.194],[1.405,-3.208],[1.559,-3.292],[1.72,-3.412],[2.014,-3.672],[2.246,-3.778],[2.246,-3.792],[2.281,-3.813],[2.309,-3.869],[2.316,-3.946],[2.302,-4.003],[2.078,-4.122],[2.064,-4.108],[1.923,-4.094],[1.867,-4.073],[1.86,-4.059],[1.832,-4.059],[1.762,-4.01],[1.65,-3.96],[1.51,-3.855],[1.461,-3.806],[1.397,-3.77],[1.229,-3.763],[1.173,-3.778],[1.117,-3.778],[0.977,-3.82],[0.823,-3.834],[0.458,-3.855],[0.311,-3.883],[0.164,-3.883],[0.093,-3.869],[-0.026,-3.869],[-0.145,-3.834],[-0.355,-3.813],[-0.461,-3.785],[-0.517,-3.785],[-0.769,-3.778],[-1.057,-3.679],[-1.239,-3.679],[-1.26,-3.7],[-1.379,-3.7],[-1.435,-3.714],[-1.512,-3.749],[-1.533,-3.778],[-1.554,-3.778],[-1.617,-3.82],[-1.772,-3.96],[-1.933,-4.038],[-1.94,-4.059],[-2.052,-4.059],[-2.143,-4.045],[-2.206,-4.003],[-2.256,-3.953],[-2.311,-3.932],[-2.34,-3.904],[-2.34,-3.848],[-2.29,-3.763],[-2.087,-3.559],[-1.912,-3.278],[-1.849,-3.215],[-1.8,-3.187],[-1.596,-3.144],[-1.428,-3.053],[-1.33,-3.032],[-1.134,-3.039],[-0.839,-3.095]]]]},"properties":{"abbr":"fi","name":"fimbria of the hippocampus","plate":26,"ap_bregma_mm":-0.95,"area_mm2":2.4865,"traced_fraction":[1.0],"n_labels":2,"no_drawn_outline":false}},{"type":"Feature","geometry":{"type":"MultiPolygon","coordinates":[[[[-2.508,-3.623],[-2.585,-3.763],[-2.592,-3.848],[-2.606,-3.855],[-2.627,-3.911],[-2.634,-4.059],[-2.613,-4.129],[-2.578,-4.185],[-2.522,-4.242],[-2.417,-4.298],[-2.284,-4.333],[-2.22,-4.333],[-2.22,-4.354],[-2.269,-4.396],[-2.41,-4.474],[-2.487,-4.544],[-2.529,-4.629],[-2.529,-4.72],[-2.487,-4.818],[-2.403,-4.945],[-2.305,-5.037],[-2.143,-5.121],[-2.073,-5.198],[-1.982,-5.374],[-1.933,-5.529],[-1.744,-5.866],[-1.709,-6.007],[-1.695,-6.021],[-1.73,-6.049],[-1.835,-6.035],[-1.982,-5.958],[-2.171,-5.831],[-2.403,-5.655],[-2.55,-5.501],[-2.648,-5.367],[-2.711,-5.262],[-2.816,-5.029],[-2.922,-4.678],[-2.936,-4.453],[-2.894,-4.214],[-2.866,-4.143],[-2.837,-3.911],[-2.753,-3.721],[-2.641,-3.623],[-2.508,-3.623]]],[[[2.828,-3.918],[2.835,-3.989],[2.919,-4.143],[2.926,-4.242],[2.912,-4.34],[2.828,-4.572],[2.66,-4.903],[2.526,-5.205],[2.351,-5.458],[2.035,-5.789],[1.811,-5.909],[1.741,-5.909],[1.685,-5.888],[1.685,-5.768],[1.811,-5.592],[2.056,-5.276],[2.197,-5.058],[2.302,-4.924],[2.358,-4.762],[2.358,-4.629],[2.33,-4.593],[2.232,-4.586],[2.19,-4.6],[2.05,-4.6],[1.979,-4.551],[1.951,-4.46],[1.958,-4.333],[2.071,-4.368],[2.204,-4.375],[2.414,-4.312],[2.47,-4.277],[2.547,-4.199],[2.611,-4.087],[2.645,-3.967],[2.723,-3.897],[2.786,-3.897],[2.828,-3.918]]]]},"properties":{"abbr":"ic","name":"internal capsule","plate":26,"ap_bregma_mm":-0.95,"area_mm2":1.9046,"traced_fraction":[1.0,1.0],"n_labels":2,"no_drawn_outline":false}},{"type":"Feature","geometry":{"type":"MultiPolygon","coordinates":[[[[1.489,-4.01],[1.559,-4.024],[1.685,-4.108],[1.706,-4.108],[1.713,-4.122],[1.909,-4.214],[1.951,-4.221],[1.951,-4.291],[1.881,-4.319],[1.769,-4.432],[1.636,-4.643],[1.594,-4.734],[1.566,-4.762],[1.566,-4.783],[1.531,-4.797],[1.475,-4.91],[1.44,-4.952],[1.44,-4.973],[1.482,-4.987],[1.489,-5.008],[1.475,-5.015],[1.461,-5.079],[1.433,-5.1],[1.376,-5.226],[1.278,-5.36],[1.082,-5.564],[0.963,-5.648],[0.949,-5.62],[1.096,-5.48],[1.138,-5.402],[1.215,-5.318],[1.313,-5.177],[1.355,-5.072],[1.384,-5.05],[1.384,-5.029],[1.334,-5.037],[1.278,-4.882],[1.201,-4.804],[1.082,-4.727],[1.25,-4.509],[1.264,-4.474],[1.292,-4.453],[1.341,-4.361],[1.369,-4.256],[1.489,-4.01]]],[[[-1.673,-4.481],[-1.617,-4.544],[-1.596,-4.614],[-1.547,-4.678],[-1.358,-5.029],[-1.309,-5.093],[-1.288,-5.093],[-1.281,-5.17],[-1.253,-5.233],[-1.127,-5.423],[-1.05,-5.501],[-1.029,-5.557],[-1.078,-5.543],[-1.197,-5.451],[-1.351,-5.297],[-1.561,-4.91],[-1.638,-4.629],[-1.68,-4.53],[-1.673,-4.481]]]]},"properties":{"abbr":"iml","name":"internal medullary lamina","plate":26,"ap_bregma_mm":-0.95,"area_mm2":0.5577,"traced_fraction":[0.985,1.0],"n_labels":2,"no_drawn_outline":false}},{"type":"Feature","geometry":{"type":"MultiPolygon","coordinates":[[[[1.79,-7.934],[1.657,-7.976],[1.615,-7.998],[1.615,-8.012],[1.566,-8.033],[1.517,-8.047],[1.51,-8.075],[1.489,-8.075],[1.475,-8.082],[1.468,-8.075],[1.468,-8.089],[1.461,-8.096],[1.405,-8.11],[1.397,-8.124],[1.313,-8.159],[1.299,-8.18],[1.201,-8.223],[1.11,-8.286],[1.089,-8.286],[0.935,-8.377],[0.802,-8.405],[0.766,-8.356],[0.703,-8.328],[0.493,-8.314],[0.451,-8.3],[0.479,-8.265],[0.57,-8.237],[0.703,-8.166],[0.886,-8.012],[1.089,-7.871],[1.278,-7.787],[1.426,-7.751],[1.531,-7.751],[1.629,-7.772],[1.748,-7.836],[1.79,-7.934]]],[[[-1.281,-7.899],[-1.176,-7.941],[-1.042,-8.047],[-0.895,-8.131],[-0.741,-8.208],[-0.419,-8.265],[-0.32,-8.307],[-0.657,-8.37],[-0.734,-8.419],[-0.734,-8.455],[-0.748,-8.455],[-0.748,-8.469],[-0.825,-8.476],[-0.895,-8.483],[-1.063,-8.448],[-1.071,-8.434],[-1.183,-8.384],[-1.519,-8.145],[-1.61,-8.061],[-1.631,-8.061],[-1.688,-8.019],[-1.659,-7.927],[-1.582,-7.871],[-1.477,-7.857],[-1.33,-7.899],[-1.281,-7.899]]]]},"properties":{"abbr":"opt","name":"optic tract","plate":26,"ap_bregma_mm":-0.95,"area_mm2":0.733,"traced_fraction":[1.0,1.0],"n_labels":2,"no_drawn_outline":false}},{"type":"Feature","geometry":{"type":"MultiPolygon","coordinates":[[[[-0.832,-4.01],[-0.741,-4.115],[-0.587,-4.199],[-0.447,-4.34],[-0.369,-4.375],[-0.299,-4.382],[-0.313,-4.509],[-0.348,-4.593],[-0.362,-4.593],[-0.397,-4.636],[-0.447,-4.657],[-0.531,-4.657],[-0.594,-4.614],[-0.643,-4.607],[-0.664,-4.565],[-0.762,-4.46],[-0.839,-4.277],[-0.86,-4.185],[-0.86,-4.038],[-0.846,-4.01],[-0.832,-4.01]]],[[[0.921,-4.031],[0.928,-4.171],[0.865,-4.375],[0.759,-4.572],[0.661,-4.671],[0.591,-4.671],[0.514,-4.643],[0.423,-4.537],[0.374,-4.389],[0.437,-4.354],[0.633,-4.291],[0.724,-4.242],[0.802,-4.171],[0.858,-4.073],[0.921,-4.031]]]]},"properties":{"abbr":"sm","name":"stria medullaris of the thalamus","plate":26,"ap_bregma_mm":-0.95,"area_mm2":0.3504,"traced_fraction":[1.0,1.0],"n_labels":2,"no_drawn_outline":false}},{"type":"Feature","geometry":{"type":"MultiPolygon","coordinates":[[[[0.248,-8.321],[0.451,-8.3],[0.493,-8.314],[0.703,-8.328],[0.766,-8.356],[0.802,-8.405],[0.647,-8.434],[0.269,-8.455],[0.149,-8.476],[0.002,-8.476],[-0.187,-8.419],[-0.292,-8.405],[-0.44,-8.412],[-0.734,-8.455],[-0.734,-8.419],[-0.657,-8.37],[-0.32,-8.307],[-0.243,-8.293],[-0.166,-8.328],[-0.096,-8.328],[-0.054,-8.314],[-0.054,-8.3],[-0.005,-8.272],[0.051,-8.272],[0.079,-8.307],[0.114,-8.321],[0.248,-8.321]]]]},"properties":{"abbr":"sox","name":"supraoptic decussation","plate":26,"ap_bregma_mm":-0.95,"area_mm2":0.1767,"traced_fraction":[1.0],"n_labels":1,"no_drawn_outline":false}},{"type":"Feature","geometry":{"type":"MultiPolygon","coordinates":[[[[2.498,-3.834],[2.547,-3.834],[2.603,-3.89],[2.645,-3.967],[2.611,-4.087],[2.547,-4.199],[2.47,-4.277],[2.414,-4.312],[2.204,-4.375],[2.071,-4.368],[1.958,-4.333],[1.951,-4.291],[1.951,-4.221],[2.022,-4.193],[2.078,-4.122],[2.302,-4.003],[2.379,-4.038],[2.456,-4.038],[2.491,-4.024],[2.526,-3.982],[2.526,-3.911],[2.498,-3.834]]],[[[-2.592,-3.848],[-2.424,-3.96],[-2.277,-4.01],[-2.206,-4.003],[-2.143,-4.045],[-2.052,-4.059],[-2.052,-4.164],[-2.08,-4.27],[-2.143,-4.319],[-2.22,-4.333],[-2.284,-4.333],[-2.417,-4.298],[-2.522,-4.242],[-2.578,-4.185],[-2.613,-4.129],[-2.634,-4.059],[-2.634,-3.946],[-2.613,-3.869],[-2.592,-3.848]]]]},"properties":{"abbr":"st","name":"stria terminalis","plate":26,"ap_bregma_mm":-0.95,"area_mm2":0.358,"traced_fraction":[1.0,1.0],"n_labels":2,"no_drawn_outline":false}},{"type":"Feature","geometry":{"type":"MultiPolygon","coordinates":[[[[-0.741,-3.053],[-0.643,-3.074],[-0.601,-3.109],[-0.594,-3.144],[-0.559,-3.18],[-0.44,-3.229],[-0.292,-3.264],[-0.201,-3.257],[-0.173,-3.243],[-0.166,-3.236],[-0.117,-3.215],[0.065,-3.222],[0.072,-3.243],[0.157,-3.271],[0.346,-3.271],[0.486,-3.229],[0.528,-3.194],[0.528,-3.166],[0.668,-3.109],[0.717,-3.109],[0.759,-3.159],[0.816,-3.18],[0.802,-3.222],[0.745,-3.278],[0.626,-3.334],[0.388,-3.398],[0.002,-3.433],[-0.292,-3.398],[-0.58,-3.32],[-0.769,-3.215],[-0.825,-3.159],[-0.839,-3.095],[-0.748,-3.088],[-0.741,-3.053]]]]},"properties":{"abbr":"vhc","name":"ventral hippocampal commissure","plate":26,"ap_bregma_mm":-0.95,"area_mm2":0.2614,"traced_fraction":[1.0],"n_labels":1,"no_drawn_outline":false}},{"type":"Feature","geometry":{"type":"Polygon","coordinates":[[[-1.624,-0.901],[-1.631,-0.922],[-1.758,-0.929],[-2.122,-0.985],[-2.445,-1.063],[-2.943,-1.189],[-3.349,-1.33],[-3.461,-1.365],[-3.588,-1.4],[-3.756,-1.471],[-4.043,-1.527],[-4.373,-1.625],[-4.548,-1.703],[-4.562,-1.696],[-4.352,-1.569],[-3.812,-1.471],[-3.44,-1.288],[-3.328,-1.309],[-3.188,-1.21],[-2.445,-1.028],[-1.737,-0.901],[-1.624,-0.901]]]},"properties":{"abbr":null,"name":"unnamed sealed face","plate":26,"ap_bregma_mm":-0.95,"index":0}},{"type":"Feature","geometry":{"type":"Polygon","coordinates":[[[3.634,-1.168],[4.181,-1.281],[4.567,-1.435],[5.163,-1.78],[5.345,-1.963],[5.324,-1.963],[5.163,-1.829],[5.135,-1.822],[5.12,-1.801],[4.938,-1.682],[4.567,-1.485],[4.23,-1.344],[3.964,-1.26],[3.655,-1.189],[3.634,-1.182],[3.634,-1.168]]]},"properties":{"abbr":null,"name":"unnamed sealed face","plate":26,"ap_bregma_mm":-0.95,"index":1}},{"type":"Feature","geometry":{"type":"Polygon","coordinates":[[[-4.646,-1.738],[-4.646,-1.752],[-4.786,-1.815],[-5.025,-1.963],[-5.039,-1.984],[-5.277,-2.146],[-5.277,-2.16],[-5.333,-2.209],[-5.418,-2.265],[-5.453,-2.315],[-5.579,-2.413],[-5.579,-2.427],[-5.593,-2.427],[-5.593,-2.441],[-5.607,-2.441],[-5.719,-2.561],[-5.726,-2.554],[-5.726,-2.54],[-5.67,-2.49],[-5.621,-2.42],[-5.565,-2.378],[-5.565,-2.364],[-5.425,-2.209],[-4.913,-1.857],[-4.899,-1.836],[-4.646,-1.738]]]},"properties":{"abbr":null,"name":"unnamed sealed face","plate":26,"ap_bregma_mm":-0.95,"index":2}},{"type":"Feature","geometry":{"type":"Polygon","coordinates":[[[-5.747,-2.575],[-5.747,-2.596],[-5.761,-2.589],[-5.747,-2.575]]]},"properties":{"abbr":null,"name":"unnamed sealed face","plate":26,"ap_bregma_mm":-0.95,"index":3}},{"type":"Feature","geometry":{"type":"Polygon","coordinates":[[[-5.859,-2.701],[-5.859,-2.723],[-5.873,-2.723],[-5.901,-2.772],[-5.915,-2.772],[-5.943,-2.821],[-5.958,-2.821],[-5.985,-2.87],[-6.105,-2.997],[-6.105,-3.011],[-6.119,-3.011],[-6.147,-3.06],[-6.168,-3.067],[-6.196,-3.116],[-6.217,-3.123],[-6.259,-3.194],[-6.308,-3.236],[-6.35,-3.299],[-6.364,-3.299],[-6.378,-3.334],[-6.413,-3.363],[-6.427,-3.398],[-6.441,-3.398],[-6.455,-3.433],[-6.539,-3.531],[-6.568,-3.588],[-6.581,-3.588],[-6.694,-3.763],[-6.701,-3.82],[-6.729,-3.827],[-6.785,-3.932],[-6.876,-4.157],[-6.904,-4.277],[-6.918,-4.277],[-6.841,-3.939],[-6.722,-3.756],[-6.602,-3.538],[-5.915,-2.765],[-5.93,-2.715],[-5.873,-2.715],[-5.859,-2.701]]]},"properties":{"abbr":null,"name":"unnamed sealed face","plate":26,"ap_bregma_mm":-0.95,"index":4}},{"type":"Feature","geometry":{"type":"Polygon","coordinates":[[[-0.741,-3.053],[-0.748,-3.088],[-0.839,-3.095],[-1.134,-3.039],[-1.33,-3.032],[-1.428,-3.053],[-1.596,-3.144],[-1.8,-3.187],[-1.849,-3.215],[-1.912,-3.278],[-2.087,-3.559],[-2.29,-3.763],[-2.319,-3.749],[-2.333,-3.721],[-2.326,-3.637],[-2.262,-3.517],[-2.192,-3.426],[-2.115,-3.271],[-2.01,-3.123],[-1.947,-3.067],[-1.807,-3.018],[-1.716,-3.018],[-1.646,-3.06],[-1.582,-3.053],[-1.582,-3.011],[-1.667,-2.927],[-1.758,-2.891],[-1.87,-2.891],[-1.912,-2.877],[-2.066,-2.807],[-2.08,-2.786],[-2.003,-2.758],[-1.814,-2.737],[-1.561,-2.744],[-1.414,-2.765],[-1.218,-2.807],[-0.993,-2.884],[-0.846,-2.955],[-0.741,-3.053]]]},"properties":{"abbr":null,"name":"unnamed sealed face","plate":26,"ap_bregma_mm":-0.95,"index":5}},{"type":"Feature","geometry":{"type":"Polygon","coordinates":[[[-2.164,-2.807],[-2.129,-2.856],[-2.038,-2.905],[-2.024,-2.927],[-2.031,-2.962],[-2.157,-3.011],[-2.22,-2.969],[-2.382,-2.919],[-2.403,-2.898],[-2.403,-2.877],[-2.284,-2.814],[-2.22,-2.8],[-2.164,-2.807]]]},"properties":{"abbr":null,"name":"unnamed sealed face","plate":26,"ap_bregma_mm":-0.95,"index":6}},{"type":"Feature","geometry":{"type":"Polygon","coordinates":[[[2.19,-2.863],[2.162,-2.905],[2.092,-2.948],[1.895,-3.039],[1.839,-3.046],[1.839,-3.074],[1.86,-3.116],[1.993,-3.194],[2.028,-3.222],[2.028,-3.236],[2.169,-3.292],[2.232,-3.348],[2.323,-3.524],[2.358,-3.693],[2.421,-3.785],[2.435,-3.785],[2.456,-3.82],[2.498,-3.834],[2.526,-3.911],[2.526,-3.982],[2.491,-4.024],[2.456,-4.038],[2.379,-4.038],[2.302,-4.003],[2.316,-3.946],[2.309,-3.869],[2.281,-3.813],[2.246,-3.792],[2.246,-3.778],[2.239,-3.707],[2.197,-3.616],[2.106,-3.531],[2.092,-3.482],[2.043,-3.405],[1.951,-3.334],[1.951,-3.32],[1.881,-3.292],[1.839,-3.194],[1.797,-3.166],[1.79,-3.144],[1.643,-3.067],[1.615,-3.039],[1.636,-2.976],[1.678,-2.927],[1.622,-2.941],[1.503,-2.941],[1.44,-2.919],[1.405,-2.877],[1.587,-2.842],[1.951,-2.828],[2.106,-2.835],[2.176,-2.849],[2.19,-2.863]]]},"properties":{"abbr":null,"name":"unnamed sealed face","plate":26,"ap_bregma_mm":-0.95,"index":7}},{"type":"Feature","geometry":{"type":"Polygon","coordinates":[[[0.297,-3.025],[0.29,-3.039],[0.213,-3.053],[0.058,-3.053],[0.037,-3.067],[-0.201,-3.053],[-0.18,-3.018],[-0.18,-2.891],[-0.047,-2.891],[-0.047,-2.997],[0.051,-3.032],[0.185,-2.99],[0.269,-2.997],[0.297,-3.025]]]},"properties":{"abbr":null,"name":"unnamed sealed face","plate":26,"ap_bregma_mm":-0.95,"index":8}},{"type":"Feature","geometry":{"type":"Polygon","coordinates":[[[1.173,-3.778],[1.096,-3.869],[1.012,-3.925],[1.005,-3.953],[0.921,-4.017],[0.9,-3.995],[0.844,-3.982],[0.802,-3.946],[0.795,-3.897],[0.823,-3.834],[0.977,-3.82],[1.117,-3.778],[1.173,-3.778]]]},"properties":{"abbr":null,"name":"unnamed sealed face","plate":26,"ap_bregma_mm":-0.95,"index":9}},{"type":"Feature","geometry":{"type":"Polygon","coordinates":[[[6.936,-4.291],[6.993,-4.474],[6.993,-5.065],[6.873,-5.487],[6.523,-6.113],[6.306,-6.309],[6.291,-6.394],[6.27,-6.415],[6.032,-6.549],[6.018,-6.584],[6.011,-6.549],[6.074,-6.492],[6.151,-6.457],[6.256,-6.338],[6.334,-6.267],[6.383,-6.197],[6.404,-6.19],[6.432,-6.141],[6.446,-6.141],[6.453,-6.113],[6.467,-6.113],[6.488,-6.07],[6.516,-6.049],[6.523,-6.021],[6.537,-6.021],[6.544,-5.993],[6.642,-5.866],[6.677,-5.782],[6.733,-5.698],[6.74,-5.662],[6.817,-5.529],[6.873,-5.339],[6.936,-5.142],[6.965,-4.959],[6.972,-4.657],[6.957,-4.453],[6.929,-4.319],[6.936,-4.291]]]},"properties":{"abbr":null,"name":"unnamed sealed face","plate":26,"ap_bregma_mm":-0.95,"index":10}},{"type":"Feature","geometry":{"type":"Polygon","coordinates":[[[-6.946,-4.389],[-6.939,-4.389],[-6.96,-4.551],[-6.953,-4.896],[-6.911,-5.093],[-6.813,-5.311],[-6.75,-5.473],[-6.785,-5.444],[-6.883,-5.304],[-6.967,-5.044],[-6.981,-4.516],[-6.946,-4.389]]]},"properties":{"abbr":null,"name":"unnamed sealed face","plate":26,"ap_bregma_mm":-0.95,"index":11}},{"type":"Feature","geometry":{"type":"Polygon","coordinates":[[[0.304,-6.464],[0.29,-6.612],[0.255,-6.675],[0.157,-6.788],[0.065,-6.964],[0.002,-6.957],[0.016,-6.682],[0.037,-6.302],[0.023,-6.253],[0.002,-6.232],[-0.026,-6.232],[-0.047,-6.26],[-0.068,-6.331],[-0.082,-6.464],[-0.068,-6.682],[-0.075,-6.964],[-0.145,-6.964],[-0.145,-6.9],[-0.166,-6.858],[-0.25,-6.774],[-0.285,-6.71],[-0.299,-6.71],[-0.348,-6.619],[-0.362,-6.506],[-0.348,-6.443],[-0.264,-6.309],[-0.138,-6.19],[-0.019,-6.134],[0.037,-6.134],[0.107,-6.162],[0.177,-6.211],[0.213,-6.26],[0.227,-6.26],[0.297,-6.373],[0.304,-6.464]]]},"properties":{"abbr":null,"name":"unnamed sealed face","plate":26,"ap_bregma_mm":-0.95,"index":12}},{"type":"Feature","geometry":{"type":"Polygon","coordinates":[[[-6.245,-6.408],[-6.259,-6.394],[-6.245,-6.387],[-6.245,-6.408]]]},"properties":{"abbr":null,"name":"unnamed sealed face","plate":26,"ap_bregma_mm":-0.95,"index":13}},{"type":"Feature","geometry":{"type":"Polygon","coordinates":[[[-6.231,-6.422],[-6.217,-6.422],[-6.189,-6.464],[-6.168,-6.52],[-6.147,-6.816],[-6.105,-7.224],[-6.063,-7.372],[-5.993,-7.526],[-5.93,-7.618],[-5.782,-7.772],[-5.67,-7.927],[-5.663,-7.955],[-5.649,-7.955],[-5.642,-7.983],[-5.628,-7.983],[-5.474,-8.201],[-5.446,-8.215],[-5.341,-8.349],[-5.305,-8.37],[-5.228,-8.462],[-5.172,-8.497],[-5.158,-8.525],[-4.927,-8.687],[-4.92,-8.708],[-5.228,-8.532],[-5.193,-8.504],[-5.207,-8.504],[-5.453,-8.272],[-5.705,-7.955],[-5.726,-7.913],[-5.754,-7.892],[-5.775,-7.85],[-5.803,-7.829],[-5.824,-7.787],[-5.852,-7.765],[-5.873,-7.723],[-5.901,-7.702],[-5.922,-7.66],[-5.979,-7.604],[-6.0,-7.561],[-6.028,-7.54],[-6.161,-7.196],[-6.189,-6.506],[-6.21,-6.528],[-6.238,-6.612],[-6.273,-6.535],[-6.287,-6.535],[-6.315,-6.598],[-6.336,-6.612],[-6.336,-6.499],[-6.245,-6.45],[-6.231,-6.422]]]},"properties":{"abbr":null,"name":"unnamed sealed face","plate":26,"ap_bregma_mm":-0.95,"index":14}},{"type":"Feature","geometry":{"type":"Polygon","coordinates":[[[5.976,-6.957],[5.955,-7.132],[5.878,-7.301],[5.808,-7.505],[5.422,-8.075],[5.064,-8.405],[4.7,-8.609],[4.7,-8.595],[4.791,-8.546],[4.805,-8.525],[5.114,-8.314],[5.12,-8.293],[5.233,-8.208],[5.247,-8.18],[5.373,-8.068],[5.478,-7.927],[5.506,-7.913],[5.66,-7.688],[5.752,-7.526],[5.759,-7.491],[5.773,-7.484],[5.871,-7.252],[5.934,-7.055],[5.934,-7.013],[5.955,-6.957],[5.976,-6.957]]]},"properties":{"abbr":null,"name":"unnamed sealed face","plate":26,"ap_bregma_mm":-0.95,"index":15}},{"type":"Feature","geometry":{"type":"Polygon","coordinates":[[[0.072,-7.597],[0.093,-7.597],[0.128,-7.625],[0.191,-7.716],[0.234,-7.8],[0.255,-7.906],[0.276,-7.906],[0.339,-8.075],[0.339,-8.215],[0.318,-8.251],[0.248,-8.307],[0.248,-8.321],[0.114,-8.321],[0.079,-8.307],[0.051,-8.272],[-0.005,-8.272],[-0.054,-8.3],[-0.054,-8.314],[-0.096,-8.328],[-0.166,-8.328],[-0.243,-8.293],[-0.32,-8.23],[-0.362,-8.159],[-0.376,-8.004],[-0.348,-7.899],[-0.306,-7.829],[-0.278,-7.829],[-0.271,-7.772],[-0.236,-7.709],[-0.222,-7.709],[-0.208,-7.674],[-0.152,-7.611],[-0.131,-7.611],[-0.124,-7.92],[-0.082,-7.99],[-0.033,-8.026],[-0.005,-8.026],[0.051,-7.983],[0.079,-7.878],[0.072,-7.597]]]},"properties":{"abbr":null,"name":"unnamed sealed face","plate":26,"ap_bregma_mm":-0.95,"index":16}},{"type":"Feature","geometry":{"type":"Polygon","coordinates":[[[4.328,-7.941],[4.342,-7.948],[4.356,-8.307],[4.356,-8.314],[4.321,-8.314],[4.139,-8.377],[4.055,-8.391],[3.915,-8.384],[3.872,-8.398],[3.893,-8.082],[4.146,-8.047],[4.23,-7.998],[4.251,-7.998],[4.293,-7.955],[4.328,-7.941]]]},"properties":{"abbr":null,"name":"unnamed sealed face","plate":26,"ap_bregma_mm":-0.95,"index":17}},{"type":"Feature","geometry":{"type":"Polygon","coordinates":[[[-4.345,-7.976],[-4.135,-8.04],[-4.001,-8.054],[-4.015,-8.138],[-4.064,-8.265],[-4.071,-8.455],[-4.135,-8.427],[-4.31,-8.405],[-4.506,-8.328],[-4.513,-8.314],[-4.457,-8.166],[-4.345,-7.976]]]},"properties":{"abbr":null,"name":"unnamed sealed face","plate":26,"ap_bregma_mm":-0.95,"index":18}},{"type":"Feature","geometry":{"type":"Polygon","coordinates":[[[-1.688,-8.019],[-1.631,-8.061],[-1.61,-8.061],[-1.519,-8.145],[-1.183,-8.384],[-1.071,-8.434],[-1.063,-8.448],[-0.895,-8.483],[-1.0,-8.497],[-1.246,-8.391],[-1.288,-8.37],[-1.624,-8.075],[-1.856,-8.019],[-1.828,-8.004],[-1.688,-8.019]]]},"properties":{"abbr":null,"name":"unnamed sealed face","plate":26,"ap_bregma_mm":-0.95,"index":19}},{"type":"Feature","geometry":{"type":"Polygon","coordinates":[[[2.197,-8.082],[2.197,-8.096],[2.232,-8.11],[2.253,-8.166],[2.267,-8.166],[2.281,-8.194],[2.484,-8.314],[2.582,-8.363],[2.624,-8.37],[2.709,-8.434],[2.73,-8.434],[2.751,-8.455],[2.772,-8.455],[2.779,-8.469],[2.8,-8.469],[2.807,-8.483],[3.031,-8.588],[3.031,-8.602],[2.639,-8.441],[2.421,-8.307],[2.267,-8.23],[2.232,-8.201],[2.12,-8.054],[2.134,-8.047],[2.176,-8.082],[2.197,-8.082]]]},"properties":{"abbr":null,"name":"unnamed sealed face","plate":26,"ap_bregma_mm":-0.95,"index":20}},{"type":"Feature","geometry":{"type":"Polygon","coordinates":[[[1.461,-8.096],[1.222,-8.265],[0.907,-8.405],[0.816,-8.434],[0.29,-8.497],[-0.04,-8.497],[-0.243,-8.441],[-0.257,-8.427],[-0.748,-8.469],[-0.748,-8.455],[-0.734,-8.455],[-0.566,-8.427],[-0.292,-8.405],[-0.187,-8.419],[0.002,-8.476],[0.149,-8.476],[0.269,-8.455],[0.647,-8.434],[0.802,-8.405],[0.935,-8.377],[1.089,-8.286],[1.11,-8.286],[1.201,-8.223],[1.299,-8.18],[1.313,-8.159],[1.397,-8.124],[1.405,-8.11],[1.461,-8.096]]]},"properties":{"abbr":null,"name":"unnamed sealed face","plate":26,"ap_bregma_mm":-0.95,"index":21}},{"type":"Feature","geometry":{"type":"Polygon","coordinates":[[[4.37,-8.49],[4.391,-8.708],[4.419,-8.757],[4.433,-8.757],[4.433,-8.764],[4.314,-8.834],[3.816,-8.855],[3.809,-8.806],[3.83,-8.659],[3.859,-8.518],[3.88,-8.504],[3.971,-8.532],[4.209,-8.546],[4.37,-8.49]]]},"properties":{"abbr":null,"name":"unnamed sealed face","plate":26,"ap_bregma_mm":-0.95,"index":22}},{"type":"Feature","geometry":{"type":"Polygon","coordinates":[[[-4.548,-8.511],[-4.45,-8.553],[-4.247,-8.595],[-4.127,-8.595],[-4.078,-8.553],[-4.057,-8.553],[-3.98,-8.841],[-3.98,-8.891],[-4.457,-8.933],[-4.429,-8.898],[-4.681,-8.849],[-4.913,-8.708],[-4.899,-8.701],[-4.857,-8.736],[-4.737,-8.792],[-4.59,-8.834],[-4.597,-8.743],[-4.576,-8.56],[-4.548,-8.511]]]},"properties":{"abbr":null,"name":"unnamed sealed face","plate":26,"ap_bregma_mm":-0.95,"index":23}},{"type":"Feature","geometry":{"type":"MultiPolygon","coordinates":[[[[1.474,-0.76],[2.193,-0.778],[2.632,-0.848],[3.14,-1.024],[3.351,-1.042],[3.316,-1.077],[3.474,-1.13],[4.193,-1.289],[4.579,-1.447],[5.158,-1.782],[5.947,-2.539],[6.0,-2.539],[6.193,-2.855],[6.298,-2.908],[6.719,-3.683],[6.772,-3.683],[6.983,-4.475],[6.983,-5.056],[6.86,-5.496],[6.509,-6.113],[6.298,-6.306],[6.281,-6.394],[6.018,-6.553],[5.947,-7.116],[5.79,-7.521],[5.404,-8.084],[5.053,-8.401],[4.316,-8.824],[3.632,-8.859],[2.614,-8.419],[2.246,-8.208],[2.088,-8.014],[1.93,-7.943],[1.579,-8.014],[1.526,-8.067],[1.561,-8.084],[1.491,-8.067],[1.21,-8.26],[0.842,-8.419],[0.263,-8.489],[-0.035,-8.489],[-0.281,-8.419],[-1.0,-8.489],[-1.281,-8.366],[-1.632,-8.067],[-1.86,-8.014],[-2.158,-8.155],[-2.175,-8.225],[-2.281,-8.225],[-2.421,-8.348],[-2.526,-8.366],[-2.544,-8.419],[-2.597,-8.401],[-2.842,-8.56],[-3.544,-8.841],[-4.456,-8.929],[-4.421,-8.894],[-4.684,-8.841],[-5.228,-8.525],[-5.193,-8.507],[-5.456,-8.26],[-6.035,-7.521],[-6.158,-7.186],[-6.193,-6.482],[-6.246,-6.606],[-6.281,-6.517],[-6.333,-6.606],[-6.333,-6.5],[-6.228,-6.429],[-6.439,-6.183],[-6.421,-6.113],[-6.509,-6.024],[-6.667,-5.655],[-6.737,-5.637],[-6.737,-5.496],[-6.877,-5.303],[-6.965,-5.039],[-6.982,-4.528],[-6.842,-3.947],[-6.579,-3.507],[-5.912,-2.75],[-5.93,-2.715],[-5.877,-2.715],[-5.439,-2.222],[-4.895,-1.834],[-4.632,-1.729],[-4.632,-1.658],[-4.596,-1.711],[-4.351,-1.57],[-3.807,-1.465],[-3.439,-1.289],[-3.333,-1.306],[-3.211,-1.218],[-2.509,-1.042],[-1.719,-0.901],[-0.702,-0.901],[-0.333,-1.024],[-0.035,-1.253],[0.246,-1.024],[0.298,-1.042],[0.702,-0.848],[1.456,-0.778],[1.474,-0.76]]]]},"properties":{"abbr":"brain_outline","name":"outline of the section","plate":26,"ap_bregma_mm":-0.95}}]}
