{"type":"FeatureCollection","name":"GerbilAtlas plate 23","note":"Region extents cut from the atlas drawing (METHODS.md, Region extents). Coordinates are [ML, DV] in mm, ML positive to the right of the plate as printed, DV negative below the dorsal surface; AP is the plate bregma. traced_fraction is the share of each polygon boundary the atlas actually draws; below 0.5 the boundary is an estimate. no_drawn_outline marks a feature that lies only inside boundaries the atlas draws round more than one name and prints nothing within, so the whole of its outline is where the extraction cut it. Not a segmentation.","plate":23,"ap_bregma_mm":0.1,"features":[{"type":"Feature","geometry":{"type":"MultiPolygon","coordinates":[[[[4.452,-6.912],[4.494,-6.919],[4.739,-7.046],[4.851,-7.088],[4.887,-7.088],[4.887,-7.222],[4.823,-7.426],[4.704,-7.658],[4.606,-7.77],[4.585,-7.812],[4.347,-8.045],[4.122,-8.192],[4.108,-8.213],[4.059,-8.234],[4.031,-8.157],[3.989,-8.115],[3.905,-8.08],[3.821,-8.066],[3.491,-8.052],[3.218,-8.094],[3.12,-8.122],[3.12,-8.094],[3.176,-7.981],[3.232,-7.932],[3.274,-7.932],[3.323,-7.967],[3.372,-7.967],[3.393,-7.946],[3.54,-7.967],[3.603,-7.953],[3.709,-7.897],[3.919,-7.904],[3.996,-7.89],[4.059,-7.869],[4.178,-7.798],[4.326,-7.665],[4.34,-7.594],[4.396,-7.559],[4.459,-7.475],[4.48,-7.39],[4.466,-7.186],[4.438,-7.025],[4.438,-6.926],[4.452,-6.912]]],[[[-4.691,-7.039],[-4.649,-7.285],[-4.579,-7.334],[-4.551,-7.362],[-4.551,-7.383],[-4.579,-7.447],[-4.579,-7.524],[-4.551,-7.594],[-4.474,-7.707],[-4.277,-7.897],[-4.186,-7.932],[-4.067,-7.953],[-3.948,-7.953],[-3.843,-7.932],[-3.667,-7.946],[-3.59,-7.89],[-3.464,-7.89],[-3.338,-7.918],[-3.275,-7.974],[-3.219,-7.988],[-3.198,-8.009],[-3.205,-8.059],[-3.261,-8.129],[-3.261,-8.185],[-3.212,-8.227],[-3.205,-8.277],[-3.247,-8.27],[-3.38,-8.199],[-3.555,-8.136],[-3.829,-8.094],[-3.92,-8.101],[-4.025,-8.136],[-4.081,-8.192],[-4.102,-8.241],[-4.109,-8.241],[-4.116,-8.241],[-4.144,-8.227],[-4.179,-8.213],[-4.628,-7.995],[-4.74,-7.918],[-4.747,-7.897],[-4.852,-7.834],[-4.887,-7.784],[-4.951,-7.735],[-5.063,-7.552],[-5.091,-7.461],[-5.112,-7.271],[-5.14,-7.165],[-4.691,-7.039]]],[[[-4.116,-8.241],[-4.109,-8.241],[-4.109,-8.249],[-4.116,-8.241]]]]},"properties":{"abbr":"1","name":"layer 1 of cortex","plate":23,"ap_bregma_mm":0.1,"area_mm2":1.2797,"traced_fraction":[1.0,1.0,1.0],"n_labels":2,"no_drawn_outline":false}},{"type":"Feature","geometry":{"type":"MultiPolygon","coordinates":[[[[4.333,-6.863],[4.396,-6.87],[4.452,-6.912],[4.438,-6.926],[4.438,-7.025],[4.466,-7.186],[4.157,-7.194],[4.129,-7.179],[4.087,-7.102],[4.087,-7.018],[4.108,-6.954],[4.171,-6.898],[4.298,-6.898],[4.333,-6.863]]],[[[-4.628,-7.018],[-4.628,-7.032],[-4.509,-7.137],[-4.298,-7.158],[-4.249,-7.179],[-4.214,-7.215],[-4.214,-7.271],[-4.277,-7.348],[-4.284,-7.376],[-4.551,-7.383],[-4.551,-7.362],[-4.649,-7.285],[-4.691,-7.039],[-4.628,-7.018]]]]},"properties":{"abbr":"2","name":"layer 2 of cortex","plate":23,"ap_bregma_mm":0.1,"area_mm2":0.2059,"traced_fraction":[0.801,0.847],"n_labels":2,"no_drawn_outline":false}},{"type":"Feature","geometry":{"type":"MultiPolygon","coordinates":[[[[3.723,-6.525],[3.954,-6.673],[4.227,-6.814],[4.269,-6.821],[4.333,-6.863],[4.298,-6.898],[4.171,-6.898],[4.108,-6.954],[4.087,-7.018],[4.087,-7.102],[4.129,-7.179],[4.157,-7.194],[4.157,-7.25],[4.129,-7.32],[4.115,-7.412],[4.024,-7.489],[3.919,-7.517],[3.779,-7.524],[3.681,-7.601],[3.561,-7.594],[3.442,-7.524],[3.358,-7.524],[3.19,-7.566],[3.12,-7.63],[3.099,-7.672],[3.078,-7.77],[3.078,-7.89],[3.05,-7.932],[3.0,-7.932],[2.923,-7.89],[2.853,-7.883],[2.846,-7.876],[2.839,-7.869],[2.818,-7.848],[2.72,-7.848],[2.615,-7.897],[2.559,-7.96],[2.545,-8.038],[2.446,-8.052],[2.362,-8.122],[2.327,-8.256],[2.306,-8.256],[2.271,-8.22],[2.25,-8.171],[2.194,-8.115],[2.11,-8.108],[2.054,-8.129],[1.984,-8.115],[1.935,-8.094],[1.9,-8.059],[1.886,-8.016],[1.836,-7.981],[1.879,-7.925],[1.935,-7.89],[2.033,-7.791],[2.124,-7.658],[2.138,-7.616],[2.138,-7.517],[2.124,-7.482],[2.075,-7.433],[2.082,-7.165],[2.166,-7.172],[2.187,-7.158],[2.201,-7.123],[2.243,-7.137],[2.32,-7.215],[2.454,-7.285],[2.468,-7.313],[2.538,-7.341],[2.685,-7.341],[2.811,-7.285],[2.874,-7.215],[2.888,-7.215],[3.042,-7.208],[3.239,-7.172],[3.435,-7.095],[3.498,-7.046],[3.624,-7.004],[3.673,-6.954],[3.688,-6.898],[3.673,-6.575],[3.723,-6.525]]],[[[-3.885,-6.757],[-3.899,-6.835],[-3.892,-6.975],[-3.85,-7.123],[-3.808,-7.194],[-3.745,-7.25],[-3.688,-7.271],[-3.625,-7.278],[-3.478,-7.264],[-3.212,-7.313],[-3.078,-7.355],[-2.973,-7.412],[-2.945,-7.412],[-2.945,-7.426],[-2.931,-7.426],[-2.84,-7.531],[-2.819,-7.531],[-2.812,-7.538],[-2.819,-7.58],[-2.875,-7.651],[-2.896,-7.7],[-2.945,-7.897],[-2.973,-7.89],[-3.043,-7.812],[-3.065,-7.735],[-3.114,-7.658],[-3.219,-7.573],[-3.261,-7.559],[-3.429,-7.559],[-3.745,-7.665],[-3.892,-7.665],[-3.983,-7.63],[-4.137,-7.524],[-4.242,-7.44],[-4.284,-7.376],[-4.277,-7.348],[-4.214,-7.271],[-4.214,-7.215],[-4.249,-7.179],[-4.298,-7.158],[-4.509,-7.137],[-4.572,-7.074],[-4.586,-7.074],[-4.628,-7.018],[-4.256,-6.898],[-3.885,-6.757]]],[[[-2.167,-8.038],[-2.076,-8.115],[-1.922,-8.185],[-1.901,-8.206],[-2.006,-8.305],[-2.048,-8.326],[-2.125,-8.326],[-2.153,-8.305],[-2.202,-8.298],[-2.237,-8.263],[-2.237,-8.094],[-2.167,-8.038]]]]},"properties":{"abbr":"3","name":"layer 3 of cortex","plate":23,"ap_bregma_mm":0.1,"area_mm2":2.2308,"traced_fraction":[0.967,1.0,0.733],"n_labels":4,"no_drawn_outline":false}},{"type":"Feature","geometry":{"type":"MultiPolygon","coordinates":[[[[0.07,-7.862],[-0.022,-7.862],[-0.064,-7.77],[-0.056,-7.545],[-0.022,-7.461],[0.014,-7.475],[0.056,-7.594],[0.084,-7.77],[0.07,-7.862]]]]},"properties":{"abbr":"3V","name":"3rd ventricle","plate":23,"ap_bregma_mm":0.1,"area_mm2":0.044,"traced_fraction":[1.0],"n_labels":1,"no_drawn_outline":false}},{"type":"Feature","geometry":{"type":"MultiPolygon","coordinates":[[[[4.024,-5.892],[4.283,-6.026],[4.29,-6.04],[5.188,-6.49],[5.139,-6.561],[4.915,-6.722],[4.872,-6.779],[4.837,-6.905],[4.887,-7.088],[4.851,-7.088],[4.739,-7.046],[4.494,-6.919],[4.452,-6.912],[4.396,-6.87],[4.333,-6.863],[4.311,-6.842],[4.227,-6.814],[3.954,-6.673],[3.723,-6.525],[3.737,-6.476],[3.786,-6.413],[3.807,-6.307],[3.8,-6.153],[3.772,-6.061],[3.779,-6.033],[3.821,-6.005],[3.849,-6.04],[3.884,-6.04],[4.024,-5.892]]],[[[-4.137,-5.984],[-4.116,-6.012],[-4.074,-6.146],[-4.053,-6.16],[-4.039,-6.202],[-3.969,-6.286],[-3.913,-6.307],[-3.92,-6.357],[-3.906,-6.462],[-3.843,-6.61],[-3.822,-6.624],[-3.787,-6.694],[-3.885,-6.757],[-4.256,-6.898],[-4.628,-7.018],[-4.691,-7.039],[-5.14,-7.165],[-5.21,-6.94],[-5.273,-6.814],[-5.385,-6.659],[-4.873,-6.385],[-4.845,-6.357],[-4.663,-6.272],[-4.572,-6.209],[-4.221,-6.033],[-4.158,-5.984],[-4.137,-5.984]]]]},"properties":{"abbr":"AI","name":"agranular insular cortex","plate":23,"ap_bregma_mm":0.1,"area_mm2":1.8863,"traced_fraction":[0.996,0.997],"n_labels":2,"no_drawn_outline":false}},{"type":"Feature","geometry":{"type":"MultiPolygon","coordinates":[[[[-0.141,-6.708],[-0.148,-6.969],[-0.197,-7.208],[-0.197,-7.271],[-0.183,-7.313],[-0.134,-7.362],[-0.071,-7.39],[-0.099,-7.482],[-0.113,-7.63],[-0.099,-7.834],[-0.078,-7.869],[-0.302,-7.918],[-0.526,-8.009],[-0.533,-7.869],[-0.709,-7.862],[-0.786,-7.777],[-0.786,-7.756],[-0.765,-7.742],[-0.758,-7.714],[-0.723,-7.679],[-0.681,-7.594],[-0.477,-7.292],[-0.351,-7.025],[-0.302,-6.884],[-0.295,-6.807],[-0.225,-6.786],[-0.19,-6.757],[-0.169,-6.708],[-0.141,-6.708]]]]},"properties":{"abbr":"AVPe","name":"anteroventral periventricular nucleus","plate":23,"ap_bregma_mm":0.1,"area_mm2":0.446,"traced_fraction":[0.893],"n_labels":1,"no_drawn_outline":false}},{"type":"Feature","geometry":{"type":"MultiPolygon","coordinates":[[[[1.956,-3.03],[2.208,-3.044],[2.475,-3.086],[2.797,-3.163],[3.021,-3.248],[3.414,-3.466],[3.435,-3.494],[3.681,-3.677],[3.884,-3.874],[3.919,-3.93],[3.989,-4.099],[4.052,-4.556],[4.052,-4.704],[3.989,-5.21],[3.933,-5.506],[3.87,-5.716],[3.772,-5.899],[3.589,-6.16],[3.568,-6.23],[3.498,-6.343],[3.442,-6.399],[3.358,-6.525],[3.253,-6.638],[3.218,-6.701],[3.176,-6.708],[3.106,-6.793],[3.071,-6.793],[3.014,-6.821],[2.923,-6.821],[2.888,-6.779],[2.846,-6.757],[2.846,-6.743],[2.874,-6.694],[2.699,-6.582],[2.496,-6.476],[2.306,-6.413],[2.299,-6.399],[2.243,-6.399],[2.005,-6.35],[1.935,-6.35],[1.914,-6.364],[1.802,-6.335],[1.633,-6.258],[1.416,-6.195],[1.332,-6.146],[1.332,-6.131],[1.381,-6.11],[1.451,-6.033],[1.479,-6.033],[1.507,-5.991],[1.514,-5.914],[1.535,-5.857],[1.542,-5.738],[1.521,-5.548],[1.493,-5.499],[1.451,-5.456],[1.43,-5.456],[1.353,-5.386],[1.262,-5.33],[1.276,-5.238],[1.269,-5.062],[1.247,-4.985],[1.247,-4.873],[1.205,-4.584],[1.121,-4.218],[1.086,-4.176],[1.072,-4.162],[1.058,-4.036],[0.96,-3.691],[0.96,-3.649],[0.981,-3.6],[1.079,-3.494],[1.079,-3.48],[1.093,-3.48],[1.093,-3.466],[1.107,-3.466],[1.107,-3.452],[1.17,-3.396],[1.205,-3.318],[1.325,-3.206],[1.381,-3.17],[1.535,-3.121],[1.612,-3.079],[1.668,-3.058],[1.851,-3.03],[1.956,-3.03]]],[[[-0.898,-3.621],[-0.919,-3.649],[-0.954,-3.782],[-1.038,-4.0],[-1.073,-4.162],[-1.101,-4.31],[-1.101,-4.38],[-1.115,-4.38],[-1.143,-4.415],[-1.178,-4.521],[-1.199,-4.704],[-1.192,-4.746],[-1.171,-4.774],[-1.199,-4.788],[-1.22,-4.901],[-1.347,-4.901],[-1.347,-5.048],[-1.262,-5.048],[-1.277,-5.14],[-1.277,-5.28],[-1.262,-5.33],[-1.298,-5.337],[-1.375,-5.414],[-1.417,-5.491],[-1.424,-5.548],[-1.452,-5.548],[-1.473,-5.569],[-1.529,-5.759],[-1.529,-6.026],[-1.515,-6.047],[-1.487,-6.047],[-1.452,-6.181],[-1.487,-6.202],[-1.676,-6.244],[-1.88,-6.314],[-2.055,-6.413],[-2.202,-6.525],[-2.307,-6.561],[-2.405,-6.568],[-2.539,-6.61],[-2.7,-6.68],[-2.714,-6.701],[-2.735,-6.701],[-2.763,-6.729],[-2.819,-6.75],[-3.001,-6.884],[-3.022,-6.99],[-3.135,-6.975],[-3.233,-6.926],[-3.317,-6.905],[-3.471,-6.708],[-3.527,-6.61],[-3.583,-6.554],[-3.646,-6.434],[-3.716,-6.371],[-3.801,-6.321],[-3.871,-6.251],[-3.892,-6.167],[-4.018,-5.906],[-4.088,-5.703],[-4.151,-5.386],[-4.158,-4.901],[-4.13,-4.732],[-4.053,-4.465],[-3.927,-4.197],[-3.794,-3.965],[-3.674,-3.811],[-3.576,-3.712],[-3.415,-3.6],[-2.994,-3.403],[-2.525,-3.241],[-2.209,-3.17],[-1.844,-3.149],[-1.599,-3.178],[-1.333,-3.255],[-1.094,-3.41],[-0.898,-3.621]]]]},"properties":{"abbr":"CPu","name":"caudate putamen (striatum)","plate":23,"ap_bregma_mm":0.1,"area_mm2":17.2977,"traced_fraction":[1.0,0.971],"n_labels":2,"no_drawn_outline":false}},{"type":"Feature","geometry":{"type":"MultiPolygon","coordinates":[[[[-0.113,-1.532],[-0.035,-1.637],[-0.022,-1.637],[-0.022,-1.665],[0.014,-1.715],[0.049,-1.708],[0.07,-1.651],[0.154,-1.553],[0.525,-1.841],[0.764,-2.094],[0.911,-2.284],[1.086,-2.552],[1.269,-2.903],[1.128,-2.988],[1.065,-2.938],[0.862,-2.84],[0.518,-2.72],[0.112,-2.664],[-0.071,-2.664],[-0.309,-2.713],[-0.505,-2.784],[-0.744,-2.924],[-0.765,-2.953],[-0.94,-3.079],[-0.954,-3.079],[-0.996,-3.023],[-1.08,-2.953],[-0.968,-2.636],[-0.891,-2.488],[-0.87,-2.418],[-0.673,-2.073],[-0.54,-1.898],[-0.351,-1.708],[-0.169,-1.574],[-0.134,-1.532],[-0.113,-1.532]]]]},"properties":{"abbr":"Cg1","name":"cingulate cortex, area 1","plate":23,"ap_bregma_mm":0.1,"area_mm2":1.8247,"traced_fraction":[1.0],"n_labels":2,"no_drawn_outline":false}},{"type":"Feature","geometry":{"type":"MultiPolygon","coordinates":[[[[1.128,-2.988],[1.03,-3.079],[0.946,-3.199],[0.792,-3.36],[0.792,-3.374],[0.631,-3.508],[0.588,-3.515],[0.455,-3.578],[0.252,-3.621],[0.252,-3.529],[0.091,-3.529],[0.077,-3.445],[0.035,-3.36],[0.014,-3.36],[-0.029,-3.487],[-0.014,-3.614],[-0.071,-3.614],[-0.099,-3.635],[-0.197,-3.635],[-0.288,-3.614],[-0.589,-3.515],[-0.589,-3.487],[-0.688,-3.417],[-0.73,-3.353],[-0.863,-3.227],[-0.919,-3.142],[-0.94,-3.079],[-0.765,-2.953],[-0.744,-2.924],[-0.505,-2.784],[-0.309,-2.713],[-0.071,-2.664],[0.112,-2.664],[0.518,-2.72],[0.862,-2.84],[1.065,-2.938],[1.128,-2.988]]]]},"properties":{"abbr":"Cg2","name":"cingulate cortex, area 2","plate":23,"ap_bregma_mm":0.1,"area_mm2":1.3691,"traced_fraction":[0.961],"n_labels":2,"no_drawn_outline":false}},{"type":"Feature","geometry":{"type":"MultiPolygon","coordinates":[[[[-4.151,-5.386],[-4.088,-5.703],[-4.018,-5.906],[-3.892,-6.167],[-3.871,-6.251],[-3.892,-6.251],[-3.927,-6.223],[-3.941,-6.188],[-3.955,-6.188],[-4.046,-5.998],[-4.06,-5.991],[-4.067,-5.956],[-4.102,-5.914],[-4.186,-5.681],[-4.193,-5.534],[-4.221,-5.414],[-4.214,-5.393],[-4.151,-5.386]]],[[[4.038,-5.667],[4.052,-5.688],[4.052,-5.787],[4.045,-5.829],[4.024,-5.85],[4.024,-5.892],[3.884,-6.04],[3.849,-6.04],[3.821,-6.005],[3.919,-5.843],[3.94,-5.78],[3.968,-5.759],[4.01,-5.681],[4.038,-5.667]]]]},"properties":{"abbr":"DCl","name":"dorsal part of claustrum","plate":23,"ap_bregma_mm":0.1,"area_mm2":0.1025,"traced_fraction":[0.993,0.969],"n_labels":2,"no_drawn_outline":false}},{"type":"Feature","geometry":{"type":"MultiPolygon","coordinates":[[[[3.498,-6.343],[3.498,-6.462],[3.526,-6.568],[3.554,-6.589],[3.631,-6.589],[3.673,-6.575],[3.688,-6.8],[3.688,-6.898],[3.673,-6.954],[3.624,-7.004],[3.498,-7.046],[3.302,-6.99],[3.239,-6.954],[3.197,-6.912],[3.183,-6.821],[3.218,-6.701],[3.253,-6.638],[3.323,-6.568],[3.428,-6.434],[3.442,-6.399],[3.498,-6.343]]],[[[-3.583,-6.554],[-3.527,-6.61],[-3.471,-6.708],[-3.317,-6.905],[-3.296,-6.997],[-3.303,-7.109],[-3.359,-7.179],[-3.443,-7.222],[-3.478,-7.25],[-3.478,-7.264],[-3.625,-7.278],[-3.688,-7.271],[-3.745,-7.25],[-3.808,-7.194],[-3.85,-7.123],[-3.892,-6.975],[-3.899,-6.835],[-3.885,-6.757],[-3.787,-6.694],[-3.724,-6.75],[-3.639,-6.757],[-3.625,-6.743],[-3.597,-6.631],[-3.597,-6.568],[-3.583,-6.554]]]]},"properties":{"abbr":"DEn","name":"dorsal endopiriform nucleus","plate":23,"ap_bregma_mm":0.1,"area_mm2":0.5084,"traced_fraction":[1.0,1.0],"n_labels":2,"no_drawn_outline":false}},{"type":"Feature","geometry":{"type":"MultiPolygon","coordinates":[[[[4.094,-5.47],[4.206,-5.506],[4.389,-5.597],[4.62,-5.681],[4.936,-5.829],[5.167,-5.914],[5.3,-5.984],[5.398,-6.012],[5.476,-6.061],[5.188,-6.49],[4.29,-6.04],[4.283,-6.026],[4.024,-5.892],[4.024,-5.85],[4.045,-5.829],[4.052,-5.787],[4.052,-5.688],[4.038,-5.667],[4.045,-5.555],[4.066,-5.491],[4.094,-5.47]]],[[[-4.186,-5.681],[-4.102,-5.914],[-4.123,-5.92],[-4.123,-5.97],[-4.137,-5.984],[-4.158,-5.984],[-4.221,-6.033],[-4.572,-6.209],[-4.663,-6.272],[-4.845,-6.357],[-4.873,-6.385],[-5.385,-6.659],[-5.61,-6.413],[-5.666,-6.35],[-5.666,-6.328],[-5.589,-6.279],[-5.427,-6.223],[-5.28,-6.146],[-4.986,-6.033],[-4.817,-5.949],[-4.446,-5.801],[-4.27,-5.71],[-4.186,-5.681]]]]},"properties":{"abbr":"DI","name":"dysgranular insular cortex","plate":23,"ap_bregma_mm":0.1,"area_mm2":1.2235,"traced_fraction":[0.996,1.0],"n_labels":2,"no_drawn_outline":false}},{"type":"Feature","geometry":{"type":"MultiPolygon","coordinates":[[[[1.107,-6.525],[1.353,-6.532],[1.528,-6.568],[1.528,-6.617],[1.507,-6.666],[1.444,-6.722],[1.311,-6.757],[1.22,-6.765],[1.135,-6.736],[1.093,-6.694],[1.079,-6.624],[1.086,-6.546],[1.107,-6.525]]],[[[-1.641,-6.68],[-1.564,-6.722],[-1.438,-6.722],[-1.326,-6.687],[-1.241,-6.68],[-1.255,-6.793],[-1.234,-6.87],[-1.199,-6.905],[-1.255,-6.947],[-1.368,-6.99],[-1.487,-6.983],[-1.578,-6.926],[-1.613,-6.891],[-1.655,-6.793],[-1.655,-6.694],[-1.641,-6.68]]]]},"properties":{"abbr":"Fu","name":"bed nucleus of stria terminalis, fusiform part","plate":23,"ap_bregma_mm":0.1,"area_mm2":0.1888,"traced_fraction":[0.947,1.0],"n_labels":2,"no_drawn_outline":false}},{"type":"Feature","geometry":{"type":"MultiPolygon","coordinates":[[[[4.143,-5.189],[5.482,-5.611],[5.679,-5.66],[5.812,-5.716],[5.791,-5.759],[5.476,-6.061],[5.398,-6.012],[5.3,-5.984],[5.167,-5.914],[4.936,-5.829],[4.62,-5.681],[4.389,-5.597],[4.206,-5.506],[4.094,-5.47],[4.087,-5.4],[4.115,-5.316],[4.122,-5.231],[4.143,-5.189]]],[[[-4.221,-5.414],[-4.193,-5.534],[-4.186,-5.681],[-4.27,-5.71],[-4.446,-5.801],[-4.817,-5.949],[-4.986,-6.033],[-5.28,-6.146],[-5.427,-6.223],[-5.589,-6.279],[-5.666,-6.328],[-5.68,-6.328],[-5.778,-6.23],[-5.897,-6.047],[-5.336,-5.843],[-5.252,-5.801],[-5.168,-5.78],[-5.119,-5.752],[-4.915,-5.688],[-4.432,-5.484],[-4.221,-5.414]]]]},"properties":{"abbr":"GI","name":"granular insular cortex","plate":23,"ap_bregma_mm":0.1,"area_mm2":1.0988,"traced_fraction":[1.0,1.0],"n_labels":2,"no_drawn_outline":false}},{"type":"Feature","geometry":{"type":"MultiPolygon","coordinates":[[[[1.276,-7.524],[1.472,-7.566],[1.493,-7.573],[1.5,-7.587],[1.619,-7.637],[1.563,-7.756],[1.57,-7.883],[1.619,-7.946],[1.57,-7.988],[1.514,-8.009],[1.367,-8.024],[1.226,-7.967],[1.107,-7.855],[1.058,-7.763],[1.051,-7.7],[1.072,-7.63],[1.149,-7.552],[1.276,-7.524]]],[[[-1.319,-7.672],[-1.228,-7.679],[-1.129,-7.714],[-1.045,-7.805],[-1.031,-7.883],[-1.038,-7.932],[-1.101,-8.03],[-1.143,-8.073],[-1.255,-8.143],[-1.41,-8.206],[-1.501,-8.227],[-1.564,-8.227],[-1.62,-8.206],[-1.557,-8.122],[-1.55,-8.038],[-1.578,-7.96],[-1.662,-7.848],[-1.585,-7.756],[-1.473,-7.693],[-1.319,-7.672]]]]},"properties":{"abbr":"HDB","name":"nucleus of the horizontal limb of the diagonal band","plate":23,"ap_bregma_mm":0.1,"area_mm2":0.4547,"traced_fraction":[1.0,1.0],"n_labels":2,"no_drawn_outline":false}},{"type":"Feature","geometry":{"type":"MultiPolygon","coordinates":[[[[2.124,-7.032],[2.201,-7.123],[2.187,-7.158],[2.166,-7.172],[2.082,-7.165],[2.047,-7.151],[2.005,-7.109],[1.998,-7.039],[2.026,-7.018],[2.124,-7.032]]]]},"properties":{"abbr":"I","name":"intercalated nuclei of the amygdala","plate":23,"ap_bregma_mm":0.1,"area_mm2":0.022,"traced_fraction":[1.0],"n_labels":1,"no_drawn_outline":false}},{"type":"Feature","geometry":{"type":"MultiPolygon","coordinates":[[[[3.218,-6.701],[3.183,-6.821],[3.197,-6.912],[3.239,-6.954],[3.302,-6.99],[3.498,-7.046],[3.435,-7.095],[3.239,-7.172],[3.042,-7.208],[2.888,-7.215],[2.93,-7.116],[3.021,-6.99],[3.021,-6.969],[3.099,-6.835],[3.106,-6.793],[3.176,-6.708],[3.218,-6.701]]],[[[-3.317,-6.905],[-3.233,-6.926],[-3.135,-6.975],[-3.022,-6.99],[-2.959,-6.997],[-2.917,-6.983],[-2.91,-7.011],[-2.875,-7.046],[-2.861,-7.088],[-2.77,-7.172],[-2.665,-7.222],[-2.609,-7.264],[-2.637,-7.299],[-2.679,-7.299],[-2.728,-7.264],[-2.77,-7.271],[-2.791,-7.292],[-2.791,-7.376],[-2.735,-7.489],[-2.707,-7.51],[-2.707,-7.531],[-2.812,-7.538],[-2.819,-7.531],[-2.819,-7.433],[-2.847,-7.264],[-2.896,-7.151],[-2.91,-7.151],[-2.945,-7.102],[-3.008,-7.067],[-3.057,-7.067],[-3.065,-7.081],[-3.057,-7.201],[-2.994,-7.32],[-2.952,-7.369],[-2.945,-7.412],[-2.973,-7.412],[-3.078,-7.355],[-3.212,-7.313],[-3.478,-7.264],[-3.478,-7.25],[-3.443,-7.222],[-3.359,-7.179],[-3.303,-7.109],[-3.296,-6.997],[-3.317,-6.905]]]]},"properties":{"abbr":"IEn","name":"intermediate endopiriform nucleus","plate":23,"ap_bregma_mm":0.1,"area_mm2":0.3016,"traced_fraction":[0.976,1.0],"n_labels":2,"no_drawn_outline":false}},{"type":"Feature","geometry":{"type":"MultiPolygon","coordinates":[[[[2.846,-6.743],[2.818,-6.743],[2.811,-6.729],[2.678,-6.666],[2.531,-6.624],[2.412,-6.561],[2.383,-6.561],[2.264,-6.504],[2.194,-6.49],[1.949,-6.399],[1.914,-6.364],[1.935,-6.35],[2.005,-6.35],[2.201,-6.392],[2.299,-6.399],[2.306,-6.413],[2.496,-6.476],[2.699,-6.582],[2.874,-6.694],[2.846,-6.743]]],[[[1.563,-6.434],[1.759,-6.462],[2.138,-6.596],[2.32,-6.645],[2.72,-6.842],[2.867,-6.884],[2.734,-7.144],[2.678,-7.215],[2.594,-7.257],[2.461,-7.271],[2.454,-7.285],[2.32,-7.215],[2.243,-7.137],[2.201,-7.123],[2.124,-7.032],[2.11,-6.99],[2.026,-6.877],[1.781,-6.61],[1.689,-6.561],[1.633,-6.554],[1.633,-6.539],[1.57,-6.483],[1.563,-6.434]]],[[[-2.307,-6.561],[-2.349,-6.617],[-2.405,-6.638],[-2.51,-6.701],[-2.525,-6.722],[-2.623,-6.765],[-2.651,-6.793],[-2.707,-6.814],[-2.777,-6.87],[-2.84,-6.898],[-2.917,-6.983],[-2.959,-6.997],[-3.022,-6.99],[-3.001,-6.884],[-2.819,-6.75],[-2.763,-6.729],[-2.735,-6.701],[-2.714,-6.701],[-2.7,-6.68],[-2.539,-6.61],[-2.405,-6.568],[-2.307,-6.561]]],[[[-2.055,-6.708],[-2.055,-6.75],[-2.09,-6.821],[-2.132,-6.961],[-2.139,-7.095],[-2.167,-7.179],[-2.188,-7.179],[-2.251,-7.236],[-2.279,-7.292],[-2.279,-7.32],[-2.293,-7.32],[-2.321,-7.362],[-2.412,-7.376],[-2.468,-7.355],[-2.468,-7.341],[-2.539,-7.285],[-2.609,-7.264],[-2.665,-7.222],[-2.77,-7.172],[-2.861,-7.088],[-2.875,-7.046],[-2.721,-7.004],[-2.419,-6.842],[-2.055,-6.708]]]]},"properties":{"abbr":"IPAC","name":"interstitial nucleus of the posterior limb of the anterior commissure","plate":23,"ap_bregma_mm":0.1,"area_mm2":0.885,"traced_fraction":[1.0,1.0,0.983,1.0],"n_labels":4,"no_drawn_outline":false}},{"type":"Feature","geometry":{"type":"MultiPolygon","coordinates":[[[[0.441,-6.371],[0.455,-6.371],[0.56,-6.469],[0.624,-6.497],[0.708,-6.504],[0.708,-6.511],[0.708,-6.546],[0.673,-6.575],[0.666,-6.617],[0.68,-6.694],[0.743,-6.779],[0.799,-6.807],[0.834,-6.807],[0.834,-6.863],[0.855,-6.912],[1.058,-7.215],[1.079,-7.229],[1.086,-7.257],[1.114,-7.271],[1.114,-7.292],[1.255,-7.468],[1.276,-7.524],[1.149,-7.552],[1.072,-7.63],[1.051,-7.7],[1.058,-7.763],[1.107,-7.855],[1.226,-7.967],[1.367,-8.024],[1.514,-8.009],[1.57,-7.988],[1.619,-7.946],[1.731,-8.009],[1.71,-8.03],[1.633,-8.038],[1.416,-8.101],[1.353,-8.143],[1.346,-8.185],[1.107,-8.08],[1.107,-8.073],[1.107,-8.059],[1.086,-8.009],[1.037,-7.967],[0.876,-7.96],[0.848,-7.925],[0.722,-7.841],[0.582,-7.679],[0.476,-7.517],[0.357,-7.257],[0.252,-6.933],[0.238,-6.807],[0.322,-6.8],[0.399,-6.715],[0.427,-6.582],[0.441,-6.371]]],[[[-0.547,-6.392],[-0.519,-6.603],[-0.491,-6.694],[-0.386,-6.793],[-0.295,-6.807],[-0.302,-6.884],[-0.351,-7.025],[-0.477,-7.292],[-0.61,-7.503],[-0.631,-7.517],[-0.723,-7.679],[-0.786,-7.756],[-0.786,-7.777],[-0.814,-7.791],[-0.863,-7.869],[-1.031,-7.883],[-1.045,-7.805],[-1.129,-7.714],[-1.228,-7.679],[-1.319,-7.672],[-1.319,-7.468],[-1.234,-7.362],[-1.073,-7.095],[-0.996,-6.997],[-0.968,-6.919],[-0.898,-6.884],[-0.835,-6.821],[-0.814,-6.765],[-0.814,-6.645],[-0.856,-6.554],[-0.807,-6.497],[-0.779,-6.49],[-0.772,-6.525],[-0.723,-6.518],[-0.652,-6.483],[-0.589,-6.413],[-0.547,-6.392]]]]},"properties":{"abbr":"LPO","name":"lateral preoptic area","plate":23,"ap_bregma_mm":0.1,"area_mm2":1.626,"traced_fraction":[0.995,0.933],"n_labels":2,"no_drawn_outline":false}},{"type":"Feature","geometry":{"type":"MultiPolygon","coordinates":[[[[-0.898,-3.621],[-0.681,-3.649],[-0.421,-3.733],[-0.288,-3.761],[-0.183,-3.796],[-0.211,-3.937],[-0.393,-3.951],[-0.617,-3.993],[-0.828,-4.064],[-1.01,-4.162],[-1.073,-4.162],[-1.038,-4.0],[-0.954,-3.782],[-0.919,-3.649],[-0.898,-3.621]]],[[[0.848,-3.628],[0.932,-3.691],[0.96,-3.691],[1.058,-4.036],[1.072,-4.162],[0.981,-4.148],[0.455,-3.986],[0.322,-3.965],[0.273,-3.944],[0.182,-3.937],[0.168,-3.804],[0.189,-3.789],[0.315,-3.775],[0.483,-3.733],[0.701,-3.642],[0.792,-3.621],[0.848,-3.628]]]]},"properties":{"abbr":"LSD","name":"lateral septal nucleus, dorsal part","plate":23,"ap_bregma_mm":0.1,"area_mm2":0.5391,"traced_fraction":[1.0,0.997],"n_labels":2,"no_drawn_outline":false}},{"type":"Feature","geometry":{"type":"MultiPolygon","coordinates":[[[[-0.211,-3.937],[-0.197,-4.036],[-0.141,-4.162],[-0.295,-4.261],[-0.379,-4.345],[-0.463,-4.465],[-0.54,-4.655],[-0.554,-4.753],[-0.547,-4.851],[-0.526,-5.02],[-0.463,-5.21],[-0.456,-5.288],[-0.47,-5.288],[-0.617,-5.133],[-0.631,-5.133],[-0.842,-4.936],[-0.968,-4.837],[-1.038,-4.774],[-1.143,-4.718],[-1.094,-4.577],[-1.087,-4.472],[-1.101,-4.38],[-1.101,-4.31],[-1.073,-4.162],[-1.01,-4.162],[-0.877,-4.085],[-0.617,-3.993],[-0.393,-3.951],[-0.211,-3.937]]],[[[0.182,-3.937],[0.273,-3.944],[0.322,-3.965],[0.455,-3.986],[0.981,-4.148],[1.072,-4.162],[1.086,-4.176],[1.072,-4.176],[1.072,-4.247],[1.135,-4.605],[1.128,-4.704],[1.079,-4.711],[0.981,-4.76],[0.624,-4.971],[0.539,-5.034],[0.49,-5.084],[0.469,-5.126],[0.413,-5.168],[0.406,-5.112],[0.434,-5.02],[0.455,-4.887],[0.448,-4.865],[0.455,-4.711],[0.434,-4.584],[0.392,-4.451],[0.322,-4.324],[0.252,-4.254],[0.112,-4.176],[0.168,-4.043],[0.182,-3.937]]]]},"properties":{"abbr":"LSI","name":"lateral septal nucleus, intermediate part","plate":23,"ap_bregma_mm":0.1,"area_mm2":1.3004,"traced_fraction":[1.0,0.998],"n_labels":2,"no_drawn_outline":false}},{"type":"Feature","geometry":{"type":"MultiPolygon","coordinates":[[[[3.106,-6.793],[3.099,-6.835],[3.029,-6.954],[3.021,-6.99],[2.93,-7.116],[2.888,-7.215],[2.874,-7.215],[2.811,-7.285],[2.685,-7.341],[2.538,-7.341],[2.468,-7.313],[2.454,-7.285],[2.461,-7.271],[2.594,-7.257],[2.678,-7.215],[2.734,-7.144],[2.867,-6.884],[2.923,-6.821],[3.014,-6.821],[3.071,-6.793],[3.106,-6.793]]]]},"properties":{"abbr":"LSS","name":"lateral stripe of the striatum","plate":23,"ap_bregma_mm":0.1,"area_mm2":0.1124,"traced_fraction":[1.0],"n_labels":1,"no_drawn_outline":false}},{"type":"Feature","geometry":{"type":"MultiPolygon","coordinates":[[[[1.128,-4.704],[1.149,-4.739],[1.163,-4.929],[1.037,-4.929],[1.037,-5.084],[1.135,-5.084],[1.121,-5.238],[1.086,-5.238],[1.03,-5.28],[0.799,-5.4],[0.757,-5.442],[0.504,-5.618],[0.252,-5.878],[0.224,-5.885],[0.224,-5.822],[0.294,-5.569],[0.294,-5.534],[0.329,-5.456],[0.343,-5.351],[0.413,-5.168],[0.469,-5.126],[0.49,-5.084],[0.539,-5.034],[0.624,-4.971],[0.981,-4.76],[1.079,-4.711],[1.128,-4.704]]],[[[-0.968,-4.837],[-0.898,-4.887],[-0.631,-5.133],[-0.617,-5.133],[-0.47,-5.288],[-0.456,-5.288],[-0.456,-5.309],[-0.421,-5.344],[-0.372,-5.47],[-0.33,-5.527],[-0.33,-5.548],[-0.337,-5.604],[-0.295,-5.716],[-0.267,-5.878],[-0.33,-5.85],[-0.484,-5.695],[-0.751,-5.513],[-1.003,-5.372],[-1.073,-5.344],[-1.122,-5.344],[-1.136,-5.048],[-1.038,-5.048],[-1.038,-4.894],[-0.968,-4.837]]]]},"properties":{"abbr":"LSV","name":"lateral septal nucleus, ventral part","plate":23,"ap_bregma_mm":0.1,"area_mm2":0.8124,"traced_fraction":[0.9,0.898],"n_labels":2,"no_drawn_outline":false}},{"type":"Feature","geometry":{"type":"MultiPolygon","coordinates":[[[[-1.143,-4.718],[-1.038,-4.774],[-0.968,-4.837],[-1.038,-4.894],[-1.038,-5.048],[-1.136,-5.048],[-1.136,-4.859],[-1.15,-4.823],[-1.143,-4.718]]]]},"properties":{"abbr":"LV","name":"lateral ventricle","plate":23,"ap_bregma_mm":0.1,"area_mm2":0.035,"traced_fraction":[0.683],"n_labels":1,"no_drawn_outline":true}},{"type":"Feature","geometry":{"type":"MultiPolygon","coordinates":[[[[1.395,-1.187],[1.661,-1.187],[2.047,-1.222],[1.998,-2.847],[1.556,-2.847],[1.444,-1.862],[1.395,-1.187]]],[[[-1.396,-1.258],[-1.396,-2.453],[-1.41,-2.917],[-1.753,-2.938],[-1.887,-2.938],[-2.055,-1.848],[-2.118,-1.342],[-1.76,-1.286],[-1.396,-1.258]]]]},"properties":{"abbr":"M1","name":"primary motor cortex","plate":23,"ap_bregma_mm":0.1,"area_mm2":1.9206,"traced_fraction":[1.0,1.0],"n_labels":2,"no_drawn_outline":false}},{"type":"Feature","geometry":{"type":"MultiPolygon","coordinates":[[[[1.395,-1.187],[1.444,-1.862],[1.556,-2.847],[1.269,-2.903],[1.086,-2.552],[0.911,-2.284],[0.764,-2.094],[0.525,-1.841],[0.154,-1.553],[0.175,-1.518],[0.287,-1.419],[0.441,-1.335],[0.588,-1.279],[0.988,-1.201],[1.395,-1.187]]],[[[-0.113,-1.532],[-0.134,-1.532],[-0.169,-1.574],[-0.351,-1.708],[-0.54,-1.898],[-0.673,-2.073],[-0.87,-2.418],[-0.891,-2.488],[-0.968,-2.636],[-1.08,-2.953],[-1.15,-2.924],[-1.283,-2.931],[-1.41,-2.917],[-1.396,-2.453],[-1.396,-1.258],[-1.164,-1.243],[-0.772,-1.271],[-0.435,-1.328],[-0.211,-1.433],[-0.113,-1.532]]]]},"properties":{"abbr":"M2","name":"secondary motor cortex","plate":23,"ap_bregma_mm":0.1,"area_mm2":2.4945,"traced_fraction":[1.0,1.0],"n_labels":2,"no_drawn_outline":false}},{"type":"Feature","geometry":{"type":"MultiPolygon","coordinates":[[[[2.075,-7.433],[2.124,-7.482],[2.138,-7.517],[2.138,-7.616],[2.124,-7.658],[2.033,-7.791],[1.935,-7.89],[1.879,-7.925],[1.836,-7.981],[1.759,-8.009],[1.731,-8.009],[1.619,-7.946],[1.584,-7.911],[1.563,-7.855],[1.57,-7.728],[1.619,-7.637],[1.781,-7.489],[1.858,-7.44],[1.928,-7.419],[2.04,-7.419],[2.075,-7.433]]],[[[-1.893,-7.721],[-1.893,-7.735],[-1.809,-7.763],[-1.662,-7.848],[-1.578,-7.96],[-1.55,-8.038],[-1.557,-8.122],[-1.62,-8.206],[-1.725,-8.234],[-1.774,-8.234],[-1.795,-8.22],[-1.901,-8.206],[-1.922,-8.185],[-2.076,-8.115],[-2.167,-8.038],[-2.195,-8.002],[-2.216,-7.939],[-2.216,-7.869],[-2.181,-7.798],[-2.111,-7.742],[-2.034,-7.714],[-1.893,-7.721]]]]},"properties":{"abbr":"MCPO","name":"magnocellular preoptic nucleus","plate":23,"ap_bregma_mm":0.1,"area_mm2":0.4747,"traced_fraction":[0.988,1.0],"n_labels":2,"no_drawn_outline":false}},{"type":"Feature","geometry":{"type":"MultiPolygon","coordinates":[[[[0.119,-6.687],[0.147,-6.757],[0.238,-6.807],[0.252,-6.933],[0.357,-7.257],[0.476,-7.517],[0.582,-7.679],[0.722,-7.841],[0.848,-7.925],[0.876,-7.96],[1.037,-7.967],[1.086,-8.009],[1.107,-8.059],[1.093,-8.073],[0.96,-8.038],[0.876,-8.038],[0.869,-8.087],[0.855,-8.094],[0.848,-8.157],[0.841,-8.157],[0.799,-8.143],[0.778,-8.115],[0.694,-8.08],[0.652,-8.045],[0.434,-7.939],[0.308,-7.897],[0.105,-7.869],[0.105,-7.644],[0.077,-7.517],[0.028,-7.39],[0.077,-7.376],[0.119,-7.334],[0.14,-7.285],[0.14,-7.194],[0.07,-6.757],[0.07,-6.701],[0.119,-6.687]]],[[[1.093,-8.073],[1.107,-8.073],[1.107,-8.08],[1.093,-8.073]]]]},"properties":{"abbr":"MPA","name":"medial preoptic area","plate":23,"ap_bregma_mm":0.1,"area_mm2":0.4536,"traced_fraction":[0.998,1.0],"n_labels":1,"no_drawn_outline":false}},{"type":"Feature","geometry":{"type":"MultiPolygon","coordinates":[[[[0.021,-4.563],[0.035,-4.809],[0.091,-5.154],[0.084,-5.217],[0.119,-5.344],[0.189,-5.491],[0.245,-5.562],[0.21,-5.639],[0.175,-5.674],[0.105,-5.703],[-0.007,-5.724],[-0.043,-5.724],[-0.183,-5.681],[-0.218,-5.653],[-0.246,-5.59],[-0.239,-5.534],[-0.162,-5.379],[-0.148,-5.252],[-0.106,-4.936],[-0.092,-4.922],[-0.071,-4.633],[-0.05,-4.535],[-0.035,-4.514],[-0.014,-4.514],[0.007,-4.563],[0.021,-4.563]]]]},"properties":{"abbr":"MS","name":"medial septal nucleus","plate":23,"ap_bregma_mm":0.1,"area_mm2":0.2747,"traced_fraction":[1.0],"n_labels":1,"no_drawn_outline":false}},{"type":"Feature","geometry":{"type":"MultiPolygon","coordinates":[[[[-0.043,-5.724],[-0.007,-5.724],[-0.007,-5.738],[0.049,-5.78],[0.084,-5.85],[0.056,-6.469],[0.07,-6.575],[0.112,-6.568],[0.119,-6.687],[0.07,-6.701],[0.07,-6.757],[0.14,-7.194],[0.14,-7.285],[0.119,-7.334],[0.077,-7.376],[0.028,-7.39],[0.007,-7.327],[-0.014,-7.306],[-0.05,-7.32],[-0.071,-7.39],[-0.134,-7.362],[-0.183,-7.313],[-0.197,-7.271],[-0.197,-7.208],[-0.148,-6.969],[-0.141,-6.708],[-0.141,-6.589],[-0.148,-6.554],[-0.155,-6.497],[-0.141,-6.476],[-0.148,-6.434],[-0.162,-6.357],[-0.155,-6.258],[-0.148,-5.857],[-0.113,-5.794],[-0.043,-5.724]]]]},"properties":{"abbr":"MnPO","name":"median preoptic nucleus","plate":23,"ap_bregma_mm":0.1,"area_mm2":0.3888,"traced_fraction":[0.998],"n_labels":1,"no_drawn_outline":false}},{"type":"Feature","geometry":{"type":"MultiPolygon","coordinates":[[[[0.708,-6.511],[0.757,-6.539],[0.834,-6.554],[0.953,-6.554],[0.988,-6.539],[1.086,-6.546],[1.079,-6.624],[1.093,-6.694],[1.051,-6.736],[0.967,-6.786],[0.834,-6.807],[0.799,-6.807],[0.743,-6.779],[0.68,-6.694],[0.666,-6.617],[0.673,-6.575],[0.708,-6.546],[0.708,-6.511]]],[[[-0.856,-6.554],[-0.814,-6.645],[-0.814,-6.765],[-0.835,-6.821],[-0.898,-6.884],[-0.968,-6.919],[-1.094,-6.94],[-1.164,-6.926],[-1.199,-6.905],[-1.234,-6.87],[-1.255,-6.793],[-1.241,-6.68],[-1.234,-6.673],[-1.228,-6.666],[-1.22,-6.659],[-1.101,-6.638],[-0.856,-6.554]]]]},"properties":{"abbr":"PS","name":"parastrial nucleus","plate":23,"ap_bregma_mm":0.1,"area_mm2":0.2173,"traced_fraction":[1.0,1.0],"n_labels":2,"no_drawn_outline":false}},{"type":"Feature","geometry":{"type":"MultiPolygon","coordinates":[[[[4.466,-7.186],[4.48,-7.39],[4.459,-7.475],[4.431,-7.524],[4.34,-7.594],[4.326,-7.665],[4.178,-7.798],[4.101,-7.848],[3.996,-7.89],[3.919,-7.904],[3.709,-7.897],[3.603,-7.953],[3.54,-7.967],[3.442,-7.946],[3.323,-7.967],[3.274,-7.932],[3.232,-7.932],[3.176,-7.981],[3.12,-8.094],[3.12,-8.122],[3.084,-8.15],[3.007,-8.129],[2.965,-8.087],[2.853,-7.918],[2.853,-7.883],[2.902,-7.883],[3.0,-7.932],[3.05,-7.932],[3.078,-7.89],[3.078,-7.77],[3.099,-7.672],[3.12,-7.63],[3.19,-7.566],[3.358,-7.524],[3.442,-7.524],[3.561,-7.594],[3.681,-7.601],[3.779,-7.524],[3.919,-7.517],[4.024,-7.489],[4.115,-7.412],[4.129,-7.32],[4.157,-7.25],[4.157,-7.194],[4.466,-7.186]]],[[[-4.284,-7.376],[-4.263,-7.419],[-4.137,-7.524],[-3.983,-7.63],[-3.892,-7.665],[-3.745,-7.665],[-3.429,-7.559],[-3.261,-7.559],[-3.219,-7.573],[-3.114,-7.658],[-3.065,-7.735],[-3.043,-7.812],[-2.973,-7.89],[-2.945,-7.897],[-2.938,-7.974],[-2.945,-8.03],[-2.994,-8.059],[-3.022,-8.094],[-3.022,-8.164],[-3.043,-8.234],[-3.12,-8.333],[-3.156,-8.326],[-3.205,-8.277],[-3.212,-8.227],[-3.261,-8.185],[-3.261,-8.129],[-3.205,-8.059],[-3.198,-8.009],[-3.219,-7.988],[-3.275,-7.974],[-3.338,-7.918],[-3.464,-7.89],[-3.59,-7.89],[-3.667,-7.946],[-3.843,-7.932],[-3.948,-7.953],[-4.067,-7.953],[-4.186,-7.932],[-4.277,-7.897],[-4.474,-7.707],[-4.551,-7.594],[-4.579,-7.524],[-4.579,-7.447],[-4.551,-7.383],[-4.284,-7.376]]]]},"properties":{"abbr":"Pir","name":"piriform cortex","plate":23,"ap_bregma_mm":0.1,"area_mm2":1.2158,"traced_fraction":[0.944,0.953],"n_labels":2,"no_drawn_outline":false}},{"type":"Feature","geometry":{"type":"MultiPolygon","coordinates":[[[[-3.983,-1.834],[-3.948,-1.947],[-3.92,-1.982],[-3.878,-2.115],[-3.773,-2.341],[-3.758,-2.397],[-3.646,-2.622],[-3.618,-2.706],[-3.583,-2.756],[-3.464,-3.051],[-3.443,-3.072],[-3.429,-3.121],[-3.415,-3.128],[-3.415,-3.149],[-3.324,-3.318],[-3.359,-3.353],[-3.597,-3.48],[-3.829,-3.705],[-3.941,-3.888],[-3.99,-3.944],[-4.27,-3.733],[-4.376,-3.67],[-4.446,-3.607],[-4.502,-3.578],[-4.628,-3.473],[-4.663,-3.459],[-4.684,-3.431],[-4.775,-3.374],[-4.986,-3.206],[-5.245,-3.03],[-5.49,-2.833],[-5.469,-2.798],[-5.231,-2.573],[-5.161,-2.53],[-4.972,-2.369],[-4.691,-2.179],[-4.291,-1.968],[-4.27,-1.968],[-4.088,-1.869],[-3.983,-1.834]]],[[[4.725,-1.996],[5.111,-2.228],[5.209,-2.326],[5.223,-2.326],[5.265,-2.383],[5.349,-2.446],[5.518,-2.622],[5.51,-2.629],[5.525,-2.643],[5.532,-2.636],[5.574,-2.671],[5.574,-2.685],[5.489,-2.763],[5.258,-2.917],[5.23,-2.924],[4.95,-3.121],[4.921,-3.128],[3.989,-3.761],[3.919,-3.691],[3.856,-3.593],[3.779,-3.515],[3.681,-3.445],[3.673,-3.424],[3.814,-3.234],[3.849,-3.206],[3.926,-3.086],[3.954,-3.065],[3.961,-3.037],[4.038,-2.945],[4.08,-2.868],[4.185,-2.749],[4.382,-2.46],[4.718,-2.024],[4.725,-1.996]]]]},"properties":{"abbr":"S1BF","name":"primary somatosensory cortex, barrel field","plate":23,"ap_bregma_mm":0.1,"area_mm2":3.7995,"traced_fraction":[0.98,0.994],"n_labels":2,"no_drawn_outline":false}},{"type":"Feature","geometry":{"type":"MultiPolygon","coordinates":[[[[-3.836,-1.778],[-3.794,-1.876],[-3.773,-1.968],[-3.73,-2.052],[-3.681,-2.221],[-3.611,-2.362],[-3.59,-2.446],[-3.541,-2.53],[-3.513,-2.629],[-3.429,-2.784],[-3.366,-2.953],[-3.275,-3.114],[-3.219,-3.255],[-3.247,-3.29],[-3.324,-3.318],[-3.415,-3.149],[-3.415,-3.128],[-3.429,-3.121],[-3.443,-3.072],[-3.464,-3.051],[-3.583,-2.756],[-3.618,-2.706],[-3.646,-2.622],[-3.758,-2.397],[-3.773,-2.341],[-3.878,-2.115],[-3.92,-1.982],[-3.948,-1.947],[-3.983,-1.834],[-3.836,-1.778]]],[[[4.543,-1.905],[4.725,-1.996],[4.718,-2.024],[4.382,-2.46],[4.185,-2.749],[4.08,-2.868],[4.038,-2.945],[3.961,-3.037],[3.954,-3.065],[3.926,-3.086],[3.891,-3.149],[3.673,-3.424],[3.645,-3.417],[3.582,-3.353],[3.582,-3.339],[3.652,-3.269],[3.737,-3.128],[3.772,-3.093],[3.779,-3.065],[3.807,-3.044],[3.814,-3.016],[4.213,-2.432],[4.333,-2.221],[4.543,-1.905]]]]},"properties":{"abbr":"S1DZ","name":"primary somatosensory cortex, dysgranular zone","plate":23,"ap_bregma_mm":0.1,"area_mm2":0.4994,"traced_fraction":[0.967,0.992],"n_labels":2,"no_drawn_outline":false}},{"type":"Feature","geometry":{"type":"MultiPolygon","coordinates":[[[[3.358,-1.475],[3.673,-1.553],[4.206,-1.743],[4.305,-1.792],[4.417,-1.834],[4.543,-1.905],[4.333,-2.221],[4.213,-2.432],[3.989,-2.77],[3.968,-2.784],[3.933,-2.854],[3.814,-3.016],[3.807,-3.044],[3.779,-3.065],[3.772,-3.093],[3.737,-3.128],[3.652,-3.269],[3.582,-3.339],[3.54,-3.325],[3.421,-3.234],[3.26,-3.156],[2.888,-3.023],[2.944,-2.798],[3.014,-2.608],[3.19,-1.996],[3.316,-1.616],[3.337,-1.511],[3.358,-1.475]]],[[[-3.142,-1.553],[-3.135,-1.609],[-2.973,-2.066],[-2.665,-3.072],[-2.91,-3.142],[-3.17,-3.262],[-3.219,-3.255],[-3.275,-3.114],[-3.366,-2.953],[-3.429,-2.784],[-3.513,-2.629],[-3.541,-2.53],[-3.59,-2.446],[-3.611,-2.362],[-3.681,-2.221],[-3.73,-2.052],[-3.773,-1.968],[-3.773,-1.94],[-3.836,-1.778],[-3.597,-1.679],[-3.254,-1.574],[-3.142,-1.553]]]]},"properties":{"abbr":"S1FL","name":"primary somatosensory cortex, forelimb region","plate":23,"ap_bregma_mm":0.1,"area_mm2":2.8005,"traced_fraction":[1.0,1.0],"n_labels":2,"no_drawn_outline":false}},{"type":"Feature","geometry":{"type":"MultiPolygon","coordinates":[[[[2.047,-1.222],[2.391,-1.258],[2.993,-1.37],[3.358,-1.475],[3.337,-1.511],[3.316,-1.616],[3.239,-1.834],[3.014,-2.608],[2.944,-2.798],[2.888,-3.023],[2.741,-2.974],[2.404,-2.896],[1.998,-2.847],[2.047,-1.222]]],[[[-2.118,-1.342],[-2.055,-1.848],[-1.887,-2.938],[-2.3,-2.988],[-2.665,-3.072],[-2.973,-2.066],[-3.135,-1.609],[-3.142,-1.553],[-2.826,-1.468],[-2.118,-1.342]]]]},"properties":{"abbr":"S1HL","name":"primary somatosensory cortex, hindlimb region","plate":23,"ap_bregma_mm":0.1,"area_mm2":3.264,"traced_fraction":[1.0,1.0],"n_labels":2,"no_drawn_outline":false}},{"type":"Feature","geometry":{"type":"MultiPolygon","coordinates":[[[[5.574,-2.685],[5.665,-2.77],[5.665,-2.784],[5.805,-2.931],[5.861,-3.023],[5.903,-3.058],[5.917,-3.093],[5.973,-3.156],[6.057,-3.318],[6.114,-3.501],[6.184,-3.818],[6.219,-4.106],[6.219,-4.591],[4.206,-4.479],[4.15,-4.19],[4.094,-3.986],[4.066,-3.902],[3.989,-3.761],[4.921,-3.128],[4.95,-3.121],[5.23,-2.924],[5.258,-2.917],[5.489,-2.763],[5.574,-2.685]]],[[[-5.49,-2.833],[-5.245,-3.03],[-4.986,-3.206],[-4.775,-3.374],[-4.684,-3.431],[-4.663,-3.459],[-4.628,-3.473],[-4.502,-3.578],[-4.446,-3.607],[-4.376,-3.67],[-4.27,-3.733],[-3.99,-3.944],[-4.067,-4.071],[-4.109,-4.204],[-4.144,-4.268],[-4.2,-4.465],[-4.221,-4.612],[-6.262,-4.676],[-6.262,-4.486],[-6.22,-4.19],[-6.156,-3.944],[-6.065,-3.684],[-5.827,-3.234],[-5.659,-3.009],[-5.49,-2.833]]]]},"properties":{"abbr":"S1ULp","name":"primary somatosensory cortex, upper lip region","plate":23,"ap_bregma_mm":0.1,"area_mm2":5.5939,"traced_fraction":[1.0,1.0],"n_labels":2,"no_drawn_outline":false}},{"type":"Feature","geometry":{"type":"MultiPolygon","coordinates":[[[[4.206,-4.479],[6.219,-4.591],[6.163,-4.964],[6.093,-5.224],[5.994,-5.449],[5.896,-5.618],[5.812,-5.716],[5.679,-5.66],[5.482,-5.611],[4.143,-5.189],[4.192,-4.83],[4.192,-4.542],[4.206,-4.479]]],[[[-4.221,-4.612],[-4.228,-5.203],[-4.214,-5.393],[-4.221,-5.414],[-4.432,-5.484],[-4.915,-5.688],[-5.119,-5.752],[-5.168,-5.78],[-5.252,-5.801],[-5.336,-5.843],[-5.897,-6.047],[-5.939,-5.998],[-6.051,-5.759],[-6.199,-5.316],[-6.269,-4.936],[-6.262,-4.676],[-4.221,-4.612]]]]},"properties":{"abbr":"S2","name":"secondary somatosensory cortex","plate":23,"ap_bregma_mm":0.1,"area_mm2":4.0134,"traced_fraction":[1.0,1.0],"n_labels":2,"no_drawn_outline":false}},{"type":"Feature","geometry":{"type":"MultiPolygon","coordinates":[[[[-0.547,-4.851],[-0.267,-4.851],[-0.26,-5.217],[-0.225,-5.266],[-0.176,-5.266],[-0.148,-5.252],[-0.162,-5.379],[-0.225,-5.499],[-0.246,-5.59],[-0.218,-5.653],[-0.183,-5.681],[-0.043,-5.724],[-0.113,-5.794],[-0.148,-5.857],[-0.155,-6.258],[-0.169,-6.258],[-0.183,-6.223],[-0.218,-6.005],[-0.267,-5.878],[-0.295,-5.716],[-0.337,-5.604],[-0.33,-5.548],[-0.309,-5.548],[-0.33,-5.527],[-0.372,-5.47],[-0.414,-5.358],[-0.456,-5.309],[-0.456,-5.288],[-0.463,-5.21],[-0.526,-5.02],[-0.547,-4.851]]],[[[0.21,-4.865],[0.448,-4.865],[0.455,-4.887],[0.434,-5.02],[0.406,-5.112],[0.413,-5.168],[0.343,-5.351],[0.329,-5.456],[0.294,-5.534],[0.266,-5.541],[0.266,-5.562],[0.245,-5.562],[0.189,-5.491],[0.119,-5.344],[0.084,-5.217],[0.091,-5.154],[0.105,-5.154],[0.14,-5.196],[0.182,-5.196],[0.217,-5.154],[0.231,-5.098],[0.231,-4.992],[0.21,-4.865]]]]},"properties":{"abbr":"SFi","name":"septofimbrial nucleus","plate":23,"ap_bregma_mm":0.1,"area_mm2":0.375,"traced_fraction":[0.934,0.896],"n_labels":2,"no_drawn_outline":false}},{"type":"Feature","geometry":{"type":"MultiPolygon","coordinates":[[[[-0.183,-3.796],[0.168,-3.804],[0.182,-3.937],[0.168,-4.043],[0.112,-4.176],[0.035,-4.155],[-0.141,-4.162],[-0.197,-4.036],[-0.211,-3.937],[-0.183,-3.796]]]]},"properties":{"abbr":"SHi","name":"septohippocampal nucleus","plate":23,"ap_bregma_mm":0.1,"area_mm2":0.1276,"traced_fraction":[1.0],"n_labels":1,"no_drawn_outline":false}},{"type":"Feature","geometry":{"type":"MultiPolygon","coordinates":[[[[1.121,-5.238],[1.142,-5.4],[1.051,-5.534],[0.876,-5.681],[0.659,-5.794],[0.525,-5.935],[0.476,-6.033],[0.483,-6.054],[0.455,-6.11],[0.434,-6.209],[0.427,-6.314],[0.441,-6.371],[0.427,-6.582],[0.399,-6.715],[0.322,-6.8],[0.238,-6.807],[0.161,-6.771],[0.133,-6.736],[0.119,-6.687],[0.112,-6.568],[0.105,-6.427],[0.126,-6.23],[0.168,-6.012],[0.224,-5.914],[0.224,-5.885],[0.252,-5.878],[0.504,-5.618],[0.757,-5.442],[0.799,-5.4],[1.03,-5.28],[1.086,-5.238],[1.121,-5.238]]],[[[-1.122,-5.344],[-1.073,-5.344],[-1.003,-5.372],[-0.751,-5.513],[-0.484,-5.695],[-0.33,-5.85],[-0.267,-5.878],[-0.218,-6.005],[-0.183,-6.223],[-0.169,-6.258],[-0.155,-6.258],[-0.162,-6.357],[-0.148,-6.434],[-0.162,-6.434],[-0.169,-6.455],[-0.155,-6.497],[-0.148,-6.554],[-0.162,-6.554],[-0.169,-6.589],[-0.141,-6.589],[-0.141,-6.708],[-0.169,-6.708],[-0.19,-6.757],[-0.225,-6.786],[-0.295,-6.807],[-0.386,-6.793],[-0.491,-6.694],[-0.519,-6.603],[-0.547,-6.392],[-0.526,-6.286],[-0.512,-6.272],[-0.512,-6.188],[-0.547,-6.075],[-0.568,-6.005],[-0.652,-5.914],[-0.884,-5.801],[-1.045,-5.653],[-1.122,-5.527],[-1.129,-5.484],[-1.122,-5.344]]]]},"properties":{"abbr":"SHy","name":"septohypothalamic nucleus","plate":23,"ap_bregma_mm":0.1,"area_mm2":1.029,"traced_fraction":[0.996,0.995],"n_labels":2,"no_drawn_outline":false}},{"type":"Feature","geometry":{"type":"MultiPolygon","coordinates":[[[[-1.199,-6.905],[-1.164,-6.926],[-1.094,-6.94],[-0.968,-6.919],[-0.996,-6.997],[-1.073,-7.095],[-1.234,-7.362],[-1.319,-7.468],[-1.319,-7.672],[-1.473,-7.693],[-1.585,-7.756],[-1.606,-7.749],[-1.627,-7.707],[-1.627,-7.658],[-1.893,-7.658],[-1.893,-7.721],[-2.034,-7.714],[-2.111,-7.742],[-2.181,-7.798],[-2.209,-7.841],[-2.216,-7.939],[-2.202,-7.988],[-2.167,-8.038],[-2.237,-8.094],[-2.237,-8.263],[-2.202,-8.298],[-2.23,-8.326],[-2.265,-8.333],[-2.321,-8.277],[-2.433,-8.277],[-2.454,-8.241],[-2.461,-8.178],[-2.482,-8.157],[-2.525,-8.157],[-2.56,-8.178],[-2.623,-8.178],[-2.707,-8.129],[-2.735,-8.094],[-2.882,-7.981],[-2.938,-7.974],[-2.945,-7.897],[-2.896,-7.7],[-2.875,-7.651],[-2.819,-7.58],[-2.812,-7.538],[-2.707,-7.531],[-2.623,-7.552],[-2.553,-7.552],[-2.497,-7.531],[-2.447,-7.489],[-2.412,-7.376],[-2.321,-7.362],[-2.293,-7.32],[-2.279,-7.32],[-2.223,-7.369],[-2.139,-7.362],[-2.083,-7.299],[-2.083,-7.236],[-2.097,-7.215],[-1.781,-7.215],[-1.781,-7.116],[-1.592,-6.926],[-1.578,-6.926],[-1.487,-6.983],[-1.368,-6.99],[-1.298,-6.969],[-1.199,-6.905]]],[[[1.472,-7.566],[1.276,-7.524],[1.255,-7.468],[1.114,-7.292],[1.114,-7.271],[1.121,-7.257],[1.472,-7.257],[1.472,-7.566]]]]},"properties":{"abbr":"SIB","name":"substantia innominata, basal part","plate":23,"ap_bregma_mm":0.1,"area_mm2":1.1755,"traced_fraction":[0.78,0.467],"n_labels":2,"no_drawn_outline":false}},{"type":"Feature","geometry":{"type":"MultiPolygon","coordinates":[[[[-1.262,-5.33],[-1.262,-5.358],[-1.22,-5.435],[-1.157,-5.484],[-1.178,-5.499],[-1.185,-5.583],[-1.185,-5.752],[-1.157,-5.857],[-1.059,-5.977],[-0.968,-6.04],[-1.031,-6.082],[-1.178,-6.117],[-1.255,-6.153],[-1.452,-6.181],[-1.487,-6.047],[-1.459,-5.688],[-1.424,-5.597],[-1.424,-5.548],[-1.417,-5.491],[-1.375,-5.414],[-1.298,-5.337],[-1.262,-5.33]]],[[[1.262,-5.33],[1.353,-5.386],[1.43,-5.456],[1.416,-5.463],[1.416,-5.506],[1.444,-5.562],[1.465,-5.681],[1.437,-5.928],[1.437,-6.005],[1.451,-6.033],[1.381,-6.11],[1.332,-6.131],[1.332,-6.146],[1.192,-6.117],[0.946,-5.977],[0.96,-5.935],[1.023,-5.885],[1.086,-5.808],[1.142,-5.639],[1.156,-5.435],[1.262,-5.33]]]]},"properties":{"abbr":"STLP","name":"bed nucleus of the stria terminalis, lateral division, posterior part","plate":23,"ap_bregma_mm":0.1,"area_mm2":0.4931,"traced_fraction":[1.0,1.0],"n_labels":2,"no_drawn_outline":false}},{"type":"Feature","geometry":{"type":"MultiPolygon","coordinates":[[[[1.563,-6.434],[1.57,-6.483],[1.633,-6.539],[1.633,-6.554],[1.528,-6.568],[1.353,-6.532],[1.107,-6.525],[1.149,-6.378],[1.311,-6.371],[1.332,-6.385],[1.465,-6.399],[1.563,-6.434]]],[[[-1.192,-6.406],[-1.185,-6.504],[-1.22,-6.659],[-1.228,-6.666],[-1.234,-6.673],[-1.241,-6.68],[-1.326,-6.687],[-1.438,-6.722],[-1.564,-6.722],[-1.641,-6.68],[-1.641,-6.539],[-1.627,-6.518],[-1.592,-6.504],[-1.298,-6.413],[-1.192,-6.406]]]]},"properties":{"abbr":"STLV","name":"bed nucleus of the stria terminalis, lateral division, ventral part","plate":23,"ap_bregma_mm":0.1,"area_mm2":0.179,"traced_fraction":[0.946,0.995],"n_labels":2,"no_drawn_outline":false}},{"type":"Feature","geometry":{"type":"MultiPolygon","coordinates":[[[[-1.157,-5.484],[-1.129,-5.484],[-1.122,-5.527],[-1.045,-5.653],[-0.884,-5.801],[-0.652,-5.914],[-0.568,-6.005],[-0.547,-6.075],[-0.631,-6.082],[-0.702,-6.11],[-0.8,-6.033],[-0.877,-6.026],[-0.968,-6.04],[-1.059,-5.977],[-1.157,-5.857],[-1.185,-5.752],[-1.178,-5.499],[-1.157,-5.484]]]]},"properties":{"abbr":"STMA","name":"bed nucleus of the stria terminalis, medial division, anterior part","plate":23,"ap_bregma_mm":0.1,"area_mm2":0.1554,"traced_fraction":[0.989],"n_labels":2,"no_drawn_outline":false}},{"type":"Feature","geometry":{"type":"MultiPolygon","coordinates":[[[[0.743,-6.265],[0.799,-6.321],[0.89,-6.364],[0.974,-6.378],[1.072,-6.371],[1.149,-6.378],[1.107,-6.525],[1.086,-6.546],[0.988,-6.539],[0.953,-6.554],[0.834,-6.554],[0.757,-6.539],[0.708,-6.511],[0.708,-6.504],[0.687,-6.392],[0.701,-6.321],[0.743,-6.265]]],[[[-0.702,-6.321],[-0.716,-6.378],[-0.779,-6.49],[-0.807,-6.497],[-0.856,-6.554],[-1.101,-6.638],[-1.22,-6.659],[-1.185,-6.504],[-1.192,-6.406],[-1.059,-6.364],[-0.87,-6.343],[-0.758,-6.314],[-0.702,-6.321]]]]},"properties":{"abbr":"STMV","name":"bed nucleus of the stria terminalis, medial division, ventral part","plate":23,"ap_bregma_mm":0.1,"area_mm2":0.1897,"traced_fraction":[0.952,0.995],"n_labels":2,"no_drawn_outline":false}},{"type":"Feature","geometry":{"type":"MultiPolygon","coordinates":[[[[1.086,-4.176],[1.121,-4.218],[1.205,-4.584],[1.247,-4.873],[1.247,-4.985],[1.269,-5.062],[1.276,-5.238],[1.262,-5.33],[1.156,-5.435],[1.142,-5.639],[1.086,-5.808],[1.058,-5.85],[0.96,-5.935],[0.946,-5.977],[0.792,-5.991],[0.75,-6.012],[0.687,-6.082],[0.694,-6.167],[0.743,-6.265],[0.701,-6.321],[0.687,-6.392],[0.708,-6.504],[0.603,-6.49],[0.518,-6.441],[0.455,-6.371],[0.441,-6.371],[0.427,-6.314],[0.434,-6.209],[0.455,-6.11],[0.483,-6.054],[0.476,-6.033],[0.525,-5.935],[0.659,-5.794],[0.876,-5.681],[1.051,-5.534],[1.142,-5.4],[1.121,-5.238],[1.135,-5.084],[1.156,-5.027],[1.163,-4.929],[1.149,-4.739],[1.128,-4.704],[1.135,-4.605],[1.072,-4.247],[1.072,-4.176],[1.086,-4.176]]],[[[-0.547,-6.075],[-0.512,-6.188],[-0.512,-6.272],[-0.526,-6.286],[-0.547,-6.392],[-0.589,-6.413],[-0.652,-6.483],[-0.723,-6.518],[-0.772,-6.525],[-0.779,-6.49],[-0.716,-6.378],[-0.702,-6.321],[-0.688,-6.3],[-0.688,-6.216],[-0.709,-6.16],[-0.702,-6.11],[-0.631,-6.082],[-0.547,-6.075]]]]},"properties":{"abbr":"StA","name":"strial part of the preoptic area","plate":23,"ap_bregma_mm":0.1,"area_mm2":0.4607,"traced_fraction":[0.987,0.966],"n_labels":3,"no_drawn_outline":false}},{"type":"Feature","geometry":{"type":"MultiPolygon","coordinates":[[[[2.839,-7.869],[2.846,-7.876],[2.853,-7.883],[2.853,-7.918],[2.811,-7.953],[2.769,-7.96],[2.769,-7.974],[2.713,-8.016],[2.685,-8.087],[2.643,-8.136],[2.601,-8.157],[2.489,-8.171],[2.446,-8.206],[2.404,-8.284],[2.404,-8.354],[2.44,-8.354],[2.391,-8.389],[2.278,-8.417],[2.278,-8.403],[2.313,-8.389],[2.257,-8.354],[2.166,-8.263],[2.124,-8.249],[1.935,-8.256],[1.815,-8.213],[1.815,-8.199],[1.773,-8.171],[1.752,-8.122],[1.759,-8.009],[1.836,-7.981],[1.886,-8.016],[1.9,-8.059],[1.935,-8.094],[1.984,-8.115],[2.026,-8.129],[2.11,-8.108],[2.194,-8.115],[2.25,-8.171],[2.271,-8.22],[2.306,-8.256],[2.327,-8.256],[2.362,-8.122],[2.446,-8.052],[2.545,-8.038],[2.552,-7.974],[2.615,-7.897],[2.72,-7.848],[2.818,-7.848],[2.839,-7.869]]],[[[-2.938,-7.974],[-2.882,-7.981],[-2.735,-8.094],[-2.707,-8.129],[-2.623,-8.178],[-2.56,-8.178],[-2.525,-8.157],[-2.482,-8.157],[-2.461,-8.178],[-2.454,-8.241],[-2.433,-8.277],[-2.321,-8.277],[-2.265,-8.333],[-2.23,-8.326],[-2.202,-8.298],[-2.153,-8.305],[-2.125,-8.326],[-2.048,-8.326],[-2.006,-8.305],[-1.901,-8.206],[-1.795,-8.22],[-1.774,-8.234],[-1.767,-8.333],[-1.711,-8.41],[-1.711,-8.467],[-1.697,-8.488],[-1.844,-8.551],[-1.943,-8.565],[-1.943,-8.544],[-2.034,-8.481],[-2.125,-8.481],[-2.174,-8.467],[-2.209,-8.495],[-2.279,-8.502],[-2.363,-8.474],[-2.391,-8.572],[-2.356,-8.572],[-2.349,-8.586],[-2.504,-8.579],[-2.581,-8.516],[-2.567,-8.509],[-2.581,-8.452],[-2.574,-8.34],[-2.602,-8.319],[-2.686,-8.298],[-2.77,-8.241],[-2.847,-8.171],[-2.903,-8.087],[-2.924,-8.08],[-2.945,-8.03],[-2.938,-7.974]]],[[[2.166,-8.424],[2.131,-8.417],[2.159,-8.41],[2.166,-8.424]]],[[[2.229,-8.417],[2.208,-8.424],[2.208,-8.41],[2.229,-8.417]]],[[[-1.95,-8.565],[-1.971,-8.572],[-1.971,-8.558],[-1.95,-8.565]]]]},"properties":{"abbr":"Tu","name":"olfactory tubercle","plate":23,"ap_bregma_mm":0.1,"area_mm2":0.4608,"traced_fraction":[1.0,0.998,1.0,1.0,1.0],"n_labels":2,"no_drawn_outline":false}},{"type":"Feature","geometry":{"type":"MultiPolygon","coordinates":[[[[3.772,-6.061],[3.8,-6.153],[3.807,-6.307],[3.786,-6.413],[3.737,-6.476],[3.723,-6.525],[3.673,-6.575],[3.631,-6.589],[3.554,-6.589],[3.526,-6.568],[3.498,-6.462],[3.498,-6.343],[3.568,-6.23],[3.603,-6.223],[3.744,-6.068],[3.772,-6.061]]],[[[-3.892,-6.251],[-3.871,-6.251],[-3.801,-6.321],[-3.716,-6.371],[-3.646,-6.434],[-3.583,-6.554],[-3.597,-6.568],[-3.604,-6.666],[-3.639,-6.757],[-3.724,-6.75],[-3.787,-6.694],[-3.794,-6.666],[-3.843,-6.61],[-3.906,-6.462],[-3.92,-6.357],[-3.913,-6.307],[-3.892,-6.251]]]]},"properties":{"abbr":"VCl","name":"ventral part of claustrum","plate":23,"ap_bregma_mm":0.1,"area_mm2":0.2088,"traced_fraction":[1.0,0.989],"n_labels":2,"no_drawn_outline":false}},{"type":"Feature","geometry":{"type":"MultiPolygon","coordinates":[[[[-0.786,-7.777],[-0.709,-7.862],[-0.533,-7.869],[-0.526,-8.009],[-0.723,-8.157],[-0.73,-8.052],[-0.933,-8.052],[-0.933,-8.08],[-0.982,-8.073],[-1.052,-8.08],[-1.08,-8.094],[-1.08,-8.108],[-1.101,-8.108],[-1.136,-8.136],[-1.157,-8.15],[-1.178,-8.15],[-1.164,-8.157],[-1.185,-8.171],[-1.199,-8.178],[-1.206,-8.171],[-1.206,-8.185],[-1.228,-8.199],[-1.234,-8.192],[-1.234,-8.206],[-1.249,-8.213],[-1.283,-8.241],[-1.466,-8.375],[-1.536,-8.41],[-1.55,-8.375],[-1.592,-8.333],[-1.641,-8.312],[-1.655,-8.291],[-1.704,-8.277],[-1.725,-8.256],[-1.725,-8.234],[-1.62,-8.206],[-1.564,-8.227],[-1.501,-8.227],[-1.41,-8.206],[-1.255,-8.143],[-1.143,-8.073],[-1.101,-8.03],[-1.038,-7.932],[-1.031,-7.883],[-0.863,-7.869],[-0.814,-7.791],[-0.786,-7.777]]]]},"properties":{"abbr":"VLPO","name":"ventrolateral preoptic nucleus","plate":23,"ap_bregma_mm":0.1,"area_mm2":0.1812,"traced_fraction":[0.797],"n_labels":1,"no_drawn_outline":false}},{"type":"Feature","geometry":{"type":"MultiPolygon","coordinates":[[[[-1.641,-6.539],[-1.641,-6.68],[-1.655,-6.694],[-1.655,-6.793],[-1.613,-6.891],[-1.578,-6.926],[-1.592,-6.926],[-1.781,-7.116],[-1.781,-7.215],[-2.097,-7.215],[-2.167,-7.179],[-2.139,-7.095],[-2.132,-6.961],[-2.09,-6.821],[-2.055,-6.75],[-2.055,-6.708],[-1.774,-6.575],[-1.676,-6.539],[-1.641,-6.539]]],[[[1.633,-6.554],[1.689,-6.561],[1.781,-6.61],[2.026,-6.877],[2.11,-6.99],[2.124,-7.032],[2.026,-7.018],[1.998,-7.039],[2.005,-7.109],[2.047,-7.151],[2.082,-7.165],[2.075,-7.433],[2.04,-7.419],[1.928,-7.419],[1.858,-7.44],[1.781,-7.489],[1.773,-7.475],[1.493,-7.475],[1.493,-7.573],[1.472,-7.566],[1.472,-7.257],[1.121,-7.257],[1.114,-7.271],[1.086,-7.257],[1.079,-7.229],[1.058,-7.215],[0.855,-6.912],[0.834,-6.863],[0.834,-6.807],[0.967,-6.786],[1.051,-6.736],[1.093,-6.694],[1.135,-6.736],[1.22,-6.765],[1.311,-6.757],[1.444,-6.722],[1.507,-6.666],[1.528,-6.617],[1.528,-6.568],[1.633,-6.554]]]]},"properties":{"abbr":"VP","name":"ventral pallidum","plate":23,"ap_bregma_mm":0.1,"area_mm2":0.9973,"traced_fraction":[0.734,0.713],"n_labels":2,"no_drawn_outline":true}},{"type":"Feature","geometry":{"type":"MultiPolygon","coordinates":[[[[0.946,-5.977],[1.192,-6.117],[1.163,-6.279],[1.135,-6.314],[1.086,-6.343],[1.072,-6.371],[0.974,-6.378],[0.89,-6.364],[0.799,-6.321],[0.743,-6.265],[0.694,-6.167],[0.687,-6.082],[0.75,-6.012],[0.792,-5.991],[0.946,-5.977]]],[[[-0.702,-6.11],[-0.709,-6.16],[-0.688,-6.216],[-0.688,-6.3],[-0.702,-6.321],[-0.758,-6.314],[-0.87,-6.343],[-1.059,-6.364],[-1.192,-6.406],[-1.298,-6.413],[-1.298,-6.307],[-1.255,-6.188],[-1.255,-6.153],[-1.178,-6.117],[-1.031,-6.082],[-0.968,-6.04],[-0.877,-6.026],[-0.8,-6.033],[-0.702,-6.11]]]]},"properties":{"abbr":"aca","name":"anterior commissure, anterior part","plate":23,"ap_bregma_mm":0.1,"area_mm2":0.3154,"traced_fraction":[1.0,1.0],"n_labels":2,"no_drawn_outline":false}},{"type":"Feature","geometry":{"type":"MultiPolygon","coordinates":[[[[1.192,-6.117],[1.332,-6.146],[1.416,-6.195],[1.633,-6.258],[1.802,-6.335],[1.914,-6.364],[1.949,-6.399],[2.194,-6.49],[2.264,-6.504],[2.383,-6.561],[2.412,-6.561],[2.531,-6.624],[2.678,-6.666],[2.811,-6.729],[2.818,-6.743],[2.846,-6.743],[2.846,-6.757],[2.888,-6.779],[2.923,-6.821],[2.867,-6.884],[2.72,-6.842],[2.32,-6.645],[2.138,-6.596],[1.759,-6.462],[1.563,-6.434],[1.493,-6.406],[1.332,-6.385],[1.311,-6.371],[1.149,-6.378],[1.072,-6.371],[1.072,-6.357],[1.163,-6.279],[1.192,-6.117]]],[[[-1.255,-6.153],[-1.255,-6.188],[-1.298,-6.307],[-1.298,-6.413],[-1.592,-6.504],[-1.627,-6.518],[-1.641,-6.539],[-1.676,-6.539],[-1.774,-6.575],[-2.055,-6.708],[-2.419,-6.842],[-2.721,-7.004],[-2.875,-7.046],[-2.91,-7.011],[-2.917,-6.983],[-2.84,-6.898],[-2.777,-6.87],[-2.707,-6.814],[-2.651,-6.793],[-2.623,-6.765],[-2.525,-6.722],[-2.454,-6.666],[-2.349,-6.617],[-2.307,-6.561],[-2.202,-6.525],[-2.055,-6.413],[-1.88,-6.314],[-1.725,-6.258],[-1.487,-6.202],[-1.452,-6.181],[-1.255,-6.153]]]]},"properties":{"abbr":"acp","name":"anterior commissure, posterior part","plate":23,"ap_bregma_mm":0.1,"area_mm2":0.6663,"traced_fraction":[1.0,1.0],"n_labels":2,"no_drawn_outline":false}},{"type":"Feature","geometry":{"type":"MultiPolygon","coordinates":[[[[1.956,-3.03],[1.851,-3.03],[1.668,-3.058],[1.612,-3.079],[1.535,-3.121],[1.381,-3.17],[1.325,-3.206],[1.205,-3.318],[1.128,-3.353],[0.995,-3.48],[0.981,-3.508],[0.953,-3.522],[0.918,-3.571],[0.855,-3.607],[0.848,-3.628],[0.792,-3.621],[0.701,-3.642],[0.483,-3.733],[0.315,-3.775],[0.189,-3.789],[0.168,-3.804],[-0.183,-3.796],[-0.288,-3.761],[-0.288,-3.614],[-0.197,-3.635],[-0.099,-3.635],[-0.092,-3.649],[-0.007,-3.656],[0.077,-3.656],[0.091,-3.642],[0.161,-3.642],[0.196,-3.621],[0.252,-3.621],[0.455,-3.578],[0.554,-3.529],[0.631,-3.508],[0.673,-3.515],[0.855,-3.424],[0.911,-3.381],[1.156,-3.128],[1.311,-3.016],[1.409,-2.974],[1.57,-2.945],[1.942,-2.945],[1.956,-2.953],[1.956,-3.03]]]]},"properties":{"abbr":"cc","name":"corpus callosum","plate":23,"ap_bregma_mm":0.1,"area_mm2":0.3608,"traced_fraction":[0.975],"n_labels":1,"no_drawn_outline":false}},{"type":"Feature","geometry":{"type":"MultiPolygon","coordinates":[[[[1.556,-2.847],[1.57,-2.945],[1.409,-2.974],[1.311,-3.016],[1.156,-3.128],[0.911,-3.381],[0.855,-3.424],[0.673,-3.515],[0.631,-3.508],[0.792,-3.374],[0.792,-3.36],[0.946,-3.199],[1.03,-3.079],[1.128,-2.988],[1.269,-2.903],[1.556,-2.847]]],[[[-1.41,-2.917],[-1.283,-2.931],[-1.15,-2.924],[-1.08,-2.953],[-1.017,-3.002],[-0.954,-3.079],[-0.94,-3.079],[-0.919,-3.142],[-0.863,-3.227],[-0.73,-3.353],[-0.688,-3.417],[-0.589,-3.487],[-0.589,-3.515],[-0.702,-3.487],[-0.786,-3.438],[-0.856,-3.381],[-1.066,-3.156],[-1.15,-3.1],[-1.277,-3.051],[-1.417,-3.023],[-1.746,-3.016],[-1.753,-2.938],[-1.41,-2.917]]]]},"properties":{"abbr":"cg","name":"cingulum","plate":23,"ap_bregma_mm":0.1,"area_mm2":0.2584,"traced_fraction":[0.977,0.987],"n_labels":2,"no_drawn_outline":false}},{"type":"Feature","geometry":{"type":"MultiPolygon","coordinates":[[[[1.556,-2.847],[1.998,-2.847],[2.404,-2.896],[2.741,-2.974],[2.888,-3.023],[3.26,-3.156],[3.421,-3.234],[3.54,-3.325],[3.582,-3.339],[3.582,-3.353],[3.645,-3.417],[3.673,-3.424],[3.681,-3.445],[3.779,-3.515],[3.856,-3.593],[3.919,-3.691],[3.989,-3.761],[4.066,-3.902],[4.094,-3.986],[4.15,-4.19],[4.206,-4.479],[4.192,-4.542],[4.192,-4.83],[4.143,-5.189],[4.122,-5.231],[4.115,-5.316],[4.087,-5.4],[4.094,-5.47],[4.066,-5.491],[4.045,-5.555],[4.038,-5.667],[4.01,-5.681],[3.968,-5.759],[3.94,-5.78],[3.919,-5.843],[3.821,-6.005],[3.779,-6.033],[3.772,-6.061],[3.744,-6.068],[3.603,-6.223],[3.568,-6.23],[3.589,-6.16],[3.772,-5.899],[3.87,-5.716],[3.933,-5.506],[3.989,-5.21],[4.052,-4.704],[4.052,-4.556],[3.989,-4.099],[3.919,-3.93],[3.884,-3.874],[3.765,-3.754],[3.751,-3.754],[3.681,-3.677],[3.435,-3.494],[3.414,-3.466],[3.021,-3.248],[2.797,-3.163],[2.475,-3.086],[2.208,-3.044],[1.956,-3.03],[1.956,-2.953],[1.942,-2.945],[1.57,-2.945],[1.556,-2.847]]],[[[-1.887,-2.938],[-1.753,-2.938],[-1.746,-3.016],[-1.417,-3.023],[-1.277,-3.051],[-1.15,-3.1],[-1.066,-3.156],[-1.038,-3.199],[-0.786,-3.438],[-0.702,-3.487],[-0.589,-3.515],[-0.288,-3.614],[-0.288,-3.761],[-0.372,-3.747],[-0.681,-3.649],[-0.898,-3.621],[-1.094,-3.41],[-1.333,-3.255],[-1.599,-3.178],[-1.844,-3.149],[-2.097,-3.156],[-2.476,-3.227],[-2.924,-3.374],[-3.415,-3.6],[-3.576,-3.712],[-3.674,-3.811],[-3.794,-3.965],[-3.927,-4.197],[-4.053,-4.465],[-4.13,-4.732],[-4.158,-4.901],[-4.151,-5.386],[-4.214,-5.393],[-4.228,-5.203],[-4.221,-4.612],[-4.2,-4.465],[-4.144,-4.268],[-4.109,-4.204],[-4.067,-4.071],[-3.99,-3.944],[-3.941,-3.888],[-3.829,-3.705],[-3.597,-3.48],[-3.359,-3.353],[-3.324,-3.318],[-3.247,-3.29],[-3.219,-3.255],[-3.17,-3.262],[-2.91,-3.142],[-2.665,-3.072],[-2.3,-2.988],[-1.887,-2.938]]]]},"properties":{"abbr":"ec","name":"external capsule","plate":23,"ap_bregma_mm":0.1,"area_mm2":1.7247,"traced_fraction":[0.992,0.987],"n_labels":2,"no_drawn_outline":false}},{"type":"Feature","geometry":{"type":"MultiPolygon","coordinates":[[[[-0.106,-4.936],[-0.148,-5.252],[-0.176,-5.266],[-0.225,-5.266],[-0.26,-5.217],[-0.267,-4.851],[-0.246,-4.69],[-0.246,-4.472],[-0.197,-4.338],[-0.176,-4.317],[-0.155,-4.317],[-0.134,-4.352],[-0.127,-4.479],[-0.127,-4.922],[-0.106,-4.936]]],[[[0.21,-4.865],[0.231,-4.992],[0.231,-5.098],[0.217,-5.154],[0.182,-5.196],[0.14,-5.196],[0.105,-5.154],[0.091,-5.154],[0.035,-4.809],[0.021,-4.563],[0.042,-4.465],[0.042,-4.359],[0.063,-4.331],[0.084,-4.331],[0.112,-4.359],[0.168,-4.591],[0.182,-4.746],[0.21,-4.865]]]]},"properties":{"abbr":"f","name":"fornix","plate":23,"ap_bregma_mm":0.1,"area_mm2":0.2316,"traced_fraction":[1.0,0.993],"n_labels":2,"no_drawn_outline":false}},{"type":"Feature","geometry":{"type":"MultiPolygon","coordinates":[[[[0.112,-4.176],[0.252,-4.254],[0.322,-4.324],[0.392,-4.451],[0.434,-4.584],[0.455,-4.711],[0.448,-4.865],[0.21,-4.865],[0.182,-4.746],[0.168,-4.591],[0.112,-4.359],[0.084,-4.331],[0.063,-4.331],[0.042,-4.359],[0.042,-4.465],[0.021,-4.563],[0.007,-4.563],[-0.014,-4.514],[-0.035,-4.514],[-0.05,-4.535],[-0.071,-4.633],[-0.092,-4.922],[-0.106,-4.936],[-0.127,-4.922],[-0.127,-4.479],[-0.134,-4.352],[-0.155,-4.317],[-0.176,-4.317],[-0.197,-4.338],[-0.246,-4.472],[-0.246,-4.69],[-0.267,-4.851],[-0.547,-4.851],[-0.554,-4.753],[-0.54,-4.655],[-0.463,-4.465],[-0.379,-4.345],[-0.295,-4.261],[-0.141,-4.162],[0.035,-4.155],[0.112,-4.176]]]]},"properties":{"abbr":"fi","name":"fimbria of the hippocampus","plate":23,"ap_bregma_mm":0.1,"area_mm2":0.4091,"traced_fraction":[0.916],"n_labels":2,"no_drawn_outline":false}},{"type":"Feature","geometry":{"type":"MultiPolygon","coordinates":[[[[1.43,-5.456],[1.451,-5.456],[1.521,-5.548],[1.542,-5.738],[1.535,-5.857],[1.514,-5.914],[1.507,-5.991],[1.479,-6.033],[1.451,-6.033],[1.437,-6.005],[1.437,-5.928],[1.465,-5.681],[1.444,-5.562],[1.416,-5.506],[1.416,-5.463],[1.43,-5.456]]],[[[-1.424,-5.548],[-1.424,-5.597],[-1.459,-5.688],[-1.487,-6.047],[-1.515,-6.047],[-1.529,-6.026],[-1.529,-5.759],[-1.473,-5.569],[-1.452,-5.548],[-1.424,-5.548]]]]},"properties":{"abbr":"ic","name":"internal capsule","plate":23,"ap_bregma_mm":0.1,"area_mm2":0.0697,"traced_fraction":[1.0,1.0],"n_labels":2,"no_drawn_outline":false}},{"type":"Feature","geometry":{"type":"MultiPolygon","coordinates":[[[[4.059,-8.234],[3.926,-8.305],[3.667,-8.368],[3.127,-8.382],[2.951,-8.326],[2.993,-8.249],[3.007,-8.249],[3.029,-8.206],[3.084,-8.15],[3.12,-8.122],[3.218,-8.094],[3.491,-8.052],[3.821,-8.066],[3.905,-8.08],[3.989,-8.115],[4.031,-8.157],[4.059,-8.234]]],[[[-3.205,-8.277],[-3.156,-8.326],[-3.12,-8.333],[-3.099,-8.368],[-3.057,-8.375],[-3.092,-8.502],[-3.128,-8.558],[-3.254,-8.572],[-3.45,-8.53],[-3.773,-8.41],[-4.053,-8.27],[-4.088,-8.256],[-4.081,-8.249],[-4.102,-8.241],[-4.081,-8.192],[-4.025,-8.136],[-3.92,-8.101],[-3.829,-8.094],[-3.555,-8.136],[-3.38,-8.199],[-3.247,-8.27],[-3.205,-8.277]]],[[[-3.043,-8.354],[-3.05,-8.368],[-3.057,-8.354],[-3.043,-8.354]]]]},"properties":{"abbr":"lo","name":"lateral olfactory tract","plate":23,"ap_bregma_mm":0.1,"area_mm2":0.5625,"traced_fraction":[1.0,1.0,1.0],"n_labels":2,"no_drawn_outline":false}},{"type":"Feature","geometry":{"type":"MultiPolygon","coordinates":[[[[1.781,-7.489],[1.619,-7.637],[1.598,-7.637],[1.493,-7.573],[1.493,-7.475],[1.773,-7.475],[1.781,-7.489]]],[[[-1.585,-7.756],[-1.662,-7.848],[-1.809,-7.763],[-1.893,-7.735],[-1.893,-7.721],[-1.893,-7.658],[-1.627,-7.658],[-1.627,-7.707],[-1.606,-7.749],[-1.585,-7.756]]]]},"properties":{"abbr":"mfb","name":"medial forebrain bundle","plate":23,"ap_bregma_mm":0.1,"area_mm2":0.0683,"traced_fraction":[0.515,0.517],"n_labels":2,"no_drawn_outline":true}},{"type":"Feature","geometry":{"type":"MultiPolygon","coordinates":[[[[-0.022,-7.862],[0.07,-7.862],[0.105,-7.869],[0.308,-7.897],[0.434,-7.939],[0.652,-8.045],[0.694,-8.08],[0.778,-8.115],[0.799,-8.143],[0.841,-8.157],[0.848,-8.157],[0.911,-8.27],[0.904,-8.354],[0.848,-8.424],[0.708,-8.509],[0.434,-8.572],[0.084,-8.558],[-0.099,-8.516],[-0.351,-8.565],[-0.491,-8.572],[-0.639,-8.572],[-0.765,-8.544],[-0.835,-8.502],[-0.842,-8.481],[-0.884,-8.46],[-0.898,-8.431],[-0.898,-8.403],[-0.779,-8.277],[-0.779,-8.227],[-0.793,-8.206],[-0.765,-8.206],[-0.723,-8.157],[-0.526,-8.009],[-0.302,-7.918],[-0.078,-7.869],[-0.022,-7.862]]]]},"properties":{"abbr":"och","name":"optic chiasm","plate":23,"ap_bregma_mm":0.1,"area_mm2":0.9614,"traced_fraction":[1.0],"n_labels":1,"no_drawn_outline":false}},{"type":"Feature","geometry":{"type":"Polygon","coordinates":[[[1.205,-3.318],[1.17,-3.396],[1.107,-3.452],[1.107,-3.466],[1.093,-3.466],[1.093,-3.48],[1.079,-3.48],[1.079,-3.494],[0.981,-3.6],[0.96,-3.649],[0.96,-3.691],[0.932,-3.691],[0.848,-3.628],[0.855,-3.607],[0.918,-3.571],[0.953,-3.522],[0.981,-3.508],[0.995,-3.48],[1.128,-3.353],[1.205,-3.318]]]},"properties":{"abbr":null,"name":"unnamed sealed face","plate":23,"ap_bregma_mm":0.1,"index":0}},{"type":"Feature","geometry":{"type":"Polygon","coordinates":[[[0.252,-3.621],[0.196,-3.621],[0.189,-3.635],[0.091,-3.642],[0.077,-3.656],[-0.007,-3.656],[-0.014,-3.614],[-0.029,-3.487],[-0.007,-3.403],[0.014,-3.36],[0.035,-3.36],[0.077,-3.445],[0.091,-3.529],[0.252,-3.529],[0.252,-3.621]]]},"properties":{"abbr":null,"name":"unnamed sealed face","plate":23,"ap_bregma_mm":0.1,"index":1}},{"type":"Feature","geometry":{"type":"Polygon","coordinates":[[[-1.101,-4.38],[-1.087,-4.472],[-1.094,-4.577],[-1.143,-4.718],[-1.15,-4.823],[-1.136,-4.859],[-1.136,-5.048],[-1.122,-5.344],[-1.129,-5.484],[-1.157,-5.484],[-1.22,-5.435],[-1.262,-5.358],[-1.262,-5.33],[-1.277,-5.28],[-1.262,-5.048],[-1.347,-5.048],[-1.347,-4.901],[-1.22,-4.901],[-1.199,-4.788],[-1.171,-4.774],[-1.192,-4.746],[-1.199,-4.704],[-1.178,-4.521],[-1.143,-4.415],[-1.115,-4.38],[-1.101,-4.38]]]},"properties":{"abbr":null,"name":"unnamed sealed face","plate":23,"ap_bregma_mm":0.1,"index":2}},{"type":"Feature","geometry":{"type":"Polygon","coordinates":[[[0.245,-5.562],[0.266,-5.562],[0.294,-5.569],[0.224,-5.822],[0.224,-5.885],[0.224,-5.914],[0.168,-6.012],[0.126,-6.23],[0.105,-6.427],[0.112,-6.568],[0.07,-6.575],[0.056,-6.469],[0.084,-5.85],[0.049,-5.78],[0.035,-5.78],[-0.007,-5.724],[0.105,-5.703],[0.175,-5.674],[0.21,-5.639],[0.245,-5.562]]]},"properties":{"abbr":null,"name":"unnamed sealed face","plate":23,"ap_bregma_mm":0.1,"index":3}},{"type":"Feature","geometry":{"type":"Polygon","coordinates":[[[-4.102,-5.914],[-4.067,-5.956],[-4.06,-5.991],[-4.046,-5.998],[-3.955,-6.188],[-3.941,-6.188],[-3.927,-6.223],[-3.892,-6.251],[-3.913,-6.307],[-3.969,-6.286],[-4.039,-6.202],[-4.053,-6.16],[-4.074,-6.146],[-4.116,-6.012],[-4.137,-5.984],[-4.123,-5.97],[-4.123,-5.92],[-4.102,-5.914]]]},"properties":{"abbr":null,"name":"unnamed sealed face","plate":23,"ap_bregma_mm":0.1,"index":4}},{"type":"Feature","geometry":{"type":"Polygon","coordinates":[[[-2.819,-7.531],[-2.84,-7.531],[-2.882,-7.475],[-2.945,-7.426],[-2.945,-7.412],[-2.952,-7.369],[-3.015,-7.285],[-3.065,-7.158],[-3.057,-7.067],[-3.008,-7.067],[-2.945,-7.102],[-2.938,-7.123],[-2.896,-7.151],[-2.847,-7.264],[-2.819,-7.433],[-2.819,-7.531]]]},"properties":{"abbr":null,"name":"unnamed sealed face","plate":23,"ap_bregma_mm":0.1,"index":5}},{"type":"Feature","geometry":{"type":"Polygon","coordinates":[[[-2.167,-7.179],[-2.097,-7.215],[-2.083,-7.236],[-2.083,-7.299],[-2.139,-7.362],[-2.223,-7.369],[-2.279,-7.32],[-2.279,-7.292],[-2.251,-7.236],[-2.188,-7.179],[-2.167,-7.179]]]},"properties":{"abbr":null,"name":"unnamed sealed face","plate":23,"ap_bregma_mm":0.1,"index":6}},{"type":"Feature","geometry":{"type":"Polygon","coordinates":[[[-2.609,-7.264],[-2.539,-7.285],[-2.468,-7.341],[-2.468,-7.355],[-2.412,-7.376],[-2.447,-7.489],[-2.497,-7.531],[-2.553,-7.552],[-2.623,-7.552],[-2.707,-7.531],[-2.707,-7.51],[-2.735,-7.489],[-2.791,-7.376],[-2.791,-7.292],[-2.77,-7.271],[-2.728,-7.264],[-2.679,-7.299],[-2.637,-7.299],[-2.609,-7.264]]]},"properties":{"abbr":null,"name":"unnamed sealed face","plate":23,"ap_bregma_mm":0.1,"index":7}},{"type":"Feature","geometry":{"type":"Polygon","coordinates":[[[0.028,-7.39],[0.077,-7.517],[0.105,-7.644],[0.105,-7.869],[0.07,-7.862],[0.084,-7.826],[0.07,-7.665],[0.035,-7.517],[-0.007,-7.461],[-0.043,-7.489],[-0.064,-7.616],[-0.064,-7.77],[-0.022,-7.862],[-0.078,-7.869],[-0.099,-7.834],[-0.113,-7.63],[-0.099,-7.482],[-0.071,-7.39],[-0.035,-7.306],[-0.014,-7.306],[0.007,-7.327],[0.028,-7.39]]]},"properties":{"abbr":null,"name":"unnamed sealed face","plate":23,"ap_bregma_mm":0.1,"index":8}},{"type":"Feature","geometry":{"type":"Polygon","coordinates":[[[2.853,-7.918],[2.965,-8.087],[3.007,-8.129],[3.084,-8.15],[3.029,-8.206],[3.007,-8.249],[2.993,-8.249],[2.951,-8.326],[2.867,-8.284],[2.797,-8.213],[2.699,-8.291],[2.622,-8.206],[2.489,-8.333],[2.44,-8.354],[2.404,-8.354],[2.404,-8.284],[2.446,-8.206],[2.489,-8.171],[2.601,-8.157],[2.643,-8.136],[2.685,-8.087],[2.713,-8.016],[2.769,-7.974],[2.769,-7.96],[2.811,-7.953],[2.853,-7.918]]]},"properties":{"abbr":null,"name":"unnamed sealed face","plate":23,"ap_bregma_mm":0.1,"index":9}},{"type":"Feature","geometry":{"type":"Polygon","coordinates":[[[1.731,-8.009],[1.759,-8.009],[1.752,-8.122],[1.773,-8.171],[1.815,-8.199],[1.815,-8.213],[1.935,-8.256],[2.124,-8.249],[2.166,-8.263],[2.257,-8.354],[2.313,-8.389],[2.278,-8.403],[2.278,-8.417],[2.229,-8.417],[2.208,-8.41],[2.208,-8.424],[2.166,-8.424],[2.159,-8.41],[2.131,-8.417],[1.97,-8.403],[1.738,-8.34],[1.479,-8.249],[1.346,-8.185],[1.353,-8.143],[1.416,-8.101],[1.633,-8.038],[1.71,-8.03],[1.731,-8.009]]]},"properties":{"abbr":null,"name":"unnamed sealed face","plate":23,"ap_bregma_mm":0.1,"index":10}},{"type":"Feature","geometry":{"type":"Polygon","coordinates":[[[-2.945,-8.03],[-2.924,-8.08],[-2.903,-8.087],[-2.847,-8.171],[-2.77,-8.241],[-2.686,-8.298],[-2.602,-8.319],[-2.574,-8.34],[-2.581,-8.452],[-2.567,-8.509],[-2.581,-8.516],[-2.658,-8.452],[-2.658,-8.438],[-2.784,-8.305],[-2.847,-8.27],[-2.924,-8.27],[-3.029,-8.333],[-3.043,-8.354],[-3.057,-8.354],[-3.05,-8.368],[-3.057,-8.375],[-3.099,-8.368],[-3.12,-8.333],[-3.043,-8.234],[-3.022,-8.164],[-3.022,-8.094],[-2.994,-8.059],[-2.945,-8.03]]]},"properties":{"abbr":null,"name":"unnamed sealed face","plate":23,"ap_bregma_mm":0.1,"index":11}},{"type":"Feature","geometry":{"type":"Polygon","coordinates":[[[-0.723,-8.157],[-0.765,-8.206],[-0.793,-8.206],[-0.842,-8.164],[-0.877,-8.108],[-0.933,-8.08],[-0.933,-8.052],[-0.73,-8.052],[-0.723,-8.157]]]},"properties":{"abbr":null,"name":"unnamed sealed face","plate":23,"ap_bregma_mm":0.1,"index":12}},{"type":"Feature","geometry":{"type":"Polygon","coordinates":[[[-1.774,-8.234],[-1.725,-8.234],[-1.725,-8.256],[-1.704,-8.277],[-1.683,-8.277],[-1.592,-8.333],[-1.55,-8.375],[-1.536,-8.41],[-1.466,-8.375],[-1.368,-8.474],[-1.382,-8.523],[-1.529,-8.537],[-1.578,-8.445],[-1.697,-8.488],[-1.711,-8.467],[-1.711,-8.41],[-1.767,-8.333],[-1.774,-8.234]]]},"properties":{"abbr":null,"name":"unnamed sealed face","plate":23,"ap_bregma_mm":0.1,"index":13}},{"type":"Feature","geometry":{"type":"Polygon","coordinates":[[[-1.943,-8.565],[-1.95,-8.565],[-1.971,-8.558],[-1.971,-8.572],[-2.069,-8.593],[-2.349,-8.586],[-2.356,-8.572],[-2.391,-8.572],[-2.363,-8.474],[-2.279,-8.502],[-2.23,-8.502],[-2.174,-8.467],[-2.125,-8.481],[-2.034,-8.481],[-1.943,-8.544],[-1.943,-8.565]]]},"properties":{"abbr":null,"name":"unnamed sealed face","plate":23,"ap_bregma_mm":0.1,"index":14}},{"type":"Feature","geometry":{"type":"MultiPolygon","coordinates":[[[[-2.09,-8.586],[-2.504,-8.572],[-2.609,-8.495],[-2.791,-8.298],[-2.854,-8.263],[-2.924,-8.263],[-3.036,-8.333],[-3.071,-8.389],[-3.107,-8.509],[-3.142,-8.558],[-3.24,-8.565],[-3.443,-8.523],[-3.766,-8.403],[-4.383,-8.115],[-4.635,-7.981],[-4.859,-7.82],[-4.979,-7.693],[-5.056,-7.559],[-5.091,-7.447],[-5.119,-7.243],[-5.154,-7.102],[-5.21,-6.947],[-5.28,-6.807],[-5.392,-6.645],[-5.771,-6.23],[-5.946,-5.977],[-6.051,-5.745],[-6.135,-5.506],[-6.205,-5.273],[-6.255,-5.034],[-6.269,-4.901],[-6.262,-4.507],[-6.22,-4.204],[-6.156,-3.951],[-6.065,-3.691],[-5.946,-3.445],[-5.82,-3.227],[-5.645,-2.995],[-5.441,-2.77],[-5.245,-2.587],[-4.979,-2.376],[-4.698,-2.186],[-4.488,-2.066],[-4.081,-1.869],[-3.632,-1.694],[-3.247,-1.574],[-2.812,-1.468],[-1.964,-1.314],[-1.55,-1.264],[-1.22,-1.243],[-0.723,-1.279],[-0.421,-1.335],[-0.218,-1.433],[-0.12,-1.525],[-0.035,-1.637],[0.07,-1.651],[0.189,-1.504],[0.28,-1.426],[0.413,-1.349],[0.575,-1.286],[0.708,-1.25],[1.009,-1.201],[1.198,-1.187],[1.612,-1.187],[2.075,-1.222],[2.369,-1.258],[3.007,-1.377],[3.681,-1.56],[4.192,-1.743],[4.452,-1.855],[4.739,-2.003],[5.111,-2.235],[5.37,-2.474],[5.63,-2.741],[5.791,-2.924],[5.959,-3.149],[6.043,-3.304],[6.106,-3.508],[6.17,-3.782],[6.212,-4.134],[6.212,-4.584],[6.148,-4.985],[6.085,-5.21],[6.008,-5.4],[5.896,-5.597],[5.777,-5.759],[5.461,-6.068],[5.16,-6.518],[5.097,-6.582],[4.908,-6.722],[4.866,-6.779],[4.83,-6.884],[4.879,-7.088],[4.879,-7.208],[4.802,-7.454],[4.69,-7.658],[4.564,-7.82],[4.347,-8.03],[4.087,-8.213],[3.912,-8.298],[3.772,-8.34],[3.639,-8.361],[3.141,-8.375],[2.972,-8.333],[2.86,-8.27],[2.79,-8.206],[2.702,-8.287],[2.622,-8.199],[2.482,-8.326],[2.376,-8.382],[2.271,-8.41],[2.159,-8.417],[1.942,-8.389],[1.724,-8.326],[1.486,-8.241],[1.128,-8.08],[0.96,-8.03],[0.848,-8.094],[0.869,-8.045],[0.848,-8.087],[0.841,-8.143],[0.904,-8.27],[0.897,-8.347],[0.827,-8.431],[0.715,-8.495],[0.539,-8.544],[0.406,-8.565],[0.098,-8.551],[-0.12,-8.509],[-0.372,-8.558],[-0.624,-8.565],[-0.786,-8.53],[-0.891,-8.445],[-0.898,-8.403],[-0.793,-8.291],[-0.779,-8.27],[-0.779,-8.227],[-0.884,-8.101],[-0.933,-8.073],[-0.989,-8.066],[-1.0,-8.199],[-1.044,-8.19],[-1.087,-8.094],[-1.473,-8.368],[-1.377,-8.472],[-1.386,-8.516],[-1.526,-8.533],[-1.585,-8.438],[-1.859,-8.544],[-2.062,-8.579],[-2.09,-8.586]]]]},"properties":{"abbr":"brain_outline","name":"outline of the section","plate":23,"ap_bregma_mm":0.1}}]}
