{"type":"FeatureCollection","name":"GerbilAtlas plate 18","note":"Region extents cut from the atlas drawing (METHODS.md, Region extents). Coordinates are [ML, DV] in mm, ML positive to the right of the plate as printed, DV negative below the dorsal surface; AP is the plate bregma. traced_fraction is the share of each polygon boundary the atlas actually draws; below 0.5 the boundary is an estimate. no_drawn_outline marks a feature that lies only inside boundaries the atlas draws round more than one name and prints nothing within, so the whole of its outline is where the extraction cut it. Not a segmentation.","plate":18,"ap_bregma_mm":1.85,"features":[{"type":"Feature","geometry":{"type":"MultiPolygon","coordinates":[[[[1.745,-1.528],[1.724,-2.604],[1.731,-2.92],[1.717,-3.026],[1.71,-3.37],[1.577,-3.37],[1.429,-3.405],[1.401,-3.349],[1.142,-3.033],[1.002,-2.829],[0.77,-2.547],[0.756,-2.512],[0.63,-2.365],[0.546,-2.238],[0.392,-2.062],[0.273,-1.893],[0.202,-1.823],[0.202,-1.809],[0.273,-1.753],[0.287,-1.724],[0.378,-1.675],[0.378,-1.661],[0.448,-1.626],[0.665,-1.563],[0.826,-1.535],[1.142,-1.507],[1.464,-1.507],[1.745,-1.528]]],[[[-0.169,-1.886],[-0.457,-2.252],[-0.548,-2.4],[-0.709,-2.618],[-1.284,-3.574],[-1.41,-3.518],[-1.508,-3.504],[-1.67,-3.49],[-1.782,-1.612],[-1.543,-1.591],[-1.095,-1.584],[-0.688,-1.633],[-0.401,-1.718],[-0.239,-1.809],[-0.169,-1.886]]]]},"properties":{"abbr":"M2","name":"secondary motor cortex","plate":18,"ap_bregma_mm":1.85,"area_mm2":3.8091,"traced_fraction":[1.0,1.0],"n_labels":2,"no_drawn_outline":false}},{"type":"Feature","geometry":{"type":"MultiPolygon","coordinates":[[[[1.745,-1.528],[2.053,-1.563],[2.551,-1.675],[2.93,-1.795],[3.196,-1.928],[2.397,-3.518],[2.383,-3.567],[2.039,-3.434],[1.787,-3.384],[1.71,-3.37],[1.717,-3.026],[1.731,-2.92],[1.724,-2.604],[1.745,-1.528]]],[[[-1.782,-1.612],[-1.67,-3.49],[-2.013,-3.532],[-2.181,-3.581],[-2.308,-3.645],[-2.336,-3.645],[-2.378,-3.581],[-2.406,-3.49],[-2.483,-3.342],[-2.588,-3.082],[-2.672,-2.927],[-2.784,-2.66],[-3.086,-2.041],[-3.086,-2.02],[-2.728,-1.851],[-2.287,-1.703],[-1.985,-1.633],[-1.782,-1.612]]]]},"properties":{"abbr":"M1","name":"primary motor cortex","plate":18,"ap_bregma_mm":1.85,"area_mm2":3.9201,"traced_fraction":[1.0,1.0],"n_labels":2,"no_drawn_outline":false}},{"type":"Feature","geometry":{"type":"MultiPolygon","coordinates":[[[[3.196,-1.928],[3.519,-2.09],[3.855,-2.301],[3.869,-2.322],[3.975,-2.386],[3.975,-2.4],[4.157,-2.519],[4.43,-2.765],[4.395,-2.808],[4.136,-2.934],[3.841,-3.117],[3.47,-3.314],[3.428,-3.349],[3.407,-3.349],[3.393,-3.37],[3.245,-3.455],[2.614,-3.764],[2.383,-3.567],[2.397,-3.518],[3.196,-1.928]]],[[[-3.086,-2.02],[-3.086,-2.041],[-2.784,-2.66],[-2.672,-2.927],[-2.588,-3.082],[-2.483,-3.342],[-2.406,-3.49],[-2.378,-3.581],[-2.336,-3.645],[-2.385,-3.694],[-2.546,-3.799],[-2.658,-3.905],[-2.721,-3.849],[-2.89,-3.743],[-3.009,-3.638],[-3.044,-3.624],[-3.121,-3.553],[-3.149,-3.546],[-3.17,-3.518],[-3.205,-3.504],[-3.465,-3.3],[-3.5,-3.258],[-3.731,-3.075],[-4.033,-2.794],[-4.047,-2.794],[-4.201,-2.639],[-4.201,-2.625],[-3.997,-2.484],[-3.878,-2.428],[-3.689,-2.308],[-3.261,-2.09],[-3.086,-2.02]]]]},"properties":{"abbr":"S1FL","name":"primary somatosensory cortex, forelimb region","plate":18,"ap_bregma_mm":1.85,"area_mm2":3.375,"traced_fraction":[1.0,1.0],"n_labels":2,"no_drawn_outline":false}},{"type":"Feature","geometry":{"type":"MultiPolygon","coordinates":[[[[-4.383,-2.751],[-4.376,-2.758],[-4.299,-2.843],[-4.201,-2.906],[-3.969,-3.11],[-3.766,-3.251],[-3.654,-3.349],[-3.198,-3.652],[-3.128,-3.68],[-3.009,-3.764],[-2.827,-3.856],[-2.777,-3.891],[-2.763,-3.94],[-3.521,-3.968],[-5.091,-3.982],[-5.098,-3.989],[-5.105,-3.989],[-5.119,-3.87],[-5.105,-3.659],[-5.0,-3.384],[-4.916,-3.286],[-4.818,-3.138],[-4.509,-2.843],[-4.383,-2.751]]],[[[4.599,-2.934],[4.641,-2.962],[4.753,-3.11],[4.795,-3.145],[4.928,-3.37],[4.977,-3.539],[4.97,-3.792],[3.841,-3.842],[3.154,-3.856],[2.699,-3.849],[2.67,-3.863],[2.656,-3.849],[2.656,-3.82],[3.161,-3.595],[3.4,-3.504],[3.561,-3.413],[3.722,-3.356],[3.743,-3.335],[4.248,-3.11],[4.416,-3.019],[4.521,-2.983],[4.599,-2.934]]]]},"properties":{"abbr":"S1J","name":"primary somatosensory cortex, jaw region","plate":18,"ap_bregma_mm":1.85,"area_mm2":2.7066,"traced_fraction":[1.0,1.0],"n_labels":2,"no_drawn_outline":false}},{"type":"Feature","geometry":{"type":"MultiPolygon","coordinates":[[[[-4.201,-2.625],[-4.201,-2.639],[-4.047,-2.794],[-4.033,-2.794],[-3.983,-2.85],[-3.969,-2.85],[-3.92,-2.906],[-3.906,-2.906],[-3.731,-3.075],[-3.5,-3.258],[-3.465,-3.3],[-3.205,-3.504],[-3.17,-3.518],[-3.149,-3.546],[-3.121,-3.553],[-3.1,-3.581],[-3.009,-3.638],[-2.89,-3.743],[-2.721,-3.849],[-2.658,-3.905],[-2.658,-3.919],[-2.693,-3.947],[-2.763,-3.94],[-2.777,-3.891],[-2.827,-3.856],[-3.009,-3.764],[-3.128,-3.68],[-3.198,-3.652],[-3.654,-3.349],[-3.766,-3.251],[-3.969,-3.11],[-4.201,-2.906],[-4.299,-2.843],[-4.376,-2.758],[-4.383,-2.751],[-4.201,-2.625]]],[[[4.43,-2.765],[4.486,-2.801],[4.599,-2.934],[4.521,-2.983],[4.416,-3.019],[4.395,-3.04],[3.89,-3.265],[3.764,-3.335],[3.729,-3.342],[3.722,-3.356],[3.561,-3.413],[3.4,-3.504],[3.161,-3.595],[2.656,-3.82],[2.642,-3.82],[2.614,-3.764],[3.245,-3.455],[3.393,-3.37],[3.407,-3.349],[3.428,-3.349],[3.47,-3.314],[3.841,-3.117],[4.136,-2.934],[4.395,-2.808],[4.43,-2.765]]]]},"properties":{"abbr":"S1DZ","name":"primary somatosensory cortex, dysgranular zone","plate":18,"ap_bregma_mm":1.85,"area_mm2":0.5864,"traced_fraction":[1.0,1.0],"n_labels":2,"no_drawn_outline":false}},{"type":"Feature","geometry":{"type":"MultiPolygon","coordinates":[[[[1.787,-3.384],[2.039,-3.434],[2.383,-3.567],[2.614,-3.764],[2.642,-3.82],[2.656,-3.82],[2.656,-3.849],[2.67,-3.863],[2.705,-3.968],[2.712,-4.123],[2.699,-4.271],[2.712,-4.285],[2.699,-4.285],[2.677,-4.327],[2.635,-4.531],[2.579,-4.693],[2.537,-4.875],[2.467,-5.093],[2.418,-5.185],[2.425,-5.206],[2.404,-5.213],[2.397,-5.241],[2.306,-5.361],[2.222,-5.438],[2.208,-5.459],[2.215,-5.487],[2.159,-5.501],[2.046,-5.628],[1.99,-5.663],[1.997,-5.579],[2.025,-5.501],[2.116,-5.326],[2.278,-5.079],[2.348,-4.911],[2.404,-4.629],[2.425,-4.264],[2.383,-4.06],[2.306,-3.919],[2.194,-3.806],[2.102,-3.743],[1.997,-3.701],[1.871,-3.694],[1.689,-3.743],[1.57,-3.82],[1.451,-3.933],[0.939,-4.721],[0.826,-4.861],[0.658,-5.115],[0.616,-5.368],[0.602,-5.544],[0.616,-5.832],[0.616,-5.867],[0.532,-5.874],[0.427,-5.783],[0.399,-5.712],[0.392,-5.705],[0.392,-5.677],[0.385,-5.67],[0.385,-5.635],[0.427,-5.628],[0.427,-5.473],[0.385,-5.473],[0.399,-5.396],[0.406,-5.361],[0.406,-5.354],[0.399,-5.333],[0.371,-5.333],[0.364,-5.319],[0.357,-5.283],[0.301,-5.206],[0.301,-5.143],[0.35,-5.037],[0.637,-4.65],[0.826,-4.341],[1.093,-3.954],[1.121,-3.891],[1.226,-3.764],[1.254,-3.687],[1.275,-3.673],[1.324,-3.574],[1.387,-3.511],[1.478,-3.462],[1.598,-3.434],[1.773,-3.427],[1.787,-3.384]]],[[[-1.67,-3.49],[-1.508,-3.504],[-1.515,-3.56],[-1.445,-3.567],[-1.326,-3.624],[-1.326,-3.638],[-1.291,-3.652],[-1.291,-3.666],[-1.277,-3.666],[-1.221,-3.729],[-1.193,-3.792],[-1.172,-3.806],[-1.158,-3.842],[-1.137,-3.849],[-1.123,-3.912],[-1.004,-4.088],[-0.884,-4.32],[-0.765,-4.482],[-0.611,-4.756],[-0.583,-4.777],[-0.492,-4.932],[-0.38,-5.072],[-0.352,-5.129],[-0.352,-5.185],[-0.394,-5.241],[-0.688,-5.241],[-0.695,-5.241],[-0.695,-5.22],[-0.842,-4.925],[-0.905,-4.833],[-1.018,-4.615],[-1.27,-4.221],[-1.452,-3.975],[-1.55,-3.877],[-1.712,-3.799],[-1.824,-3.778],[-1.908,-3.778],[-2.062,-3.813],[-2.259,-3.919],[-2.364,-4.024],[-2.42,-4.102],[-2.483,-4.221],[-2.532,-4.355],[-2.574,-4.622],[-2.553,-4.953],[-2.497,-5.178],[-2.357,-5.41],[-2.223,-5.544],[-2.153,-5.635],[-2.139,-5.663],[-2.146,-5.769],[-2.174,-5.762],[-2.217,-5.705],[-2.322,-5.614],[-2.378,-5.551],[-2.476,-5.487],[-2.574,-5.389],[-2.609,-5.333],[-2.623,-5.333],[-2.63,-5.319],[-2.637,-5.248],[-2.693,-5.1],[-2.777,-4.608],[-2.798,-4.39],[-2.791,-4.214],[-2.763,-4.088],[-2.721,-3.996],[-2.693,-3.968],[-2.693,-3.947],[-2.658,-3.919],[-2.658,-3.905],[-2.546,-3.799],[-2.385,-3.694],[-2.336,-3.645],[-2.308,-3.645],[-2.181,-3.581],[-2.013,-3.532],[-1.67,-3.49]]]]},"properties":{"abbr":"fmi","name":"forceps minor of the corpus callosum","plate":18,"ap_bregma_mm":1.85,"area_mm2":2.6873,"traced_fraction":[0.982,0.976],"n_labels":2,"no_drawn_outline":false}},{"type":"Feature","geometry":{"type":"MultiPolygon","coordinates":[[[[1.71,-3.37],[1.787,-3.384],[1.773,-3.427],[1.598,-3.434],[1.478,-3.462],[1.387,-3.511],[1.324,-3.574],[1.31,-3.617],[1.254,-3.687],[1.226,-3.764],[1.121,-3.891],[1.093,-3.954],[0.826,-4.341],[0.637,-4.65],[0.35,-5.037],[0.301,-5.143],[0.301,-5.206],[0.357,-5.283],[0.364,-5.319],[0.308,-5.297],[0.216,-5.199],[0.174,-5.178],[0.174,-5.129],[0.216,-5.093],[0.237,-5.044],[0.371,-4.897],[0.385,-4.861],[0.504,-4.714],[0.504,-4.693],[0.546,-4.657],[0.693,-4.446],[0.721,-4.425],[0.84,-4.249],[0.847,-4.221],[0.875,-4.2],[0.883,-4.172],[0.967,-4.06],[1.044,-3.912],[1.079,-3.877],[1.149,-3.715],[1.184,-3.68],[1.226,-3.588],[1.359,-3.455],[1.415,-3.427],[1.429,-3.405],[1.521,-3.377],[1.71,-3.37]]],[[[-1.116,-3.842],[-1.067,-3.877],[-1.032,-3.94],[-1.018,-3.989],[-0.87,-4.221],[-0.737,-4.475],[-0.583,-4.7],[-0.45,-4.911],[-0.323,-5.072],[-0.274,-5.185],[-0.26,-5.185],[-0.26,-5.206],[-0.309,-5.227],[-0.443,-5.361],[-0.499,-5.445],[-0.527,-5.431],[-0.52,-5.396],[-0.492,-5.347],[-0.394,-5.241],[-0.352,-5.185],[-0.352,-5.129],[-0.38,-5.072],[-0.492,-4.932],[-0.583,-4.777],[-0.611,-4.756],[-0.765,-4.482],[-0.884,-4.32],[-1.004,-4.088],[-1.123,-3.912],[-1.137,-3.849],[-1.116,-3.842]]]]},"properties":{"abbr":"cg","name":"cingulum","plate":18,"ap_bregma_mm":1.85,"area_mm2":0.2597,"traced_fraction":[1.0,1.0],"n_labels":2,"no_drawn_outline":false}},{"type":"Feature","geometry":{"type":"MultiPolygon","coordinates":[[[[0.034,-3.82],[1.016,-3.898],[1.044,-3.912],[0.967,-4.06],[0.883,-4.172],[0.875,-4.2],[0.847,-4.221],[0.84,-4.249],[0.721,-4.425],[0.693,-4.446],[0.546,-4.657],[0.504,-4.693],[0.273,-4.657],[0.069,-4.657],[0.048,-4.475],[0.02,-4.369],[-0.001,-4.341],[-0.029,-4.355],[-0.057,-4.425],[-0.092,-4.566],[-0.099,-4.657],[-0.316,-4.657],[-0.527,-4.679],[-0.583,-4.7],[-0.737,-4.475],[-0.87,-4.221],[-1.018,-3.989],[-1.032,-3.94],[-0.604,-3.877],[-0.029,-3.827],[-0.022,-3.856],[0.006,-3.863],[0.034,-3.82]]]]},"properties":{"abbr":"IL","name":"infralimbic cortex","plate":18,"ap_bregma_mm":1.85,"area_mm2":1.2917,"traced_fraction":[1.0],"n_labels":2,"no_drawn_outline":false}},{"type":"Feature","geometry":{"type":"MultiPolygon","coordinates":[[[[4.886,-4.088],[4.844,-4.186],[4.781,-4.271],[4.732,-4.369],[4.262,-5.002],[4.206,-4.967],[3.757,-4.777],[3.449,-4.622],[3.21,-4.524],[2.797,-4.313],[2.712,-4.285],[2.699,-4.271],[2.712,-4.123],[2.705,-3.968],[2.776,-3.954],[3.217,-3.989],[4.115,-4.031],[4.269,-4.053],[4.823,-4.074],[4.886,-4.088]]],[[[-2.763,-4.088],[-2.791,-4.214],[-2.798,-4.39],[-2.848,-4.397],[-2.939,-4.453],[-4.082,-5.023],[-4.089,-5.037],[-4.355,-5.164],[-4.397,-5.192],[-4.404,-5.213],[-4.593,-5.002],[-4.86,-4.608],[-5.007,-4.32],[-5.021,-4.264],[-4.965,-4.242],[-4.488,-4.214],[-3.661,-4.137],[-3.514,-4.137],[-2.897,-4.081],[-2.763,-4.088]]]]},"properties":{"abbr":"S1ULp","name":"primary somatosensory cortex, upper lip region","plate":18,"ap_bregma_mm":1.85,"area_mm2":2.7122,"traced_fraction":[1.0,1.0],"n_labels":2,"no_drawn_outline":false}},{"type":"Feature","geometry":{"type":"MultiPolygon","coordinates":[[[[1.99,-5.663],[1.941,-5.825],[1.948,-5.973],[1.927,-6.12],[1.885,-6.226],[1.871,-6.324],[1.857,-6.324],[1.829,-6.359],[1.829,-6.381],[1.787,-6.444],[1.759,-6.437],[1.654,-6.324],[1.493,-6.198],[1.121,-5.973],[0.819,-5.853],[0.714,-5.832],[0.616,-5.832],[0.602,-5.544],[0.616,-5.368],[0.658,-5.115],[0.826,-4.861],[0.939,-4.721],[1.451,-3.933],[1.57,-3.82],[1.689,-3.743],[1.871,-3.694],[1.997,-3.701],[2.102,-3.743],[2.194,-3.806],[2.306,-3.919],[2.383,-4.06],[2.425,-4.264],[2.404,-4.629],[2.348,-4.911],[2.278,-5.079],[2.116,-5.326],[2.025,-5.501],[1.997,-5.579],[1.99,-5.663]]],[[[-0.695,-5.241],[-0.8,-5.241],[-0.8,-5.396],[-0.695,-5.396],[-0.702,-5.642],[-0.73,-5.86],[-0.87,-5.86],[-1.102,-5.895],[-1.291,-5.952],[-1.445,-6.015],[-1.452,-6.029],[-1.501,-6.043],[-1.621,-6.113],[-1.761,-6.212],[-1.978,-6.43],[-1.992,-6.479],[-2.006,-6.479],[-2.006,-6.458],[-2.076,-6.338],[-2.132,-6.106],[-2.146,-5.769],[-2.139,-5.663],[-2.153,-5.635],[-2.223,-5.544],[-2.357,-5.41],[-2.497,-5.178],[-2.553,-4.953],[-2.574,-4.622],[-2.532,-4.355],[-2.483,-4.221],[-2.42,-4.102],[-2.364,-4.024],[-2.259,-3.919],[-2.062,-3.813],[-1.908,-3.778],[-1.824,-3.778],[-1.712,-3.799],[-1.55,-3.877],[-1.452,-3.975],[-1.27,-4.221],[-1.06,-4.545],[-0.941,-4.749],[-0.905,-4.833],[-0.842,-4.925],[-0.695,-5.22],[-0.695,-5.241]]]]},"properties":{"abbr":"CPu","name":"caudate putamen (striatum)","plate":18,"ap_bregma_mm":1.85,"area_mm2":6.2806,"traced_fraction":[1.0,0.954],"n_labels":2,"no_drawn_outline":false}},{"type":"Feature","geometry":{"type":"MultiPolygon","coordinates":[[[[-0.099,-4.657],[-0.12,-4.777],[-0.12,-5.03],[-0.099,-5.241],[-0.05,-5.48],[-0.029,-5.48],[-0.015,-5.445],[0.027,-5.192],[0.055,-4.96],[0.069,-4.657],[0.273,-4.657],[0.504,-4.693],[0.504,-4.714],[0.385,-4.861],[0.371,-4.897],[0.237,-5.044],[0.216,-5.093],[0.174,-5.129],[0.16,-5.115],[0.174,-4.925],[0.167,-4.911],[0.139,-4.911],[0.111,-4.953],[0.097,-5.023],[0.097,-5.185],[0.111,-5.227],[0.104,-5.361],[0.076,-5.459],[0.013,-5.6],[0.02,-5.776],[0.034,-5.811],[0.083,-5.839],[0.09,-5.888],[0.055,-5.895],[-0.064,-5.86],[-0.169,-5.867],[-0.148,-5.797],[-0.148,-5.733],[-0.218,-5.382],[-0.218,-5.319],[-0.183,-5.185],[-0.19,-4.988],[-0.218,-4.953],[-0.239,-4.967],[-0.239,-5.108],[-0.26,-5.185],[-0.274,-5.185],[-0.323,-5.072],[-0.45,-4.911],[-0.583,-4.7],[-0.527,-4.679],[-0.316,-4.657],[-0.099,-4.657]]]]},"properties":{"abbr":"DP","name":"dorsal peduncular cortex","plate":18,"ap_bregma_mm":1.85,"area_mm2":0.427,"traced_fraction":[1.0],"n_labels":2,"no_drawn_outline":false}},{"type":"Feature","geometry":{"type":"MultiPolygon","coordinates":[[[[2.712,-4.285],[2.797,-4.313],[3.21,-4.524],[3.449,-4.622],[3.757,-4.777],[3.89,-4.826],[4.262,-5.002],[4.038,-5.304],[3.785,-5.621],[3.778,-5.628],[3.771,-5.628],[3.631,-5.53],[3.372,-5.382],[3.309,-5.326],[2.916,-5.1],[2.79,-5.009],[2.649,-4.925],[2.537,-4.875],[2.551,-4.791],[2.635,-4.531],[2.677,-4.327],[2.699,-4.285],[2.712,-4.285]]],[[[-2.798,-4.39],[-2.777,-4.608],[-2.693,-5.1],[-2.777,-5.136],[-3.45,-5.544],[-3.787,-5.769],[-3.815,-5.776],[-3.857,-5.811],[-3.857,-5.825],[-4.292,-5.361],[-4.404,-5.213],[-4.404,-5.199],[-4.355,-5.164],[-4.089,-5.037],[-4.082,-5.023],[-2.939,-4.453],[-2.848,-4.397],[-2.798,-4.39]]]]},"properties":{"abbr":"S2","name":"secondary somatosensory cortex","plate":18,"ap_bregma_mm":1.85,"area_mm2":2.2608,"traced_fraction":[1.0,1.0],"n_labels":2,"no_drawn_outline":false}},{"type":"Feature","geometry":{"type":"MultiPolygon","coordinates":[[[[-0.169,-5.867],[-0.218,-5.867],[-0.232,-5.853],[-0.197,-5.733],[-0.267,-5.354],[-0.26,-5.206],[-0.26,-5.185],[-0.239,-5.108],[-0.239,-4.967],[-0.218,-4.953],[-0.19,-4.988],[-0.183,-5.185],[-0.218,-5.319],[-0.218,-5.382],[-0.148,-5.733],[-0.148,-5.797],[-0.169,-5.867]]]]},"properties":{"abbr":"IG","name":"indusium griseum","plate":18,"ap_bregma_mm":1.85,"area_mm2":0.0482,"traced_fraction":[1.0],"n_labels":1,"no_drawn_outline":false}},{"type":"Feature","geometry":{"type":"MultiPolygon","coordinates":[[[[2.537,-4.875],[2.649,-4.925],[2.79,-5.009],[2.916,-5.1],[3.309,-5.326],[3.372,-5.382],[3.631,-5.53],[3.771,-5.628],[3.771,-5.635],[3.75,-5.663],[3.743,-5.656],[3.743,-5.67],[3.603,-5.839],[3.596,-5.832],[3.582,-5.811],[3.428,-5.719],[3.014,-5.431],[2.797,-5.304],[2.628,-5.178],[2.6,-5.171],[2.516,-5.108],[2.467,-5.093],[2.537,-4.875]]],[[[-2.693,-5.1],[-2.637,-5.248],[-2.63,-5.319],[-2.672,-5.326],[-2.812,-5.417],[-2.946,-5.523],[-3.226,-5.705],[-3.247,-5.733],[-3.275,-5.74],[-3.507,-5.895],[-3.521,-5.916],[-3.612,-5.966],[-3.682,-6.029],[-3.857,-5.825],[-3.857,-5.811],[-3.815,-5.776],[-3.787,-5.769],[-3.45,-5.544],[-2.777,-5.136],[-2.693,-5.1]]],[[[3.771,-5.628],[3.778,-5.628],[3.771,-5.635],[3.771,-5.628]]]]},"properties":{"abbr":"GI","name":"granular insular cortex","plate":18,"ap_bregma_mm":1.85,"area_mm2":0.6744,"traced_fraction":[1.0,1.0,1.0],"n_labels":2,"no_drawn_outline":false}},{"type":"Feature","geometry":{"type":"MultiPolygon","coordinates":[[[[2.467,-5.093],[2.516,-5.108],[2.544,-5.136],[2.628,-5.178],[2.797,-5.304],[3.014,-5.431],[3.154,-5.537],[3.582,-5.811],[3.596,-5.832],[3.603,-5.839],[3.421,-6.057],[2.937,-5.727],[2.825,-5.635],[2.748,-5.593],[2.53,-5.424],[2.467,-5.396],[2.467,-5.276],[2.453,-5.234],[2.425,-5.206],[2.418,-5.185],[2.467,-5.093]]],[[[-2.63,-5.319],[-2.623,-5.333],[-2.63,-5.445],[-2.609,-5.544],[-2.784,-5.677],[-2.995,-5.811],[-3.093,-5.895],[-3.142,-5.916],[-3.31,-6.043],[-3.387,-6.085],[-3.437,-6.134],[-3.535,-6.191],[-3.549,-6.191],[-3.577,-6.155],[-3.591,-6.141],[-3.682,-6.029],[-3.612,-5.966],[-3.563,-5.944],[-3.275,-5.74],[-3.247,-5.733],[-3.226,-5.705],[-2.946,-5.523],[-2.812,-5.417],[-2.672,-5.326],[-2.63,-5.319]]]]},"properties":{"abbr":"DI","name":"dysgranular insular cortex","plate":18,"ap_bregma_mm":1.85,"area_mm2":0.6199,"traced_fraction":[1.0,0.989],"n_labels":2,"no_drawn_outline":false}},{"type":"Feature","geometry":{"type":"MultiPolygon","coordinates":[[[[2.215,-5.487],[2.25,-5.537],[2.264,-5.558],[2.236,-5.593],[2.201,-5.719],[2.152,-5.811],[2.116,-6.001],[2.081,-6.036],[2.025,-6.036],[1.976,-6.001],[1.962,-5.973],[1.948,-5.973],[1.941,-5.825],[1.99,-5.663],[2.046,-5.628],[2.159,-5.501],[2.215,-5.487]]],[[[-2.322,-5.614],[-2.294,-5.628],[-2.174,-5.762],[-2.146,-5.769],[-2.132,-6.106],[-2.223,-6.113],[-2.287,-6.064],[-2.329,-5.966],[-2.399,-5.874],[-2.427,-5.811],[-2.434,-5.691],[-2.399,-5.635],[-2.322,-5.614]]]]},"properties":{"abbr":"VCl","name":"ventral part of claustrum","plate":18,"ap_bregma_mm":1.85,"area_mm2":0.1963,"traced_fraction":[1.0,1.0],"n_labels":2,"no_drawn_outline":false}},{"type":"Feature","geometry":{"type":"MultiPolygon","coordinates":[[[[1.948,-5.973],[1.962,-5.973],[1.976,-6.001],[2.025,-6.036],[2.081,-6.036],[2.116,-6.001],[2.187,-6.057],[2.187,-6.092],[2.215,-6.134],[2.257,-6.296],[2.25,-6.451],[2.222,-6.507],[2.201,-6.521],[2.187,-6.5],[2.095,-6.507],[1.983,-6.486],[1.871,-6.437],[1.871,-6.324],[1.885,-6.226],[1.927,-6.12],[1.948,-5.973]]],[[[-2.287,-6.064],[-2.223,-6.113],[-2.132,-6.106],[-2.076,-6.338],[-2.02,-6.43],[-2.006,-6.479],[-1.992,-6.479],[-1.992,-6.493],[-2.006,-6.493],[-2.006,-6.507],[-2.09,-6.592],[-2.125,-6.606],[-2.202,-6.613],[-2.322,-6.584],[-2.399,-6.542],[-2.448,-6.416],[-2.441,-6.317],[-2.371,-6.205],[-2.35,-6.141],[-2.308,-6.071],[-2.287,-6.064]]]]},"properties":{"abbr":"DEn","name":"dorsal endopiriform nucleus","plate":18,"ap_bregma_mm":1.85,"area_mm2":0.3244,"traced_fraction":[1.0,1.0],"n_labels":2,"no_drawn_outline":false}},{"type":"Feature","geometry":{"type":"MultiPolygon","coordinates":[[[[-0.541,-5.565],[-0.492,-5.593],[-0.485,-5.621],[-0.464,-5.635],[-0.415,-5.719],[-0.344,-5.79],[-0.331,-5.825],[-0.26,-6.289],[-0.211,-6.395],[-0.148,-6.451],[-0.169,-6.732],[-0.26,-6.732],[-0.344,-6.704],[-0.386,-6.704],[-0.429,-6.584],[-0.52,-6.402],[-0.513,-6.261],[-0.541,-6.134],[-0.604,-6.015],[-0.674,-5.937],[-0.562,-5.586],[-0.541,-5.565]]],[[[0.392,-5.712],[0.399,-5.712],[0.427,-5.783],[0.532,-5.874],[0.448,-5.98],[0.378,-6.113],[0.315,-6.338],[0.266,-6.43],[0.266,-6.458],[0.245,-6.479],[0.181,-6.69],[0.111,-6.683],[0.034,-6.711],[-0.092,-6.711],[-0.092,-6.514],[-0.106,-6.43],[-0.036,-6.409],[0.076,-6.282],[0.118,-6.17],[0.139,-6.022],[0.209,-5.853],[0.392,-5.712]]]]},"properties":{"abbr":"LSI","name":"lateral septal nucleus, intermediate part","plate":18,"ap_bregma_mm":1.85,"area_mm2":0.5694,"traced_fraction":[1.0,1.0],"n_labels":2,"no_drawn_outline":false}},{"type":"Feature","geometry":{"type":"MultiPolygon","coordinates":[[[[0.616,-5.832],[0.714,-5.832],[0.819,-5.853],[1.121,-5.973],[1.493,-6.198],[1.654,-6.324],[1.759,-6.437],[1.787,-6.444],[1.759,-6.514],[1.717,-6.556],[1.654,-6.507],[1.605,-6.507],[1.577,-6.528],[1.57,-6.556],[1.556,-6.556],[1.542,-6.606],[1.464,-6.613],[1.478,-6.528],[1.429,-6.444],[1.394,-6.43],[1.324,-6.43],[1.261,-6.5],[1.247,-6.556],[1.254,-6.627],[1.275,-6.683],[1.352,-6.774],[1.436,-6.817],[1.493,-6.817],[1.506,-6.803],[1.493,-6.739],[1.549,-6.732],[1.577,-6.774],[1.619,-6.795],[1.584,-6.845],[1.549,-6.936],[1.506,-7.056],[1.478,-7.084],[1.436,-7.07],[1.233,-7.056],[1.016,-6.999],[0.735,-6.873],[0.651,-6.788],[0.581,-6.641],[0.546,-6.43],[0.553,-6.212],[0.588,-6.029],[0.623,-5.944],[0.616,-5.867],[0.616,-5.832]]],[[[-0.73,-5.86],[-0.716,-5.923],[-0.737,-5.937],[-0.765,-6.261],[-0.807,-6.465],[-0.884,-6.669],[-0.983,-6.824],[-1.13,-6.964],[-1.312,-7.063],[-1.508,-7.126],[-1.67,-7.147],[-1.726,-7.168],[-1.775,-7.126],[-1.845,-6.95],[-1.859,-6.866],[-1.761,-6.831],[-1.663,-6.746],[-1.656,-6.746],[-1.649,-6.746],[-1.677,-6.831],[-1.67,-6.915],[-1.607,-6.922],[-1.558,-6.894],[-1.522,-6.845],[-1.508,-6.795],[-1.515,-6.704],[-1.571,-6.69],[-1.642,-6.725],[-1.649,-6.697],[-1.628,-6.634],[-1.628,-6.549],[-1.67,-6.493],[-1.726,-6.493],[-1.754,-6.507],[-1.824,-6.578],[-1.852,-6.641],[-1.887,-6.676],[-1.901,-6.662],[-1.922,-6.57],[-1.978,-6.521],[-1.992,-6.493],[-1.992,-6.479],[-1.978,-6.43],[-1.761,-6.212],[-1.621,-6.113],[-1.501,-6.043],[-1.452,-6.029],[-1.445,-6.015],[-1.291,-5.952],[-1.102,-5.895],[-0.87,-5.86],[-0.73,-5.86]]]]},"properties":{"abbr":"AcbC","name":"accumbens nucleus, core","plate":18,"ap_bregma_mm":1.85,"area_mm2":1.9339,"traced_fraction":[0.997,0.985],"n_labels":2,"no_drawn_outline":false}},{"type":"Feature","geometry":{"type":"MultiPolygon","coordinates":[[[[1.871,-6.437],[1.983,-6.486],[2.095,-6.507],[2.187,-6.5],[2.201,-6.521],[2.166,-6.584],[2.089,-6.669],[2.011,-6.704],[1.941,-6.711],[1.892,-6.697],[1.808,-6.627],[1.808,-6.599],[1.871,-6.437]]],[[[-1.992,-6.493],[-1.978,-6.521],[-1.985,-6.563],[-1.922,-6.746],[-1.922,-6.817],[-1.936,-6.845],[-1.929,-6.908],[-2.02,-6.901],[-2.062,-6.859],[-2.111,-6.774],[-2.196,-6.732],[-2.28,-6.69],[-2.336,-6.641],[-2.322,-6.584],[-2.202,-6.613],[-2.125,-6.606],[-2.09,-6.592],[-2.006,-6.507],[-2.006,-6.493],[-1.992,-6.493]]]]},"properties":{"abbr":"IEn","name":"intermediate endopiriform nucleus","plate":18,"ap_bregma_mm":1.85,"area_mm2":0.1472,"traced_fraction":[1.0,0.975],"n_labels":2,"no_drawn_outline":false}},{"type":"Feature","geometry":{"type":"MultiPolygon","coordinates":[[[[2.797,-6.338],[2.888,-6.359],[2.965,-6.402],[3.049,-6.416],[3.049,-6.486],[3.028,-6.514],[2.909,-6.641],[2.874,-6.697],[2.733,-6.824],[2.6,-6.817],[2.523,-6.838],[2.418,-6.887],[2.271,-6.985],[2.187,-7.077],[2.131,-7.182],[2.102,-7.295],[2.11,-7.365],[2.11,-7.379],[1.99,-7.485],[1.661,-7.703],[1.331,-7.872],[1.072,-7.949],[0.854,-7.956],[0.7,-7.914],[0.679,-7.914],[0.679,-7.9],[0.728,-7.893],[0.749,-7.829],[0.742,-7.78],[0.763,-7.773],[0.854,-7.773],[0.953,-7.808],[1.044,-7.808],[1.093,-7.787],[1.114,-7.822],[1.163,-7.843],[1.289,-7.843],[1.317,-7.801],[1.317,-7.745],[1.289,-7.675],[1.366,-7.654],[1.451,-7.604],[1.612,-7.562],[1.647,-7.527],[1.675,-7.471],[1.78,-7.386],[1.843,-7.386],[1.892,-7.429],[1.948,-7.429],[1.976,-7.414],[1.976,-7.309],[2.018,-7.302],[2.011,-7.274],[1.983,-7.253],[1.955,-7.203],[1.941,-7.133],[1.969,-7.133],[1.997,-7.112],[2.004,-7.042],[2.039,-6.964],[2.144,-6.852],[2.334,-6.76],[2.544,-6.697],[2.614,-6.641],[2.741,-6.514],[2.783,-6.43],[2.797,-6.338]]],[[[-3.002,-6.416],[-2.988,-6.458],[-2.834,-6.592],[-2.791,-6.711],[-2.749,-6.753],[-2.609,-6.782],[-2.378,-6.887],[-2.287,-6.985],[-2.252,-7.091],[-2.196,-7.161],[-2.196,-7.182],[-2.238,-7.232],[-2.287,-7.26],[-2.329,-7.14],[-2.427,-7.042],[-2.497,-6.992],[-2.651,-6.922],[-2.834,-6.873],[-2.932,-6.873],[-2.946,-6.887],[-2.96,-6.873],[-3.065,-6.767],[-3.065,-6.753],[-3.247,-6.542],[-3.079,-6.437],[-3.002,-6.416]]],[[[-1.095,-7.801],[-1.067,-7.837],[-0.975,-7.886],[-0.962,-7.914],[-1.074,-7.956],[-1.263,-7.977],[-1.543,-7.949],[-1.621,-7.914],[-1.635,-7.914],[-1.635,-7.9],[-1.613,-7.9],[-1.571,-7.85],[-1.558,-7.794],[-1.522,-7.794],[-1.466,-7.837],[-1.389,-7.865],[-1.263,-7.85],[-1.095,-7.801]]]]},"properties":{"abbr":"1","name":"layer 1 of cortex","plate":18,"ap_bregma_mm":1.85,"area_mm2":0.7633,"traced_fraction":[1.0,1.0,0.995],"n_labels":4,"no_drawn_outline":false}},{"type":"Feature","geometry":{"type":"MultiPolygon","coordinates":[[[[-2.609,-6.634],[-2.574,-6.634],[-2.413,-6.69],[-2.245,-6.795],[-2.181,-6.901],[-2.139,-7.035],[-2.125,-7.133],[-2.139,-7.14],[-2.132,-7.154],[-2.16,-7.189],[-2.196,-7.182],[-2.196,-7.161],[-2.252,-7.091],[-2.287,-6.985],[-2.378,-6.887],[-2.609,-6.782],[-2.609,-6.634]]]]},"properties":{"abbr":"Pir","name":"piriform cortex","plate":18,"ap_bregma_mm":1.85,"area_mm2":0.0969,"traced_fraction":[0.942],"n_labels":1,"no_drawn_outline":false}},{"type":"Feature","geometry":{"type":"MultiPolygon","coordinates":[[[[-1.642,-6.725],[-1.649,-6.746],[-1.656,-6.746],[-1.663,-6.746],[-1.761,-6.831],[-1.859,-6.866],[-1.88,-6.817],[-1.887,-6.676],[-1.852,-6.641],[-1.824,-6.578],[-1.754,-6.507],[-1.726,-6.493],[-1.67,-6.493],[-1.628,-6.549],[-1.628,-6.634],[-1.649,-6.697],[-1.642,-6.725]]]]},"properties":{"abbr":"aca","name":"anterior commissure, anterior part","plate":18,"ap_bregma_mm":1.85,"area_mm2":0.0664,"traced_fraction":[1.0],"n_labels":2,"no_drawn_outline":false}},{"type":"Feature","geometry":{"type":"MultiPolygon","coordinates":[[[[2.733,-6.324],[2.797,-6.338],[2.783,-6.43],[2.741,-6.514],[2.614,-6.641],[2.544,-6.697],[2.334,-6.76],[2.144,-6.852],[2.039,-6.964],[2.004,-7.042],[1.997,-7.112],[1.969,-7.133],[1.941,-7.133],[1.934,-7.126],[1.927,-7.126],[1.92,-7.119],[1.913,-7.112],[1.899,-7.098],[1.885,-7.063],[1.885,-7.049],[1.913,-6.936],[1.955,-6.845],[2.046,-6.739],[2.123,-6.697],[2.285,-6.641],[2.425,-6.563],[2.46,-6.528],[2.6,-6.451],[2.733,-6.324]]],[[[-2.904,-6.388],[-2.883,-6.416],[-2.763,-6.465],[-2.679,-6.563],[-2.665,-6.606],[-2.609,-6.634],[-2.609,-6.782],[-2.749,-6.753],[-2.791,-6.711],[-2.834,-6.592],[-2.988,-6.458],[-3.002,-6.416],[-2.988,-6.402],[-2.904,-6.388]]],[[[0.048,-7.119],[0.076,-7.196],[0.09,-7.302],[0.111,-7.344],[0.174,-7.407],[0.181,-7.464],[0.118,-7.464],[0.041,-7.414],[-0.008,-7.309],[-0.008,-7.161],[0.02,-7.119],[0.048,-7.119]]],[[[-0.295,-7.33],[-0.309,-7.33],[-0.316,-7.379],[-0.373,-7.471],[-0.408,-7.499],[-0.415,-7.499],[-0.436,-7.499],[-0.436,-7.422],[-0.373,-7.316],[-0.337,-7.182],[-0.316,-7.161],[-0.288,-7.175],[-0.295,-7.33]]]]},"properties":{"abbr":"2","name":"layer 2 of cortex","plate":18,"ap_bregma_mm":1.85,"area_mm2":0.2913,"traced_fraction":[0.991,0.923,1.0,1.0],"n_labels":4,"no_drawn_outline":false}},{"type":"Feature","geometry":{"type":"MultiPolygon","coordinates":[[[[0.616,-5.867],[0.623,-5.944],[0.588,-6.029],[0.56,-6.155],[0.546,-6.43],[0.581,-6.641],[0.651,-6.788],[0.735,-6.873],[1.016,-6.999],[1.233,-7.056],[1.436,-7.07],[1.478,-7.084],[1.38,-7.246],[1.331,-7.26],[1.261,-7.309],[1.149,-7.337],[1.107,-7.358],[1.093,-7.386],[1.072,-7.386],[0.995,-7.379],[0.939,-7.4],[0.896,-7.372],[0.693,-7.33],[0.574,-7.337],[0.378,-7.267],[0.258,-7.147],[0.209,-7.007],[0.181,-6.859],[0.181,-6.76],[0.181,-6.69],[0.245,-6.479],[0.266,-6.458],[0.266,-6.43],[0.315,-6.338],[0.378,-6.113],[0.448,-5.98],[0.532,-5.874],[0.616,-5.867]]],[[[-0.716,-5.923],[-0.674,-5.937],[-0.604,-6.015],[-0.541,-6.134],[-0.513,-6.261],[-0.52,-6.402],[-0.429,-6.584],[-0.386,-6.704],[-0.373,-6.753],[-0.373,-6.852],[-0.394,-6.985],[-0.429,-6.999],[-0.681,-7.337],[-0.702,-7.337],[-0.737,-7.372],[-0.835,-7.422],[-0.962,-7.457],[-1.2,-7.471],[-1.305,-7.45],[-1.326,-7.45],[-1.403,-7.435],[-1.41,-7.414],[-1.459,-7.4],[-1.613,-7.309],[-1.712,-7.21],[-1.726,-7.168],[-1.67,-7.147],[-1.508,-7.126],[-1.312,-7.063],[-1.13,-6.964],[-0.983,-6.824],[-0.884,-6.669],[-0.807,-6.465],[-0.765,-6.261],[-0.737,-5.937],[-0.716,-5.923]]]]},"properties":{"abbr":"AcbSh","name":"accumbens nucleus, shell","plate":18,"ap_bregma_mm":1.85,"area_mm2":1.5465,"traced_fraction":[1.0,0.983],"n_labels":2,"no_drawn_outline":false}},{"type":"Feature","geometry":{"type":"MultiPolygon","coordinates":[[[[0.181,-6.69],[0.181,-6.76],[0.153,-6.774],[0.132,-6.824],[0.111,-7.049],[0.048,-7.119],[0.02,-7.119],[-0.008,-7.161],[-0.008,-7.309],[0.041,-7.414],[0.118,-7.464],[0.097,-7.506],[0.104,-7.569],[0.09,-7.597],[0.027,-7.527],[0.006,-7.52],[0.006,-7.506],[-0.085,-7.351],[-0.106,-7.26],[-0.113,-7.056],[-0.092,-6.711],[0.034,-6.711],[0.111,-6.683],[0.181,-6.69]]],[[[-0.386,-6.704],[-0.344,-6.704],[-0.26,-6.732],[-0.169,-6.732],[-0.197,-7.175],[-0.253,-7.464],[-0.316,-7.597],[-0.359,-7.647],[-0.365,-7.647],[-0.408,-7.506],[-0.408,-7.499],[-0.373,-7.471],[-0.316,-7.379],[-0.295,-7.379],[-0.295,-7.33],[-0.288,-7.175],[-0.316,-7.161],[-0.337,-7.182],[-0.429,-7.168],[-0.394,-7.049],[-0.394,-6.985],[-0.373,-6.852],[-0.373,-6.753],[-0.386,-6.704]]]]},"properties":{"abbr":"Nv","name":"navicular nucleus of the basal forebrain","plate":18,"ap_bregma_mm":1.85,"area_mm2":0.2742,"traced_fraction":[0.988,0.985],"n_labels":2,"no_drawn_outline":false}},{"type":"Feature","geometry":{"type":"MultiPolygon","coordinates":[[[[1.871,-6.324],[1.871,-6.437],[1.857,-6.451],[1.808,-6.627],[1.794,-6.634],[1.738,-6.76],[1.724,-6.852],[1.703,-6.859],[1.71,-6.873],[1.696,-6.88],[1.696,-7.021],[1.584,-7.021],[1.626,-6.957],[1.549,-6.936],[1.549,-6.915],[1.619,-6.795],[1.682,-6.782],[1.717,-6.732],[1.731,-6.683],[1.717,-6.556],[1.759,-6.514],[1.787,-6.444],[1.829,-6.381],[1.829,-6.359],[1.857,-6.324],[1.871,-6.324]]],[[[-2.196,-6.732],[-2.111,-6.774],[-2.062,-6.859],[-2.02,-6.901],[-1.929,-6.908],[-1.908,-6.936],[-1.845,-6.95],[-1.775,-7.126],[-1.726,-7.168],[-1.712,-7.21],[-1.613,-7.309],[-1.459,-7.4],[-1.41,-7.414],[-1.403,-7.435],[-1.417,-7.435],[-1.424,-7.478],[-1.389,-7.506],[-1.333,-7.499],[-1.326,-7.457],[-1.305,-7.45],[-1.2,-7.471],[-0.962,-7.457],[-0.835,-7.422],[-0.737,-7.372],[-0.702,-7.337],[-0.681,-7.337],[-0.66,-7.372],[-0.604,-7.372],[-0.506,-7.281],[-0.429,-7.168],[-0.337,-7.182],[-0.373,-7.316],[-0.436,-7.422],[-0.436,-7.499],[-0.471,-7.513],[-0.534,-7.513],[-0.576,-7.492],[-0.646,-7.492],[-0.674,-7.527],[-0.674,-7.555],[-0.625,-7.604],[-0.618,-7.625],[-0.639,-7.625],[-0.667,-7.618],[-0.751,-7.675],[-0.772,-7.661],[-0.8,-7.597],[-0.856,-7.541],[-0.898,-7.541],[-0.926,-7.569],[-0.969,-7.668],[-1.004,-7.71],[-1.018,-7.71],[-1.032,-7.682],[-1.053,-7.682],[-1.305,-7.745],[-1.396,-7.752],[-1.536,-7.682],[-1.564,-7.682],[-1.613,-7.633],[-1.754,-7.562],[-1.796,-7.527],[-1.824,-7.527],[-1.922,-7.485],[-1.985,-7.422],[-1.999,-7.386],[-2.146,-7.246],[-2.168,-7.21],[-2.16,-7.189],[-2.132,-7.154],[-2.097,-7.147],[-2.125,-7.133],[-2.139,-7.035],[-2.181,-6.901],[-2.245,-6.795],[-2.196,-6.732]]],[[[0.181,-6.76],[0.188,-6.901],[0.216,-7.035],[0.258,-7.147],[0.195,-7.189],[0.132,-7.182],[0.076,-7.196],[0.048,-7.119],[0.111,-7.049],[0.132,-6.824],[0.153,-6.774],[0.181,-6.76]]],[[[1.38,-7.246],[1.38,-7.288],[1.352,-7.33],[1.296,-7.386],[1.205,-7.435],[1.114,-7.443],[1.093,-7.422],[1.093,-7.386],[1.107,-7.358],[1.149,-7.337],[1.261,-7.309],[1.331,-7.26],[1.38,-7.246]]],[[[-1.775,-7.274],[-1.782,-7.33],[-1.747,-7.393],[-1.705,-7.422],[-1.67,-7.422],[-1.663,-7.351],[-1.684,-7.309],[-1.726,-7.274],[-1.775,-7.274]]]]},"properties":{"abbr":"VP","name":"ventral pallidum","plate":18,"ap_bregma_mm":1.85,"area_mm2":0.6729,"traced_fraction":[0.881,0.983,0.955,1.0,1.0],"n_labels":7,"no_drawn_outline":false}},{"type":"Feature","geometry":{"type":"MultiPolygon","coordinates":[[[[2.733,-6.824],[2.425,-7.133],[2.131,-7.365],[2.11,-7.365],[2.102,-7.295],[2.131,-7.182],[2.187,-7.077],[2.271,-6.985],[2.418,-6.887],[2.523,-6.838],[2.6,-6.817],[2.733,-6.824]]],[[[-2.287,-7.26],[-2.315,-7.295],[-2.343,-7.372],[-2.392,-7.435],[-2.686,-7.161],[-2.7,-7.161],[-2.946,-6.887],[-2.932,-6.873],[-2.834,-6.873],[-2.651,-6.922],[-2.497,-6.992],[-2.427,-7.042],[-2.329,-7.14],[-2.287,-7.26]]]]},"properties":{"abbr":"lo","name":"lateral olfactory tract","plate":18,"ap_bregma_mm":1.85,"area_mm2":0.2752,"traced_fraction":[1.0,1.0],"n_labels":2,"no_drawn_outline":false}},{"type":"Feature","geometry":{"type":"MultiPolygon","coordinates":[[[[1.899,-7.098],[1.913,-7.112],[1.92,-7.119],[1.927,-7.126],[1.934,-7.126],[1.941,-7.133],[1.955,-7.203],[1.983,-7.253],[1.969,-7.26],[1.976,-7.309],[1.976,-7.414],[1.948,-7.429],[1.892,-7.429],[1.843,-7.386],[1.78,-7.386],[1.675,-7.471],[1.647,-7.527],[1.612,-7.562],[1.451,-7.604],[1.366,-7.654],[1.289,-7.675],[1.233,-7.611],[1.254,-7.576],[1.345,-7.527],[1.359,-7.506],[1.514,-7.457],[1.619,-7.358],[1.703,-7.302],[1.808,-7.295],[1.829,-7.316],[1.892,-7.323],[1.878,-7.147],[1.899,-7.098]]],[[[-2.196,-7.182],[-2.16,-7.189],[-2.168,-7.21],[-2.146,-7.246],[-1.999,-7.386],[-1.985,-7.422],[-1.922,-7.485],[-1.866,-7.513],[-1.796,-7.527],[-1.705,-7.59],[-1.635,-7.618],[-1.564,-7.682],[-1.663,-7.682],[-1.691,-7.703],[-1.726,-7.703],[-1.733,-7.689],[-1.761,-7.689],[-1.768,-7.675],[-1.88,-7.633],[-1.992,-7.548],[-2.034,-7.534],[-2.041,-7.513],[-2.111,-7.464],[-2.189,-7.358],[-2.223,-7.351],[-2.287,-7.379],[-2.343,-7.372],[-2.343,-7.351],[-2.287,-7.26],[-2.238,-7.232],[-2.196,-7.182]]]]},"properties":{"abbr":"Tu","name":"olfactory tubercle","plate":18,"ap_bregma_mm":1.85,"area_mm2":0.2049,"traced_fraction":[1.0,1.0],"n_labels":2,"no_drawn_outline":false}},{"type":"Feature","geometry":{"type":"MultiPolygon","coordinates":[[[[0.35,-7.569],[0.322,-7.576],[0.287,-7.604],[0.287,-7.618],[0.258,-7.625],[0.258,-7.639],[0.188,-7.682],[0.153,-7.668],[0.09,-7.597],[0.104,-7.569],[0.097,-7.506],[0.118,-7.464],[0.181,-7.464],[0.266,-7.457],[0.35,-7.393],[0.392,-7.4],[0.42,-7.429],[0.42,-7.478],[0.35,-7.548],[0.35,-7.569]]],[[[-0.436,-7.499],[-0.415,-7.499],[-0.408,-7.506],[-0.365,-7.647],[-0.365,-7.654],[-0.408,-7.71],[-0.492,-7.766],[-0.513,-7.752],[-0.513,-7.78],[-0.604,-7.822],[-0.674,-7.752],[-0.681,-7.696],[-0.639,-7.625],[-0.618,-7.618],[-0.674,-7.555],[-0.674,-7.527],[-0.646,-7.492],[-0.576,-7.492],[-0.534,-7.513],[-0.471,-7.513],[-0.436,-7.499]]],[[[-0.751,-7.675],[-0.744,-7.745],[-0.73,-7.759],[-0.758,-7.837],[-0.779,-7.85],[-0.779,-7.872],[-0.758,-7.879],[-0.962,-7.914],[-0.975,-7.886],[-1.067,-7.837],[-1.095,-7.801],[-1.095,-7.787],[-1.032,-7.724],[-1.018,-7.724],[-1.018,-7.71],[-1.004,-7.71],[-0.969,-7.668],[-0.926,-7.569],[-0.898,-7.541],[-0.856,-7.541],[-0.8,-7.597],[-0.772,-7.661],[-0.751,-7.675]]],[[[1.233,-7.611],[1.289,-7.675],[1.317,-7.745],[1.317,-7.801],[1.289,-7.843],[1.163,-7.843],[1.114,-7.822],[1.093,-7.787],[1.072,-7.731],[1.079,-7.661],[1.149,-7.618],[1.233,-7.611]]],[[[-0.365,-7.647],[-0.359,-7.647],[-0.365,-7.654],[-0.365,-7.647]]]]},"properties":{"abbr":"ICj","name":"islands of Calleja","plate":18,"ap_bregma_mm":1.85,"area_mm2":0.2557,"traced_fraction":[1.0,1.0,1.0,1.0,1.0],"n_labels":4,"no_drawn_outline":false}},{"type":"Feature","geometry":{"type":"MultiPolygon","coordinates":[[[[0.202,-1.823],[0.273,-1.893],[0.392,-2.062],[0.546,-2.238],[0.63,-2.365],[0.756,-2.512],[0.77,-2.547],[1.002,-2.829],[1.142,-3.033],[1.401,-3.349],[1.429,-3.405],[1.415,-3.427],[1.359,-3.455],[1.226,-3.588],[0.427,-3.061],[0.343,-3.019],[0.209,-2.92],[0.055,-2.836],[0.055,-2.829],[0.062,-2.315],[0.048,-2.055],[0.083,-1.943],[0.139,-1.872],[0.202,-1.823]]],[[[-0.169,-1.886],[-0.099,-2.013],[-0.064,-2.203],[-0.05,-2.66],[-0.029,-2.836],[-0.064,-2.836],[-0.127,-2.878],[-0.288,-3.019],[-0.492,-3.159],[-0.786,-3.405],[-0.983,-3.539],[-1.151,-3.68],[-1.186,-3.694],[-1.235,-3.624],[-1.284,-3.588],[-1.284,-3.574],[-0.709,-2.618],[-0.674,-2.583],[-0.457,-2.252],[-0.169,-1.886]]]]},"properties":{"abbr":"Cg1","name":"cingulate cortex, area 1","plate":18,"ap_bregma_mm":1.85,"area_mm2":1.8224,"traced_fraction":[1.0,1.0],"n_labels":2,"no_drawn_outline":false}},{"type":"Feature","geometry":{"type":"MultiPolygon","coordinates":[[[[-0.029,-2.836],[-0.029,-2.85],[-0.015,-2.85],[-0.015,-2.864],[-0.029,-2.864],[-0.015,-2.906],[-0.015,-2.948],[0.02,-2.969],[0.041,-2.92],[0.041,-2.899],[0.02,-2.899],[0.02,-2.885],[0.048,-2.892],[0.055,-2.836],[0.209,-2.92],[0.343,-3.019],[0.427,-3.061],[1.226,-3.588],[1.184,-3.68],[1.149,-3.715],[1.079,-3.877],[1.044,-3.912],[1.016,-3.898],[0.034,-3.82],[0.048,-3.75],[0.048,-3.574],[0.02,-3.504],[0.006,-3.504],[-0.036,-3.617],[-0.043,-3.736],[-0.029,-3.827],[-0.604,-3.877],[-1.032,-3.94],[-1.067,-3.877],[-1.116,-3.842],[-1.186,-3.694],[-1.151,-3.68],[-0.983,-3.539],[-0.786,-3.405],[-0.492,-3.159],[-0.288,-3.019],[-0.127,-2.878],[-0.064,-2.836],[-0.029,-2.836]]]]},"properties":{"abbr":"PrL","name":"prelimbic cortex","plate":18,"ap_bregma_mm":1.85,"area_mm2":1.5107,"traced_fraction":[1.0],"n_labels":2,"no_drawn_outline":false}},{"type":"Feature","geometry":{"type":"MultiPolygon","coordinates":[[[[4.97,-3.792],[4.942,-3.961],[4.886,-4.088],[4.823,-4.074],[4.269,-4.053],[4.115,-4.031],[3.217,-3.989],[2.776,-3.954],[2.705,-3.968],[2.67,-3.863],[2.699,-3.849],[3.154,-3.856],[3.841,-3.842],[4.97,-3.792]]],[[[-2.763,-3.94],[-2.693,-3.947],[-2.693,-3.968],[-2.721,-3.996],[-2.763,-4.088],[-2.897,-4.081],[-3.514,-4.137],[-3.661,-4.137],[-4.488,-4.214],[-4.965,-4.242],[-5.021,-4.264],[-5.07,-4.151],[-5.105,-3.989],[-5.098,-3.989],[-5.091,-3.982],[-3.521,-3.968],[-2.763,-3.94]]]]},"properties":{"abbr":"S1DZO","name":"primary somatosensory cortex, oral dysgranular zone","plate":18,"ap_bregma_mm":1.85,"area_mm2":0.8763,"traced_fraction":[1.0,1.0],"n_labels":2,"no_drawn_outline":false}},{"type":"Feature","geometry":{"type":"MultiPolygon","coordinates":[[[[-0.688,-5.241],[-0.394,-5.241],[-0.492,-5.347],[-0.52,-5.396],[-0.527,-5.431],[-0.499,-5.445],[-0.541,-5.565],[-0.562,-5.586],[-0.674,-5.937],[-0.716,-5.923],[-0.73,-5.86],[-0.702,-5.642],[-0.695,-5.396],[-0.688,-5.241]]]]},"properties":{"abbr":"LV","name":"lateral ventricle","plate":18,"ap_bregma_mm":1.85,"area_mm2":0.1023,"traced_fraction":[0.876],"n_labels":1,"no_drawn_outline":false}},{"type":"Feature","geometry":{"type":"MultiPolygon","coordinates":[[[[2.425,-5.206],[2.453,-5.234],[2.467,-5.276],[2.467,-5.396],[2.467,-5.41],[2.46,-5.417],[2.446,-5.459],[2.404,-5.494],[2.404,-5.565],[2.285,-5.558],[2.25,-5.537],[2.215,-5.487],[2.208,-5.459],[2.222,-5.438],[2.306,-5.361],[2.383,-5.262],[2.404,-5.213],[2.425,-5.206]]],[[[-2.623,-5.333],[-2.609,-5.333],[-2.574,-5.389],[-2.476,-5.487],[-2.378,-5.551],[-2.322,-5.614],[-2.399,-5.635],[-2.434,-5.691],[-2.497,-5.663],[-2.574,-5.565],[-2.609,-5.544],[-2.63,-5.445],[-2.623,-5.333]]]]},"properties":{"abbr":"DCl","name":"dorsal part of claustrum","plate":18,"ap_bregma_mm":1.85,"area_mm2":0.098,"traced_fraction":[0.823,0.971],"n_labels":2,"no_drawn_outline":false}},{"type":"Feature","geometry":{"type":"MultiPolygon","coordinates":[[[[0.174,-5.178],[0.216,-5.199],[0.308,-5.297],[0.364,-5.319],[0.371,-5.333],[0.378,-5.361],[0.392,-5.361],[0.399,-5.396],[0.385,-5.473],[0.427,-5.473],[0.427,-5.628],[0.392,-5.628],[0.385,-5.67],[0.392,-5.677],[0.392,-5.705],[0.392,-5.712],[0.209,-5.853],[0.09,-5.888],[0.083,-5.839],[0.083,-5.684],[0.181,-5.375],[0.174,-5.178]]],[[[-0.26,-5.206],[-0.267,-5.354],[-0.197,-5.733],[-0.232,-5.853],[-0.331,-5.825],[-0.344,-5.79],[-0.415,-5.719],[-0.464,-5.635],[-0.485,-5.621],[-0.492,-5.593],[-0.541,-5.565],[-0.499,-5.445],[-0.443,-5.361],[-0.309,-5.227],[-0.26,-5.206]]]]},"properties":{"abbr":"DTT","name":"dorsal tenia tecta","plate":18,"ap_bregma_mm":1.85,"area_mm2":0.274,"traced_fraction":[0.893,1.0],"n_labels":2,"no_drawn_outline":false}},{"type":"Feature","geometry":{"type":"MultiPolygon","coordinates":[[[[2.467,-5.396],[2.53,-5.424],[2.748,-5.593],[2.825,-5.635],[2.937,-5.727],[3.421,-6.057],[3.273,-6.226],[3.238,-6.247],[3.105,-6.268],[3.063,-6.296],[3.049,-6.303],[3.049,-6.416],[2.965,-6.402],[2.888,-6.359],[2.797,-6.338],[2.733,-6.324],[2.712,-6.303],[2.488,-6.226],[2.306,-6.127],[2.236,-6.071],[2.187,-6.057],[2.116,-6.001],[2.144,-5.832],[2.201,-5.719],[2.236,-5.593],[2.264,-5.558],[2.285,-5.558],[2.404,-5.565],[2.404,-5.494],[2.446,-5.459],[2.46,-5.417],[2.467,-5.41],[2.467,-5.396]]],[[[-2.609,-5.544],[-2.574,-5.565],[-2.497,-5.663],[-2.434,-5.691],[-2.427,-5.811],[-2.399,-5.874],[-2.329,-5.966],[-2.287,-6.064],[-2.308,-6.071],[-2.35,-6.141],[-2.392,-6.141],[-2.441,-6.163],[-2.637,-6.275],[-2.904,-6.388],[-2.988,-6.402],[-3.002,-6.416],[-3.079,-6.437],[-3.247,-6.542],[-3.408,-6.359],[-3.408,-6.345],[-3.444,-6.324],[-3.444,-6.31],[-3.437,-6.303],[-3.465,-6.268],[-3.472,-6.282],[-3.5,-6.247],[-3.5,-6.226],[-3.521,-6.226],[-3.521,-6.219],[-3.514,-6.212],[-3.535,-6.191],[-3.437,-6.134],[-3.247,-5.987],[-3.093,-5.895],[-2.995,-5.811],[-2.784,-5.677],[-2.609,-5.544]]]]},"properties":{"abbr":"AI","name":"agranular insular cortex","plate":18,"ap_bregma_mm":1.85,"area_mm2":1.3098,"traced_fraction":[0.948,1.0],"n_labels":2,"no_drawn_outline":false}},{"type":"Feature","geometry":{"type":"MultiPolygon","coordinates":[[[[-0.331,-5.825],[-0.232,-5.853],[-0.218,-5.867],[-0.169,-5.867],[-0.064,-5.86],[-0.106,-6.43],[-0.092,-6.514],[-0.092,-6.711],[-0.113,-7.056],[-0.106,-7.26],[-0.085,-7.351],[0.006,-7.506],[-0.078,-7.562],[-0.113,-7.569],[-0.155,-7.499],[-0.253,-7.464],[-0.197,-7.175],[-0.169,-6.732],[-0.148,-6.451],[-0.211,-6.395],[-0.26,-6.289],[-0.331,-5.825]]]]},"properties":{"abbr":"SHi","name":"septohippocampal nucleus","plate":18,"ap_bregma_mm":1.85,"area_mm2":0.219,"traced_fraction":[1.0],"n_labels":1,"no_drawn_outline":false}},{"type":"Feature","geometry":{"type":"MultiPolygon","coordinates":[[[[2.187,-6.057],[2.236,-6.071],[2.306,-6.127],[2.488,-6.226],[2.712,-6.303],[2.733,-6.324],[2.6,-6.451],[2.46,-6.528],[2.425,-6.563],[2.285,-6.641],[2.123,-6.697],[2.046,-6.739],[1.955,-6.845],[1.913,-6.936],[1.885,-7.049],[1.871,-7.049],[1.871,-7.063],[1.885,-7.063],[1.899,-7.098],[1.878,-7.147],[1.892,-7.323],[1.85,-7.323],[1.808,-7.295],[1.703,-7.302],[1.619,-7.358],[1.514,-7.457],[1.359,-7.506],[1.345,-7.527],[1.254,-7.576],[1.233,-7.611],[1.149,-7.618],[1.079,-7.661],[0.939,-7.647],[0.911,-7.661],[0.651,-7.654],[0.581,-7.668],[0.413,-7.576],[0.35,-7.569],[0.35,-7.548],[0.42,-7.478],[0.42,-7.429],[0.392,-7.4],[0.35,-7.393],[0.266,-7.457],[0.181,-7.464],[0.174,-7.407],[0.111,-7.344],[0.09,-7.302],[0.076,-7.196],[0.132,-7.182],[0.195,-7.189],[0.258,-7.147],[0.378,-7.267],[0.35,-7.288],[0.35,-7.323],[0.406,-7.358],[0.518,-7.365],[0.553,-7.358],[0.574,-7.337],[0.693,-7.33],[0.896,-7.372],[0.939,-7.4],[0.96,-7.422],[1.023,-7.422],[1.058,-7.407],[1.072,-7.386],[1.093,-7.386],[1.093,-7.422],[1.114,-7.443],[1.205,-7.435],[1.296,-7.386],[1.352,-7.33],[1.38,-7.288],[1.38,-7.246],[1.478,-7.084],[1.506,-7.056],[1.584,-7.021],[1.696,-7.021],[1.696,-6.88],[1.71,-6.873],[1.731,-6.873],[1.724,-6.852],[1.738,-6.76],[1.794,-6.634],[1.808,-6.627],[1.892,-6.697],[1.941,-6.711],[2.011,-6.704],[2.089,-6.669],[2.166,-6.584],[2.201,-6.521],[2.222,-6.507],[2.25,-6.451],[2.257,-6.296],[2.215,-6.134],[2.187,-6.092],[2.187,-6.057]]],[[[-2.35,-6.141],[-2.371,-6.205],[-2.441,-6.317],[-2.448,-6.416],[-2.399,-6.542],[-2.322,-6.584],[-2.336,-6.641],[-2.28,-6.69],[-2.196,-6.732],[-2.245,-6.795],[-2.413,-6.69],[-2.574,-6.634],[-2.609,-6.634],[-2.665,-6.606],[-2.679,-6.563],[-2.763,-6.465],[-2.883,-6.416],[-2.904,-6.388],[-2.637,-6.275],[-2.441,-6.163],[-2.392,-6.141],[-2.35,-6.141]]]]},"properties":{"abbr":"3","name":"layer 3 of cortex","plate":18,"ap_bregma_mm":1.85,"area_mm2":0.8893,"traced_fraction":[0.97,0.99],"n_labels":3,"no_drawn_outline":false}},{"type":"Feature","geometry":{"type":"Polygon","coordinates":[[[-1.508,-3.504],[-1.41,-3.518],[-1.284,-3.574],[-1.284,-3.588],[-1.235,-3.624],[-1.186,-3.694],[-1.116,-3.842],[-1.137,-3.849],[-1.151,-3.849],[-1.193,-3.792],[-1.221,-3.729],[-1.277,-3.666],[-1.291,-3.666],[-1.291,-3.652],[-1.326,-3.638],[-1.326,-3.624],[-1.424,-3.574],[-1.515,-3.56],[-1.508,-3.504]]]},"properties":{"abbr":null,"name":"unnamed sealed face","plate":18,"ap_bregma_mm":1.85,"index":0}},{"type":"Feature","geometry":{"type":"Polygon","coordinates":[[[0.034,-3.82],[0.006,-3.863],[-0.015,-3.863],[-0.029,-3.827],[-0.043,-3.736],[-0.036,-3.617],[0.006,-3.504],[0.02,-3.504],[0.048,-3.574],[0.048,-3.75],[0.034,-3.82]]]},"properties":{"abbr":null,"name":"unnamed sealed face","plate":18,"ap_bregma_mm":1.85,"index":1}},{"type":"Feature","geometry":{"type":"Polygon","coordinates":[[[0.069,-4.657],[0.041,-5.079],[-0.008,-5.417],[-0.029,-5.48],[-0.05,-5.48],[-0.071,-5.417],[-0.113,-5.115],[-0.12,-4.777],[-0.099,-4.657],[-0.071,-4.475],[-0.015,-4.341],[0.013,-4.355],[0.027,-4.39],[0.069,-4.657]]]},"properties":{"abbr":null,"name":"unnamed sealed face","plate":18,"ap_bregma_mm":1.85,"index":2}},{"type":"Feature","geometry":{"type":"Polygon","coordinates":[[[0.174,-5.129],[0.174,-5.178],[0.181,-5.375],[0.083,-5.684],[0.083,-5.839],[0.055,-5.832],[0.02,-5.776],[0.013,-5.6],[0.076,-5.459],[0.104,-5.361],[0.111,-5.227],[0.097,-5.185],[0.097,-5.023],[0.111,-4.953],[0.139,-4.911],[0.167,-4.911],[0.174,-4.925],[0.174,-5.037],[0.16,-5.072],[0.16,-5.115],[0.174,-5.129]]]},"properties":{"abbr":null,"name":"unnamed sealed face","plate":18,"ap_bregma_mm":1.85,"index":3}},{"type":"Feature","geometry":{"type":"Polygon","coordinates":[[[0.209,-5.853],[0.139,-6.022],[0.118,-6.17],[0.076,-6.282],[-0.036,-6.409],[-0.106,-6.43],[-0.064,-5.86],[0.055,-5.895],[0.09,-5.888],[0.209,-5.853]]]},"properties":{"abbr":null,"name":"unnamed sealed face","plate":18,"ap_bregma_mm":1.85,"index":4}},{"type":"Feature","geometry":{"type":"Polygon","coordinates":[[[1.717,-6.556],[1.731,-6.613],[1.717,-6.732],[1.682,-6.782],[1.619,-6.795],[1.577,-6.774],[1.549,-6.732],[1.493,-6.739],[1.506,-6.774],[1.506,-6.803],[1.493,-6.817],[1.436,-6.817],[1.352,-6.774],[1.289,-6.704],[1.261,-6.648],[1.247,-6.584],[1.261,-6.5],[1.324,-6.43],[1.394,-6.43],[1.429,-6.444],[1.478,-6.528],[1.464,-6.613],[1.542,-6.606],[1.556,-6.556],[1.57,-6.556],[1.577,-6.528],[1.605,-6.507],[1.654,-6.507],[1.717,-6.556]]]},"properties":{"abbr":null,"name":"unnamed sealed face","plate":18,"ap_bregma_mm":1.85,"index":5}},{"type":"Feature","geometry":{"type":"Polygon","coordinates":[[[-1.978,-6.521],[-1.922,-6.57],[-1.901,-6.662],[-1.887,-6.676],[-1.88,-6.817],[-1.859,-6.866],[-1.845,-6.95],[-1.88,-6.95],[-1.929,-6.922],[-1.929,-6.908],[-1.936,-6.845],[-1.922,-6.817],[-1.922,-6.746],[-1.985,-6.563],[-1.978,-6.521]]]},"properties":{"abbr":null,"name":"unnamed sealed face","plate":18,"ap_bregma_mm":1.85,"index":6}},{"type":"Feature","geometry":{"type":"Polygon","coordinates":[[[-1.649,-6.746],[-1.642,-6.725],[-1.571,-6.69],[-1.515,-6.704],[-1.515,-6.824],[-1.543,-6.88],[-1.579,-6.908],[-1.607,-6.922],[-1.67,-6.915],[-1.677,-6.831],[-1.649,-6.746]]]},"properties":{"abbr":null,"name":"unnamed sealed face","plate":18,"ap_bregma_mm":1.85,"index":7}},{"type":"Feature","geometry":{"type":"Polygon","coordinates":[[[-0.394,-6.985],[-0.394,-7.049],[-0.429,-7.168],[-0.506,-7.281],[-0.583,-7.358],[-0.639,-7.379],[-0.66,-7.372],[-0.681,-7.337],[-0.429,-6.999],[-0.394,-6.985]]]},"properties":{"abbr":null,"name":"unnamed sealed face","plate":18,"ap_bregma_mm":1.85,"index":8}},{"type":"Feature","geometry":{"type":"Polygon","coordinates":[[[-1.564,-7.682],[-1.536,-7.682],[-1.396,-7.752],[-1.305,-7.745],[-1.053,-7.682],[-1.032,-7.682],[-1.018,-7.71],[-1.018,-7.724],[-1.032,-7.724],[-1.095,-7.787],[-1.095,-7.801],[-1.263,-7.85],[-1.389,-7.865],[-1.466,-7.837],[-1.522,-7.794],[-1.558,-7.794],[-1.571,-7.85],[-1.613,-7.9],[-1.635,-7.9],[-1.635,-7.914],[-1.705,-7.893],[-1.936,-7.773],[-2.069,-7.668],[-2.315,-7.506],[-2.392,-7.435],[-2.343,-7.372],[-2.287,-7.379],[-2.223,-7.351],[-2.189,-7.358],[-2.111,-7.464],[-2.041,-7.513],[-2.034,-7.534],[-1.992,-7.548],[-1.88,-7.633],[-1.768,-7.675],[-1.761,-7.689],[-1.733,-7.689],[-1.726,-7.703],[-1.691,-7.703],[-1.663,-7.682],[-1.564,-7.682]]]},"properties":{"abbr":null,"name":"unnamed sealed face","plate":18,"ap_bregma_mm":1.85,"index":9}},{"type":"Feature","geometry":{"type":"Polygon","coordinates":[[[0.35,-7.569],[0.413,-7.576],[0.581,-7.668],[0.651,-7.654],[0.911,-7.661],[0.939,-7.647],[1.079,-7.661],[1.072,-7.731],[1.093,-7.787],[1.044,-7.808],[0.953,-7.808],[0.854,-7.773],[0.763,-7.773],[0.742,-7.78],[0.749,-7.829],[0.728,-7.893],[0.679,-7.9],[0.679,-7.914],[0.546,-7.886],[0.406,-7.829],[0.266,-7.745],[0.266,-7.731],[0.188,-7.682],[0.258,-7.639],[0.258,-7.625],[0.287,-7.618],[0.287,-7.604],[0.322,-7.576],[0.35,-7.569]]]},"properties":{"abbr":null,"name":"unnamed sealed face","plate":18,"ap_bregma_mm":1.85,"index":10}},{"type":"Feature","geometry":{"type":"MultiPolygon","coordinates":[[[[-1.277,-7.97],[-1.536,-7.942],[-1.698,-7.886],[-1.922,-7.773],[-2.35,-7.471],[-2.735,-7.119],[-3.044,-6.782],[-3.843,-5.839],[-4.327,-5.312],[-4.607,-4.974],[-4.853,-4.608],[-5.0,-4.327],[-5.07,-4.137],[-5.112,-3.94],[-5.119,-3.792],[-5.098,-3.631],[-5.007,-3.398],[-4.811,-3.131],[-4.516,-2.85],[-4.292,-2.681],[-4.005,-2.491],[-3.633,-2.28],[-3.254,-2.09],[-2.721,-1.851],[-2.28,-1.703],[-1.971,-1.633],[-1.684,-1.598],[-1.144,-1.584],[-0.884,-1.605],[-0.667,-1.64],[-0.464,-1.696],[-0.337,-1.753],[-0.239,-1.816],[-0.169,-1.886],[-0.106,-2.02],[-0.071,-2.224],[-0.05,-2.744],[-0.029,-2.899],[0.041,-2.892],[-0.036,-2.85],[0.055,-2.829],[0.062,-2.4],[0.048,-2.069],[0.069,-1.971],[0.104,-1.914],[0.237,-1.774],[0.315,-1.703],[0.434,-1.633],[0.637,-1.57],[0.847,-1.535],[1.177,-1.507],[1.387,-1.507],[1.675,-1.521],[2.032,-1.563],[2.537,-1.675],[2.916,-1.795],[3.273,-1.964],[3.519,-2.097],[3.813,-2.28],[4.129,-2.505],[4.493,-2.815],[4.718,-3.061],[4.816,-3.187],[4.914,-3.356],[4.97,-3.546],[4.963,-3.82],[4.935,-3.947],[4.858,-4.137],[4.732,-4.348],[4.122,-5.185],[3.876,-5.501],[3.337,-6.148],[3.266,-6.219],[3.224,-6.24],[3.084,-6.268],[3.042,-6.303],[3.042,-6.479],[2.846,-6.711],[2.432,-7.112],[1.99,-7.471],[1.661,-7.689],[1.338,-7.858],[1.058,-7.942],[0.868,-7.949],[0.553,-7.879],[0.378,-7.808],[0.146,-7.654],[-0.001,-7.499],[0.013,-7.52],[-0.001,-7.499],[-0.105,-7.565],[-0.149,-7.521],[-0.158,-7.495],[-0.26,-7.457],[-0.232,-7.351],[-0.26,-7.457],[-0.323,-7.59],[-0.408,-7.696],[-0.485,-7.759],[-0.702,-7.865],[-0.926,-7.9],[-1.088,-7.949],[-1.249,-7.963],[-1.277,-7.97]]]]},"properties":{"abbr":"brain_outline","name":"outline of the section","plate":18,"ap_bregma_mm":1.85}}]}
