{"type":"FeatureCollection","name":"GerbilAtlas plate 25","note":"Region extents cut from the atlas drawing (METHODS.md, Region extents). Coordinates are [ML, DV] in mm, ML positive to the right of the plate as printed, DV negative below the dorsal surface; AP is the plate bregma. traced_fraction is the share of each polygon boundary the atlas actually draws; below 0.5 the boundary is an estimate. no_drawn_outline marks a feature that lies only inside boundaries the atlas draws round more than one name and prints nothing within, so the whole of its outline is where the extraction cut it. Not a segmentation.","plate":25,"ap_bregma_mm":-0.6,"features":[{"type":"Feature","geometry":{"type":"MultiPolygon","coordinates":[[[[-5.425,-7.018],[-5.439,-7.032],[-5.432,-7.152],[-5.341,-7.328],[-5.249,-7.567],[-5.179,-7.764],[-5.144,-7.799],[-5.032,-7.848],[-4.976,-7.904],[-4.913,-8.038],[-4.836,-8.115],[-4.653,-8.228],[-4.597,-8.242],[-4.52,-8.235],[-4.457,-8.347],[-4.408,-8.397],[-4.359,-8.411],[-4.233,-8.411],[-4.142,-8.432],[-4.106,-8.488],[-4.05,-8.53],[-3.966,-8.53],[-3.882,-8.481],[-3.777,-8.46],[-3.805,-8.798],[-4.099,-8.798],[-4.366,-8.734],[-4.681,-8.587],[-5.046,-8.34],[-5.06,-8.312],[-5.172,-8.228],[-5.214,-8.164],[-5.347,-8.031],[-5.586,-7.679],[-5.747,-7.349],[-5.817,-7.109],[-5.572,-7.039],[-5.425,-7.018]]],[[[5.422,-7.032],[5.45,-7.032],[5.646,-7.124],[5.745,-7.152],[5.745,-7.18],[5.646,-7.412],[5.464,-7.707],[5.408,-7.764],[5.345,-7.869],[5.17,-8.073],[5.17,-8.087],[4.91,-8.354],[4.868,-8.376],[4.868,-8.39],[4.798,-8.446],[4.56,-8.579],[4.412,-8.629],[4.146,-8.685],[3.922,-8.706],[3.648,-8.706],[3.515,-8.692],[3.543,-8.551],[3.578,-8.46],[3.599,-8.347],[3.613,-8.333],[3.774,-8.446],[3.908,-8.446],[3.985,-8.481],[4.062,-8.467],[4.139,-8.39],[4.293,-8.411],[4.335,-8.361],[4.349,-8.291],[4.482,-8.277],[4.574,-8.242],[4.959,-7.932],[5.092,-7.785],[5.226,-7.532],[5.345,-7.313],[5.422,-7.032]]],[[[2.379,-7.996],[2.407,-8.003],[2.477,-8.073],[2.561,-8.122],[2.702,-8.151],[2.674,-8.383],[2.617,-8.361],[2.533,-8.291],[2.456,-8.249],[2.365,-8.115],[2.323,-8.087],[2.323,-8.059],[2.344,-8.045],[2.365,-7.996],[2.379,-7.996]]],[[[-2.277,-8.235],[-2.241,-8.305],[-2.368,-8.432],[-2.487,-8.495],[-2.585,-8.523],[-2.655,-8.312],[-2.55,-8.298],[-2.487,-8.305],[-2.382,-8.291],[-2.277,-8.235]]]]},"properties":{"abbr":"1","name":"layer 1 of cortex","plate":25,"ap_bregma_mm":-0.6,"area_mm2":1.7817,"traced_fraction":[1.0,0.999,0.97,0.987],"n_labels":6,"no_drawn_outline":false}},{"type":"Feature","geometry":{"type":"MultiPolygon","coordinates":[[[[5.352,-6.997],[5.373,-6.997],[5.422,-7.032],[5.345,-7.313],[5.226,-7.532],[5.022,-7.517],[5.184,-7.194],[5.352,-6.997]]],[[[-5.425,-7.018],[-5.404,-7.018],[-5.291,-7.081],[-5.095,-7.271],[-5.039,-7.377],[-5.018,-7.532],[-4.997,-7.56],[-5.249,-7.567],[-5.341,-7.328],[-5.432,-7.152],[-5.439,-7.032],[-5.425,-7.018]]],[[[2.421,-7.932],[2.716,-7.932],[2.793,-8.003],[2.751,-8.052],[2.702,-8.151],[2.561,-8.122],[2.477,-8.073],[2.407,-8.003],[2.379,-7.996],[2.386,-7.961],[2.421,-7.932]]],[[[-2.746,-8.122],[-2.55,-8.122],[-2.55,-8.298],[-2.655,-8.312],[-2.746,-8.151],[-2.746,-8.122]]],[[[4.335,-8.256],[4.349,-8.291],[4.335,-8.361],[4.293,-8.411],[4.139,-8.39],[4.125,-8.284],[4.188,-8.242],[4.237,-8.235],[4.335,-8.256]]],[[[-4.142,-8.249],[-3.896,-8.256],[-3.84,-8.277],[-3.798,-8.34],[-3.77,-8.354],[-3.777,-8.46],[-3.882,-8.481],[-3.966,-8.53],[-4.05,-8.53],[-4.106,-8.488],[-4.142,-8.432],[-4.142,-8.249]]]]},"properties":{"abbr":"2","name":"layer 2 of cortex","plate":25,"ap_bregma_mm":-0.6,"area_mm2":0.4268,"traced_fraction":[0.901,0.873,0.629,0.54,0.887,0.883],"n_labels":6,"no_drawn_outline":false}},{"type":"Feature","geometry":{"type":"MultiPolygon","coordinates":[[[[4.595,-6.596],[4.63,-6.596],[4.672,-6.617],[4.686,-6.638],[4.833,-6.73],[5.31,-6.962],[5.352,-6.997],[5.184,-7.194],[5.022,-7.517],[4.945,-7.616],[4.763,-7.785],[4.728,-7.89],[4.7,-7.918],[4.616,-7.947],[4.532,-8.066],[4.454,-8.101],[4.37,-8.193],[4.349,-8.2],[4.335,-8.256],[4.237,-8.235],[4.188,-8.242],[4.125,-8.284],[4.055,-8.291],[4.027,-8.263],[3.964,-8.242],[3.908,-8.249],[3.859,-8.277],[3.809,-8.277],[3.718,-8.249],[3.627,-8.256],[3.648,-8.164],[3.711,-8.003],[3.746,-7.947],[3.746,-7.918],[3.802,-7.841],[3.802,-7.778],[3.908,-7.749],[3.978,-7.7],[4.146,-7.623],[4.335,-7.588],[4.363,-7.595],[4.448,-7.56],[4.686,-7.335],[4.756,-7.222],[4.763,-7.074],[4.742,-7.018],[4.665,-6.892],[4.588,-6.87],[4.602,-6.807],[4.595,-6.596]]],[[[-4.387,-6.645],[-4.436,-6.737],[-4.59,-6.898],[-4.632,-6.892],[-4.681,-6.92],[-4.716,-6.955],[-4.744,-7.011],[-4.737,-7.124],[-4.709,-7.194],[-4.667,-7.25],[-4.667,-7.271],[-4.639,-7.299],[-4.597,-7.384],[-4.471,-7.51],[-4.366,-7.553],[-4.282,-7.56],[-4.226,-7.546],[-4.212,-7.588],[-4.282,-7.707],[-4.31,-7.792],[-4.156,-7.869],[-4.029,-7.911],[-3.756,-7.911],[-3.686,-7.947],[-3.721,-8.073],[-3.749,-8.319],[-3.77,-8.354],[-3.798,-8.34],[-3.84,-8.277],[-3.896,-8.256],[-4.142,-8.249],[-4.289,-8.228],[-4.485,-8.179],[-4.492,-8.108],[-4.513,-8.059],[-4.576,-7.996],[-4.646,-7.961],[-4.737,-7.876],[-4.843,-7.721],[-4.997,-7.56],[-5.018,-7.532],[-5.039,-7.377],[-5.095,-7.271],[-5.291,-7.081],[-5.404,-7.018],[-5.397,-6.997],[-5.354,-6.976],[-4.962,-6.856],[-4.836,-6.8],[-4.674,-6.751],[-4.478,-6.659],[-4.387,-6.645]]],[[[-2.424,-7.918],[-2.634,-7.918],[-2.634,-7.785],[-2.599,-7.778],[-2.529,-7.806],[-2.424,-7.918]]]]},"properties":{"abbr":"3","name":"layer 3 of cortex","plate":25,"ap_bregma_mm":-0.6,"area_mm2":1.9148,"traced_fraction":[0.972,0.998,0.506],"n_labels":5,"no_drawn_outline":false}},{"type":"Feature","geometry":{"type":"MultiPolygon","coordinates":[[[[0.065,-5.808],[0.079,-5.858],[0.1,-5.984],[0.121,-6.033],[0.136,-6.216],[0.114,-6.251],[0.114,-6.322],[0.065,-6.469],[0.065,-6.505],[0.03,-6.561],[0.009,-6.547],[-0.019,-6.484],[-0.054,-6.343],[-0.068,-6.216],[-0.04,-6.146],[-0.04,-6.047],[-0.019,-5.998],[0.009,-5.822],[0.065,-5.808]]]]},"properties":{"abbr":"3V","name":"3rd ventricle","plate":25,"ap_bregma_mm":-0.6,"area_mm2":0.0969,"traced_fraction":[1.0],"n_labels":1,"no_drawn_outline":false}},{"type":"Feature","geometry":{"type":"MultiPolygon","coordinates":[[[[3.129,-7.271],[3.242,-7.271],[3.319,-7.299],[3.15,-7.412],[3.038,-7.524],[2.947,-7.672],[2.898,-7.736],[2.884,-7.736],[2.856,-7.679],[2.821,-7.644],[2.793,-7.63],[2.695,-7.63],[2.611,-7.686],[2.611,-7.7],[2.505,-7.792],[2.477,-7.848],[2.421,-7.911],[2.421,-7.932],[2.386,-7.961],[2.379,-7.996],[2.365,-7.996],[2.358,-8.024],[2.323,-8.059],[2.323,-8.087],[2.274,-8.066],[2.134,-8.045],[2.19,-7.862],[2.288,-7.806],[2.372,-7.707],[2.393,-7.637],[2.393,-7.539],[2.407,-7.524],[2.73,-7.37],[3.01,-7.285],[3.129,-7.271]]],[[[-2.894,-7.391],[-2.739,-7.398],[-2.557,-7.454],[-2.319,-7.595],[-2.22,-7.686],[-2.164,-7.693],[-2.164,-7.855],[-2.136,-7.939],[-2.066,-8.017],[-1.947,-8.073],[-1.947,-8.108],[-1.912,-8.157],[-1.891,-8.221],[-2.066,-8.249],[-2.241,-8.305],[-2.277,-8.235],[-2.34,-8.052],[-2.424,-7.918],[-2.529,-7.806],[-2.599,-7.778],[-2.634,-7.785],[-2.683,-7.785],[-2.781,-7.813],[-2.788,-7.806],[-2.816,-7.637],[-2.837,-7.574],[-2.887,-7.496],[-2.894,-7.391]]]]},"properties":{"abbr":"AA","name":"anterior amygdaloid area","plate":25,"ap_bregma_mm":-0.6,"area_mm2":0.6471,"traced_fraction":[1.0,0.97],"n_labels":1,"no_drawn_outline":false}},{"type":"Feature","geometry":{"type":"MultiPolygon","coordinates":[[[[3.746,-7.918],[3.746,-7.947],[3.711,-8.003],[3.648,-8.164],[3.627,-8.256],[3.613,-8.27],[3.613,-8.333],[3.599,-8.347],[3.578,-8.46],[3.543,-8.551],[3.515,-8.692],[3.375,-8.671],[3.361,-8.608],[3.298,-8.544],[3.143,-8.474],[3.122,-8.453],[2.94,-8.397],[2.821,-8.397],[2.793,-8.411],[2.786,-8.432],[2.674,-8.383],[2.702,-8.151],[2.751,-8.052],[2.793,-8.003],[2.821,-7.982],[2.856,-7.918],[2.87,-7.918],[2.926,-7.911],[3.136,-7.82],[3.312,-7.792],[3.501,-7.806],[3.62,-7.848],[3.746,-7.918]]],[[[-2.746,-8.151],[-2.655,-8.312],[-2.585,-8.523],[-2.894,-8.636],[-2.957,-8.636],[-2.992,-8.608],[-3.069,-8.587],[-3.181,-8.587],[-3.314,-8.622],[-3.567,-8.65],[-3.7,-8.699],[-3.742,-8.748],[-3.742,-8.791],[-3.805,-8.798],[-3.777,-8.46],[-3.77,-8.354],[-3.749,-8.319],[-3.721,-8.073],[-3.686,-7.947],[-3.679,-7.947],[-3.426,-7.932],[-3.237,-7.961],[-3.076,-8.01],[-2.788,-8.151],[-2.746,-8.151]]]]},"properties":{"abbr":"ACo","name":"anterior cortical amygdaloid nucleus","plate":25,"ap_bregma_mm":-0.6,"area_mm2":1.2837,"traced_fraction":[0.998,1.0],"n_labels":2,"no_drawn_outline":false}},{"type":"Feature","geometry":{"type":"MultiPolygon","coordinates":[[[[0.984,-7.384],[0.998,-7.384],[1.047,-7.454],[1.04,-7.679],[1.054,-8.01],[1.033,-8.045],[0.787,-8.164],[0.696,-8.179],[0.738,-8.094],[0.731,-8.024],[0.703,-7.968],[0.724,-7.947],[0.724,-7.736],[0.535,-7.736],[0.528,-7.51],[0.851,-7.51],[0.984,-7.384]]],[[[-0.902,-7.489],[-0.846,-7.546],[-0.538,-7.546],[-0.538,-7.904],[-0.622,-7.932],[-0.713,-7.834],[-0.713,-7.785],[-0.811,-7.785],[-0.853,-7.743],[-0.853,-7.714],[-0.909,-7.714],[-0.902,-7.489]]]]},"properties":{"abbr":"AHA","name":"anterior hypothalamic area, anterior part","plate":25,"ap_bregma_mm":-0.6,"area_mm2":0.3579,"traced_fraction":[0.311,0.1],"n_labels":2,"no_drawn_outline":true}},{"type":"Feature","geometry":{"type":"MultiPolygon","coordinates":[[[[-4.59,-5.829],[-4.555,-5.921],[-4.583,-5.935],[-4.576,-6.076],[-4.534,-6.174],[-4.506,-6.202],[-4.45,-6.315],[-4.429,-6.329],[-4.429,-6.343],[-4.415,-6.343],[-4.415,-6.54],[-4.352,-6.54],[-4.352,-6.568],[-4.387,-6.645],[-4.478,-6.659],[-4.674,-6.751],[-4.836,-6.8],[-4.962,-6.856],[-5.354,-6.976],[-5.397,-6.997],[-5.404,-7.018],[-5.425,-7.018],[-5.572,-7.039],[-5.817,-7.109],[-5.845,-6.99],[-5.845,-6.659],[-5.873,-6.554],[-5.894,-6.526],[-5.908,-6.505],[-5.922,-6.491],[-5.922,-6.469],[-5.936,-6.469],[-5.972,-6.434],[-5.993,-6.385],[-5.979,-6.364],[-5.845,-6.322],[-5.663,-6.237],[-5.425,-6.16],[-5.362,-6.125],[-5.242,-6.09],[-5.179,-6.054],[-5.06,-6.019],[-4.962,-5.97],[-4.878,-5.949],[-4.59,-5.829]]],[[[4.721,-5.963],[4.77,-5.977],[5.015,-6.125],[5.296,-6.266],[5.317,-6.266],[5.338,-6.287],[5.359,-6.287],[5.738,-6.477],[5.808,-6.498],[5.843,-6.526],[5.871,-6.526],[5.857,-6.589],[5.773,-6.737],[5.745,-6.828],[5.766,-6.934],[5.766,-7.088],[5.745,-7.152],[5.646,-7.124],[5.45,-7.032],[5.422,-7.032],[5.373,-6.997],[5.352,-6.997],[5.31,-6.962],[4.833,-6.73],[4.686,-6.638],[4.672,-6.617],[4.63,-6.596],[4.595,-6.596],[4.532,-6.434],[4.482,-6.378],[4.56,-6.273],[4.588,-6.195],[4.595,-6.054],[4.581,-6.019],[4.679,-6.012],[4.707,-5.977],[4.721,-5.963]]]]},"properties":{"abbr":"AI","name":"agranular insular cortex","plate":25,"ap_bregma_mm":-0.6,"area_mm2":2.0228,"traced_fraction":[0.962,0.986],"n_labels":2,"no_drawn_outline":false}},{"type":"Feature","geometry":{"type":"MultiPolygon","coordinates":[[[[-0.566,-5.196],[-0.594,-5.611],[-0.566,-5.745],[-0.496,-5.851],[-0.482,-5.9],[-0.601,-5.886],[-0.671,-5.935],[-0.783,-5.843],[-0.832,-5.717],[-0.825,-5.485],[-0.797,-5.267],[-0.706,-5.225],[-0.566,-5.196]]],[[[0.935,-5.499],[0.928,-5.633],[0.9,-5.759],[0.851,-5.872],[0.816,-5.907],[0.696,-5.815],[0.633,-5.815],[0.57,-5.858],[0.535,-5.907],[0.493,-5.893],[0.563,-5.738],[0.598,-5.618],[0.633,-5.323],[0.668,-5.323],[0.724,-5.274],[0.795,-5.281],[0.9,-5.407],[0.935,-5.499]]]]},"properties":{"abbr":"AM","name":"anteromedial thalamic nucleus","plate":25,"ap_bregma_mm":-0.6,"area_mm2":0.339,"traced_fraction":[1.0,1.0],"n_labels":2,"no_drawn_outline":false}},{"type":"Feature","geometry":{"type":"MultiPolygon","coordinates":[[[[-1.723,-4.381],[-1.659,-4.388],[-1.603,-4.437],[-1.561,-4.451],[-1.281,-4.493],[-1.267,-4.514],[-1.183,-4.549],[-1.127,-4.592],[-1.106,-4.592],[-1.106,-4.613],[-1.092,-4.613],[-1.057,-4.655],[-0.986,-4.676],[-0.916,-4.732],[-0.93,-4.76],[-0.93,-4.845],[-0.958,-5.014],[-0.951,-5.056],[-0.965,-5.056],[-0.972,-5.084],[-1.05,-5.161],[-1.197,-5.211],[-1.197,-5.196],[-1.267,-5.126],[-1.337,-5.021],[-1.393,-4.901],[-1.533,-4.704],[-1.61,-4.556],[-1.638,-4.444],[-1.695,-4.43],[-1.723,-4.381]]],[[[1.327,-4.578],[1.405,-4.578],[1.489,-4.606],[1.629,-4.606],[1.615,-4.69],[1.552,-4.767],[1.496,-4.866],[1.426,-4.943],[1.334,-5.014],[1.271,-5.042],[1.103,-5.084],[1.047,-5.084],[1.026,-4.971],[1.026,-4.887],[1.11,-4.866],[1.152,-4.838],[1.229,-4.753],[1.236,-4.725],[1.313,-4.62],[1.313,-4.599],[1.327,-4.578]]]]},"properties":{"abbr":"AV","name":"anteroventral thalamic nucleus","plate":25,"ap_bregma_mm":-0.6,"area_mm2":0.477,"traced_fraction":[1.0,1.0],"n_labels":2,"no_drawn_outline":false}},{"type":"Feature","geometry":{"type":"MultiPolygon","coordinates":[[[[1.468,-6.026],[1.664,-6.026],[1.664,-6.174],[1.517,-6.174],[1.496,-6.139],[1.468,-6.026]]],[[[-1.421,-6.062],[-1.428,-6.118],[-1.47,-6.209],[-1.617,-6.209],[-1.617,-6.062],[-1.421,-6.062]]]]},"properties":{"abbr":"B","name":"basal nucleus (Meynert)","plate":25,"ap_bregma_mm":-0.6,"area_mm2":0.0523,"traced_fraction":[0.344,0.344],"n_labels":4,"no_drawn_outline":true}},{"type":"Feature","geometry":{"type":"MultiPolygon","coordinates":[[[[3.739,-6.92],[4.104,-6.92],[4.202,-7.187],[4.237,-7.243],[4.286,-7.271],[4.286,-7.285],[4.188,-7.321],[4.09,-7.321],[4.006,-7.285],[3.964,-7.285],[3.929,-7.18],[3.859,-7.088],[3.809,-7.081],[3.753,-7.131],[3.739,-6.92]]],[[[-3.973,-7.06],[-3.637,-7.067],[-3.644,-7.145],[-3.665,-7.152],[-3.693,-7.145],[-3.714,-7.166],[-3.77,-7.173],[-3.798,-7.215],[-3.819,-7.306],[-3.812,-7.384],[-3.959,-7.398],[-4.015,-7.377],[-4.05,-7.342],[-4.071,-7.342],[-3.994,-7.088],[-3.973,-7.06]]]]},"properties":{"abbr":"BLA","name":"basolateral amygdaloid nucleus, anterior part","plate":25,"ap_bregma_mm":-0.6,"area_mm2":0.2193,"traced_fraction":[0.817,0.749],"n_labels":2,"no_drawn_outline":false}},{"type":"Feature","geometry":{"type":"MultiPolygon","coordinates":[[[[3.964,-7.285],[4.006,-7.285],[4.09,-7.321],[4.188,-7.321],[4.286,-7.285],[4.286,-7.475],[4.335,-7.588],[4.146,-7.623],[3.978,-7.7],[3.908,-7.749],[3.802,-7.778],[3.76,-7.686],[3.76,-7.553],[3.844,-7.524],[3.922,-7.447],[3.964,-7.356],[3.964,-7.285]]],[[[-4.071,-7.342],[-4.05,-7.342],[-4.015,-7.377],[-3.959,-7.398],[-3.812,-7.384],[-3.77,-7.496],[-3.693,-7.588],[-3.644,-7.588],[-3.616,-7.56],[-3.595,-7.433],[-3.475,-7.44],[-3.419,-7.468],[-3.321,-7.475],[-3.286,-7.496],[-3.3,-7.517],[-3.426,-7.588],[-3.553,-7.707],[-3.609,-7.785],[-3.679,-7.947],[-3.686,-7.947],[-3.756,-7.911],[-4.029,-7.911],[-4.156,-7.869],[-4.31,-7.792],[-4.282,-7.707],[-4.212,-7.588],[-4.226,-7.546],[-4.177,-7.51],[-4.163,-7.51],[-4.127,-7.461],[-4.106,-7.447],[-4.071,-7.342]]]]},"properties":{"abbr":"BLV","name":"basolateral amygdaloid nucleus, ventral part","plate":25,"ap_bregma_mm":-0.6,"area_mm2":0.4984,"traced_fraction":[0.969,0.973],"n_labels":2,"no_drawn_outline":false}},{"type":"Feature","geometry":{"type":"MultiPolygon","coordinates":[[[[3.69,-7.194],[3.732,-7.201],[3.725,-7.271],[3.69,-7.363],[3.683,-7.475],[3.697,-7.51],[3.732,-7.546],[3.76,-7.553],[3.76,-7.686],[3.802,-7.778],[3.802,-7.841],[3.746,-7.918],[3.585,-7.834],[3.403,-7.792],[3.164,-7.813],[3.052,-7.848],[2.926,-7.911],[2.87,-7.918],[2.884,-7.855],[2.884,-7.736],[2.898,-7.736],[2.947,-7.672],[3.038,-7.524],[3.15,-7.412],[3.319,-7.299],[3.543,-7.285],[3.627,-7.243],[3.669,-7.194],[3.69,-7.194]]],[[[-2.928,-7.384],[-2.894,-7.391],[-2.887,-7.496],[-2.872,-7.503],[-2.816,-7.637],[-2.788,-7.806],[-2.781,-7.813],[-2.802,-7.883],[-2.802,-7.982],[-2.774,-8.08],[-2.746,-8.122],[-2.746,-8.151],[-2.788,-8.151],[-3.076,-8.01],[-3.237,-7.961],[-3.426,-7.932],[-3.679,-7.947],[-3.609,-7.785],[-3.553,-7.707],[-3.426,-7.588],[-3.3,-7.517],[-3.286,-7.496],[-3.139,-7.475],[-2.978,-7.391],[-2.928,-7.384]]]]},"properties":{"abbr":"BMA","name":"basomedial amygdaloid nucleus, anterior part","plate":25,"ap_bregma_mm":-0.6,"area_mm2":0.7851,"traced_fraction":[0.995,0.975],"n_labels":2,"no_drawn_outline":false}},{"type":"Feature","geometry":{"type":"MultiPolygon","coordinates":[[[[4.616,-5.787],[4.567,-5.851],[4.567,-5.893],[4.553,-5.907],[4.539,-5.977],[4.525,-5.977],[4.469,-6.012],[4.433,-6.083],[4.335,-6.209],[4.244,-6.308],[4.209,-6.329],[4.132,-6.322],[3.992,-6.364],[3.802,-6.441],[3.795,-6.455],[3.718,-6.484],[3.69,-6.512],[3.627,-6.533],[3.375,-6.526],[3.375,-6.589],[3.354,-6.617],[3.262,-6.638],[3.157,-6.638],[3.129,-6.652],[3.122,-6.673],[3.115,-6.673],[3.038,-6.659],[3.01,-6.638],[3.017,-6.624],[3.08,-6.61],[3.101,-6.589],[3.108,-6.54],[3.066,-6.484],[2.989,-6.477],[2.912,-6.547],[2.863,-6.455],[2.863,-6.441],[2.891,-6.427],[2.891,-6.413],[3.01,-6.287],[3.066,-6.188],[3.122,-6.041],[3.178,-5.738],[3.178,-5.583],[3.157,-5.372],[3.059,-5.07],[2.912,-4.817],[2.877,-4.789],[2.842,-4.732],[2.695,-4.599],[2.54,-4.5],[2.456,-4.458],[2.421,-4.458],[2.386,-4.352],[2.302,-4.275],[2.218,-4.254],[2.092,-4.254],[1.923,-4.282],[1.874,-4.275],[1.881,-4.092],[1.86,-4.043],[1.797,-3.959],[1.783,-3.959],[1.727,-3.888],[1.713,-3.888],[1.566,-3.748],[1.496,-3.663],[1.489,-3.628],[1.412,-3.487],[1.39,-3.41],[1.384,-3.354],[1.369,-3.34],[1.376,-3.283],[1.468,-3.178],[1.566,-3.122],[1.587,-3.122],[1.678,-3.058],[1.678,-3.044],[1.755,-3.009],[1.776,-2.96],[1.853,-2.946],[2.035,-2.953],[2.526,-2.995],[2.835,-3.044],[3.066,-3.108],[3.389,-3.22],[3.865,-3.445],[4.076,-3.586],[4.23,-3.727],[4.244,-3.727],[4.412,-3.931],[4.609,-4.226],[4.693,-4.423],[4.749,-4.662],[4.77,-4.845],[4.756,-5.168],[4.735,-5.288],[4.651,-5.569],[4.637,-5.675],[4.609,-5.738],[4.616,-5.787]]],[[[-1.688,-2.995],[-1.673,-3.037],[-1.631,-3.072],[-1.449,-3.15],[-1.414,-3.178],[-1.386,-3.178],[-1.323,-3.262],[-1.323,-3.326],[-1.372,-3.417],[-1.386,-3.417],[-1.4,-3.452],[-1.414,-3.452],[-1.47,-3.523],[-1.624,-3.755],[-1.695,-3.825],[-1.695,-3.839],[-1.737,-3.867],[-1.779,-3.931],[-1.8,-3.938],[-1.898,-4.064],[-1.919,-4.113],[-1.919,-4.247],[-1.975,-4.296],[-2.031,-4.317],[-2.08,-4.367],[-2.199,-4.571],[-2.241,-4.571],[-2.389,-4.648],[-2.557,-4.767],[-2.676,-4.88],[-2.676,-4.894],[-2.774,-4.992],[-2.866,-5.126],[-2.964,-5.316],[-3.02,-5.471],[-3.062,-5.64],[-3.09,-5.843],[-3.083,-6.111],[-3.055,-6.23],[-2.992,-6.385],[-2.908,-6.512],[-2.795,-6.631],[-2.802,-6.681],[-2.83,-6.709],[-2.845,-6.709],[-2.851,-6.652],[-2.887,-6.61],[-2.949,-6.603],[-2.992,-6.624],[-3.02,-6.666],[-3.013,-6.758],[-3.062,-6.772],[-3.16,-6.772],[-3.328,-6.744],[-3.454,-6.694],[-3.644,-6.554],[-3.798,-6.477],[-3.945,-6.434],[-4.135,-6.434],[-4.212,-6.378],[-4.212,-6.357],[-4.324,-6.202],[-4.38,-6.09],[-4.408,-6.069],[-4.415,-6.041],[-4.478,-5.956],[-4.534,-5.829],[-4.66,-5.288],[-4.681,-5.098],[-4.66,-4.76],[-4.604,-4.542],[-4.513,-4.303],[-4.331,-3.987],[-4.233,-3.86],[-4.184,-3.818],[-4.184,-3.804],[-4.163,-3.797],[-4.099,-3.727],[-3.966,-3.628],[-3.875,-3.579],[-3.784,-3.494],[-3.63,-3.403],[-3.588,-3.361],[-3.461,-3.297],[-3.216,-3.213],[-3.027,-3.129],[-2.788,-3.058],[-2.508,-3.009],[-2.206,-3.009],[-1.828,-2.974],[-1.758,-2.974],[-1.688,-2.995]]]]},"properties":{"abbr":"CPu","name":"caudate putamen (striatum)","plate":25,"ap_bregma_mm":-0.6,"area_mm2":13.5283,"traced_fraction":[0.98,1.0],"n_labels":2,"no_drawn_outline":false}},{"type":"Feature","geometry":{"type":"MultiPolygon","coordinates":[[[[3.585,-6.659],[3.599,-6.659],[3.613,-6.702],[3.711,-6.842],[3.739,-6.92],[3.753,-7.131],[3.746,-7.138],[3.739,-7.145],[3.739,-7.152],[3.711,-7.159],[3.69,-7.194],[3.669,-7.194],[3.627,-7.243],[3.543,-7.285],[3.319,-7.299],[3.242,-7.271],[3.129,-7.271],[3.129,-7.138],[3.094,-7.088],[3.045,-6.92],[3.045,-6.821],[3.115,-6.694],[3.115,-6.673],[3.122,-6.673],[3.221,-6.688],[3.347,-6.681],[3.41,-6.688],[3.564,-6.673],[3.585,-6.659]]],[[[-3.041,-6.849],[-2.985,-6.927],[-2.936,-6.969],[-2.908,-7.053],[-2.894,-7.194],[-2.9,-7.264],[-2.928,-7.335],[-2.928,-7.384],[-2.978,-7.391],[-3.139,-7.475],[-3.286,-7.496],[-3.321,-7.475],[-3.419,-7.468],[-3.475,-7.44],[-3.595,-7.433],[-3.595,-7.328],[-3.63,-7.215],[-3.665,-7.173],[-3.665,-7.152],[-3.644,-7.145],[-3.637,-7.067],[-3.609,-6.962],[-3.532,-6.863],[-3.454,-6.877],[-3.272,-6.877],[-3.041,-6.849]]]]},"properties":{"abbr":"CeM","name":"central amygdaloid nucleus, medial division","plate":25,"ap_bregma_mm":-0.6,"area_mm2":0.7699,"traced_fraction":[0.962,0.974],"n_labels":2,"no_drawn_outline":false}},{"type":"Feature","geometry":{"type":"MultiPolygon","coordinates":[[[[0.114,-1.391],[0.149,-1.434],[0.191,-1.455],[0.395,-1.638],[0.409,-1.638],[0.682,-1.933],[0.823,-2.123],[0.935,-2.306],[1.103,-2.636],[1.145,-2.749],[0.991,-2.812],[0.858,-2.679],[0.598,-2.496],[0.381,-2.383],[0.1,-2.292],[0.044,-2.292],[-0.11,-2.334],[-0.292,-2.404],[-0.474,-2.496],[-0.755,-2.679],[-0.888,-2.812],[-1.035,-2.756],[-1.021,-2.7],[-0.804,-2.278],[-0.573,-1.905],[-0.383,-1.666],[-0.103,-1.413],[-0.033,-1.455],[-0.033,-1.476],[0.002,-1.504],[0.023,-1.504],[0.037,-1.469],[0.114,-1.391]]]]},"properties":{"abbr":"Cg1","name":"cingulate cortex, area 1","plate":25,"ap_bregma_mm":-0.6,"area_mm2":1.3707,"traced_fraction":[1.0],"n_labels":2,"no_drawn_outline":false}},{"type":"Feature","geometry":{"type":"MultiPolygon","coordinates":[[[[0.991,-2.812],[0.935,-2.876],[0.858,-3.044],[0.802,-3.122],[0.738,-3.178],[0.738,-3.192],[0.71,-3.192],[0.682,-3.22],[0.619,-3.248],[0.535,-3.269],[0.36,-3.297],[0.304,-3.29],[0.248,-3.248],[0.185,-3.248],[0.128,-3.269],[0.121,-3.262],[0.136,-3.143],[0.093,-3.009],[0.072,-2.974],[0.051,-2.974],[0.023,-3.122],[0.044,-3.269],[-0.075,-3.269],[-0.103,-3.276],[-0.124,-3.305],[-0.32,-3.29],[-0.566,-3.206],[-0.566,-3.192],[-0.706,-3.051],[-0.818,-2.876],[-0.888,-2.812],[-0.755,-2.679],[-0.474,-2.496],[-0.243,-2.383],[0.044,-2.292],[0.136,-2.299],[0.381,-2.383],[0.549,-2.468],[0.787,-2.622],[0.991,-2.812]]]]},"properties":{"abbr":"Cg2","name":"cingulate cortex, area 2","plate":25,"ap_bregma_mm":-0.6,"area_mm2":1.2859,"traced_fraction":[1.0],"n_labels":2,"no_drawn_outline":false}},{"type":"Feature","geometry":{"type":"MultiPolygon","coordinates":[[[[-4.485,-8.179],[-4.289,-8.228],[-4.142,-8.249],[-4.142,-8.432],[-4.233,-8.411],[-4.359,-8.411],[-4.408,-8.397],[-4.457,-8.347],[-4.52,-8.235],[-4.485,-8.179]]],[[[4.125,-8.284],[4.139,-8.39],[4.062,-8.467],[3.985,-8.481],[3.908,-8.446],[3.774,-8.446],[3.613,-8.333],[3.613,-8.27],[3.627,-8.256],[3.718,-8.249],[3.774,-8.27],[3.859,-8.277],[3.865,-8.263],[3.964,-8.242],[4.027,-8.263],[4.055,-8.291],[4.125,-8.284]]]]},"properties":{"abbr":"CxA","name":"cortex-amygdala transition zone","plate":25,"ap_bregma_mm":-0.6,"area_mm2":0.1525,"traced_fraction":[0.876,0.952],"n_labels":2,"no_drawn_outline":false}},{"type":"Feature","geometry":{"type":"MultiPolygon","coordinates":[[[[4.686,-5.661],[4.707,-5.675],[4.735,-5.787],[4.735,-5.872],[4.714,-5.956],[4.707,-5.977],[4.679,-6.012],[4.581,-6.019],[4.574,-5.998],[4.539,-5.977],[4.539,-5.949],[4.567,-5.893],[4.567,-5.851],[4.616,-5.787],[4.644,-5.766],[4.686,-5.661]]],[[[-4.555,-5.921],[-4.471,-6.062],[-4.422,-6.111],[-4.408,-6.153],[-4.359,-6.209],[-4.345,-6.251],[-4.373,-6.266],[-4.408,-6.329],[-4.429,-6.329],[-4.45,-6.315],[-4.485,-6.237],[-4.534,-6.174],[-4.576,-6.076],[-4.583,-5.935],[-4.555,-5.921]]]]},"properties":{"abbr":"DCl","name":"dorsal part of claustrum","plate":25,"ap_bregma_mm":-0.6,"area_mm2":0.0839,"traced_fraction":[0.94,1.0],"n_labels":2,"no_drawn_outline":false}},{"type":"Feature","geometry":{"type":"MultiPolygon","coordinates":[[[[4.482,-6.378],[4.532,-6.434],[4.595,-6.596],[4.602,-6.807],[4.588,-6.87],[4.497,-7.102],[4.37,-7.236],[4.293,-7.264],[4.279,-7.194],[4.195,-7.025],[4.146,-6.828],[4.153,-6.673],[4.195,-6.54],[4.216,-6.519],[4.244,-6.526],[4.363,-6.469],[4.482,-6.378]]],[[[-4.121,-6.561],[-4.05,-6.659],[-4.029,-6.765],[-4.029,-6.884],[-4.043,-6.962],[-4.142,-7.222],[-4.142,-7.454],[-4.127,-7.461],[-4.127,-7.475],[-4.177,-7.51],[-4.254,-7.426],[-4.345,-7.356],[-4.345,-7.342],[-4.429,-7.264],[-4.429,-7.25],[-4.52,-7.152],[-4.597,-6.997],[-4.59,-6.898],[-4.436,-6.737],[-4.387,-6.645],[-4.352,-6.568],[-4.352,-6.54],[-4.345,-6.498],[-4.331,-6.498],[-4.324,-6.512],[-4.226,-6.554],[-4.121,-6.561]]]]},"properties":{"abbr":"DEn","name":"dorsal endopiriform nucleus","plate":25,"ap_bregma_mm":-0.6,"area_mm2":0.6221,"traced_fraction":[1.0,1.0],"n_labels":2,"no_drawn_outline":false}},{"type":"Feature","geometry":{"type":"MultiPolygon","coordinates":[[[[-4.737,-5.232],[-4.702,-5.422],[-4.59,-5.829],[-4.878,-5.949],[-4.962,-5.97],[-5.06,-6.019],[-5.179,-6.054],[-5.242,-6.09],[-5.362,-6.125],[-5.425,-6.16],[-5.663,-6.237],[-5.845,-6.322],[-5.979,-6.364],[-5.993,-6.385],[-6.196,-6.062],[-6.301,-5.843],[-6.224,-5.822],[-5.985,-5.717],[-5.6,-5.583],[-5.558,-5.555],[-5.341,-5.485],[-5.214,-5.422],[-4.737,-5.232]]],[[[4.742,-5.506],[5.31,-5.78],[5.632,-5.907],[5.843,-6.012],[5.955,-6.047],[6.06,-6.097],[6.067,-6.111],[6.088,-6.111],[6.088,-6.125],[6.06,-6.174],[5.906,-6.336],[5.899,-6.329],[5.878,-6.35],[5.885,-6.357],[5.871,-6.371],[5.871,-6.526],[5.843,-6.526],[5.808,-6.498],[5.738,-6.477],[5.359,-6.287],[5.338,-6.287],[5.317,-6.266],[5.296,-6.266],[5.015,-6.125],[4.77,-5.977],[4.721,-5.963],[4.714,-5.956],[4.735,-5.872],[4.735,-5.787],[4.707,-5.675],[4.686,-5.661],[4.7,-5.583],[4.742,-5.506]]]]},"properties":{"abbr":"DI","name":"dysgranular insular cortex","plate":25,"ap_bregma_mm":-0.6,"area_mm2":1.5748,"traced_fraction":[1.0,1.0],"n_labels":2,"no_drawn_outline":false}},{"type":"Feature","geometry":{"type":"MultiPolygon","coordinates":[[[[1.405,-5.907],[1.44,-5.907],[1.468,-6.026],[1.482,-6.097],[1.517,-6.174],[1.538,-6.244],[1.608,-6.364],[1.706,-6.469],[1.832,-6.554],[2.043,-6.631],[2.169,-6.645],[2.337,-6.638],[2.386,-6.638],[2.386,-6.906],[2.589,-6.906],[2.589,-6.603],[2.744,-6.54],[2.863,-6.455],[2.912,-6.547],[2.912,-6.575],[2.947,-6.617],[3.01,-6.638],[3.038,-6.659],[3.115,-6.673],[3.115,-6.694],[3.045,-6.821],[3.045,-6.92],[3.094,-7.088],[3.129,-7.138],[3.129,-7.271],[3.01,-7.285],[2.73,-7.37],[2.407,-7.524],[2.351,-7.419],[2.26,-7.342],[2.211,-7.328],[2.078,-7.328],[1.846,-7.398],[1.741,-7.454],[1.622,-7.546],[1.461,-7.391],[0.998,-7.384],[0.984,-7.384],[1.047,-7.25],[1.061,-7.243],[1.117,-7.102],[1.166,-6.955],[1.257,-6.681],[1.327,-6.399],[1.376,-6.125],[1.405,-5.907]]],[[[-1.73,-6.519],[-1.73,-6.856],[-2.01,-6.856],[-2.01,-6.666],[-1.842,-6.589],[-1.73,-6.519]]]]},"properties":{"abbr":"EAC","name":"sublenticular extended amygdala, central part","plate":25,"ap_bregma_mm":-0.6,"area_mm2":1.7156,"traced_fraction":[0.799,0.325],"n_labels":2,"no_drawn_outline":false}},{"type":"Feature","geometry":{"type":"MultiPolygon","coordinates":[[[[-4.752,-5.0],[-4.737,-5.056],[-4.737,-5.232],[-5.214,-5.422],[-5.341,-5.485],[-5.558,-5.555],[-5.6,-5.583],[-5.985,-5.717],[-6.154,-5.794],[-6.301,-5.843],[-6.448,-5.562],[-5.467,-5.239],[-4.794,-5.0],[-4.752,-5.0]]],[[[4.819,-5.211],[5.17,-5.344],[5.198,-5.365],[5.338,-5.407],[5.646,-5.541],[5.766,-5.576],[6.109,-5.724],[6.214,-5.752],[6.313,-5.801],[6.165,-6.033],[6.095,-6.118],[6.088,-6.111],[6.067,-6.111],[6.06,-6.097],[5.955,-6.047],[5.843,-6.012],[5.632,-5.907],[5.31,-5.78],[4.742,-5.506],[4.756,-5.414],[4.819,-5.211]]]]},"properties":{"abbr":"GI","name":"granular insular cortex","plate":25,"ap_bregma_mm":-0.6,"area_mm2":1.0174,"traced_fraction":[1.0,1.0],"n_labels":2,"no_drawn_outline":false}},{"type":"Feature","geometry":{"type":"MultiPolygon","coordinates":[[[[2.421,-4.458],[2.456,-4.458],[2.54,-4.5],[2.695,-4.599],[2.765,-4.669],[2.779,-4.669],[2.912,-4.817],[3.059,-5.07],[3.157,-5.372],[3.178,-5.583],[3.178,-5.738],[3.122,-6.041],[3.066,-6.188],[3.01,-6.287],[2.891,-6.413],[2.891,-6.427],[2.863,-6.441],[2.863,-6.455],[2.744,-6.54],[2.589,-6.603],[2.428,-6.631],[2.428,-6.448],[2.337,-6.448],[2.337,-6.638],[2.085,-6.638],[1.965,-6.61],[1.832,-6.554],[1.741,-6.498],[1.643,-6.406],[1.552,-6.273],[1.517,-6.174],[1.664,-6.174],[1.664,-6.026],[1.468,-6.026],[1.44,-5.907],[1.517,-5.457],[1.559,-5.281],[1.594,-5.211],[1.664,-5.182],[1.895,-4.986],[2.085,-4.852],[2.176,-4.81],[2.302,-4.711],[2.4,-4.585],[2.421,-4.514],[2.421,-4.458]]],[[[-2.199,-4.571],[-2.22,-4.648],[-2.22,-4.76],[-2.178,-5.021],[-2.136,-5.126],[-2.087,-5.175],[-2.031,-5.203],[-1.905,-5.225],[-1.793,-5.225],[-1.659,-5.295],[-1.54,-5.422],[-1.435,-5.611],[-1.442,-5.696],[-1.407,-5.956],[-1.421,-6.062],[-1.617,-6.062],[-1.617,-6.209],[-1.47,-6.209],[-1.498,-6.273],[-1.568,-6.371],[-1.73,-6.519],[-1.842,-6.589],[-2.01,-6.666],[-2.192,-6.716],[-2.403,-6.737],[-2.403,-6.533],[-2.494,-6.533],[-2.494,-6.73],[-2.634,-6.709],[-2.795,-6.631],[-2.879,-6.547],[-2.992,-6.385],[-3.041,-6.273],[-3.083,-6.111],[-3.09,-5.843],[-3.062,-5.64],[-3.02,-5.471],[-2.964,-5.316],[-2.866,-5.126],[-2.774,-4.992],[-2.676,-4.894],[-2.676,-4.88],[-2.557,-4.767],[-2.389,-4.648],[-2.241,-4.571],[-2.199,-4.571]]]]},"properties":{"abbr":"GP","name":"globus pallidus","plate":25,"ap_bregma_mm":-0.6,"area_mm2":5.1057,"traced_fraction":[0.868,0.864],"n_labels":2,"no_drawn_outline":false}},{"type":"Feature","geometry":{"type":"MultiPolygon","coordinates":[[[[2.407,-7.524],[2.393,-7.539],[2.393,-7.637],[2.372,-7.707],[2.288,-7.806],[2.19,-7.862],[1.979,-7.89],[1.699,-7.848],[1.636,-7.813],[1.58,-7.757],[1.566,-7.637],[1.587,-7.581],[1.622,-7.546],[1.741,-7.454],[1.846,-7.398],[2.078,-7.328],[2.211,-7.328],[2.26,-7.342],[2.351,-7.419],[2.407,-7.524]]],[[[-1.498,-7.503],[-1.47,-7.553],[-1.442,-7.623],[-1.421,-7.792],[-1.428,-7.876],[-1.449,-7.904],[-1.554,-7.989],[-1.701,-8.059],[-1.814,-8.08],[-1.947,-8.073],[-2.066,-8.017],[-2.136,-7.939],[-2.164,-7.855],[-2.164,-7.693],[-2.143,-7.623],[-2.094,-7.546],[-2.031,-7.482],[-1.968,-7.454],[-1.709,-7.419],[-1.603,-7.44],[-1.498,-7.503]]]]},"properties":{"abbr":"HDB","name":"nucleus of the horizontal limb of the diagonal band","plate":25,"ap_bregma_mm":-0.6,"area_mm2":0.7572,"traced_fraction":[1.0,1.0],"n_labels":4,"no_drawn_outline":false}},{"type":"Feature","geometry":{"type":"MultiPolygon","coordinates":[[[[4.202,-6.35],[4.174,-6.441],[4.132,-6.491],[4.083,-6.505],[4.006,-6.582],[3.95,-6.617],[3.823,-6.617],[3.802,-6.596],[3.823,-6.561],[3.872,-6.533],[3.88,-6.512],[3.936,-6.469],[4.083,-6.413],[4.139,-6.364],[4.202,-6.35]]],[[[3.01,-6.638],[2.947,-6.617],[2.919,-6.589],[2.912,-6.547],[2.989,-6.477],[3.066,-6.484],[3.101,-6.519],[3.101,-6.589],[3.08,-6.61],[3.017,-6.624],[3.01,-6.638]]],[[[-4.071,-6.491],[-4.008,-6.491],[-3.868,-6.554],[-3.798,-6.603],[-3.721,-6.681],[-3.693,-6.73],[-3.84,-6.73],[-3.903,-6.688],[-3.938,-6.681],[-3.966,-6.638],[-3.98,-6.638],[-4.015,-6.568],[-4.071,-6.519],[-4.071,-6.491]]],[[[-2.83,-6.709],[-2.894,-6.786],[-2.949,-6.8],[-2.964,-6.779],[-3.013,-6.758],[-3.02,-6.666],[-2.992,-6.624],[-2.949,-6.603],[-2.887,-6.61],[-2.851,-6.652],[-2.845,-6.709],[-2.83,-6.709]]],[[[3.964,-7.285],[3.964,-7.356],[3.922,-7.447],[3.844,-7.524],[3.76,-7.553],[3.732,-7.546],[3.683,-7.475],[3.69,-7.363],[3.725,-7.271],[3.732,-7.201],[3.739,-7.152],[3.739,-7.145],[3.746,-7.138],[3.753,-7.131],[3.809,-7.081],[3.859,-7.088],[3.929,-7.18],[3.964,-7.285]]],[[[-3.665,-7.152],[-3.665,-7.173],[-3.63,-7.215],[-3.595,-7.328],[-3.595,-7.433],[-3.616,-7.56],[-3.644,-7.588],[-3.693,-7.588],[-3.77,-7.496],[-3.812,-7.384],[-3.819,-7.306],[-3.798,-7.215],[-3.77,-7.173],[-3.714,-7.166],[-3.693,-7.145],[-3.665,-7.152]]]]},"properties":{"abbr":"I","name":"intercalated nuclei of the amygdala","plate":25,"ap_bregma_mm":-0.6,"area_mm2":0.2994,"traced_fraction":[1.0,1.0,1.0,1.0,1.0,0.968],"n_labels":6,"no_drawn_outline":false}},{"type":"Feature","geometry":{"type":"MultiPolygon","coordinates":[[[[0.121,-3.262],[0.128,-3.269],[0.185,-3.248],[0.248,-3.248],[0.304,-3.29],[0.191,-3.319],[0.065,-3.305],[0.044,-3.269],[0.023,-3.122],[0.051,-2.974],[0.079,-2.981],[0.136,-3.143],[0.121,-3.262]]]]},"properties":{"abbr":"IG","name":"indusium griseum","plate":25,"ap_bregma_mm":-0.6,"area_mm2":0.0351,"traced_fraction":[1.0],"n_labels":1,"no_drawn_outline":false}},{"type":"Feature","geometry":{"type":"MultiPolygon","coordinates":[[[[-3.013,-6.758],[-2.964,-6.779],[-2.949,-6.8],[-3.041,-6.849],[-3.272,-6.877],[-3.454,-6.877],[-3.532,-6.863],[-3.693,-6.73],[-3.721,-6.681],[-3.868,-6.554],[-4.008,-6.491],[-4.071,-6.491],[-4.142,-6.455],[-4.135,-6.434],[-4.001,-6.427],[-3.798,-6.477],[-3.644,-6.554],[-3.454,-6.694],[-3.328,-6.744],[-3.16,-6.772],[-3.062,-6.772],[-3.013,-6.758]]],[[[3.627,-6.533],[3.571,-6.554],[3.585,-6.659],[3.564,-6.673],[3.41,-6.688],[3.347,-6.681],[3.354,-6.617],[3.375,-6.589],[3.375,-6.526],[3.627,-6.533]]]]},"properties":{"abbr":"IPAC","name":"interstitial nucleus of the posterior limb of the anterior commissure","plate":25,"ap_bregma_mm":-0.6,"area_mm2":0.1813,"traced_fraction":[1.0,0.645],"n_labels":2,"no_drawn_outline":false}},{"type":"Feature","geometry":{"type":"MultiPolygon","coordinates":[[[[-0.271,-4.268],[-0.222,-4.275],[-0.222,-4.324],[-0.187,-4.388],[-0.117,-4.458],[-0.047,-4.493],[0.023,-4.5],[0.086,-4.486],[0.241,-4.381],[0.276,-4.402],[0.647,-4.402],[0.696,-4.423],[0.696,-4.458],[0.661,-4.606],[0.626,-4.641],[0.535,-4.69],[0.493,-4.732],[0.5,-4.767],[0.556,-4.767],[0.619,-4.739],[0.675,-4.676],[0.682,-4.648],[0.738,-4.599],[0.787,-4.599],[0.823,-4.634],[0.97,-4.627],[1.033,-4.613],[1.103,-4.535],[1.159,-4.535],[1.271,-4.599],[1.313,-4.599],[1.313,-4.62],[1.208,-4.782],[1.11,-4.866],[1.026,-4.887],[0.858,-4.859],[0.752,-4.859],[0.605,-4.915],[0.5,-4.929],[0.353,-4.929],[0.234,-4.929],[0.17,-4.95],[0.149,-4.971],[0.058,-5.0],[-0.061,-4.992],[-0.229,-4.915],[-0.334,-4.915],[-0.489,-4.908],[-0.664,-4.803],[-0.804,-4.753],[-0.916,-4.732],[-0.986,-4.676],[-0.902,-4.465],[-0.888,-4.465],[-0.853,-4.416],[-0.818,-4.409],[-0.72,-4.5],[-0.552,-4.535],[-0.524,-4.578],[-0.503,-4.697],[-0.489,-4.711],[-0.425,-4.697],[-0.334,-4.563],[-0.32,-4.486],[-0.341,-4.444],[-0.376,-4.43],[-0.58,-4.437],[-0.636,-4.416],[-0.636,-4.402],[-0.601,-4.409],[-0.524,-4.338],[-0.44,-4.345],[-0.355,-4.331],[-0.306,-4.31],[-0.271,-4.268]]]]},"properties":{"abbr":"IVF","name":"interventricular foramen","plate":25,"ap_bregma_mm":-0.6,"area_mm2":0.8737,"traced_fraction":[1.0],"n_labels":1,"no_drawn_outline":false}},{"type":"Feature","geometry":{"type":"MultiPolygon","coordinates":[[[[0.535,-7.736],[0.724,-7.736],[0.724,-7.947],[0.703,-7.968],[0.633,-7.932],[0.535,-7.932],[0.535,-7.736]]],[[[-0.811,-7.785],[-0.713,-7.785],[-0.713,-7.834],[-0.622,-7.932],[-0.671,-7.996],[-0.671,-8.08],[-0.65,-8.129],[-0.552,-8.2],[-0.468,-8.221],[-0.383,-8.214],[-0.362,-8.228],[-0.39,-8.256],[-0.636,-8.256],[-0.797,-8.207],[-0.818,-8.179],[-0.895,-8.151],[-0.895,-7.785],[-0.811,-7.785]]]]},"properties":{"abbr":"LA","name":"lateroanterior hypothalamic nucleus","plate":25,"ap_bregma_mm":-0.6,"area_mm2":0.1518,"traced_fraction":[0.288,0.637],"n_labels":2,"no_drawn_outline":true}},{"type":"Feature","geometry":{"type":"MultiPolygon","coordinates":[[[[2.884,-7.736],[2.884,-7.855],[2.87,-7.918],[2.856,-7.918],[2.842,-7.953],[2.793,-8.003],[2.716,-7.932],[2.421,-7.932],[2.421,-7.911],[2.477,-7.848],[2.505,-7.792],[2.575,-7.736],[2.611,-7.686],[2.695,-7.63],[2.793,-7.63],[2.821,-7.644],[2.856,-7.679],[2.884,-7.736]]],[[[-2.634,-7.785],[-2.634,-7.918],[-2.424,-7.918],[-2.34,-8.052],[-2.277,-8.235],[-2.382,-8.291],[-2.487,-8.305],[-2.55,-8.298],[-2.55,-8.122],[-2.746,-8.122],[-2.76,-8.115],[-2.802,-7.982],[-2.802,-7.883],[-2.781,-7.813],[-2.683,-7.785],[-2.634,-7.785]]]]},"properties":{"abbr":"LOT","name":"nucleus of the lateral olfactory tract","plate":25,"ap_bregma_mm":-0.6,"area_mm2":0.2554,"traced_fraction":[0.753,0.663],"n_labels":2,"no_drawn_outline":true}},{"type":"Feature","geometry":{"type":"MultiPolygon","coordinates":[[[[0.998,-7.384],[1.461,-7.391],[1.622,-7.546],[1.587,-7.581],[1.566,-7.637],[1.145,-7.637],[1.145,-7.553],[1.117,-7.553],[1.103,-7.503],[1.047,-7.454],[0.998,-7.384]]],[[[-0.993,-7.391],[-0.986,-7.412],[-1.085,-7.51],[-1.099,-7.546],[-1.47,-7.553],[-1.498,-7.503],[-1.4,-7.412],[-1.393,-7.391],[-0.993,-7.391]]]]},"properties":{"abbr":"LPO","name":"lateral preoptic area","plate":25,"ap_bregma_mm":-0.6,"area_mm2":0.1809,"traced_fraction":[0.131,0.183],"n_labels":2,"no_drawn_outline":true}},{"type":"Feature","geometry":{"type":"MultiPolygon","coordinates":[[[[-0.615,-3.382],[-0.545,-3.382],[-0.39,-3.438],[-0.334,-3.473],[-0.39,-3.501],[-0.524,-3.516],[-0.678,-3.508],[-0.72,-3.48],[-0.699,-3.452],[-0.65,-3.431],[-0.615,-3.382]]],[[[0.626,-3.403],[0.647,-3.445],[0.78,-3.53],[0.682,-3.586],[0.472,-3.593],[0.311,-3.558],[0.262,-3.53],[0.241,-3.494],[0.283,-3.473],[0.402,-3.459],[0.535,-3.41],[0.626,-3.403]]]]},"properties":{"abbr":"LSD","name":"lateral septal nucleus, dorsal part","plate":25,"ap_bregma_mm":-0.6,"area_mm2":0.0977,"traced_fraction":[0.984,1.0],"n_labels":2,"no_drawn_outline":false}},{"type":"Feature","geometry":{"type":"MultiPolygon","coordinates":[[[[-1.029,-3.178],[-0.804,-3.262],[-0.636,-3.347],[-0.615,-3.382],[-0.65,-3.431],[-0.699,-3.452],[-0.72,-3.48],[-0.818,-3.473],[-0.972,-3.438],[-1.071,-3.417],[-1.155,-3.438],[-1.211,-3.473],[-1.33,-3.649],[-1.435,-3.755],[-1.484,-3.783],[-1.603,-3.909],[-1.646,-3.931],[-1.652,-3.895],[-1.638,-3.867],[-1.568,-3.804],[-1.561,-3.783],[-1.547,-3.783],[-1.498,-3.712],[-1.393,-3.494],[-1.323,-3.431],[-1.302,-3.431],[-1.218,-3.382],[-1.197,-3.347],[-1.19,-3.29],[-1.029,-3.283],[-1.029,-3.178]]],[[[0.991,-3.29],[1.005,-3.333],[1.075,-3.382],[1.173,-3.382],[1.236,-3.354],[1.243,-3.48],[1.257,-3.508],[1.369,-3.572],[1.461,-3.663],[1.496,-3.663],[1.566,-3.748],[1.545,-3.762],[1.566,-3.832],[1.664,-3.923],[1.755,-4.085],[1.762,-4.17],[1.748,-4.191],[1.692,-4.148],[1.636,-4.064],[1.426,-3.839],[1.426,-3.825],[1.236,-3.642],[1.075,-3.544],[1.005,-3.523],[0.9,-3.523],[0.78,-3.53],[0.647,-3.445],[0.626,-3.403],[0.851,-3.326],[0.991,-3.29]]]]},"properties":{"abbr":"LV","name":"lateral ventricle","plate":25,"ap_bregma_mm":-0.6,"area_mm2":0.3697,"traced_fraction":[0.974,1.0],"n_labels":2,"no_drawn_outline":false}},{"type":"Feature","geometry":{"type":"MultiPolygon","coordinates":[[[[1.58,-0.906],[1.58,-1.652],[1.594,-1.743],[1.587,-2.144],[1.608,-2.686],[1.58,-2.7],[1.341,-2.714],[1.299,-2.489],[1.25,-2.334],[1.222,-2.158],[1.194,-2.088],[1.159,-1.912],[1.005,-1.377],[0.879,-1.054],[0.865,-0.977],[1.117,-0.92],[1.384,-0.899],[1.58,-0.906]]],[[[-1.751,-1.026],[-1.323,-1.026],[-0.986,-1.082],[-1.162,-1.891],[-1.302,-2.742],[-1.61,-2.721],[-1.646,-2.179],[-1.751,-1.026]]]]},"properties":{"abbr":"M1","name":"primary motor cortex","plate":25,"ap_bregma_mm":-0.6,"area_mm2":1.7316,"traced_fraction":[1.0,1.0],"n_labels":2,"no_drawn_outline":false}},{"type":"Feature","geometry":{"type":"MultiPolygon","coordinates":[[[[0.865,-0.977],[0.879,-1.054],[1.005,-1.377],[1.159,-1.912],[1.194,-2.088],[1.222,-2.158],[1.25,-2.334],[1.299,-2.489],[1.341,-2.714],[1.145,-2.749],[1.103,-2.636],[0.935,-2.306],[0.823,-2.123],[0.682,-1.933],[0.409,-1.638],[0.395,-1.638],[0.191,-1.455],[0.149,-1.434],[0.114,-1.391],[0.164,-1.321],[0.248,-1.251],[0.731,-1.019],[0.865,-0.977]]],[[[-0.986,-1.082],[-0.79,-1.11],[-0.622,-1.152],[-0.348,-1.244],[-0.201,-1.321],[-0.103,-1.413],[-0.383,-1.666],[-0.573,-1.905],[-0.804,-2.278],[-1.021,-2.7],[-1.035,-2.756],[-1.302,-2.742],[-1.162,-1.891],[-0.986,-1.082]]]]},"properties":{"abbr":"M2","name":"secondary motor cortex","plate":25,"ap_bregma_mm":-0.6,"area_mm2":1.7591,"traced_fraction":[1.0,1.0],"n_labels":2,"no_drawn_outline":false}},{"type":"Feature","geometry":{"type":"MultiPolygon","coordinates":[[[[1.166,-6.955],[1.117,-7.102],[0.724,-7.102],[0.724,-6.955],[1.166,-6.955]]],[[[-1.141,-6.99],[-0.762,-6.99],[-0.762,-7.138],[-1.099,-7.138],[-1.127,-7.074],[-1.141,-6.99]]]]},"properties":{"abbr":"MPA","name":"medial preoptic area","plate":25,"ap_bregma_mm":-0.6,"area_mm2":0.1152,"traced_fraction":[0.194,0.215],"n_labels":2,"no_drawn_outline":true}},{"type":"Feature","geometry":{"type":"MultiPolygon","coordinates":[[[[-0.461,-6.258],[-0.383,-6.294],[-0.355,-6.329],[-0.327,-6.385],[-0.292,-6.42],[-0.089,-6.849],[-0.075,-6.863],[-0.033,-6.863],[-0.026,-7.25],[-0.04,-7.271],[-0.033,-7.475],[-0.04,-7.693],[-0.061,-7.841],[-0.054,-7.953],[-0.194,-7.953],[-0.51,-7.897],[-0.538,-7.904],[-0.538,-7.546],[-0.846,-7.546],[-0.902,-7.489],[-0.986,-7.412],[-0.993,-7.391],[-1.063,-7.257],[-1.099,-7.138],[-0.762,-7.138],[-0.762,-6.99],[-1.141,-6.99],[-1.204,-6.772],[-1.211,-6.702],[-0.559,-6.702],[-0.559,-6.343],[-0.503,-6.322],[-0.461,-6.258]]],[[[0.093,-7.321],[0.458,-7.321],[0.458,-7.475],[0.093,-7.475],[0.093,-7.321]]]]},"properties":{"abbr":"MPO","name":"medial preoptic nucleus","plate":25,"ap_bregma_mm":-0.6,"area_mm2":1.1882,"traced_fraction":[0.559,0.211],"n_labels":2,"no_drawn_outline":true}},{"type":"Feature","geometry":{"type":"MultiPolygon","coordinates":[[[[-0.489,-4.908],[-0.334,-4.915],[-0.271,-5.119],[-0.208,-5.4],[-0.222,-5.499],[-0.306,-5.724],[-0.306,-5.837],[-0.271,-5.921],[-0.229,-5.977],[-0.285,-5.984],[-0.362,-5.956],[-0.44,-5.907],[-0.468,-5.907],[-0.482,-5.9],[-0.496,-5.851],[-0.566,-5.745],[-0.594,-5.611],[-0.566,-5.196],[-0.517,-5.077],[-0.51,-4.978],[-0.489,-4.908]]],[[[0.353,-4.929],[0.5,-4.929],[0.528,-5.07],[0.612,-5.239],[0.633,-5.323],[0.598,-5.618],[0.563,-5.738],[0.493,-5.893],[0.381,-5.991],[0.332,-6.012],[0.297,-6.012],[0.29,-5.998],[0.339,-5.858],[0.353,-5.703],[0.339,-5.64],[0.283,-5.541],[0.276,-5.4],[0.353,-4.929]]]]},"properties":{"abbr":"PT","name":"paratenial thalamic nucleus","plate":25,"ap_bregma_mm":-0.6,"area_mm2":0.5562,"traced_fraction":[1.0,1.0],"n_labels":2,"no_drawn_outline":false}},{"type":"Feature","geometry":{"type":"MultiPolygon","coordinates":[[[[-0.061,-4.992],[-0.068,-5.014],[-0.054,-5.028],[-0.005,-5.203],[0.009,-5.393],[-0.208,-5.4],[-0.271,-5.119],[-0.334,-4.915],[-0.229,-4.915],[-0.061,-4.992]]],[[[0.353,-4.929],[0.276,-5.4],[0.283,-5.541],[0.339,-5.64],[0.353,-5.703],[0.339,-5.858],[0.079,-5.858],[0.065,-5.808],[0.072,-5.731],[0.044,-5.513],[0.051,-5.33],[0.086,-5.14],[0.136,-5.035],[0.149,-4.971],[0.157,-4.957],[0.234,-4.929],[0.353,-4.929]]]]},"properties":{"abbr":"PVA","name":"paraventricular thalamic nucleus, anterior part","plate":25,"ap_bregma_mm":-0.6,"area_mm2":0.3319,"traced_fraction":[0.883,0.921],"n_labels":2,"no_drawn_outline":false}},{"type":"Feature","geometry":{"type":"MultiPolygon","coordinates":[[[[0.493,-5.893],[0.535,-5.907],[0.5,-6.026],[0.528,-6.139],[0.57,-6.216],[0.43,-6.343],[0.276,-6.54],[0.142,-6.814],[0.1,-6.87],[0.079,-6.842],[0.086,-6.596],[0.136,-6.477],[0.164,-6.35],[0.157,-6.209],[0.206,-6.146],[0.234,-6.076],[0.276,-6.019],[0.276,-5.998],[0.29,-5.998],[0.297,-6.012],[0.332,-6.012],[0.381,-5.991],[0.493,-5.893]]],[[[-0.468,-5.907],[-0.44,-5.907],[-0.39,-5.942],[-0.285,-5.984],[-0.229,-5.977],[-0.145,-6.069],[-0.075,-6.216],[-0.103,-6.237],[-0.103,-6.357],[-0.089,-6.441],[-0.04,-6.582],[-0.033,-6.863],[-0.075,-6.863],[-0.089,-6.849],[-0.292,-6.42],[-0.327,-6.385],[-0.355,-6.329],[-0.383,-6.294],[-0.461,-6.258],[-0.44,-6.174],[-0.44,-6.026],[-0.468,-5.956],[-0.468,-5.907]]]]},"properties":{"abbr":"PaAP","name":"paraventricular hypothalamic nucleus, anterior parvicellular part","plate":25,"ap_bregma_mm":-0.6,"area_mm2":0.392,"traced_fraction":[1.0,0.991],"n_labels":2,"no_drawn_outline":false}},{"type":"Feature","geometry":{"type":"MultiPolygon","coordinates":[[[[-0.075,-6.216],[-0.068,-6.216],[-0.054,-6.343],[-0.019,-6.484],[0.009,-6.547],[0.03,-6.561],[0.03,-6.87],[0.044,-6.898],[0.03,-7.335],[0.009,-7.349],[0.009,-7.658],[-0.005,-7.778],[0.002,-7.925],[0.03,-7.961],[0.03,-7.968],[-0.033,-7.968],[-0.054,-7.953],[-0.061,-7.841],[-0.04,-7.693],[-0.033,-7.475],[-0.04,-7.271],[-0.026,-7.25],[-0.033,-6.863],[-0.04,-6.582],[-0.089,-6.441],[-0.103,-6.357],[-0.103,-6.237],[-0.075,-6.216]]]]},"properties":{"abbr":"Pe","name":"periventricular hypothalamic nucleus","plate":25,"ap_bregma_mm":-0.6,"area_mm2":0.1013,"traced_fraction":[1.0],"n_labels":1,"no_drawn_outline":false}},{"type":"Feature","geometry":{"type":"MultiPolygon","coordinates":[[[[5.022,-7.517],[5.226,-7.532],[5.12,-7.743],[5.05,-7.841],[4.959,-7.932],[4.574,-8.242],[4.482,-8.277],[4.349,-8.291],[4.335,-8.256],[4.349,-8.2],[4.37,-8.193],[4.454,-8.101],[4.532,-8.066],[4.616,-7.947],[4.686,-7.925],[4.728,-7.89],[4.763,-7.785],[4.945,-7.616],[5.022,-7.517]]],[[[-4.997,-7.56],[-4.843,-7.721],[-4.737,-7.876],[-4.674,-7.939],[-4.576,-7.996],[-4.513,-8.059],[-4.492,-8.108],[-4.485,-8.179],[-4.52,-8.235],[-4.597,-8.242],[-4.653,-8.228],[-4.836,-8.115],[-4.913,-8.038],[-4.976,-7.904],[-5.032,-7.848],[-5.144,-7.799],[-5.179,-7.764],[-5.249,-7.567],[-4.997,-7.56]]]]},"properties":{"abbr":"Pir","name":"piriform cortex","plate":25,"ap_bregma_mm":-0.6,"area_mm2":0.4156,"traced_fraction":[0.94,0.906],"n_labels":2,"no_drawn_outline":false}},{"type":"Feature","geometry":{"type":"MultiPolygon","coordinates":[[[[-6.399,-3.445],[-6.336,-3.487],[-6.182,-3.544],[-5.698,-3.776],[-5.32,-3.931],[-5.053,-4.064],[-4.899,-4.12],[-4.611,-4.254],[-4.702,-4.585],[-4.878,-4.549],[-5.06,-4.535],[-5.193,-4.507],[-5.425,-4.486],[-6.75,-4.303],[-6.694,-4.064],[-6.602,-3.818],[-6.476,-3.558],[-6.399,-3.445]]],[[[6.593,-3.516],[6.649,-3.642],[6.74,-3.959],[6.761,-4.092],[5.773,-4.24],[4.945,-4.345],[4.777,-4.381],[4.742,-4.296],[4.707,-4.148],[4.805,-4.106],[5.008,-4.057],[5.562,-3.881],[6.593,-3.516]]]]},"properties":{"abbr":"S1","name":"primary somatosensory cortex","plate":25,"ap_bregma_mm":-0.6,"area_mm2":2.1053,"traced_fraction":[1.0,1.0],"n_labels":2,"no_drawn_outline":false}},{"type":"Feature","geometry":{"type":"MultiPolygon","coordinates":[[[[3.543,-1.265],[4.125,-1.441],[4.616,-1.617],[4.728,-1.666],[4.749,-1.687],[4.868,-1.729],[5.212,-1.919],[5.485,-2.158],[5.387,-2.299],[5.128,-2.594],[5.05,-2.707],[4.854,-2.918],[4.854,-2.932],[4.623,-3.185],[4.623,-3.199],[4.581,-3.234],[4.581,-3.248],[4.3,-3.572],[4.041,-3.368],[3.725,-3.171],[3.438,-3.03],[3.382,-3.016],[3.255,-2.953],[3.094,-2.904],[3.066,-2.883],[3.024,-2.876],[3.017,-2.861],[3.543,-1.265]]],[[[-3.475,-1.42],[-3.195,-2.25],[-3.139,-2.475],[-3.097,-2.559],[-3.097,-2.587],[-3.083,-2.594],[-3.062,-2.693],[-2.971,-2.939],[-3.335,-3.072],[-3.644,-3.22],[-4.057,-3.508],[-4.457,-3.065],[-4.457,-3.051],[-4.52,-2.995],[-4.569,-2.925],[-4.625,-2.876],[-4.625,-2.861],[-4.681,-2.812],[-4.78,-2.686],[-4.899,-2.566],[-4.899,-2.552],[-5.018,-2.432],[-5.018,-2.418],[-5.088,-2.355],[-5.137,-2.285],[-5.214,-2.214],[-5.256,-2.144],[-5.186,-2.081],[-4.934,-1.912],[-4.731,-1.806],[-4.443,-1.687],[-4.177,-1.595],[-3.475,-1.42]]]]},"properties":{"abbr":"S1BF","name":"primary somatosensory cortex, barrel field","plate":25,"ap_bregma_mm":-0.6,"area_mm2":5.9716,"traced_fraction":[0.997,0.987],"n_labels":2,"no_drawn_outline":false}},{"type":"Feature","geometry":{"type":"MultiPolygon","coordinates":[[[[3.375,-1.223],[3.543,-1.265],[3.017,-2.861],[2.975,-2.861],[2.898,-2.833],[2.975,-2.573],[2.996,-2.545],[2.996,-2.489],[3.017,-2.453],[3.038,-2.362],[3.052,-2.355],[3.122,-2.123],[3.375,-1.223]]],[[[-3.307,-1.37],[-3.272,-1.525],[-3.146,-1.898],[-3.111,-2.053],[-3.02,-2.306],[-2.992,-2.432],[-2.978,-2.439],[-2.949,-2.517],[-2.936,-2.615],[-2.887,-2.728],[-2.837,-2.897],[-2.971,-2.939],[-3.062,-2.693],[-3.083,-2.594],[-3.097,-2.587],[-3.097,-2.559],[-3.139,-2.475],[-3.195,-2.25],[-3.475,-1.42],[-3.307,-1.37]]]]},"properties":{"abbr":"S1DZ","name":"primary somatosensory cortex, dysgranular zone","plate":25,"ap_bregma_mm":-0.6,"area_mm2":0.4839,"traced_fraction":[0.994,0.972],"n_labels":2,"no_drawn_outline":false}},{"type":"Feature","geometry":{"type":"MultiPolygon","coordinates":[[[[1.58,-0.906],[1.839,-0.913],[2.092,-0.941],[2.421,-1.005],[2.211,-2.7],[1.755,-2.686],[1.608,-2.686],[1.587,-2.144],[1.594,-1.743],[1.58,-1.652],[1.58,-0.906]]],[[[-1.751,-1.026],[-1.646,-2.179],[-1.61,-2.721],[-1.667,-2.728],[-1.947,-2.728],[-2.115,-2.749],[-2.136,-2.714],[-2.241,-2.186],[-2.29,-2.024],[-2.417,-1.427],[-2.473,-1.237],[-2.487,-1.117],[-2.199,-1.068],[-1.751,-1.026]]]]},"properties":{"abbr":"S1HL","name":"primary somatosensory cortex, hindlimb region","plate":25,"ap_bregma_mm":-0.6,"area_mm2":2.3502,"traced_fraction":[1.0,1.0],"n_labels":2,"no_drawn_outline":false}},{"type":"Feature","geometry":{"type":"MultiPolygon","coordinates":[[[[2.421,-1.005],[2.989,-1.11],[3.375,-1.223],[3.122,-2.123],[3.052,-2.355],[3.038,-2.362],[3.024,-2.432],[2.996,-2.489],[2.996,-2.545],[2.975,-2.573],[2.898,-2.833],[2.505,-2.735],[2.211,-2.7],[2.421,-1.005]]],[[[-2.487,-1.117],[-2.473,-1.237],[-2.417,-1.427],[-2.29,-2.024],[-2.241,-2.186],[-2.136,-2.714],[-2.115,-2.749],[-2.227,-2.784],[-2.55,-2.826],[-2.837,-2.897],[-2.887,-2.728],[-2.936,-2.615],[-2.949,-2.517],[-2.978,-2.439],[-2.992,-2.432],[-3.02,-2.306],[-3.111,-2.053],[-3.146,-1.898],[-3.272,-1.525],[-3.307,-1.37],[-2.634,-1.152],[-2.487,-1.117]]]]},"properties":{"abbr":"S1Sh","name":"primary somatosensory cortex, shoulder region","plate":25,"ap_bregma_mm":-0.6,"area_mm2":2.7346,"traced_fraction":[1.0,0.996],"n_labels":2,"no_drawn_outline":false}},{"type":"Feature","geometry":{"type":"MultiPolygon","coordinates":[[[[-5.256,-2.144],[-5.214,-2.214],[-5.137,-2.285],[-5.088,-2.355],[-5.018,-2.418],[-5.018,-2.432],[-4.899,-2.552],[-4.899,-2.566],[-4.78,-2.686],[-4.681,-2.812],[-4.625,-2.861],[-4.625,-2.876],[-4.569,-2.925],[-4.52,-2.995],[-4.457,-3.051],[-4.457,-3.065],[-4.057,-3.508],[-4.212,-3.649],[-4.212,-3.663],[-4.331,-3.79],[-4.611,-4.254],[-4.801,-4.163],[-5.053,-4.064],[-5.32,-3.931],[-5.698,-3.776],[-6.182,-3.544],[-6.336,-3.487],[-6.399,-3.445],[-6.294,-3.255],[-5.951,-2.812],[-5.544,-2.383],[-5.53,-2.383],[-5.467,-2.313],[-5.256,-2.144]]],[[[5.485,-2.158],[5.499,-2.165],[5.492,-2.172],[5.506,-2.172],[5.541,-2.193],[5.667,-2.32],[5.667,-2.334],[5.892,-2.545],[5.892,-2.559],[6.018,-2.679],[6.095,-2.784],[6.214,-2.911],[6.446,-3.241],[6.488,-3.283],[6.593,-3.516],[5.562,-3.881],[5.008,-4.057],[4.805,-4.106],[4.707,-4.148],[4.539,-3.839],[4.454,-3.727],[4.3,-3.572],[4.581,-3.248],[4.581,-3.234],[4.623,-3.199],[4.623,-3.185],[4.854,-2.932],[4.854,-2.918],[5.05,-2.707],[5.128,-2.594],[5.387,-2.299],[5.485,-2.158]]]]},"properties":{"abbr":"S1ULp","name":"primary somatosensory cortex, upper lip region","plate":25,"ap_bregma_mm":-0.6,"area_mm2":4.8637,"traced_fraction":[1.0,1.0],"n_labels":2,"no_drawn_outline":false}},{"type":"Feature","geometry":{"type":"MultiPolygon","coordinates":[[[[6.761,-4.092],[6.782,-4.233],[6.789,-4.521],[6.754,-4.852],[6.663,-5.147],[6.6,-5.295],[6.439,-5.611],[6.313,-5.801],[6.214,-5.752],[6.109,-5.724],[5.766,-5.576],[5.646,-5.541],[5.338,-5.407],[5.198,-5.365],[5.17,-5.344],[4.819,-5.211],[4.819,-5.098],[4.833,-5.049],[4.826,-4.669],[4.777,-4.381],[4.945,-4.345],[5.773,-4.24],[6.761,-4.092]]],[[[-6.75,-4.303],[-5.425,-4.486],[-5.193,-4.507],[-5.06,-4.535],[-4.878,-4.549],[-4.702,-4.585],[-4.695,-4.613],[-4.716,-4.69],[-4.752,-5.0],[-4.794,-5.0],[-5.053,-5.098],[-6.448,-5.562],[-6.511,-5.45],[-6.539,-5.358],[-6.666,-5.077],[-6.764,-4.725],[-6.778,-4.472],[-6.75,-4.303]]]]},"properties":{"abbr":"S2","name":"secondary somatosensory cortex","plate":25,"ap_bregma_mm":-0.6,"area_mm2":4.1076,"traced_fraction":[1.0,1.0],"n_labels":2,"no_drawn_outline":false}},{"type":"Feature","geometry":{"type":"MultiPolygon","coordinates":[[[[-0.054,-7.953],[-0.033,-7.968],[0.03,-7.968],[0.037,-7.982],[0.114,-7.968],[0.177,-7.982],[0.304,-7.982],[0.416,-7.968],[0.535,-7.932],[0.633,-7.932],[0.703,-7.968],[0.731,-8.024],[0.738,-8.094],[0.696,-8.179],[0.549,-8.228],[0.374,-8.228],[0.136,-8.08],[-0.005,-8.066],[-0.138,-8.108],[-0.362,-8.228],[-0.383,-8.214],[-0.468,-8.221],[-0.552,-8.2],[-0.65,-8.129],[-0.671,-8.08],[-0.671,-7.996],[-0.622,-7.932],[-0.538,-7.904],[-0.51,-7.897],[-0.194,-7.953],[-0.054,-7.953]]]]},"properties":{"abbr":"SCh","name":"suprachiasmatic nucleus","plate":25,"ap_bregma_mm":-0.6,"area_mm2":0.2999,"traced_fraction":[1.0],"n_labels":2,"no_drawn_outline":false}},{"type":"Feature","geometry":{"type":"MultiPolygon","coordinates":[[[[0.149,-4.289],[0.255,-4.331],[0.241,-4.381],[0.086,-4.486],[0.023,-4.5],[-0.047,-4.493],[-0.117,-4.458],[-0.187,-4.388],[-0.222,-4.324],[-0.222,-4.275],[0.037,-4.268],[0.149,-4.289]]]]},"properties":{"abbr":"SFO","name":"subfornical organ","plate":25,"ap_bregma_mm":-0.6,"area_mm2":0.0789,"traced_fraction":[1.0],"n_labels":1,"no_drawn_outline":false}},{"type":"Feature","geometry":{"type":"MultiPolygon","coordinates":[[[[0.241,-3.494],[0.262,-3.53],[0.311,-3.558],[0.472,-3.593],[0.682,-3.586],[0.78,-3.53],[0.9,-3.523],[0.879,-3.621],[0.795,-3.776],[0.752,-3.762],[0.563,-3.755],[0.402,-3.712],[0.234,-3.621],[0.177,-3.565],[0.149,-3.508],[0.17,-3.494],[0.241,-3.494]]]]},"properties":{"abbr":"SFi","name":"septofimbrial nucleus","plate":25,"ap_bregma_mm":-0.6,"area_mm2":0.1086,"traced_fraction":[1.0],"n_labels":1,"no_drawn_outline":false}},{"type":"Feature","geometry":{"type":"MultiPolygon","coordinates":[[[[0.816,-6.118],[1.376,-6.125],[1.327,-6.399],[1.257,-6.681],[1.166,-6.955],[0.724,-6.955],[0.724,-7.102],[1.117,-7.102],[1.061,-7.243],[1.047,-7.25],[0.984,-7.384],[0.851,-7.51],[0.528,-7.51],[0.535,-7.736],[0.535,-7.932],[0.416,-7.968],[0.304,-7.982],[0.177,-7.982],[0.114,-7.968],[0.121,-7.82],[0.1,-7.7],[0.093,-7.475],[0.458,-7.475],[0.458,-7.321],[0.093,-7.321],[0.079,-6.955],[0.1,-6.87],[0.142,-6.814],[0.276,-6.54],[0.43,-6.343],[0.57,-6.216],[0.619,-6.266],[0.717,-6.273],[0.774,-6.23],[0.816,-6.118]]],[[[-1.288,-6.139],[-0.741,-6.139],[-0.727,-6.23],[-0.692,-6.301],[-0.636,-6.343],[-0.559,-6.343],[-0.559,-6.702],[-1.211,-6.702],[-1.267,-6.477],[-1.295,-6.223],[-1.288,-6.139]]]]},"properties":{"abbr":"SHy","name":"septohypothalamic nucleus","plate":25,"ap_bregma_mm":-0.6,"area_mm2":1.7589,"traced_fraction":[0.549,0.412],"n_labels":2,"no_drawn_outline":true}},{"type":"Feature","geometry":{"type":"MultiPolygon","coordinates":[[[[1.58,-7.939],[1.384,-7.989],[1.363,-8.017],[1.355,-8.017],[1.229,-8.01],[1.096,-8.045],[1.033,-8.045],[1.054,-8.01],[1.166,-7.961],[1.173,-7.947],[1.334,-7.904],[1.538,-7.904],[1.58,-7.939]]]]},"properties":{"abbr":"SO","name":"supraoptic nucleus","plate":25,"ap_bregma_mm":-0.6,"area_mm2":0.0375,"traced_fraction":[1.0],"n_labels":2,"no_drawn_outline":false}},{"type":"Feature","geometry":{"type":"MultiPolygon","coordinates":[[[[1.405,-5.907],[1.376,-6.125],[0.816,-6.118],[0.816,-5.907],[0.851,-5.872],[0.9,-5.759],[0.928,-5.633],[0.935,-5.499],[0.977,-5.492],[0.998,-5.464],[1.047,-5.168],[1.145,-5.161],[1.271,-5.119],[1.461,-5.014],[1.58,-4.901],[1.629,-4.901],[1.615,-4.971],[1.482,-5.211],[1.447,-5.344],[1.397,-5.731],[1.405,-5.907]]],[[[-0.951,-5.056],[-0.916,-5.091],[-0.86,-5.218],[-0.839,-5.246],[-0.797,-5.267],[-0.825,-5.485],[-0.832,-5.717],[-0.783,-5.843],[-0.671,-5.935],[-0.713,-6.005],[-0.741,-6.139],[-1.288,-6.139],[-1.316,-5.984],[-1.309,-5.921],[-1.295,-5.879],[-1.302,-5.59],[-1.358,-5.358],[-1.407,-5.246],[-1.407,-5.203],[-1.344,-5.196],[-1.267,-5.218],[-1.197,-5.211],[-1.05,-5.161],[-0.972,-5.084],[-0.965,-5.056],[-0.951,-5.056]]]]},"properties":{"abbr":"STMP","name":"bed nucleus of the stria terminalis, medial division, posterior part","plate":25,"ap_bregma_mm":-0.6,"area_mm2":1.0404,"traced_fraction":[0.853,0.847],"n_labels":2,"no_drawn_outline":false}},{"type":"Feature","geometry":{"type":"MultiPolygon","coordinates":[[[[-0.278,-3.48],[-0.201,-3.48],[-0.005,-3.516],[0.149,-3.508],[0.157,-3.537],[0.234,-3.621],[0.402,-3.712],[0.563,-3.755],[0.752,-3.762],[0.795,-3.776],[0.759,-3.846],[0.703,-3.902],[0.612,-3.952],[0.402,-4.001],[0.149,-4.022],[-0.159,-4.008],[-0.327,-3.973],[-0.538,-3.902],[-0.713,-3.804],[-0.846,-3.684],[-0.888,-3.628],[-0.895,-3.586],[-0.587,-3.593],[-0.474,-3.579],[-0.362,-3.551],[-0.306,-3.523],[-0.278,-3.48]]]]},"properties":{"abbr":"TS","name":"triangular septal nucleus","plate":25,"ap_bregma_mm":-0.6,"area_mm2":0.5565,"traced_fraction":[1.0],"n_labels":1,"no_drawn_outline":false}},{"type":"Feature","geometry":{"type":"MultiPolygon","coordinates":[[[[4.525,-5.977],[4.539,-5.977],[4.553,-5.977],[4.581,-6.019],[4.595,-6.054],[4.588,-6.195],[4.56,-6.273],[4.482,-6.378],[4.363,-6.469],[4.265,-6.519],[4.216,-6.519],[4.216,-6.491],[4.23,-6.484],[4.307,-6.294],[4.44,-6.139],[4.503,-6.041],[4.525,-5.977]]],[[[-4.345,-6.251],[-4.247,-6.378],[-4.212,-6.378],[-4.135,-6.434],[-4.142,-6.455],[-4.17,-6.469],[-4.17,-6.491],[-4.148,-6.505],[-4.121,-6.561],[-4.226,-6.554],[-4.324,-6.512],[-4.331,-6.498],[-4.345,-6.498],[-4.352,-6.54],[-4.415,-6.54],[-4.415,-6.343],[-4.408,-6.329],[-4.373,-6.266],[-4.345,-6.251]]]]},"properties":{"abbr":"VCl","name":"ventral part of claustrum","plate":25,"ap_bregma_mm":-0.6,"area_mm2":0.14,"traced_fraction":[1.0,0.841],"n_labels":2,"no_drawn_outline":false}},{"type":"Feature","geometry":{"type":"MultiPolygon","coordinates":[[[[4.588,-6.87],[4.665,-6.892],[4.742,-7.018],[4.763,-7.074],[4.756,-7.222],[4.686,-7.335],[4.448,-7.56],[4.391,-7.588],[4.335,-7.588],[4.286,-7.475],[4.286,-7.285],[4.286,-7.271],[4.293,-7.264],[4.349,-7.25],[4.454,-7.159],[4.539,-7.018],[4.588,-6.87]]],[[[-4.59,-6.898],[-4.597,-6.997],[-4.52,-7.152],[-4.429,-7.25],[-4.429,-7.264],[-4.345,-7.342],[-4.345,-7.356],[-4.254,-7.426],[-4.177,-7.51],[-4.226,-7.546],[-4.317,-7.56],[-4.394,-7.546],[-4.471,-7.51],[-4.597,-7.384],[-4.639,-7.299],[-4.667,-7.271],[-4.667,-7.25],[-4.709,-7.194],[-4.737,-7.124],[-4.744,-7.011],[-4.716,-6.955],[-4.681,-6.92],[-4.632,-6.892],[-4.59,-6.898]]]]},"properties":{"abbr":"VEn","name":"ventral endopiriform nucleus","plate":25,"ap_bregma_mm":-0.6,"area_mm2":0.3303,"traced_fraction":[0.984,1.0],"n_labels":2,"no_drawn_outline":false}},{"type":"Feature","geometry":{"type":"MultiPolygon","coordinates":[[[[-1.435,-5.611],[-1.386,-5.647],[-1.337,-5.654],[-1.337,-5.893],[-1.309,-5.921],[-1.316,-5.984],[-1.288,-6.139],[-1.295,-6.223],[-1.267,-6.477],[-1.211,-6.702],[-1.204,-6.772],[-1.141,-6.99],[-1.141,-7.025],[-1.099,-7.138],[-1.063,-7.257],[-0.993,-7.391],[-1.393,-7.391],[-1.4,-7.412],[-1.498,-7.503],[-1.603,-7.44],[-1.709,-7.419],[-1.968,-7.454],[-2.031,-7.482],[-2.094,-7.546],[-2.143,-7.623],[-2.164,-7.693],[-2.22,-7.686],[-2.319,-7.595],[-2.557,-7.454],[-2.739,-7.398],[-2.894,-7.391],[-2.928,-7.384],[-2.928,-7.335],[-2.915,-7.321],[-2.894,-7.194],[-2.908,-7.053],[-2.936,-6.969],[-2.985,-6.927],[-3.041,-6.849],[-2.949,-6.8],[-2.894,-6.786],[-2.83,-6.709],[-2.802,-6.681],[-2.795,-6.631],[-2.634,-6.709],[-2.494,-6.73],[-2.403,-6.737],[-2.192,-6.716],[-2.01,-6.666],[-2.01,-6.856],[-1.73,-6.856],[-1.73,-6.519],[-1.568,-6.371],[-1.498,-6.273],[-1.47,-6.209],[-1.442,-6.16],[-1.421,-6.062],[-1.407,-5.956],[-1.442,-5.696],[-1.435,-5.611]]],[[[2.589,-6.603],[2.589,-6.906],[2.386,-6.906],[2.386,-6.638],[2.428,-6.631],[2.589,-6.603]]]]},"properties":{"abbr":"VP","name":"ventral pallidum","plate":25,"ap_bregma_mm":-0.6,"area_mm2":1.639,"traced_fraction":[0.835,0.264],"n_labels":2,"no_drawn_outline":false}},{"type":"Feature","geometry":{"type":"MultiPolygon","coordinates":[[[[4.132,-6.491],[4.083,-6.737],[4.104,-6.92],[3.739,-6.92],[3.711,-6.842],[3.613,-6.702],[3.599,-6.659],[3.767,-6.596],[3.802,-6.596],[3.823,-6.617],[3.95,-6.617],[4.006,-6.582],[4.083,-6.505],[4.132,-6.491]]],[[[-3.938,-6.681],[-3.917,-6.681],[-3.84,-6.73],[-3.693,-6.73],[-3.532,-6.863],[-3.609,-6.962],[-3.637,-7.067],[-3.973,-7.06],[-3.917,-6.87],[-3.917,-6.772],[-3.938,-6.681]]]]},"properties":{"abbr":"acp","name":"anterior commissure, posterior part","plate":25,"ap_bregma_mm":-0.6,"area_mm2":0.2543,"traced_fraction":[0.816,0.799],"n_labels":2,"no_drawn_outline":false}},{"type":"Feature","geometry":{"type":"MultiPolygon","coordinates":[[[[-0.797,-3.143],[-0.643,-3.199],[-0.566,-3.206],[-0.32,-3.29],[-0.124,-3.305],[-0.096,-3.319],[0.051,-3.319],[0.065,-3.305],[0.191,-3.319],[0.304,-3.29],[0.36,-3.297],[0.535,-3.269],[0.619,-3.248],[0.682,-3.22],[0.71,-3.192],[0.738,-3.192],[0.802,-3.199],[0.844,-3.185],[0.851,-3.326],[0.626,-3.403],[0.535,-3.41],[0.402,-3.459],[0.283,-3.473],[0.241,-3.494],[0.17,-3.494],[0.149,-3.508],[-0.005,-3.516],[-0.201,-3.48],[-0.278,-3.48],[-0.334,-3.473],[-0.39,-3.438],[-0.545,-3.382],[-0.615,-3.382],[-0.636,-3.347],[-0.804,-3.262],[-0.797,-3.143]]]]},"properties":{"abbr":"cc","name":"corpus callosum","plate":25,"ap_bregma_mm":-0.6,"area_mm2":0.2805,"traced_fraction":[0.958],"n_labels":1,"no_drawn_outline":false}},{"type":"Feature","geometry":{"type":"MultiPolygon","coordinates":[[[[1.608,-2.686],[1.755,-2.686],[1.755,-2.728],[1.475,-2.77],[1.292,-2.833],[1.18,-2.911],[1.012,-3.101],[0.844,-3.185],[0.802,-3.199],[0.738,-3.192],[0.738,-3.178],[0.829,-3.087],[0.879,-3.009],[0.935,-2.876],[0.991,-2.812],[1.145,-2.749],[1.341,-2.714],[1.58,-2.7],[1.608,-2.686]]],[[[-1.61,-2.721],[-1.302,-2.742],[-1.035,-2.756],[-0.888,-2.812],[-0.818,-2.876],[-0.706,-3.051],[-0.566,-3.192],[-0.566,-3.206],[-0.643,-3.199],[-0.797,-3.143],[-0.916,-3.072],[-1.085,-2.897],[-1.19,-2.84],[-1.372,-2.798],[-1.667,-2.784],[-1.667,-2.728],[-1.61,-2.721]]]]},"properties":{"abbr":"cg","name":"cingulum","plate":25,"ap_bregma_mm":-0.6,"area_mm2":0.2724,"traced_fraction":[0.997,0.994],"n_labels":2,"no_drawn_outline":false}},{"type":"Feature","geometry":{"type":"MultiPolygon","coordinates":[[[[1.25,-3.157],[1.306,-3.22],[1.313,-3.312],[1.334,-3.347],[1.327,-3.41],[1.39,-3.41],[1.412,-3.487],[1.489,-3.628],[1.496,-3.663],[1.461,-3.663],[1.369,-3.572],[1.257,-3.508],[1.243,-3.48],[1.236,-3.354],[1.173,-3.382],[1.075,-3.382],[1.005,-3.333],[0.991,-3.29],[1.187,-3.199],[1.229,-3.157],[1.25,-3.157]]],[[[0.255,-4.331],[0.556,-4.345],[0.689,-4.331],[0.914,-4.338],[1.075,-4.395],[1.222,-4.479],[1.306,-4.493],[1.327,-4.578],[1.313,-4.599],[1.271,-4.599],[1.159,-4.535],[1.103,-4.535],[1.033,-4.613],[0.97,-4.627],[0.823,-4.634],[0.787,-4.599],[0.738,-4.599],[0.682,-4.648],[0.675,-4.676],[0.619,-4.739],[0.556,-4.767],[0.5,-4.767],[0.493,-4.732],[0.661,-4.606],[0.696,-4.458],[0.745,-4.479],[0.795,-4.458],[0.787,-4.43],[0.696,-4.423],[0.647,-4.402],[0.276,-4.402],[0.241,-4.381],[0.255,-4.331]]]]},"properties":{"abbr":"chp","name":"choroid plexus","plate":25,"ap_bregma_mm":-0.6,"area_mm2":0.2522,"traced_fraction":[0.991,1.0],"n_labels":2,"no_drawn_outline":false}},{"type":"Feature","geometry":{"type":"MultiPolygon","coordinates":[[[[1.755,-2.686],[2.211,-2.7],[2.505,-2.735],[2.898,-2.833],[2.975,-2.861],[3.017,-2.861],[3.024,-2.876],[3.438,-3.03],[3.725,-3.171],[4.041,-3.368],[4.3,-3.572],[4.454,-3.727],[4.539,-3.839],[4.707,-4.148],[4.742,-4.296],[4.777,-4.381],[4.826,-4.669],[4.833,-5.049],[4.819,-5.098],[4.819,-5.211],[4.756,-5.414],[4.742,-5.506],[4.7,-5.583],[4.686,-5.661],[4.644,-5.766],[4.616,-5.787],[4.609,-5.738],[4.637,-5.675],[4.651,-5.569],[4.735,-5.288],[4.756,-5.168],[4.77,-4.845],[4.749,-4.662],[4.693,-4.423],[4.609,-4.226],[4.412,-3.931],[4.244,-3.727],[4.23,-3.727],[4.076,-3.586],[3.865,-3.445],[3.389,-3.22],[3.066,-3.108],[2.835,-3.044],[2.526,-2.995],[2.035,-2.953],[1.853,-2.946],[1.776,-2.96],[1.664,-2.953],[1.587,-2.974],[1.376,-3.065],[1.25,-3.157],[1.229,-3.157],[1.187,-3.199],[0.991,-3.29],[0.851,-3.326],[0.844,-3.185],[1.012,-3.101],[1.18,-2.911],[1.292,-2.833],[1.475,-2.77],[1.755,-2.728],[1.755,-2.686]]],[[[-1.667,-2.728],[-1.667,-2.784],[-1.372,-2.798],[-1.19,-2.84],[-1.085,-2.897],[-0.916,-3.072],[-0.797,-3.143],[-0.804,-3.262],[-1.029,-3.178],[-1.071,-3.143],[-1.239,-3.093],[-1.267,-3.065],[-1.33,-3.037],[-1.638,-2.988],[-1.688,-2.995],[-1.758,-2.974],[-1.828,-2.974],[-2.206,-3.009],[-2.508,-3.009],[-2.788,-3.058],[-3.027,-3.129],[-3.216,-3.213],[-3.461,-3.297],[-3.588,-3.361],[-3.63,-3.403],[-3.784,-3.494],[-3.875,-3.579],[-3.966,-3.628],[-4.099,-3.727],[-4.163,-3.797],[-4.184,-3.804],[-4.184,-3.818],[-4.233,-3.86],[-4.331,-3.987],[-4.513,-4.303],[-4.604,-4.542],[-4.66,-4.76],[-4.681,-5.098],[-4.66,-5.288],[-4.534,-5.829],[-4.478,-5.956],[-4.415,-6.041],[-4.408,-6.069],[-4.38,-6.09],[-4.324,-6.202],[-4.212,-6.357],[-4.212,-6.378],[-4.247,-6.378],[-4.345,-6.251],[-4.359,-6.209],[-4.408,-6.153],[-4.422,-6.111],[-4.471,-6.062],[-4.555,-5.921],[-4.59,-5.829],[-4.702,-5.422],[-4.737,-5.232],[-4.737,-5.056],[-4.752,-5.0],[-4.716,-4.69],[-4.695,-4.613],[-4.702,-4.585],[-4.611,-4.254],[-4.331,-3.79],[-4.212,-3.663],[-4.212,-3.649],[-4.057,-3.508],[-3.644,-3.22],[-3.335,-3.072],[-2.971,-2.939],[-2.837,-2.897],[-2.55,-2.826],[-2.227,-2.784],[-2.115,-2.749],[-1.947,-2.728],[-1.667,-2.728]]]]},"properties":{"abbr":"ec","name":"external capsule","plate":25,"ap_bregma_mm":-0.6,"area_mm2":1.9021,"traced_fraction":[0.992,0.994],"n_labels":2,"no_drawn_outline":false}},{"type":"Feature","geometry":{"type":"MultiPolygon","coordinates":[[[[0.816,-5.907],[0.816,-6.118],[0.774,-6.23],[0.717,-6.273],[0.619,-6.266],[0.57,-6.216],[0.528,-6.139],[0.5,-6.026],[0.535,-5.907],[0.57,-5.858],[0.633,-5.815],[0.696,-5.815],[0.816,-5.907]]],[[[-0.482,-5.9],[-0.468,-5.907],[-0.468,-5.956],[-0.44,-6.026],[-0.44,-6.174],[-0.461,-6.258],[-0.503,-6.322],[-0.559,-6.343],[-0.636,-6.343],[-0.692,-6.301],[-0.727,-6.23],[-0.741,-6.139],[-0.713,-6.005],[-0.671,-5.935],[-0.601,-5.886],[-0.482,-5.9]]]]},"properties":{"abbr":"f","name":"fornix","plate":25,"ap_bregma_mm":-0.6,"area_mm2":0.225,"traced_fraction":[1.0,1.0],"n_labels":2,"no_drawn_outline":false}},{"type":"Feature","geometry":{"type":"MultiPolygon","coordinates":[[[[-0.972,-3.438],[-0.944,-3.537],[-0.895,-3.586],[-0.895,-3.614],[-0.846,-3.684],[-0.713,-3.804],[-0.538,-3.902],[-0.327,-3.973],[-0.327,-4.24],[-0.397,-4.219],[-0.468,-4.219],[-0.832,-4.282],[-1.021,-4.359],[-1.057,-4.388],[-1.057,-4.402],[-1.092,-4.402],[-1.281,-4.493],[-1.561,-4.451],[-1.603,-4.437],[-1.659,-4.388],[-1.723,-4.381],[-1.73,-4.374],[-1.737,-4.367],[-1.744,-4.359],[-1.779,-4.261],[-1.779,-4.17],[-1.744,-4.078],[-1.709,-4.043],[-1.709,-4.022],[-1.652,-3.959],[-1.646,-3.931],[-1.603,-3.909],[-1.484,-3.783],[-1.435,-3.755],[-1.33,-3.649],[-1.211,-3.473],[-1.155,-3.438],[-1.071,-3.417],[-0.972,-3.438]]],[[[0.9,-3.523],[1.005,-3.523],[1.075,-3.544],[1.236,-3.642],[1.426,-3.825],[1.426,-3.839],[1.636,-4.064],[1.692,-4.148],[1.748,-4.191],[1.748,-4.282],[1.699,-4.338],[1.699,-4.374],[1.657,-4.381],[1.58,-4.423],[1.447,-4.444],[1.306,-4.493],[1.222,-4.479],[1.075,-4.395],[0.914,-4.338],[0.689,-4.331],[0.556,-4.345],[0.255,-4.331],[0.149,-4.289],[0.149,-4.022],[0.402,-4.001],[0.612,-3.952],[0.703,-3.902],[0.759,-3.846],[0.795,-3.776],[0.879,-3.621],[0.9,-3.523]]]]},"properties":{"abbr":"fi","name":"fimbria of the hippocampus","plate":25,"ap_bregma_mm":-0.6,"area_mm2":1.74,"traced_fraction":[0.948,0.946],"n_labels":2,"no_drawn_outline":false}},{"type":"Feature","geometry":{"type":"MultiPolygon","coordinates":[[[[2.421,-4.458],[2.421,-4.514],[2.4,-4.585],[2.302,-4.711],[2.176,-4.81],[2.085,-4.852],[1.895,-4.986],[1.664,-5.182],[1.594,-5.211],[1.601,-5.14],[1.643,-5.07],[1.643,-5.049],[1.993,-4.535],[2.014,-4.437],[2.001,-4.402],[1.965,-4.388],[1.923,-4.345],[1.853,-4.345],[1.853,-4.31],[1.874,-4.275],[1.923,-4.282],[2.092,-4.254],[2.218,-4.254],[2.302,-4.275],[2.386,-4.352],[2.421,-4.458]]],[[[-1.975,-4.296],[-2.003,-4.402],[-1.982,-4.507],[-1.926,-4.613],[-1.814,-4.76],[-1.758,-4.859],[-1.624,-5.021],[-1.442,-5.281],[-1.358,-5.478],[-1.337,-5.654],[-1.386,-5.647],[-1.435,-5.611],[-1.54,-5.422],[-1.659,-5.295],[-1.793,-5.225],[-1.905,-5.225],[-2.031,-5.203],[-2.087,-5.175],[-2.136,-5.126],[-2.178,-5.021],[-2.22,-4.76],[-2.22,-4.648],[-2.199,-4.571],[-2.08,-4.367],[-2.031,-4.317],[-1.975,-4.296]]]]},"properties":{"abbr":"ic","name":"internal capsule","plate":25,"ap_bregma_mm":-0.6,"area_mm2":0.7186,"traced_fraction":[1.0,1.0],"n_labels":2,"no_drawn_outline":false}},{"type":"Feature","geometry":{"type":"MultiPolygon","coordinates":[[[[3.375,-8.671],[3.206,-8.629],[2.849,-8.481],[2.807,-8.46],[2.786,-8.432],[2.786,-8.418],[2.821,-8.397],[2.94,-8.397],[3.122,-8.453],[3.143,-8.474],[3.298,-8.544],[3.361,-8.608],[3.375,-8.671]]],[[[-2.957,-8.636],[-3.034,-8.678],[-3.349,-8.748],[-3.567,-8.783],[-3.742,-8.791],[-3.742,-8.748],[-3.7,-8.699],[-3.567,-8.65],[-3.314,-8.622],[-3.181,-8.587],[-3.069,-8.587],[-2.992,-8.608],[-2.957,-8.636]]]]},"properties":{"abbr":"lo","name":"lateral olfactory tract","plate":25,"ap_bregma_mm":-0.6,"area_mm2":0.1495,"traced_fraction":[1.0,1.0],"n_labels":2,"no_drawn_outline":false}},{"type":"Feature","geometry":{"type":"MultiPolygon","coordinates":[[[[0.009,-5.393],[0.016,-5.569],[0.009,-5.71],[-0.005,-5.752],[-0.005,-5.808],[0.009,-5.822],[-0.019,-5.998],[-0.04,-6.047],[-0.04,-6.146],[-0.068,-6.216],[-0.075,-6.216],[-0.145,-6.069],[-0.229,-5.977],[-0.271,-5.921],[-0.306,-5.837],[-0.306,-5.724],[-0.222,-5.499],[-0.208,-5.4],[0.009,-5.393]]],[[[0.079,-5.858],[0.339,-5.858],[0.29,-5.998],[0.276,-5.998],[0.276,-6.019],[0.234,-6.076],[0.206,-6.146],[0.157,-6.209],[0.164,-6.35],[0.136,-6.477],[0.086,-6.596],[0.079,-6.842],[0.1,-6.87],[0.079,-6.955],[0.093,-7.321],[0.093,-7.475],[0.1,-7.7],[0.121,-7.82],[0.114,-7.968],[0.079,-7.982],[0.037,-7.982],[0.03,-7.968],[0.03,-7.961],[0.079,-7.918],[0.079,-7.827],[0.058,-7.743],[0.051,-7.356],[0.03,-7.335],[0.044,-6.969],[0.023,-6.688],[0.03,-6.561],[0.065,-6.505],[0.065,-6.469],[0.114,-6.322],[0.114,-6.251],[0.136,-6.216],[0.121,-6.033],[0.1,-5.984],[0.079,-5.858]]]]},"properties":{"abbr":"mch","name":"medial corticohypothalamic tract","plate":25,"ap_bregma_mm":-0.6,"area_mm2":0.3221,"traced_fraction":[0.915,0.961],"n_labels":2,"no_drawn_outline":false}},{"type":"Feature","geometry":{"type":"MultiPolygon","coordinates":[[[[-0.986,-7.412],[-0.902,-7.489],[-0.909,-7.714],[-0.853,-7.714],[-0.853,-7.743],[-0.811,-7.785],[-0.895,-7.785],[-0.895,-8.151],[-0.958,-8.129],[-0.958,-8.024],[-1.162,-8.024],[-1.162,-8.066],[-1.204,-8.087],[-1.211,-8.108],[-1.246,-8.087],[-1.344,-8.066],[-1.47,-8.066],[-1.638,-8.108],[-1.821,-8.214],[-1.891,-8.221],[-1.905,-8.172],[-1.947,-8.108],[-1.947,-8.073],[-1.814,-8.08],[-1.701,-8.059],[-1.554,-7.989],[-1.449,-7.904],[-1.428,-7.876],[-1.421,-7.792],[-1.442,-7.623],[-1.47,-7.553],[-1.099,-7.546],[-1.085,-7.51],[-0.986,-7.412]]],[[[1.047,-7.454],[1.103,-7.503],[1.117,-7.553],[1.145,-7.553],[1.145,-7.637],[1.566,-7.637],[1.58,-7.757],[1.636,-7.813],[1.699,-7.848],[1.979,-7.89],[2.19,-7.862],[2.134,-8.045],[1.937,-8.017],[1.58,-7.939],[1.538,-7.904],[1.334,-7.904],[1.173,-7.947],[1.166,-7.961],[1.054,-8.01],[1.04,-7.679],[1.047,-7.454]]]]},"properties":{"abbr":"mfb","name":"medial forebrain bundle","plate":25,"ap_bregma_mm":-0.6,"area_mm2":0.6036,"traced_fraction":[0.567,0.648],"n_labels":2,"no_drawn_outline":true}},{"type":"Feature","geometry":{"type":"MultiPolygon","coordinates":[[[[1.355,-8.017],[1.363,-8.017],[1.355,-8.052],[1.384,-8.164],[1.376,-8.235],[1.278,-8.333],[1.201,-8.368],[1.117,-8.432],[0.956,-8.502],[0.795,-8.544],[0.675,-8.551],[0.318,-8.558],[-0.215,-8.516],[-0.545,-8.587],[-0.86,-8.579],[-1.0,-8.516],[-1.162,-8.347],[-1.183,-8.312],[-1.183,-8.235],[-1.162,-8.179],[-1.155,-8.151],[-1.042,-8.151],[-0.874,-8.2],[-0.797,-8.207],[-0.636,-8.256],[-0.39,-8.256],[-0.362,-8.228],[-0.138,-8.108],[-0.005,-8.066],[0.136,-8.08],[0.374,-8.228],[0.549,-8.228],[0.696,-8.179],[0.787,-8.164],[1.033,-8.045],[1.096,-8.045],[1.229,-8.01],[1.355,-8.017]]]]},"properties":{"abbr":"och","name":"optic chiasm","plate":25,"ap_bregma_mm":-0.6,"area_mm2":0.9258,"traced_fraction":[0.998],"n_labels":1,"no_drawn_outline":false}},{"type":"Feature","geometry":{"type":"MultiPolygon","coordinates":[[[[-0.916,-4.732],[-0.804,-4.753],[-0.664,-4.803],[-0.489,-4.908],[-0.51,-4.978],[-0.517,-5.077],[-0.566,-5.196],[-0.706,-5.225],[-0.797,-5.267],[-0.839,-5.246],[-0.86,-5.218],[-0.916,-5.091],[-0.951,-5.056],[-0.958,-5.014],[-0.93,-4.845],[-0.93,-4.76],[-0.916,-4.732]]],[[[1.026,-4.887],[1.026,-4.971],[1.047,-5.084],[1.047,-5.168],[0.998,-5.464],[0.977,-5.492],[0.935,-5.499],[0.9,-5.407],[0.795,-5.281],[0.724,-5.274],[0.668,-5.323],[0.633,-5.323],[0.612,-5.239],[0.528,-5.07],[0.5,-4.929],[0.605,-4.915],[0.752,-4.859],[0.858,-4.859],[1.026,-4.887]]]]},"properties":{"abbr":"sm","name":"stria medullaris of the thalamus","plate":25,"ap_bregma_mm":-0.6,"area_mm2":0.401,"traced_fraction":[1.0,1.0],"n_labels":2,"no_drawn_outline":false}},{"type":"Feature","geometry":{"type":"MultiPolygon","coordinates":[[[[-1.919,-4.247],[-1.842,-4.331],[-1.744,-4.359],[-1.737,-4.367],[-1.73,-4.374],[-1.723,-4.381],[-1.695,-4.43],[-1.638,-4.444],[-1.61,-4.556],[-1.533,-4.704],[-1.393,-4.901],[-1.337,-5.021],[-1.197,-5.211],[-1.267,-5.218],[-1.344,-5.196],[-1.407,-5.203],[-1.407,-5.246],[-1.358,-5.358],[-1.302,-5.59],[-1.295,-5.879],[-1.309,-5.921],[-1.337,-5.893],[-1.337,-5.654],[-1.358,-5.478],[-1.442,-5.281],[-1.54,-5.133],[-1.758,-4.859],[-1.814,-4.76],[-1.926,-4.613],[-1.982,-4.507],[-2.003,-4.402],[-1.975,-4.296],[-1.919,-4.247]]],[[[1.965,-4.388],[2.001,-4.402],[2.014,-4.437],[1.993,-4.535],[1.643,-5.049],[1.643,-5.07],[1.601,-5.14],[1.594,-5.211],[1.573,-5.239],[1.531,-5.393],[1.44,-5.907],[1.405,-5.907],[1.397,-5.731],[1.447,-5.344],[1.482,-5.211],[1.615,-4.971],[1.629,-4.901],[1.58,-4.901],[1.461,-5.014],[1.271,-5.119],[1.145,-5.161],[1.047,-5.168],[1.047,-5.084],[1.103,-5.084],[1.271,-5.042],[1.334,-5.014],[1.426,-4.943],[1.475,-4.894],[1.615,-4.69],[1.629,-4.606],[1.762,-4.592],[1.853,-4.556],[1.923,-4.5],[1.965,-4.388]]]]},"properties":{"abbr":"st","name":"stria terminalis","plate":25,"ap_bregma_mm":-0.6,"area_mm2":0.5393,"traced_fraction":[1.0,1.0],"n_labels":2,"no_drawn_outline":false}},{"type":"Feature","geometry":{"type":"MultiPolygon","coordinates":[[[[-0.327,-3.973],[-0.159,-4.008],[0.149,-4.022],[0.149,-4.289],[0.037,-4.268],[-0.222,-4.275],[-0.271,-4.268],[-0.278,-4.254],[-0.327,-4.24],[-0.327,-3.973]]]]},"properties":{"abbr":"vhc","name":"ventral hippocampal commissure","plate":25,"ap_bregma_mm":-0.6,"area_mm2":0.126,"traced_fraction":[0.73],"n_labels":1,"no_drawn_outline":true}},{"type":"Feature","geometry":{"type":"Polygon","coordinates":[[[1.776,-2.96],[1.755,-3.009],[1.699,-3.03],[1.587,-3.122],[1.566,-3.122],[1.468,-3.178],[1.376,-3.283],[1.369,-3.34],[1.334,-3.347],[1.313,-3.312],[1.306,-3.22],[1.25,-3.157],[1.376,-3.065],[1.587,-2.974],[1.664,-2.953],[1.776,-2.96]]]},"properties":{"abbr":null,"name":"unnamed sealed face","plate":25,"ap_bregma_mm":-0.6,"index":0}},{"type":"Feature","geometry":{"type":"Polygon","coordinates":[[[-1.029,-3.178],[-1.029,-3.283],[-1.19,-3.29],[-1.197,-3.347],[-1.218,-3.382],[-1.302,-3.431],[-1.323,-3.431],[-1.393,-3.494],[-1.498,-3.712],[-1.547,-3.783],[-1.561,-3.783],[-1.568,-3.804],[-1.638,-3.867],[-1.652,-3.895],[-1.646,-3.931],[-1.652,-3.959],[-1.744,-4.078],[-1.779,-4.17],[-1.779,-4.261],[-1.744,-4.359],[-1.842,-4.331],[-1.919,-4.247],[-1.919,-4.113],[-1.898,-4.064],[-1.8,-3.938],[-1.779,-3.931],[-1.737,-3.867],[-1.723,-3.867],[-1.723,-3.853],[-1.695,-3.839],[-1.695,-3.825],[-1.624,-3.755],[-1.47,-3.523],[-1.414,-3.452],[-1.4,-3.452],[-1.386,-3.417],[-1.372,-3.417],[-1.323,-3.326],[-1.323,-3.262],[-1.386,-3.178],[-1.414,-3.178],[-1.449,-3.15],[-1.631,-3.072],[-1.673,-3.037],[-1.688,-2.995],[-1.638,-2.988],[-1.33,-3.037],[-1.267,-3.065],[-1.239,-3.093],[-1.071,-3.143],[-1.029,-3.178]]]},"properties":{"abbr":null,"name":"unnamed sealed face","plate":25,"ap_bregma_mm":-0.6,"index":1}},{"type":"Feature","geometry":{"type":"Polygon","coordinates":[[[-0.972,-3.438],[-0.818,-3.473],[-0.72,-3.48],[-0.678,-3.508],[-0.524,-3.516],[-0.39,-3.501],[-0.334,-3.473],[-0.278,-3.48],[-0.306,-3.523],[-0.362,-3.551],[-0.474,-3.579],[-0.587,-3.593],[-0.895,-3.586],[-0.944,-3.537],[-0.972,-3.438]]]},"properties":{"abbr":null,"name":"unnamed sealed face","plate":25,"ap_bregma_mm":-0.6,"index":2}},{"type":"Feature","geometry":{"type":"Polygon","coordinates":[[[1.566,-3.748],[1.713,-3.888],[1.727,-3.888],[1.727,-3.902],[1.797,-3.959],[1.86,-4.043],[1.881,-4.092],[1.874,-4.275],[1.853,-4.31],[1.853,-4.345],[1.923,-4.345],[1.965,-4.388],[1.937,-4.479],[1.853,-4.556],[1.762,-4.592],[1.629,-4.606],[1.489,-4.606],[1.405,-4.578],[1.327,-4.578],[1.306,-4.493],[1.447,-4.444],[1.58,-4.423],[1.657,-4.381],[1.699,-4.374],[1.699,-4.338],[1.748,-4.282],[1.748,-4.191],[1.762,-4.17],[1.755,-4.085],[1.664,-3.923],[1.566,-3.832],[1.545,-3.79],[1.545,-3.762],[1.566,-3.748]]]},"properties":{"abbr":null,"name":"unnamed sealed face","plate":25,"ap_bregma_mm":-0.6,"index":3}},{"type":"Feature","geometry":{"type":"Polygon","coordinates":[[[-0.327,-4.24],[-0.292,-4.247],[-0.271,-4.268],[-0.278,-4.289],[-0.355,-4.331],[-0.44,-4.345],[-0.524,-4.338],[-0.601,-4.409],[-0.636,-4.402],[-0.636,-4.416],[-0.58,-4.437],[-0.376,-4.43],[-0.341,-4.444],[-0.32,-4.486],[-0.327,-4.542],[-0.362,-4.62],[-0.404,-4.676],[-0.425,-4.683],[-0.425,-4.697],[-0.453,-4.711],[-0.489,-4.711],[-0.503,-4.697],[-0.524,-4.578],[-0.552,-4.535],[-0.72,-4.5],[-0.818,-4.409],[-0.853,-4.416],[-0.888,-4.465],[-0.902,-4.465],[-0.986,-4.676],[-1.057,-4.655],[-1.092,-4.613],[-1.106,-4.613],[-1.106,-4.592],[-1.127,-4.592],[-1.183,-4.549],[-1.267,-4.514],[-1.281,-4.493],[-1.092,-4.402],[-1.057,-4.402],[-1.057,-4.388],[-1.021,-4.359],[-0.832,-4.282],[-0.468,-4.219],[-0.397,-4.219],[-0.327,-4.24]]]},"properties":{"abbr":null,"name":"unnamed sealed face","plate":25,"ap_bregma_mm":-0.6,"index":4}},{"type":"Feature","geometry":{"type":"Polygon","coordinates":[[[0.149,-4.971],[0.136,-5.035],[0.086,-5.14],[0.051,-5.33],[0.044,-5.513],[0.072,-5.731],[0.065,-5.808],[0.009,-5.822],[-0.005,-5.808],[0.016,-5.569],[0.009,-5.393],[-0.005,-5.203],[-0.033,-5.091],[-0.068,-5.014],[-0.061,-4.992],[0.058,-5.0],[0.149,-4.971]]]},"properties":{"abbr":null,"name":"unnamed sealed face","plate":25,"ap_bregma_mm":-0.6,"index":5}},{"type":"Feature","geometry":{"type":"Polygon","coordinates":[[[4.525,-5.977],[4.503,-6.041],[4.44,-6.139],[4.307,-6.294],[4.23,-6.484],[4.216,-6.491],[4.216,-6.519],[4.195,-6.54],[4.153,-6.673],[4.146,-6.828],[4.195,-7.025],[4.279,-7.194],[4.293,-7.264],[4.286,-7.271],[4.258,-7.264],[4.202,-7.187],[4.104,-6.92],[4.083,-6.737],[4.132,-6.491],[4.174,-6.441],[4.202,-6.35],[4.209,-6.329],[4.244,-6.308],[4.335,-6.209],[4.433,-6.083],[4.469,-6.012],[4.525,-5.977]]]},"properties":{"abbr":null,"name":"unnamed sealed face","plate":25,"ap_bregma_mm":-0.6,"index":6}},{"type":"Feature","geometry":{"type":"Polygon","coordinates":[[[4.209,-6.329],[4.202,-6.35],[4.139,-6.364],[4.083,-6.413],[3.936,-6.469],[3.887,-6.505],[3.872,-6.533],[3.823,-6.561],[3.802,-6.596],[3.767,-6.596],[3.599,-6.659],[3.585,-6.659],[3.571,-6.554],[3.627,-6.533],[3.69,-6.512],[3.718,-6.484],[3.795,-6.455],[3.802,-6.441],[3.992,-6.364],[4.132,-6.322],[4.209,-6.329]]]},"properties":{"abbr":null,"name":"unnamed sealed face","plate":25,"ap_bregma_mm":-0.6,"index":7}},{"type":"Feature","geometry":{"type":"Polygon","coordinates":[[[-4.142,-6.455],[-4.071,-6.491],[-4.071,-6.519],[-4.015,-6.568],[-3.98,-6.638],[-3.966,-6.638],[-3.938,-6.681],[-3.917,-6.772],[-3.917,-6.87],[-3.973,-7.06],[-3.994,-7.088],[-4.071,-7.342],[-4.106,-7.447],[-4.127,-7.461],[-4.142,-7.454],[-4.142,-7.222],[-4.114,-7.124],[-4.064,-7.025],[-4.029,-6.884],[-4.029,-6.765],[-4.05,-6.659],[-4.121,-6.561],[-4.148,-6.505],[-4.17,-6.491],[-4.17,-6.469],[-4.142,-6.455]]]},"properties":{"abbr":null,"name":"unnamed sealed face","plate":25,"ap_bregma_mm":-0.6,"index":8}},{"type":"Feature","geometry":{"type":"Polygon","coordinates":[[[0.03,-7.335],[0.051,-7.356],[0.058,-7.743],[0.079,-7.827],[0.079,-7.918],[0.03,-7.961],[0.002,-7.925],[-0.005,-7.848],[0.009,-7.349],[0.03,-7.335]]]},"properties":{"abbr":null,"name":"unnamed sealed face","plate":25,"ap_bregma_mm":-0.6,"index":9}},{"type":"Feature","geometry":{"type":"Polygon","coordinates":[[[-0.895,-8.151],[-0.818,-8.179],[-0.797,-8.207],[-0.874,-8.2],[-1.042,-8.151],[-1.155,-8.151],[-1.162,-8.179],[-1.183,-8.129],[-1.211,-8.108],[-1.204,-8.087],[-1.162,-8.066],[-1.162,-8.024],[-0.958,-8.024],[-0.958,-8.129],[-0.895,-8.151]]]},"properties":{"abbr":null,"name":"unnamed sealed face","plate":25,"ap_bregma_mm":-0.6,"index":10}},{"type":"Feature","geometry":{"type":"MultiPolygon","coordinates":[[[[-3.826,-8.791],[-4.071,-8.791],[-4.184,-8.776],[-4.359,-8.727],[-4.653,-8.594],[-4.962,-8.397],[-5.151,-8.242],[-5.369,-7.996],[-5.579,-7.679],[-5.712,-7.419],[-5.775,-7.264],[-5.824,-7.096],[-5.845,-6.962],[-5.845,-6.673],[-5.873,-6.554],[-5.979,-6.413],[-6.189,-6.062],[-6.497,-5.471],[-6.666,-5.063],[-6.764,-4.711],[-6.778,-4.493],[-6.75,-4.303],[-6.694,-4.071],[-6.602,-3.825],[-6.49,-3.586],[-6.287,-3.248],[-5.985,-2.854],[-5.719,-2.559],[-5.481,-2.327],[-5.193,-2.088],[-4.969,-1.933],[-4.723,-1.806],[-4.401,-1.673],[-4.191,-1.602],[-3.475,-1.42],[-2.557,-1.131],[-2.234,-1.075],[-1.772,-1.026],[-1.351,-1.026],[-0.811,-1.11],[-0.615,-1.159],[-0.362,-1.244],[-0.229,-1.307],[-0.047,-1.455],[0.037,-1.469],[0.191,-1.293],[0.276,-1.237],[0.738,-1.019],[0.907,-0.962],[1.068,-0.927],[1.426,-0.899],[1.804,-0.913],[2.12,-0.948],[3.003,-1.117],[3.669,-1.3],[4.069,-1.427],[4.602,-1.617],[4.854,-1.729],[5.064,-1.835],[5.212,-1.926],[5.548,-2.207],[5.99,-2.657],[6.228,-2.939],[6.488,-3.297],[6.635,-3.628],[6.74,-3.994],[6.768,-4.17],[6.782,-4.395],[6.775,-4.641],[6.747,-4.838],[6.656,-5.133],[6.572,-5.33],[6.425,-5.611],[6.151,-6.033],[6.039,-6.181],[5.864,-6.371],[5.864,-6.512],[5.85,-6.575],[5.766,-6.744],[5.738,-6.835],[5.759,-6.948],[5.759,-7.067],[5.738,-7.166],[5.66,-7.363],[5.527,-7.595],[5.331,-7.869],[5.149,-8.094],[4.917,-8.333],[4.798,-8.432],[4.665,-8.516],[4.546,-8.572],[4.398,-8.622],[4.125,-8.678],[3.88,-8.699],[3.69,-8.699],[3.431,-8.678],[3.249,-8.636],[2.821,-8.46],[2.765,-8.418],[2.632,-8.361],[2.449,-8.235],[2.358,-8.108],[2.295,-8.066],[1.951,-8.01],[1.594,-7.932],[1.412,-7.968],[1.363,-7.996],[1.348,-8.066],[1.376,-8.172],[1.369,-8.228],[1.278,-8.319],[1.068,-8.446],[0.921,-8.502],[0.774,-8.537],[0.36,-8.551],[-0.201,-8.509],[-0.566,-8.579],[-0.853,-8.572],[-0.923,-8.551],[-1.008,-8.502],[-1.162,-8.34],[-1.183,-8.298],[-1.183,-8.242],[-1.162,-8.186],[-1.19,-8.115],[-1.26,-8.08],[-1.365,-8.059],[-1.456,-8.059],[-1.638,-8.101],[-1.828,-8.207],[-2.052,-8.242],[-2.213,-8.284],[-2.256,-8.305],[-2.368,-8.418],[-2.48,-8.481],[-2.908,-8.629],[-2.949,-8.629],[-3.048,-8.671],[-3.37,-8.741],[-3.595,-8.776],[-3.819,-8.791],[-3.826,-8.791]]]]},"properties":{"abbr":"brain_outline","name":"outline of the section","plate":25,"ap_bregma_mm":-0.6}}]}
