{"type":"FeatureCollection","name":"GerbilAtlas plate 53","note":"Region extents cut from the atlas drawing (METHODS.md, Region extents). Coordinates are [ML, DV] in mm, ML positive to the right of the plate as printed, DV negative below the dorsal surface; AP is the plate bregma. traced_fraction is the share of each polygon boundary the atlas actually draws; below 0.5 the boundary is an estimate. no_drawn_outline marks a feature that lies only inside boundaries the atlas draws round more than one name and prints nothing within, so the whole of its outline is where the extraction cut it. Not a segmentation.","plate":53,"ap_bregma_mm":-10.4,"features":[{"type":"Feature","geometry":{"type":"MultiPolygon","coordinates":[[[[-0.548,-4.353],[0.321,-4.353],[0.833,-4.374],[1.296,-4.41],[1.548,-4.459],[1.555,-4.487],[1.682,-4.628],[1.689,-4.663],[1.731,-4.726],[1.703,-4.811],[1.626,-4.895],[1.548,-4.951],[1.359,-5.043],[1.121,-5.113],[1.107,-5.127],[0.854,-5.19],[0.342,-5.261],[0.027,-5.289],[-0.366,-5.282],[-0.562,-5.247],[-1.067,-5.071],[-1.361,-4.902],[-1.481,-4.789],[-1.558,-4.656],[-1.565,-4.564],[-1.537,-4.508],[-1.438,-4.452],[-1.326,-4.417],[-1.025,-4.382],[-0.878,-4.382],[-0.793,-4.367],[-0.618,-4.374],[-0.548,-4.353]]]]},"properties":{"abbr":"10Cb","name":"10th cerebellar lobule (nodule)","plate":53,"ap_bregma_mm":-10.4,"area_mm2":2.4295,"traced_fraction":[1.0],"n_labels":1,"no_drawn_outline":false}},{"type":"Feature","geometry":{"type":"MultiPolygon","coordinates":[[[[-0.366,-5.922],[-0.373,-5.978],[-0.436,-5.971],[-0.492,-6.006],[-0.604,-6.02],[-0.667,-5.999],[-0.681,-5.985],[-0.681,-5.943],[-0.618,-5.837],[-0.506,-5.76],[-0.457,-5.76],[-0.429,-5.781],[-0.401,-5.83],[-0.394,-5.908],[-0.366,-5.922]]],[[[0.427,-6.02],[0.384,-5.915],[0.384,-5.852],[0.406,-5.823],[0.504,-5.809],[0.56,-5.83],[0.609,-5.887],[0.665,-6.013],[0.665,-6.034],[0.644,-6.055],[0.574,-6.084],[0.525,-6.077],[0.455,-6.02],[0.427,-6.02]]]]},"properties":{"abbr":"10N","name":"dorsal motor nucleus of vagus","plate":53,"ap_bregma_mm":-10.4,"area_mm2":0.1095,"traced_fraction":[1.0,0.976],"n_labels":1,"no_drawn_outline":false}},{"type":"Feature","geometry":{"type":"MultiPolygon","coordinates":[[[[0.37,-6.21],[0.363,-6.252],[0.153,-6.259],[0.125,-6.259],[0.083,-6.231],[-0.022,-6.217],[-0.078,-6.231],[-0.134,-6.267],[-0.169,-6.252],[-0.282,-6.252],[-0.345,-6.224],[-0.345,-6.217],[-0.317,-6.105],[-0.26,-6.063],[-0.127,-6.006],[-0.05,-6.013],[-0.015,-6.063],[0.006,-6.063],[0.048,-6.02],[0.104,-5.999],[0.16,-6.006],[0.258,-6.069],[0.258,-6.084],[0.328,-6.14],[0.37,-6.21]]]]},"properties":{"abbr":"12N","name":"hypoglossal nucleus","plate":53,"ap_bregma_mm":-10.4,"area_mm2":0.1371,"traced_fraction":[0.984],"n_labels":2,"no_drawn_outline":false}},{"type":"Feature","geometry":{"type":"MultiPolygon","coordinates":[[[[-0.786,-8.419],[-0.786,-8.44],[-0.864,-8.517],[-0.878,-8.517],[-0.906,-8.559],[-1.011,-8.524],[-1.263,-8.377],[-1.34,-8.313],[-1.34,-8.257],[-1.326,-8.25],[-1.326,-8.229],[-1.305,-8.222],[-1.277,-8.236],[-1.039,-8.236],[-0.849,-8.151],[-0.836,-8.173],[-0.899,-8.208],[-0.99,-8.306],[-1.004,-8.334],[-1.004,-8.405],[-0.955,-8.447],[-0.885,-8.447],[-0.786,-8.419]]]]},"properties":{"abbr":"12n","name":"hypoglossal nerve","plate":53,"ap_bregma_mm":-10.4,"area_mm2":0.0918,"traced_fraction":[0.977],"n_labels":1,"no_drawn_outline":false}},{"type":"Feature","geometry":{"type":"MultiPolygon","coordinates":[[[[0.553,-5.451],[0.518,-5.577],[0.476,-5.633],[0.427,-5.669],[0.427,-5.683],[0.399,-5.69],[0.328,-5.76],[0.195,-5.852],[0.104,-5.894],[-0.008,-5.901],[-0.071,-5.887],[-0.183,-5.83],[-0.373,-5.662],[-0.485,-5.521],[-0.52,-5.415],[-0.478,-5.401],[-0.415,-5.415],[-0.38,-5.507],[-0.31,-5.563],[-0.113,-5.563],[-0.043,-5.669],[0.027,-5.697],[0.111,-5.683],[0.23,-5.563],[0.328,-5.542],[0.37,-5.472],[0.412,-5.437],[0.504,-5.429],[0.553,-5.451]]]]},"properties":{"abbr":"4V","name":"4th ventricle","plate":53,"ap_bregma_mm":-10.4,"area_mm2":0.2235,"traced_fraction":[1.0],"n_labels":1,"no_drawn_outline":false}},{"type":"Feature","geometry":{"type":"MultiPolygon","coordinates":[[[[-1.628,-5.746],[-1.509,-5.781],[-1.404,-5.781],[-1.34,-5.753],[-1.27,-5.866],[-1.13,-5.992],[-1.144,-6.013],[-1.144,-6.126],[-1.459,-6.126],[-1.502,-6.084],[-1.481,-6.006],[-1.488,-5.943],[-1.565,-5.859],[-1.649,-5.816],[-1.649,-5.781],[-1.628,-5.746]]],[[[1.275,-5.922],[1.527,-5.929],[1.52,-5.971],[1.534,-6.041],[1.569,-6.084],[1.534,-6.112],[1.534,-6.126],[1.226,-6.126],[1.212,-6.105],[1.212,-6.013],[1.275,-5.922]]]]},"properties":{"abbr":"5Sol","name":"trigeminal-solitary transition zone","plate":53,"ap_bregma_mm":-10.4,"area_mm2":0.178,"traced_fraction":[0.648,0.378],"n_labels":2,"no_drawn_outline":true}},{"type":"Feature","geometry":{"type":"MultiPolygon","coordinates":[[[[1.016,-1.512],[1.016,-1.624],[1.037,-1.624],[0.98,-1.751],[0.896,-1.836],[0.819,-1.878],[0.616,-1.934],[0.209,-1.962],[0.146,-1.962],[0.146,-1.948],[-0.555,-1.948],[-0.569,-1.934],[-0.681,-1.913],[-0.8,-1.857],[-0.885,-1.786],[-0.962,-1.667],[-0.948,-1.667],[-0.955,-1.547],[-0.955,-1.498],[-0.913,-1.407],[-0.793,-1.315],[-0.45,-1.196],[-0.205,-1.153],[0.195,-1.167],[0.693,-1.245],[0.882,-1.329],[0.973,-1.428],[0.994,-1.491],[1.016,-1.512]]]]},"properties":{"abbr":"6Cb","name":"6th cerebellar lobule","plate":53,"ap_bregma_mm":-10.4,"area_mm2":1.3275,"traced_fraction":[1.0],"n_labels":1,"no_drawn_outline":false}},{"type":"Feature","geometry":{"type":"MultiPolygon","coordinates":[[[[1.114,-1.491],[1.254,-1.758],[1.261,-1.793],[1.387,-1.92],[1.387,-1.99],[1.268,-2.215],[1.268,-2.3],[1.107,-2.602],[1.107,-3.087],[1.093,-3.087],[0.994,-2.961],[0.784,-2.764],[0.658,-2.708],[0.441,-2.665],[0.013,-2.651],[-0.387,-2.687],[-0.688,-2.743],[-0.864,-2.855],[-0.87,-2.736],[-1.032,-2.412],[-1.046,-2.405],[-1.095,-2.307],[-1.095,-2.264],[-1.109,-2.258],[-1.249,-1.976],[-1.249,-1.828],[-1.102,-1.547],[-1.095,-1.512],[-1.081,-1.512],[-1.046,-1.554],[-1.032,-1.554],[-1.018,-1.603],[-0.962,-1.667],[-0.885,-1.786],[-0.8,-1.857],[-0.681,-1.913],[-0.569,-1.934],[-0.555,-1.948],[0.146,-1.948],[0.146,-1.962],[0.209,-1.962],[0.616,-1.934],[0.819,-1.878],[0.896,-1.836],[0.98,-1.751],[1.037,-1.624],[1.093,-1.505],[1.114,-1.491]]]]},"properties":{"abbr":"7Cb","name":"7th cerebellar lobule","plate":53,"ap_bregma_mm":-10.4,"area_mm2":2.0668,"traced_fraction":[0.618],"n_labels":1,"no_drawn_outline":false}},{"type":"Feature","geometry":{"type":"MultiPolygon","coordinates":[[[[1.107,-3.087],[1.128,-3.116],[1.773,-4.023],[1.527,-4.023],[1.52,-4.037],[1.317,-4.037],[1.303,-4.051],[1.198,-3.917],[1.142,-3.868],[1.142,-3.854],[0.988,-3.699],[0.889,-3.622],[0.49,-3.502],[0.244,-3.467],[0.076,-3.453],[-0.169,-3.453],[-0.254,-3.467],[-0.52,-3.509],[-0.758,-3.58],[-0.906,-3.432],[-1.067,-3.094],[-1.081,-3.094],[-1.081,-3.08],[-0.955,-2.954],[-0.955,-2.94],[-0.864,-2.855],[-0.688,-2.743],[-0.387,-2.687],[0.013,-2.651],[0.441,-2.665],[0.609,-2.694],[0.784,-2.764],[0.847,-2.813],[1.058,-3.031],[1.086,-3.08],[1.107,-3.087]]]]},"properties":{"abbr":"8Cb","name":"8th cerebellar lobule","plate":53,"ap_bregma_mm":-10.4,"area_mm2":1.9366,"traced_fraction":[0.865],"n_labels":1,"no_drawn_outline":false}},{"type":"Feature","geometry":{"type":"MultiPolygon","coordinates":[[[[0.244,-3.467],[0.244,-3.678],[-0.254,-3.678],[-0.254,-3.467],[-0.169,-3.453],[0.244,-3.467]]]]},"properties":{"abbr":"9aCb","name":"9th cerebellar lobule, a","plate":53,"ap_bregma_mm":-10.4,"area_mm2":0.1085,"traced_fraction":[0.401],"n_labels":2,"no_drawn_outline":true}},{"type":"Feature","geometry":{"type":"MultiPolygon","coordinates":[[[[-0.254,-3.467],[-0.254,-3.678],[0.244,-3.678],[0.244,-3.467],[0.49,-3.502],[0.889,-3.622],[0.988,-3.699],[1.142,-3.854],[1.142,-3.868],[1.198,-3.917],[1.303,-4.051],[1.464,-4.283],[1.506,-4.396],[0.994,-4.346],[0.861,-4.346],[0.826,-4.36],[0.833,-4.374],[0.321,-4.353],[-0.548,-4.353],[-0.548,-4.339],[-0.576,-4.325],[-1.011,-4.332],[-1.459,-4.382],[-1.453,-4.332],[-1.368,-4.199],[-1.305,-4.051],[-1.256,-3.974],[-1.179,-3.903],[-1.172,-3.868],[-1.102,-3.798],[-0.941,-3.699],[-0.885,-3.65],[-0.843,-3.636],[-0.821,-3.608],[-0.758,-3.58],[-0.52,-3.509],[-0.254,-3.467]]]]},"properties":{"abbr":"9cCb","name":"9th cerebellar lobule, c","plate":53,"ap_bregma_mm":-10.4,"area_mm2":1.8839,"traced_fraction":[0.877],"n_labels":1,"no_drawn_outline":false}},{"type":"Feature","geometry":{"type":"MultiPolygon","coordinates":[[[[1.527,-6.815],[1.66,-6.836],[1.717,-6.85],[1.766,-6.857],[1.815,-6.907],[1.857,-6.928],[1.864,-6.949],[1.808,-6.97],[1.808,-7.019],[1.766,-7.061],[1.731,-7.075],[1.647,-7.075],[1.59,-7.054],[1.485,-6.949],[1.45,-6.885],[1.45,-6.85],[1.485,-6.822],[1.527,-6.815]]],[[[-1.459,-7.279],[-1.551,-7.335],[-1.628,-7.335],[-1.663,-7.322],[-1.691,-7.286],[-1.691,-7.216],[-1.642,-7.139],[-1.544,-7.082],[-1.467,-7.089],[-1.425,-7.146],[-1.425,-7.216],[-1.459,-7.279]]]]},"properties":{"abbr":"AmbSC","name":"ambiguus nucleus, subcompact part","plate":53,"ap_bregma_mm":-10.4,"area_mm2":0.1228,"traced_fraction":[0.993,0.992],"n_labels":2,"no_drawn_outline":false}},{"type":"Feature","geometry":{"type":"MultiPolygon","coordinates":[[[[1.506,-7.441],[1.829,-7.441],[1.878,-7.504],[1.752,-7.631],[1.647,-7.772],[1.611,-7.743],[1.576,-7.673],[1.555,-7.596],[1.534,-7.568],[1.506,-7.441]]]]},"properties":{"abbr":"CVL","name":"caudoventrolateral reticular nucleus","plate":53,"ap_bregma_mm":-10.4,"area_mm2":0.0711,"traced_fraction":[0.68],"n_labels":1,"no_drawn_outline":true}},{"type":"Feature","geometry":{"type":"MultiPolygon","coordinates":[[[[-1.081,-3.094],[-1.067,-3.094],[-0.906,-3.432],[-0.758,-3.58],[-0.821,-3.608],[-0.843,-3.636],[-0.885,-3.65],[-0.941,-3.699],[-1.102,-3.798],[-1.172,-3.868],[-1.179,-3.903],[-1.256,-3.974],[-1.305,-4.051],[-1.368,-4.199],[-1.453,-4.332],[-1.459,-4.382],[-1.565,-4.466],[-1.649,-4.55],[-1.691,-4.614],[-1.761,-4.663],[-1.761,-4.677],[-1.992,-4.832],[-2.133,-4.902],[-2.252,-4.944],[-2.364,-4.965],[-2.532,-4.958],[-2.602,-4.93],[-2.602,-4.916],[-2.63,-4.902],[-2.63,-4.761],[-2.553,-4.628],[-2.469,-4.543],[-2.252,-4.445],[-2.224,-4.41],[-2.217,-4.396],[-2.126,-4.367],[-1.971,-4.283],[-1.866,-4.199],[-1.726,-4.009],[-1.649,-3.875],[-1.607,-3.847],[-1.579,-3.784],[-1.558,-3.77],[-1.438,-3.573],[-1.305,-3.397],[-1.298,-3.369],[-1.151,-3.179],[-1.081,-3.094]]],[[[1.773,-4.023],[1.871,-4.128],[2.116,-4.304],[2.488,-4.48],[2.579,-4.508],[2.663,-4.494],[2.705,-4.501],[2.67,-4.6],[2.726,-4.677],[2.747,-4.818],[2.74,-4.853],[2.691,-4.916],[2.593,-4.951],[2.306,-4.958],[2.13,-4.93],[2.102,-4.909],[1.969,-4.874],[1.85,-4.818],[1.731,-4.726],[1.717,-4.719],[1.682,-4.628],[1.555,-4.487],[1.548,-4.459],[1.541,-4.417],[1.506,-4.396],[1.464,-4.283],[1.303,-4.051],[1.317,-4.037],[1.52,-4.037],[1.527,-4.023],[1.773,-4.023]]]]},"properties":{"abbr":"Cop","name":"copula of the pyramis","plate":53,"ap_bregma_mm":-10.4,"area_mm2":1.7099,"traced_fraction":[0.909,0.888],"n_labels":2,"no_drawn_outline":false}},{"type":"Feature","geometry":{"type":"MultiPolygon","coordinates":[[[[4.023,-2.476],[4.009,-2.476],[3.827,-2.391],[3.799,-2.391],[3.729,-2.356],[3.694,-2.356],[3.666,-2.335],[3.631,-2.335],[3.266,-2.194],[3.175,-2.166],[3.091,-2.166],[2.789,-2.011],[2.579,-2.011],[2.411,-1.92],[1.387,-1.92],[1.261,-1.793],[1.254,-1.758],[1.114,-1.491],[1.114,-1.477],[1.149,-1.456],[1.184,-1.407],[1.38,-1.308],[1.59,-1.245],[1.759,-1.217],[2.13,-1.209],[2.46,-1.231],[2.804,-1.28],[3.161,-1.364],[3.497,-1.505],[3.631,-1.589],[3.736,-1.688],[3.834,-1.821],[3.883,-1.934],[3.904,-1.948],[3.974,-2.089],[4.023,-2.236],[4.044,-2.349],[4.044,-2.44],[4.023,-2.476]]],[[[-1.081,-1.512],[-1.095,-1.512],[-1.102,-1.547],[-1.249,-1.828],[-2.055,-1.828],[-2.147,-1.927],[-2.483,-2.096],[-2.574,-2.096],[-2.911,-2.264],[-2.96,-2.321],[-3.184,-2.412],[-3.451,-2.553],[-3.549,-2.581],[-3.584,-2.609],[-3.619,-2.609],[-3.668,-2.518],[-3.668,-2.377],[-3.598,-2.173],[-3.514,-2.025],[-3.416,-1.899],[-3.353,-1.85],[-3.296,-1.779],[-3.128,-1.66],[-3.121,-1.639],[-3.058,-1.603],[-3.016,-1.561],[-2.736,-1.421],[-2.574,-1.357],[-2.245,-1.273],[-2.076,-1.259],[-1.691,-1.273],[-1.607,-1.28],[-1.305,-1.35],[-1.137,-1.442],[-1.081,-1.512]]]]},"properties":{"abbr":"Crus1","name":"crus 1 of the ansiform lobule","plate":53,"ap_bregma_mm":-10.4,"area_mm2":3.537,"traced_fraction":[0.678,0.664],"n_labels":2,"no_drawn_outline":false}},{"type":"Feature","geometry":{"type":"MultiPolygon","coordinates":[[[[-1.249,-1.828],[-1.249,-1.976],[-1.109,-2.258],[-1.095,-2.264],[-1.095,-2.307],[-0.87,-2.736],[-0.864,-2.855],[-0.955,-2.94],[-0.955,-2.954],[-1.025,-3.017],[-1.081,-3.094],[-1.151,-3.179],[-1.782,-3.179],[-2.105,-2.855],[-2.105,-2.834],[-2.119,-2.834],[-2.329,-2.869],[-2.385,-2.862],[-2.707,-2.905],[-2.715,-2.919],[-2.771,-2.926],[-3.037,-3.024],[-3.233,-3.13],[-3.36,-3.172],[-3.451,-3.221],[-3.451,-3.207],[-3.514,-3.214],[-3.556,-3.2],[-3.633,-3.123],[-3.689,-2.982],[-3.682,-2.834],[-3.647,-2.757],[-3.619,-2.644],[-3.605,-2.644],[-3.584,-2.609],[-3.549,-2.581],[-3.451,-2.553],[-3.184,-2.412],[-2.96,-2.321],[-2.911,-2.264],[-2.574,-2.096],[-2.483,-2.096],[-2.147,-1.927],[-2.055,-1.828],[-1.249,-1.828]]],[[[1.387,-1.92],[2.411,-1.92],[2.579,-2.011],[2.789,-2.011],[3.091,-2.166],[3.175,-2.166],[3.266,-2.194],[3.631,-2.335],[3.666,-2.335],[3.694,-2.356],[3.729,-2.356],[3.799,-2.391],[3.827,-2.391],[4.009,-2.476],[4.002,-2.497],[4.023,-2.497],[4.023,-2.539],[4.052,-2.602],[4.044,-2.996],[4.03,-3.059],[3.974,-3.165],[3.939,-3.186],[3.848,-3.193],[3.778,-3.2],[3.778,-3.214],[3.687,-3.193],[3.512,-3.116],[3.491,-3.094],[3.238,-2.975],[3.231,-2.961],[3.056,-2.883],[2.895,-2.855],[2.853,-2.834],[2.418,-2.792],[2.362,-2.771],[2.109,-2.729],[2.088,-2.729],[2.088,-2.757],[1.731,-3.116],[1.128,-3.116],[1.107,-3.087],[1.107,-2.602],[1.268,-2.3],[1.268,-2.215],[1.387,-1.99],[1.387,-1.92]]]]},"properties":{"abbr":"Crus2","name":"crus 2 of the ansiform lobule","plate":53,"ap_bregma_mm":-10.4,"area_mm2":5.0641,"traced_fraction":[0.479,0.496],"n_labels":2,"no_drawn_outline":false}},{"type":"Feature","geometry":{"type":"MultiPolygon","coordinates":[[[[1.457,-5.331],[1.569,-5.422],[1.639,-5.451],[1.759,-5.479],[1.864,-5.472],[1.864,-5.493],[1.815,-5.577],[1.71,-5.662],[1.548,-5.69],[1.366,-5.683],[1.373,-5.563],[1.394,-5.479],[1.429,-5.359],[1.457,-5.331]]],[[[-1.34,-5.458],[-1.298,-5.591],[-1.312,-5.718],[-1.34,-5.753],[-1.404,-5.781],[-1.509,-5.781],[-1.628,-5.746],[-1.691,-5.711],[-1.754,-5.648],[-1.789,-5.57],[-1.789,-5.521],[-1.495,-5.521],[-1.41,-5.5],[-1.34,-5.458]]]]},"properties":{"abbr":"Cu","name":"cuneate nucleus","plate":53,"ap_bregma_mm":-10.4,"area_mm2":0.2171,"traced_fraction":[1.0,0.995],"n_labels":2,"no_drawn_outline":false}},{"type":"Feature","geometry":{"type":"MultiPolygon","coordinates":[[[[1.857,-5.739],[2.074,-5.83],[2.144,-5.873],[2.172,-5.908],[2.025,-5.943],[1.92,-6.034],[1.885,-6.119],[1.899,-6.259],[1.66,-6.147],[1.569,-6.084],[1.534,-6.041],[1.52,-5.971],[1.527,-5.929],[1.576,-5.852],[1.626,-5.823],[1.66,-5.781],[1.717,-5.753],[1.857,-5.739]]],[[[-1.649,-5.816],[-1.565,-5.859],[-1.488,-5.943],[-1.481,-6.006],[-1.502,-6.084],[-1.677,-6.231],[-1.81,-6.323],[-1.873,-6.351],[-1.887,-6.147],[-1.915,-6.048],[-1.992,-5.95],[-2.091,-5.915],[-2.063,-5.873],[-1.887,-5.788],[-1.775,-5.781],[-1.649,-5.816]]]]},"properties":{"abbr":"DMSp5","name":"dorsomedial spinal trigeminal nucleus","plate":53,"ap_bregma_mm":-10.4,"area_mm2":0.3687,"traced_fraction":[0.988,0.968],"n_labels":1,"no_drawn_outline":false}},{"type":"Feature","geometry":{"type":"MultiPolygon","coordinates":[[[[1.787,-5.197],[1.85,-5.233],[1.871,-5.289],[1.892,-5.296],[1.913,-5.338],[1.927,-5.387],[1.899,-5.401],[1.899,-5.422],[1.864,-5.472],[1.759,-5.479],[1.639,-5.451],[1.569,-5.422],[1.457,-5.331],[1.485,-5.212],[1.569,-5.176],[1.66,-5.176],[1.731,-5.197],[1.787,-5.197]]],[[[-1.537,-5.254],[-1.396,-5.254],[-1.396,-5.289],[-1.382,-5.289],[-1.375,-5.317],[-1.354,-5.331],[-1.361,-5.373],[-1.34,-5.458],[-1.41,-5.5],[-1.495,-5.521],[-1.789,-5.521],[-1.824,-5.458],[-1.824,-5.359],[-1.803,-5.296],[-1.656,-5.261],[-1.537,-5.254]]]]},"properties":{"abbr":"ECu","name":"external cuneate nucleus","plate":53,"ap_bregma_mm":-10.4,"area_mm2":0.2176,"traced_fraction":[1.0,0.995],"n_labels":2,"no_drawn_outline":false}},{"type":"Feature","geometry":{"type":"MultiPolygon","coordinates":[[[[-0.583,-6.175],[-0.457,-6.182],[-0.345,-6.217],[-0.345,-6.224],[-0.366,-6.245],[-0.366,-6.316],[-0.303,-6.4],[-0.247,-6.4],[-0.197,-6.344],[-0.169,-6.351],[-0.19,-6.885],[-0.19,-7.019],[-0.183,-7.075],[-0.197,-7.082],[-0.218,-7.49],[-0.247,-7.701],[-0.275,-7.779],[-0.324,-7.786],[-0.352,-7.828],[-0.422,-7.807],[-0.499,-7.807],[-0.604,-7.842],[-0.688,-7.891],[-0.688,-7.68],[-1.011,-7.68],[-1.011,-8.088],[-1.13,-8.123],[-1.277,-8.123],[-1.326,-8.158],[-1.34,-8.158],[-1.502,-7.99],[-1.579,-7.877],[-1.628,-7.765],[-1.593,-7.758],[-1.565,-7.729],[-1.481,-7.518],[-1.453,-7.511],[-1.446,-7.455],[-1.34,-7.286],[-1.193,-7.054],[-1.123,-6.914],[-1.074,-6.85],[-1.06,-6.85],[-1.06,-6.857],[-1.06,-6.914],[-1.025,-6.963],[-0.955,-6.977],[-0.899,-6.956],[-0.87,-6.928],[-0.849,-6.871],[-0.857,-6.808],[-0.899,-6.773],[-0.892,-6.576],[-0.618,-6.238],[-0.59,-6.182],[-0.583,-6.175]]],[[[0.504,-6.189],[0.574,-6.196],[0.574,-6.21],[0.658,-6.295],[0.756,-6.365],[0.945,-6.548],[0.945,-6.562],[1.044,-6.66],[1.065,-6.71],[1.051,-6.717],[0.98,-6.71],[0.938,-6.752],[0.931,-6.836],[0.973,-6.928],[0.959,-6.928],[0.749,-7.153],[0.609,-7.153],[0.609,-7.265],[0.174,-7.265],[0.174,-6.935],[0.16,-6.907],[0.16,-6.857],[0.16,-6.435],[0.125,-6.259],[0.153,-6.259],[0.237,-6.442],[0.286,-6.492],[0.328,-6.492],[0.37,-6.435],[0.363,-6.252],[0.37,-6.21],[0.504,-6.189]]]]},"properties":{"abbr":"Gi","name":"gigantocellular reticular nucleus","plate":53,"ap_bregma_mm":-10.4,"area_mm2":2.2448,"traced_fraction":[0.832,0.748],"n_labels":2,"no_drawn_outline":false}},{"type":"Feature","geometry":{"type":"MultiPolygon","coordinates":[[[[-0.352,-7.828],[-0.352,-7.849],[-0.31,-7.884],[-0.275,-7.983],[-0.275,-8.039],[-0.296,-8.088],[-0.478,-8.243],[-0.541,-8.271],[-0.555,-8.299],[-0.66,-8.341],[-0.667,-8.362],[-0.786,-8.419],[-0.885,-8.447],[-0.955,-8.447],[-1.004,-8.405],[-1.004,-8.334],[-0.99,-8.306],[-0.899,-8.208],[-0.836,-8.173],[-0.849,-8.151],[-1.039,-8.236],[-1.277,-8.236],[-1.305,-8.222],[-1.333,-8.179],[-1.326,-8.158],[-1.277,-8.123],[-1.13,-8.123],[-1.011,-8.088],[-0.906,-8.046],[-0.892,-8.025],[-0.864,-8.018],[-0.688,-7.891],[-0.604,-7.842],[-0.499,-7.807],[-0.422,-7.807],[-0.352,-7.828]]],[[[0.3,-7.842],[0.462,-7.856],[0.63,-7.947],[0.819,-8.109],[0.889,-8.151],[0.973,-8.165],[1.198,-8.165],[1.198,-8.236],[1.128,-8.271],[0.967,-8.271],[0.784,-8.229],[0.784,-8.25],[0.84,-8.306],[0.875,-8.369],[0.875,-8.496],[0.812,-8.51],[0.742,-8.468],[0.511,-8.39],[0.483,-8.355],[0.469,-8.355],[0.469,-8.341],[0.412,-8.292],[0.328,-8.229],[0.3,-8.222],[0.279,-8.215],[0.195,-8.116],[0.167,-7.969],[0.181,-7.919],[0.272,-7.849],[0.3,-7.842]]],[[[-0.436,-7.94],[-0.422,-7.962],[-0.422,-8.004],[-0.583,-8.144],[-0.821,-8.306],[-0.843,-8.327],[-0.843,-8.362],[-0.779,-8.341],[-0.765,-8.32],[-0.639,-8.25],[-0.639,-8.236],[-0.555,-8.187],[-0.408,-8.053],[-0.38,-8.004],[-0.38,-7.962],[-0.394,-7.94],[-0.436,-7.94]]],[[[-0.555,-7.947],[-0.618,-7.983],[-0.625,-8.018],[-0.59,-8.011],[-0.527,-7.969],[-0.52,-7.947],[-0.555,-7.947]]],[[[0.476,-8.018],[0.483,-8.046],[0.56,-8.081],[0.539,-8.039],[0.504,-8.018],[0.476,-8.018]]],[[[0.307,-8.025],[0.307,-8.06],[0.363,-8.151],[0.391,-8.165],[0.391,-8.179],[0.469,-8.25],[0.672,-8.369],[0.714,-8.362],[0.672,-8.306],[0.637,-8.292],[0.637,-8.278],[0.609,-8.271],[0.427,-8.137],[0.42,-8.116],[0.356,-8.067],[0.342,-8.032],[0.307,-8.025]]]]},"properties":{"abbr":"IOD","name":"inferior olive, dorsal nucleus","plate":53,"ap_bregma_mm":-10.4,"area_mm2":0.5778,"traced_fraction":[1.0,1.0,1.0,1.0,1.0,1.0],"n_labels":2,"no_drawn_outline":false}},{"type":"Feature","geometry":{"type":"MultiPolygon","coordinates":[[[[-0.275,-7.779],[-0.197,-7.786],[-0.176,-7.842],[-0.176,-7.891],[-0.205,-7.947],[-0.232,-7.975],[-0.275,-7.983],[-0.282,-7.94],[-0.324,-7.863],[-0.352,-7.849],[-0.352,-7.828],[-0.324,-7.786],[-0.275,-7.779]]]]},"properties":{"abbr":"IODM","name":"inferior olive, dorsomedial cell group","plate":53,"ap_bregma_mm":-10.4,"area_mm2":0.0242,"traced_fraction":[0.935],"n_labels":2,"no_drawn_outline":false}},{"type":"Feature","geometry":{"type":"MultiPolygon","coordinates":[[[[-0.092,-8.116],[-0.092,-8.151],[-0.113,-8.165],[-0.113,-8.208],[-0.127,-8.215],[-0.141,-8.271],[-0.169,-8.313],[-0.226,-8.341],[-0.422,-8.334],[-0.429,-8.313],[-0.464,-8.306],[-0.478,-8.243],[-0.345,-8.137],[-0.296,-8.088],[-0.275,-8.039],[-0.19,-8.018],[-0.162,-8.032],[-0.106,-8.116],[-0.092,-8.116]]],[[[0.195,-8.116],[0.279,-8.215],[0.279,-8.229],[0.3,-8.222],[0.328,-8.229],[0.412,-8.292],[0.469,-8.341],[0.469,-8.355],[0.328,-8.362],[0.314,-8.377],[0.258,-8.39],[0.125,-8.39],[0.076,-8.355],[0.02,-8.278],[0.034,-8.144],[0.09,-8.102],[0.195,-8.116]]]]},"properties":{"abbr":"IOM","name":"inferior olive, medial nucleus","plate":53,"ap_bregma_mm":-10.4,"area_mm2":0.1576,"traced_fraction":[0.994,1.0],"n_labels":2,"no_drawn_outline":false}},{"type":"Feature","geometry":{"type":"MultiPolygon","coordinates":[[[[-0.807,-6.119],[-0.66,-6.14],[-0.59,-6.168],[-0.59,-6.182],[-0.618,-6.238],[-0.892,-6.576],[-0.899,-6.773],[-0.962,-6.773],[-1.039,-6.808],[-1.053,-6.836],[-1.06,-6.85],[-1.074,-6.85],[-1.123,-6.914],[-1.193,-7.054],[-1.34,-7.286],[-1.459,-7.279],[-1.425,-7.216],[-1.425,-7.146],[-1.467,-7.089],[-1.544,-7.082],[-1.642,-7.139],[-1.705,-7.068],[-1.747,-7.068],[-1.712,-7.012],[-1.614,-6.914],[-1.6,-6.914],[-1.474,-6.78],[-1.396,-6.724],[-1.123,-6.456],[-1.123,-6.442],[-1.053,-6.372],[-0.99,-6.33],[-0.821,-6.168],[-0.807,-6.119]]],[[[0.812,-6.168],[0.812,-6.182],[0.875,-6.231],[1.016,-6.316],[1.058,-6.358],[1.373,-6.576],[1.45,-6.646],[1.506,-6.674],[1.52,-6.688],[1.527,-6.815],[1.485,-6.822],[1.45,-6.85],[1.45,-6.885],[1.485,-6.949],[1.268,-6.963],[1.191,-6.864],[1.17,-6.815],[1.114,-6.752],[1.093,-6.752],[1.072,-6.731],[1.065,-6.71],[1.044,-6.66],[0.945,-6.562],[0.945,-6.548],[0.756,-6.365],[0.658,-6.295],[0.574,-6.21],[0.574,-6.196],[0.812,-6.168]]],[[[2.032,-7.089],[2.081,-7.118],[2.221,-7.258],[2.243,-7.265],[2.228,-7.293],[2.158,-7.35],[1.983,-7.434],[1.983,-7.139],[2.032,-7.089]]]]},"properties":{"abbr":"IRt","name":"intermediate reticular nucleus","plate":53,"ap_bregma_mm":-10.4,"area_mm2":0.7343,"traced_fraction":[0.902,0.91,0.667],"n_labels":3,"no_drawn_outline":false}},{"type":"Feature","geometry":{"type":"MultiPolygon","coordinates":[[[[1.093,-6.752],[1.114,-6.752],[1.17,-6.815],[1.191,-6.864],[1.268,-6.963],[1.338,-7.103],[1.373,-7.146],[1.506,-7.441],[1.534,-7.568],[1.555,-7.596],[1.576,-7.673],[1.611,-7.743],[1.647,-7.772],[1.611,-7.863],[1.527,-7.947],[1.289,-8.123],[1.198,-8.165],[0.973,-8.165],[0.889,-8.151],[0.819,-8.109],[0.63,-7.947],[0.462,-7.856],[0.462,-7.772],[0.251,-7.772],[0.223,-7.772],[0.216,-7.765],[0.216,-7.68],[0.181,-7.469],[0.174,-7.265],[0.609,-7.265],[0.609,-7.153],[0.749,-7.153],[0.784,-7.103],[0.959,-6.928],[0.973,-6.928],[0.994,-6.942],[1.051,-6.942],[1.093,-6.899],[1.107,-6.864],[1.086,-6.78],[1.093,-6.752]]],[[[-0.688,-7.891],[-0.864,-8.018],[-0.892,-8.025],[-0.906,-8.046],[-1.011,-8.088],[-1.011,-7.68],[-0.688,-7.68],[-0.688,-7.891]]]]},"properties":{"abbr":"LPGi","name":"lateral paragigantocellular nucleus","plate":53,"ap_bregma_mm":-10.4,"area_mm2":1.3111,"traced_fraction":[0.757,0.324],"n_labels":2,"no_drawn_outline":true}},{"type":"Feature","geometry":{"type":"MultiPolygon","coordinates":[[[[1.051,-6.717],[1.072,-6.731],[1.093,-6.752],[1.086,-6.78],[1.107,-6.829],[1.093,-6.899],[1.051,-6.942],[0.994,-6.942],[0.973,-6.928],[0.938,-6.871],[0.938,-6.752],[0.98,-6.71],[1.051,-6.717]]],[[[-0.899,-6.773],[-0.864,-6.794],[-0.849,-6.829],[-0.864,-6.914],[-0.899,-6.956],[-0.955,-6.977],[-1.025,-6.963],[-1.053,-6.935],[-1.06,-6.857],[-1.053,-6.836],[-1.039,-6.808],[-0.962,-6.773],[-0.899,-6.773]]]]},"properties":{"abbr":"Li","name":"linear nucleus of the medulla","plate":53,"ap_bregma_mm":-10.4,"area_mm2":0.0658,"traced_fraction":[1.0,1.0],"n_labels":2,"no_drawn_outline":false}},{"type":"Feature","geometry":{"type":"MultiPolygon","coordinates":[[[[-0.555,-5.359],[-0.548,-5.387],[-0.52,-5.415],[-0.485,-5.521],[-0.373,-5.662],[-0.401,-5.69],[-0.478,-5.64],[-0.548,-5.619],[-0.779,-5.619],[-0.983,-5.648],[-1.039,-5.676],[-1.088,-5.676],[-1.137,-5.676],[-1.144,-5.633],[-1.123,-5.57],[-1.011,-5.387],[-0.948,-5.324],[-0.941,-5.282],[-0.927,-5.275],[-0.927,-5.247],[-0.864,-5.254],[-0.555,-5.359]]],[[[0.889,-5.261],[0.903,-5.303],[0.959,-5.352],[1.022,-5.458],[1.044,-5.549],[1.044,-5.669],[0.609,-5.655],[0.539,-5.676],[0.448,-5.732],[0.427,-5.683],[0.427,-5.669],[0.448,-5.662],[0.518,-5.577],[0.553,-5.451],[0.581,-5.38],[0.609,-5.359],[0.609,-5.338],[0.658,-5.338],[0.728,-5.303],[0.819,-5.282],[0.854,-5.261],[0.889,-5.261]]]]},"properties":{"abbr":"MVe","name":"medial vestibular nucleus","plate":53,"ap_bregma_mm":-10.4,"area_mm2":0.3658,"traced_fraction":[1.0,1.0],"n_labels":2,"no_drawn_outline":false}},{"type":"Feature","geometry":{"type":"MultiPolygon","coordinates":[[[[1.71,-5.662],[1.717,-5.753],[1.66,-5.781],[1.626,-5.823],[1.576,-5.852],[1.527,-5.929],[1.275,-5.922],[1.275,-5.788],[1.233,-5.718],[1.233,-5.697],[1.366,-5.683],[1.548,-5.69],[1.71,-5.662]]]]},"properties":{"abbr":"Mx","name":"matrix region of the medulla","plate":53,"ap_bregma_mm":-10.4,"area_mm2":0.0903,"traced_fraction":[0.829],"n_labels":1,"no_drawn_outline":false}},{"type":"Feature","geometry":{"type":"MultiPolygon","coordinates":[[[[-1.13,-5.992],[-1.004,-6.055],[-0.807,-6.119],[-0.821,-6.168],[-0.99,-6.33],[-1.053,-6.372],[-1.123,-6.442],[-1.123,-6.456],[-1.396,-6.724],[-1.41,-6.724],[-1.6,-6.914],[-1.614,-6.914],[-1.712,-7.012],[-1.747,-7.068],[-1.81,-7.118],[-1.908,-7.244],[-1.964,-7.293],[-1.999,-7.357],[-2.048,-7.335],[-2.112,-7.3],[-2.182,-7.286],[-2.196,-7.265],[-2.196,-7.216],[-2.112,-7.209],[-2.076,-7.174],[-2.042,-7.096],[-2.02,-6.998],[-2.013,-6.71],[-1.985,-6.555],[-1.943,-6.435],[-1.873,-6.351],[-1.81,-6.323],[-1.677,-6.231],[-1.502,-6.084],[-1.459,-6.126],[-1.144,-6.126],[-1.144,-6.013],[-1.13,-5.992]]],[[[1.212,-6.013],[1.212,-6.105],[1.226,-6.126],[1.534,-6.126],[1.534,-6.112],[1.569,-6.084],[1.66,-6.147],[1.899,-6.259],[2.053,-6.414],[2.151,-6.548],[2.2,-6.688],[2.2,-6.815],[2.179,-6.914],[2.186,-6.984],[2.221,-7.061],[2.27,-7.11],[2.348,-7.146],[2.334,-7.181],[2.243,-7.265],[2.221,-7.258],[2.081,-7.118],[2.032,-7.089],[1.864,-6.949],[1.857,-6.928],[1.815,-6.907],[1.766,-6.857],[1.717,-6.85],[1.717,-6.836],[1.675,-6.801],[1.66,-6.801],[1.66,-6.836],[1.527,-6.815],[1.52,-6.688],[1.506,-6.674],[1.45,-6.646],[1.373,-6.576],[1.058,-6.358],[1.016,-6.316],[0.875,-6.231],[0.812,-6.182],[0.812,-6.168],[1.065,-6.098],[1.212,-6.013]]]]},"properties":{"abbr":"PCRt","name":"parvicellular reticular nucleus","plate":53,"ap_bregma_mm":-10.4,"area_mm2":1.4032,"traced_fraction":[0.885,0.877],"n_labels":2,"no_drawn_outline":false}},{"type":"Feature","geometry":{"type":"MultiPolygon","coordinates":[[[[3.778,-3.214],[3.806,-3.256],[3.813,-3.411],[3.771,-3.516],[3.68,-3.615],[3.645,-3.629],[3.638,-3.65],[3.448,-3.763],[3.434,-3.77],[3.413,-3.77],[3.413,-3.784],[3.399,-3.791],[3.392,-3.784],[3.392,-3.798],[3.259,-3.875],[3.196,-3.875],[3.133,-3.861],[3.147,-3.91],[3.161,-3.917],[3.168,-3.974],[3.0,-4.248],[2.825,-4.438],[2.705,-4.501],[2.551,-4.501],[2.355,-4.424],[2.116,-4.304],[1.871,-4.128],[1.773,-4.023],[1.128,-3.116],[1.731,-3.116],[2.088,-2.757],[2.088,-2.729],[2.109,-2.729],[2.362,-2.771],[2.418,-2.792],[2.853,-2.834],[2.895,-2.855],[3.056,-2.883],[3.231,-2.961],[3.238,-2.975],[3.491,-3.094],[3.512,-3.116],[3.687,-3.193],[3.778,-3.214]]],[[[-1.151,-3.179],[-1.298,-3.369],[-1.305,-3.397],[-1.326,-3.411],[-1.558,-3.77],[-1.579,-3.784],[-1.607,-3.847],[-1.649,-3.875],[-1.726,-4.009],[-1.866,-4.199],[-1.971,-4.283],[-2.126,-4.367],[-2.203,-4.389],[-2.224,-4.41],[-2.294,-4.41],[-2.49,-4.452],[-2.602,-4.41],[-2.799,-4.22],[-2.799,-4.206],[-2.848,-4.164],[-2.911,-4.044],[-2.918,-3.974],[-2.897,-3.917],[-2.946,-3.924],[-3.079,-3.917],[-3.184,-3.868],[-3.226,-3.826],[-3.261,-3.812],[-3.367,-3.699],[-3.43,-3.601],[-3.486,-3.46],[-3.5,-3.404],[-3.486,-3.27],[-3.451,-3.221],[-3.36,-3.172],[-3.233,-3.13],[-3.037,-3.024],[-2.771,-2.926],[-2.715,-2.919],[-2.707,-2.905],[-2.385,-2.862],[-2.329,-2.869],[-2.119,-2.834],[-2.105,-2.834],[-2.105,-2.855],[-1.782,-3.179],[-1.151,-3.179]]]]},"properties":{"abbr":"PM","name":"paramedian lobule","plate":53,"ap_bregma_mm":-10.4,"area_mm2":5.0319,"traced_fraction":[0.854,0.843],"n_labels":2,"no_drawn_outline":false}},{"type":"Feature","geometry":{"type":"MultiPolygon","coordinates":[[[[-0.373,-5.662],[-0.183,-5.83],[-0.106,-5.873],[-0.008,-5.901],[0.069,-5.901],[0.153,-5.873],[0.244,-5.823],[0.399,-5.69],[0.427,-5.683],[0.448,-5.732],[0.412,-5.774],[0.406,-5.823],[0.384,-5.852],[0.384,-5.915],[0.427,-6.02],[0.441,-6.091],[0.504,-6.168],[0.504,-6.189],[0.37,-6.21],[0.328,-6.14],[0.314,-6.14],[0.258,-6.069],[0.16,-6.006],[0.104,-5.999],[0.048,-6.02],[0.006,-6.063],[-0.015,-6.063],[-0.022,-6.041],[-0.071,-6.006],[-0.127,-6.006],[-0.26,-6.063],[-0.317,-6.105],[-0.345,-6.217],[-0.457,-6.182],[-0.45,-6.147],[-0.429,-6.133],[-0.394,-6.063],[-0.373,-5.978],[-0.366,-5.922],[-0.352,-5.887],[-0.352,-5.781],[-0.401,-5.69],[-0.373,-5.662]]]]},"properties":{"abbr":"Pr","name":"prepositus nucleus","plate":53,"ap_bregma_mm":-10.4,"area_mm2":0.2103,"traced_fraction":[1.0],"n_labels":2,"no_drawn_outline":false}},{"type":"Feature","geometry":{"type":"MultiPolygon","coordinates":[[[[0.048,-6.857],[0.048,-7.589],[0.02,-7.75],[0.006,-7.793],[-0.022,-7.821],[-0.05,-7.814],[-0.071,-7.786],[-0.099,-7.638],[-0.092,-7.202],[-0.078,-7.082],[-0.183,-7.075],[-0.19,-7.019],[-0.113,-7.019],[-0.106,-7.005],[-0.071,-7.012],[-0.057,-6.885],[-0.043,-6.794],[-0.008,-6.717],[0.027,-6.724],[0.048,-6.857]]]]},"properties":{"abbr":"ROb","name":"raphe obscurus nucleus","plate":53,"ap_bregma_mm":-10.4,"area_mm2":0.1395,"traced_fraction":[0.935],"n_labels":1,"no_drawn_outline":false}},{"type":"Feature","geometry":{"type":"MultiPolygon","coordinates":[[[[0.034,-8.144],[0.02,-8.278],[-0.029,-8.398],[-0.057,-8.398],[-0.05,-8.377],[-0.064,-8.369],[-0.078,-8.32],[-0.085,-8.208],[-0.092,-8.151],[-0.092,-8.116],[-0.085,-7.983],[-0.064,-7.94],[-0.064,-7.891],[-0.05,-7.863],[-0.008,-7.856],[0.013,-7.905],[0.02,-8.137],[0.034,-8.144]]]]},"properties":{"abbr":"RPa","name":"raphe pallidus nucleus","plate":53,"ap_bregma_mm":-10.4,"area_mm2":0.0496,"traced_fraction":[1.0],"n_labels":1,"no_drawn_outline":false}},{"type":"Feature","geometry":{"type":"MultiPolygon","coordinates":[[[[1.485,-6.949],[1.569,-7.04],[1.647,-7.075],[1.731,-7.075],[1.766,-7.061],[1.808,-7.019],[1.808,-6.97],[1.864,-6.949],[2.032,-7.089],[1.983,-7.139],[1.983,-7.434],[1.878,-7.504],[1.829,-7.441],[1.506,-7.441],[1.38,-7.16],[1.268,-6.963],[1.485,-6.949]]],[[[-1.747,-7.068],[-1.705,-7.068],[-1.642,-7.139],[-1.691,-7.216],[-1.691,-7.286],[-1.663,-7.322],[-1.628,-7.335],[-1.551,-7.335],[-1.459,-7.279],[-1.34,-7.286],[-1.438,-7.441],[-1.453,-7.511],[-1.481,-7.518],[-1.565,-7.729],[-1.593,-7.758],[-1.628,-7.765],[-1.663,-7.694],[-1.747,-7.582],[-1.901,-7.427],[-1.999,-7.357],[-1.964,-7.293],[-1.908,-7.244],[-1.81,-7.118],[-1.747,-7.068]]]]},"properties":{"abbr":"RVRG","name":"rostral ventral respiratory group","plate":53,"ap_bregma_mm":-10.4,"area_mm2":0.4534,"traced_fraction":[0.65,0.935],"n_labels":2,"no_drawn_outline":false}},{"type":"Feature","geometry":{"type":"MultiPolygon","coordinates":[[[[-0.345,-6.224],[-0.282,-6.252],[-0.169,-6.252],[-0.134,-6.267],[-0.169,-6.351],[-0.197,-6.344],[-0.247,-6.4],[-0.303,-6.4],[-0.366,-6.316],[-0.366,-6.245],[-0.345,-6.224]]],[[[0.363,-6.252],[0.37,-6.435],[0.328,-6.492],[0.286,-6.492],[0.237,-6.442],[0.153,-6.259],[0.363,-6.252]]]]},"properties":{"abbr":"Ro","name":"nucleus of Roller","plate":53,"ap_bregma_mm":-10.4,"area_mm2":0.0628,"traced_fraction":[0.959,0.917],"n_labels":2,"no_drawn_outline":false}},{"type":"Feature","geometry":{"type":"MultiPolygon","coordinates":[[[[2.172,-5.908],[2.369,-5.999],[2.53,-6.126],[2.628,-6.259],[2.656,-6.316],[2.663,-6.365],[2.691,-6.4],[2.712,-6.492],[2.712,-6.604],[2.67,-6.738],[2.565,-6.899],[2.362,-7.146],[2.348,-7.146],[2.27,-7.11],[2.221,-7.061],[2.186,-6.984],[2.179,-6.914],[2.2,-6.815],[2.2,-6.688],[2.151,-6.548],[2.053,-6.414],[1.899,-6.259],[1.885,-6.119],[1.92,-6.034],[2.025,-5.943],[2.172,-5.908]]],[[[-2.091,-5.915],[-1.992,-5.95],[-1.922,-6.034],[-1.887,-6.147],[-1.873,-6.351],[-1.943,-6.435],[-1.985,-6.555],[-2.013,-6.71],[-2.02,-6.998],[-2.042,-7.096],[-2.076,-7.174],[-2.112,-7.209],[-2.196,-7.216],[-2.371,-6.956],[-2.476,-6.759],[-2.532,-6.59],[-2.546,-6.47],[-2.504,-6.238],[-2.413,-6.098],[-2.315,-6.02],[-2.175,-5.943],[-2.097,-5.922],[-2.091,-5.915]]]]},"properties":{"abbr":"Sp5I","name":"spinal trigeminal nucleus, interpolar part","plate":53,"ap_bregma_mm":-10.4,"area_mm2":1.1705,"traced_fraction":[0.995,0.993],"n_labels":2,"no_drawn_outline":false}},{"type":"Feature","geometry":{"type":"MultiPolygon","coordinates":[[[[1.485,-5.212],[1.457,-5.331],[1.429,-5.359],[1.394,-5.479],[1.373,-5.563],[1.366,-5.683],[1.233,-5.697],[1.142,-5.697],[1.1,-5.697],[1.044,-5.669],[1.044,-5.549],[1.022,-5.458],[0.959,-5.352],[0.903,-5.303],[0.889,-5.261],[0.952,-5.233],[1.079,-5.212],[1.219,-5.226],[1.408,-5.226],[1.485,-5.212]]],[[[-0.941,-5.282],[-0.948,-5.324],[-1.011,-5.387],[-1.018,-5.415],[-1.116,-5.556],[-1.144,-5.633],[-1.137,-5.676],[-1.256,-5.718],[-1.312,-5.718],[-1.298,-5.591],[-1.34,-5.458],[-1.354,-5.437],[-1.354,-5.331],[-1.228,-5.338],[-1.116,-5.296],[-0.941,-5.282]]]]},"properties":{"abbr":"SpVe","name":"spinal vestibular nucleus","plate":53,"ap_bregma_mm":-10.4,"area_mm2":0.2962,"traced_fraction":[1.0,1.0],"n_labels":1,"no_drawn_outline":false}},{"type":"Feature","geometry":{"type":"MultiPolygon","coordinates":[[[[2.74,-4.853],[2.782,-4.853],[2.923,-4.881],[3.035,-4.923],[3.133,-4.972],[3.224,-5.071],[3.28,-5.218],[3.287,-5.422],[3.266,-5.584],[3.224,-5.669],[3.147,-5.739],[3.112,-5.76],[2.979,-5.788],[2.691,-5.76],[2.649,-5.739],[2.586,-5.655],[2.551,-5.626],[2.46,-5.605],[2.264,-5.507],[2.06,-5.324],[1.962,-5.275],[1.899,-5.24],[1.85,-5.233],[1.787,-5.197],[1.766,-5.162],[1.752,-5.162],[1.752,-5.148],[1.689,-5.099],[1.66,-5.05],[1.66,-4.979],[1.689,-4.944],[2.109,-4.944],[2.13,-4.93],[2.306,-4.958],[2.593,-4.951],[2.691,-4.916],[2.74,-4.853]]],[[[-2.665,-4.965],[-2.546,-4.986],[-2.448,-5.043],[-2.378,-5.029],[-2.217,-5.036],[-2.147,-5.071],[-2.147,-5.085],[-2.133,-5.085],[-2.084,-5.148],[-2.027,-5.148],[-1.789,-5.099],[-1.642,-5.106],[-1.572,-5.141],[-1.537,-5.212],[-1.537,-5.254],[-1.656,-5.261],[-1.803,-5.296],[-2.055,-5.261],[-2.112,-5.387],[-2.133,-5.408],[-2.175,-5.415],[-2.231,-5.387],[-2.238,-5.465],[-2.266,-5.514],[-2.35,-5.521],[-2.378,-5.507],[-2.441,-5.507],[-2.448,-5.577],[-2.511,-5.612],[-2.511,-5.64],[-2.462,-5.704],[-2.462,-5.76],[-2.525,-5.83],[-2.574,-5.859],[-2.68,-5.908],[-2.841,-5.908],[-2.918,-5.88],[-3.009,-5.781],[-3.016,-5.64],[-2.988,-5.556],[-2.981,-5.472],[-2.988,-5.366],[-3.009,-5.345],[-3.044,-5.352],[-3.044,-5.486],[-3.072,-5.584],[-3.065,-5.612],[-3.079,-5.612],[-3.121,-5.739],[-3.079,-5.887],[-3.086,-6.02],[-3.1,-6.034],[-3.128,-6.034],[-3.156,-6.006],[-3.177,-5.943],[-3.191,-5.936],[-3.24,-5.739],[-3.219,-5.676],[-3.184,-5.633],[-3.163,-5.563],[-3.177,-5.31],[-3.072,-5.106],[-2.953,-4.937],[-2.876,-4.867],[-2.82,-4.881],[-2.722,-4.958],[-2.665,-4.965]]],[[[0.342,-5.289],[0.504,-5.296],[0.581,-5.317],[0.609,-5.338],[0.609,-5.359],[0.581,-5.38],[0.553,-5.451],[0.504,-5.429],[0.412,-5.437],[0.37,-5.472],[0.328,-5.542],[0.23,-5.563],[0.111,-5.683],[0.027,-5.697],[-0.043,-5.669],[-0.113,-5.563],[-0.31,-5.563],[-0.38,-5.507],[-0.415,-5.415],[-0.443,-5.401],[-0.52,-5.415],[-0.548,-5.387],[-0.555,-5.359],[-0.52,-5.331],[-0.359,-5.331],[-0.12,-5.387],[-0.008,-5.437],[0.076,-5.437],[0.146,-5.408],[0.265,-5.31],[0.342,-5.289]]]]},"properties":{"abbr":"chp","name":"choroid plexus","plate":53,"ap_bregma_mm":-10.4,"area_mm2":2.0242,"traced_fraction":[1.0,1.0,1.0],"n_labels":3,"no_drawn_outline":false}},{"type":"Feature","geometry":{"type":"MultiPolygon","coordinates":[[[[-1.824,-5.359],[-1.824,-5.458],[-1.789,-5.521],[-1.789,-5.57],[-1.754,-5.648],[-1.691,-5.711],[-1.628,-5.746],[-1.649,-5.781],[-1.649,-5.816],[-1.775,-5.781],[-1.887,-5.788],[-1.908,-5.732],[-1.985,-5.725],[-2.175,-5.816],[-2.182,-5.83],[-2.203,-5.83],[-2.364,-5.936],[-2.413,-5.844],[-2.392,-5.809],[-2.378,-5.809],[-2.273,-5.711],[-2.238,-5.697],[-2.238,-5.683],[-2.189,-5.662],[-2.091,-5.577],[-1.929,-5.479],[-1.887,-5.401],[-1.824,-5.359]]],[[[1.927,-5.387],[2.053,-5.556],[2.116,-5.64],[2.27,-5.746],[2.257,-5.788],[2.228,-5.788],[2.123,-5.725],[1.976,-5.669],[1.892,-5.669],[1.864,-5.697],[1.857,-5.739],[1.717,-5.753],[1.71,-5.662],[1.815,-5.577],[1.864,-5.493],[1.864,-5.472],[1.885,-5.451],[1.899,-5.401],[1.927,-5.387]]]]},"properties":{"abbr":"icp","name":"inferior cerebellar peduncle (restiform body)","plate":53,"ap_bregma_mm":-10.4,"area_mm2":0.2329,"traced_fraction":[0.974,0.977],"n_labels":2,"no_drawn_outline":false}},{"type":"Feature","geometry":{"type":"MultiPolygon","coordinates":[[[[0.125,-6.259],[0.16,-6.435],[0.16,-6.857],[0.048,-6.857],[0.027,-6.724],[-0.008,-6.717],[-0.043,-6.794],[-0.057,-6.885],[-0.19,-6.885],[-0.169,-6.351],[-0.134,-6.267],[-0.078,-6.231],[-0.022,-6.217],[0.083,-6.231],[0.125,-6.259]]]]},"properties":{"abbr":"mlf","name":"medial longitudinal fasciculus","plate":53,"ap_bregma_mm":-10.4,"area_mm2":0.1978,"traced_fraction":[0.935],"n_labels":1,"no_drawn_outline":false}},{"type":"Feature","geometry":{"type":"MultiPolygon","coordinates":[[[[0.02,-8.278],[0.076,-8.355],[0.125,-8.39],[0.258,-8.39],[0.314,-8.377],[0.356,-8.398],[0.49,-8.405],[0.511,-8.39],[0.742,-8.468],[0.812,-8.51],[0.707,-8.587],[0.567,-8.623],[0.391,-8.587],[0.083,-8.412],[-0.029,-8.398],[0.02,-8.278]]],[[[-0.422,-8.334],[-0.226,-8.341],[-0.205,-8.362],[-0.162,-8.369],[-0.148,-8.39],[-0.085,-8.398],[-0.169,-8.405],[-0.296,-8.447],[-0.506,-8.559],[-0.597,-8.587],[-0.821,-8.594],[-0.906,-8.559],[-0.906,-8.545],[-0.786,-8.44],[-0.786,-8.419],[-0.667,-8.362],[-0.625,-8.369],[-0.597,-8.355],[-0.422,-8.334]]]]},"properties":{"abbr":"py","name":"pyramidal tract","plate":53,"ap_bregma_mm":-10.4,"area_mm2":0.2264,"traced_fraction":[1.0,1.0],"n_labels":2,"no_drawn_outline":false}},{"type":"Feature","geometry":{"type":"MultiPolygon","coordinates":[[[[2.27,-5.746],[2.502,-5.859],[2.691,-5.992],[2.698,-6.013],[2.747,-6.041],[2.867,-6.175],[2.944,-6.316],[2.979,-6.442],[2.972,-6.632],[2.909,-6.766],[2.712,-7.005],[2.684,-7.04],[2.635,-7.103],[2.516,-7.251],[2.502,-7.251],[2.446,-7.314],[2.432,-7.314],[2.376,-7.378],[2.285,-7.448],[2.243,-7.413],[2.228,-7.293],[2.243,-7.265],[2.334,-7.181],[2.348,-7.146],[2.362,-7.146],[2.397,-7.202],[2.446,-7.209],[2.516,-7.146],[2.544,-7.089],[2.565,-7.075],[2.754,-6.759],[2.804,-6.604],[2.817,-6.492],[2.796,-6.344],[2.712,-6.161],[2.642,-6.091],[2.642,-6.077],[2.586,-6.034],[2.579,-6.013],[2.369,-5.859],[2.257,-5.802],[2.257,-5.788],[2.27,-5.746]]],[[[-2.413,-5.844],[-2.364,-5.936],[-2.532,-6.098],[-2.623,-6.252],[-2.673,-6.428],[-2.665,-6.583],[-2.588,-6.815],[-2.406,-7.132],[-2.35,-7.209],[-2.266,-7.286],[-2.238,-7.3],[-2.182,-7.286],[-2.112,-7.3],[-2.048,-7.335],[-2.063,-7.603],[-2.084,-7.631],[-2.168,-7.554],[-2.245,-7.504],[-2.294,-7.448],[-2.406,-7.371],[-2.546,-7.223],[-2.546,-7.209],[-2.546,-7.11],[-2.609,-7.118],[-2.623,-7.118],[-2.644,-7.082],[-2.771,-6.815],[-2.82,-6.66],[-2.841,-6.449],[-2.806,-6.316],[-2.729,-6.161],[-2.525,-5.929],[-2.455,-5.88],[-2.441,-5.852],[-2.413,-5.844]]]]},"properties":{"abbr":"rs","name":"rubrospinal tract","plate":53,"ap_bregma_mm":-10.4,"area_mm2":0.5677,"traced_fraction":[0.975,0.909],"n_labels":2,"no_drawn_outline":false}},{"type":"Feature","geometry":{"type":"MultiPolygon","coordinates":[[[[-0.401,-5.69],[-0.352,-5.781],[-0.352,-5.887],[-0.366,-5.922],[-0.394,-5.908],[-0.401,-5.83],[-0.429,-5.781],[-0.457,-5.76],[-0.506,-5.76],[-0.618,-5.837],[-0.681,-5.943],[-0.681,-5.985],[-0.604,-6.02],[-0.492,-6.006],[-0.436,-5.971],[-0.373,-5.978],[-0.394,-6.063],[-0.429,-6.133],[-0.45,-6.147],[-0.457,-6.182],[-0.583,-6.175],[-0.59,-6.168],[-0.66,-6.14],[-0.807,-6.119],[-1.004,-6.055],[-1.13,-5.992],[-1.27,-5.866],[-1.34,-5.753],[-1.312,-5.718],[-1.256,-5.718],[-1.137,-5.676],[-1.088,-5.676],[-1.116,-5.739],[-1.109,-5.781],[-1.088,-5.788],[-1.039,-5.76],[-1.039,-5.676],[-0.983,-5.648],[-0.779,-5.619],[-0.548,-5.619],[-0.478,-5.64],[-0.401,-5.69]]],[[[1.044,-5.669],[1.1,-5.697],[1.079,-5.732],[1.079,-5.767],[1.114,-5.809],[1.156,-5.802],[1.142,-5.697],[1.233,-5.697],[1.233,-5.718],[1.275,-5.788],[1.275,-5.922],[1.212,-6.013],[1.065,-6.098],[0.812,-6.168],[0.574,-6.196],[0.504,-6.189],[0.504,-6.168],[0.441,-6.091],[0.427,-6.02],[0.455,-6.02],[0.525,-6.077],[0.574,-6.084],[0.644,-6.055],[0.665,-6.034],[0.665,-6.013],[0.609,-5.887],[0.56,-5.83],[0.504,-5.809],[0.406,-5.823],[0.412,-5.774],[0.448,-5.732],[0.539,-5.676],[0.609,-5.655],[1.044,-5.669]]]]},"properties":{"abbr":"sol","name":"solitary tract","plate":53,"ap_bregma_mm":-10.4,"area_mm2":0.6552,"traced_fraction":[1.0,0.993],"n_labels":3,"no_drawn_outline":false}},{"type":"Feature","geometry":{"type":"MultiPolygon","coordinates":[[[[2.257,-5.788],[2.257,-5.802],[2.369,-5.859],[2.383,-5.88],[2.432,-5.901],[2.544,-5.985],[2.684,-6.126],[2.768,-6.267],[2.804,-6.372],[2.817,-6.492],[2.804,-6.604],[2.754,-6.759],[2.565,-7.075],[2.544,-7.089],[2.516,-7.146],[2.446,-7.209],[2.397,-7.202],[2.362,-7.146],[2.565,-6.899],[2.67,-6.738],[2.712,-6.604],[2.712,-6.492],[2.656,-6.316],[2.53,-6.126],[2.369,-5.999],[2.172,-5.908],[2.144,-5.873],[2.074,-5.83],[1.857,-5.739],[1.864,-5.697],[1.892,-5.669],[1.976,-5.669],[2.123,-5.725],[2.228,-5.788],[2.257,-5.788]]],[[[-1.887,-5.788],[-2.063,-5.873],[-2.091,-5.915],[-2.097,-5.922],[-2.189,-5.95],[-2.196,-5.964],[-2.315,-6.02],[-2.413,-6.098],[-2.504,-6.238],[-2.546,-6.47],[-2.532,-6.59],[-2.476,-6.759],[-2.371,-6.956],[-2.196,-7.216],[-2.196,-7.265],[-2.182,-7.286],[-2.203,-7.3],[-2.266,-7.286],[-2.35,-7.209],[-2.406,-7.132],[-2.588,-6.815],[-2.665,-6.583],[-2.673,-6.428],[-2.623,-6.252],[-2.532,-6.098],[-2.364,-5.936],[-2.203,-5.83],[-2.182,-5.83],[-2.175,-5.816],[-1.985,-5.725],[-1.908,-5.732],[-1.887,-5.788]]]]},"properties":{"abbr":"sp5","name":"spinal trigeminal tract","plate":53,"ap_bregma_mm":-10.4,"area_mm2":0.4506,"traced_fraction":[0.998,0.989],"n_labels":2,"no_drawn_outline":false}},{"type":"Feature","geometry":{"type":"MultiPolygon","coordinates":[[[[0.048,-6.857],[0.16,-6.857],[0.16,-6.907],[0.174,-6.935],[0.174,-7.265],[0.181,-7.469],[0.216,-7.68],[0.216,-7.765],[0.223,-7.772],[0.251,-7.772],[0.251,-7.786],[0.286,-7.8],[0.3,-7.842],[0.272,-7.849],[0.181,-7.919],[0.139,-7.877],[0.118,-7.877],[0.125,-7.954],[0.167,-7.969],[0.195,-8.116],[0.09,-8.102],[0.034,-8.144],[0.02,-8.137],[0.013,-7.905],[-0.008,-7.856],[-0.05,-7.863],[-0.064,-7.891],[-0.064,-7.94],[-0.085,-7.983],[-0.092,-8.116],[-0.106,-8.116],[-0.134,-8.06],[-0.19,-8.018],[-0.275,-8.039],[-0.275,-7.983],[-0.232,-7.975],[-0.176,-7.891],[-0.183,-7.8],[-0.218,-7.779],[-0.275,-7.779],[-0.247,-7.701],[-0.218,-7.49],[-0.197,-7.082],[-0.183,-7.075],[-0.078,-7.082],[-0.092,-7.202],[-0.099,-7.638],[-0.071,-7.786],[-0.05,-7.814],[-0.022,-7.821],[0.006,-7.793],[0.02,-7.75],[0.048,-7.589],[0.048,-6.857]]]]},"properties":{"abbr":"ts","name":"tectospinal tract","plate":53,"ap_bregma_mm":-10.4,"area_mm2":0.3247,"traced_fraction":[0.966],"n_labels":2,"no_drawn_outline":false}},{"type":"Feature","geometry":{"type":"MultiPolygon","coordinates":[[[[2.228,-7.293],[2.243,-7.413],[2.285,-7.448],[1.815,-7.884],[1.464,-8.158],[1.394,-8.194],[1.191,-8.341],[0.91,-8.489],[0.875,-8.496],[0.875,-8.369],[0.84,-8.306],[0.784,-8.25],[0.784,-8.229],[0.967,-8.271],[1.128,-8.271],[1.198,-8.236],[1.198,-8.165],[1.289,-8.123],[1.527,-7.947],[1.611,-7.863],[1.647,-7.772],[1.752,-7.631],[1.878,-7.504],[1.983,-7.434],[2.158,-7.35],[2.228,-7.293]]],[[[-2.048,-7.335],[-1.999,-7.357],[-1.901,-7.427],[-1.747,-7.582],[-1.663,-7.694],[-1.628,-7.765],[-1.579,-7.877],[-1.502,-7.99],[-1.34,-8.158],[-1.326,-8.158],[-1.333,-8.179],[-1.305,-8.222],[-1.319,-8.222],[-1.34,-8.257],[-1.34,-8.313],[-1.502,-8.194],[-1.775,-7.933],[-1.789,-7.933],[-2.084,-7.631],[-2.063,-7.603],[-2.048,-7.335]]]]},"properties":{"abbr":"vsc","name":"ventral spinocerebellar tract","plate":53,"ap_bregma_mm":-10.4,"area_mm2":0.5136,"traced_fraction":[0.971,0.878],"n_labels":2,"no_drawn_outline":false}},{"type":"Feature","geometry":{"type":"Polygon","coordinates":[[[-0.548,-4.353],[-0.618,-4.374],[-0.793,-4.367],[-0.878,-4.382],[-1.025,-4.382],[-1.326,-4.417],[-1.438,-4.452],[-1.537,-4.508],[-1.565,-4.564],[-1.558,-4.656],[-1.481,-4.789],[-1.361,-4.902],[-1.067,-5.071],[-0.562,-5.247],[-0.366,-5.282],[0.027,-5.289],[0.342,-5.261],[0.342,-5.289],[0.265,-5.31],[0.146,-5.408],[0.076,-5.437],[-0.008,-5.437],[-0.12,-5.387],[-0.359,-5.331],[-0.471,-5.324],[-0.52,-5.331],[-0.555,-5.359],[-0.864,-5.254],[-0.927,-5.247],[-0.927,-5.275],[-0.941,-5.282],[-1.116,-5.296],[-1.228,-5.338],[-1.354,-5.331],[-1.375,-5.317],[-1.382,-5.289],[-1.396,-5.289],[-1.396,-5.254],[-1.537,-5.254],[-1.537,-5.212],[-1.572,-5.141],[-1.642,-5.106],[-1.789,-5.099],[-1.985,-5.141],[-2.084,-5.148],[-2.105,-5.113],[-2.147,-5.085],[-2.147,-5.071],[-2.217,-5.036],[-2.378,-5.029],[-2.448,-5.043],[-2.546,-4.986],[-2.665,-4.965],[-2.63,-4.902],[-2.56,-4.951],[-2.497,-4.965],[-2.28,-4.951],[-2.133,-4.902],[-1.992,-4.832],[-1.761,-4.677],[-1.761,-4.663],[-1.691,-4.614],[-1.691,-4.6],[-1.565,-4.466],[-1.459,-4.382],[-1.011,-4.332],[-0.576,-4.325],[-0.548,-4.339],[-0.548,-4.353]]]},"properties":{"abbr":null,"name":"unnamed sealed face","plate":53,"ap_bregma_mm":-10.4,"index":0}},{"type":"Feature","geometry":{"type":"Polygon","coordinates":[[[1.506,-4.396],[1.541,-4.417],[1.548,-4.459],[1.296,-4.41],[0.833,-4.374],[0.826,-4.36],[0.861,-4.346],[0.994,-4.346],[1.506,-4.396]]]},"properties":{"abbr":null,"name":"unnamed sealed face","plate":53,"ap_bregma_mm":-10.4,"index":1}},{"type":"Feature","geometry":{"type":"Polygon","coordinates":[[[1.731,-4.726],[1.85,-4.818],[1.969,-4.874],[2.102,-4.909],[2.13,-4.93],[2.109,-4.944],[1.689,-4.944],[1.66,-4.979],[1.66,-5.05],[1.689,-5.099],[1.703,-5.099],[1.787,-5.197],[1.731,-5.197],[1.66,-5.176],[1.569,-5.176],[1.485,-5.212],[1.408,-5.226],[1.079,-5.212],[0.952,-5.233],[0.889,-5.261],[0.854,-5.261],[0.658,-5.338],[0.609,-5.338],[0.581,-5.317],[0.504,-5.296],[0.342,-5.289],[0.342,-5.261],[0.854,-5.19],[1.107,-5.127],[1.121,-5.113],[1.359,-5.043],[1.548,-4.951],[1.626,-4.895],[1.703,-4.811],[1.731,-4.726]]]},"properties":{"abbr":null,"name":"unnamed sealed face","plate":53,"ap_bregma_mm":-10.4,"index":2}},{"type":"Feature","geometry":{"type":"Polygon","coordinates":[[[-1.803,-5.296],[-1.824,-5.359],[-1.887,-5.401],[-1.929,-5.479],[-2.091,-5.577],[-2.189,-5.662],[-2.238,-5.683],[-2.238,-5.697],[-2.273,-5.711],[-2.378,-5.809],[-2.392,-5.809],[-2.413,-5.844],[-2.441,-5.852],[-2.455,-5.88],[-2.525,-5.929],[-2.574,-5.859],[-2.525,-5.83],[-2.462,-5.76],[-2.462,-5.704],[-2.511,-5.64],[-2.511,-5.612],[-2.448,-5.577],[-2.441,-5.507],[-2.378,-5.507],[-2.35,-5.521],[-2.266,-5.514],[-2.238,-5.465],[-2.231,-5.387],[-2.175,-5.415],[-2.133,-5.408],[-2.112,-5.387],[-2.055,-5.261],[-1.803,-5.296]]]},"properties":{"abbr":null,"name":"unnamed sealed face","plate":53,"ap_bregma_mm":-10.4,"index":3}},{"type":"Feature","geometry":{"type":"Polygon","coordinates":[[[-0.436,-7.94],[-0.394,-7.94],[-0.38,-7.962],[-0.38,-8.004],[-0.408,-8.053],[-0.555,-8.187],[-0.639,-8.236],[-0.639,-8.25],[-0.765,-8.32],[-0.779,-8.341],[-0.843,-8.362],[-0.843,-8.327],[-0.821,-8.306],[-0.583,-8.144],[-0.422,-8.004],[-0.422,-7.962],[-0.436,-7.94]]]},"properties":{"abbr":null,"name":"unnamed sealed face","plate":53,"ap_bregma_mm":-10.4,"index":4}},{"type":"Feature","geometry":{"type":"Polygon","coordinates":[[[0.307,-8.025],[0.342,-8.032],[0.356,-8.067],[0.412,-8.109],[0.427,-8.137],[0.518,-8.208],[0.546,-8.215],[0.546,-8.229],[0.637,-8.278],[0.637,-8.292],[0.672,-8.306],[0.714,-8.362],[0.672,-8.369],[0.469,-8.25],[0.391,-8.179],[0.391,-8.165],[0.363,-8.151],[0.307,-8.06],[0.307,-8.025]]]},"properties":{"abbr":null,"name":"unnamed sealed face","plate":53,"ap_bregma_mm":-10.4,"index":5}},{"type":"Feature","geometry":{"type":"MultiPolygon","coordinates":[[[[0.581,-8.616],[0.391,-8.58],[0.076,-8.405],[-0.022,-8.39],[-0.162,-8.398],[-0.289,-8.44],[-0.513,-8.552],[-0.618,-8.58],[-0.815,-8.587],[-0.983,-8.531],[-1.27,-8.362],[-1.516,-8.173],[-1.824,-7.891],[-2.126,-7.589],[-2.42,-7.35],[-2.574,-7.181],[-2.658,-7.047],[-2.771,-6.801],[-2.82,-6.646],[-2.841,-6.463],[-2.806,-6.323],[-2.75,-6.203],[-2.694,-6.112],[-2.525,-5.929],[-2.581,-5.852],[-2.694,-5.901],[-2.834,-5.901],[-2.932,-5.866],[-3.002,-5.788],[-3.016,-5.746],[-3.016,-5.64],[-3.079,-5.598],[-3.128,-5.746],[-3.086,-5.894],[-3.093,-6.006],[-3.107,-6.027],[-3.128,-6.027],[-3.156,-5.999],[-3.212,-5.873],[-3.24,-5.718],[-3.184,-5.626],[-3.163,-5.542],[-3.177,-5.31],[-3.065,-5.099],[-2.946,-4.93],[-2.876,-4.867],[-2.841,-4.874],[-2.736,-4.951],[-2.673,-4.972],[-2.63,-4.888],[-2.637,-4.797],[-2.616,-4.733],[-2.546,-4.621],[-2.469,-4.543],[-2.497,-4.438],[-2.56,-4.424],[-2.609,-4.396],[-2.68,-4.339],[-2.841,-4.164],[-2.911,-4.037],[-2.918,-3.974],[-2.953,-3.91],[-3.072,-3.91],[-3.17,-3.868],[-3.268,-3.798],[-3.388,-3.664],[-3.451,-3.552],[-3.486,-3.446],[-3.5,-3.383],[-3.486,-3.277],[-3.521,-3.2],[-3.556,-3.193],[-3.633,-3.116],[-3.689,-2.968],[-3.682,-2.841],[-3.619,-2.658],[-3.619,-2.595],[-3.64,-2.581],[-3.668,-2.504],[-3.668,-2.384],[-3.591,-2.159],[-3.507,-2.018],[-3.402,-1.885],[-3.254,-1.744],[-3.002,-1.554],[-2.764,-1.435],[-2.567,-1.357],[-2.238,-1.273],[-2.027,-1.259],[-1.628,-1.28],[-1.312,-1.35],[-1.137,-1.449],[-1.046,-1.554],[-0.955,-1.547],[-0.955,-1.582],[-0.955,-1.505],[-0.92,-1.421],[-0.885,-1.378],[-0.765,-1.301],[-0.443,-1.196],[-0.183,-1.153],[0.167,-1.167],[0.679,-1.245],[0.784,-1.28],[0.882,-1.336],[0.967,-1.428],[1.001,-1.512],[1.093,-1.505],[1.177,-1.413],[1.366,-1.315],[1.597,-1.245],[1.78,-1.217],[2.06,-1.209],[2.432,-1.231],[2.782,-1.28],[3.147,-1.364],[3.463,-1.491],[3.603,-1.575],[3.715,-1.674],[3.82,-1.814],[3.96,-2.075],[4.016,-2.243],[4.037,-2.37],[4.037,-2.426],[4.016,-2.462],[4.016,-2.525],[4.044,-2.609],[4.037,-2.968],[4.023,-3.052],[3.974,-3.151],[3.932,-3.179],[3.848,-3.186],[3.799,-3.256],[3.806,-3.397],[3.764,-3.509],[3.68,-3.601],[3.596,-3.664],[3.322,-3.833],[3.245,-3.868],[3.196,-3.868],[3.154,-3.917],[3.161,-3.96],[3.147,-3.995],[2.986,-4.248],[2.825,-4.424],[2.691,-4.501],[2.663,-4.593],[2.719,-4.677],[2.733,-4.804],[2.782,-4.853],[2.909,-4.881],[3.042,-4.93],[3.133,-4.979],[3.217,-5.071],[3.273,-5.226],[3.28,-5.387],[3.259,-5.577],[3.21,-5.669],[3.119,-5.746],[3.014,-5.774],[2.923,-5.781],[2.698,-5.753],[2.649,-5.732],[2.6,-5.662],[2.558,-5.626],[2.446,-5.591],[2.257,-5.493],[2.039,-5.303],[1.962,-5.268],[1.906,-5.338],[1.927,-5.394],[2.109,-5.633],[2.249,-5.732],[2.502,-5.866],[2.628,-5.95],[2.754,-6.055],[2.853,-6.168],[2.93,-6.302],[2.972,-6.449],[2.965,-6.618],[2.916,-6.738],[2.537,-7.216],[1.773,-7.905],[1.464,-8.144],[1.191,-8.327],[0.903,-8.482],[0.826,-8.496],[0.714,-8.573],[0.588,-8.616],[0.581,-8.616]]]]},"properties":{"abbr":"brain_outline","name":"outline of the section","plate":53,"ap_bregma_mm":-10.4}}]}
