{"type":"FeatureCollection","name":"GerbilAtlas plate 55","note":"Region extents cut from the atlas drawing (METHODS.md, Region extents). Coordinates are [ML, DV] in mm, ML positive to the right of the plate as printed, DV negative below the dorsal surface; AP is the plate bregma. traced_fraction is the share of each polygon boundary the atlas actually draws; below 0.5 the boundary is an estimate. no_drawn_outline marks a feature that lies only inside boundaries the atlas draws round more than one name and prints nothing within, so the whole of its outline is where the extraction cut it. Not a segmentation.","plate":55,"ap_bregma_mm":-11.1,"features":[{"type":"Feature","geometry":{"type":"MultiPolygon","coordinates":[[[[-1.495,-4.692],[-1.354,-4.692],[-1.242,-4.713],[-1.116,-4.713],[-0.843,-4.741],[-0.205,-4.755],[-0.19,-4.769],[0.181,-4.769],[0.188,-4.755],[0.602,-4.748],[1.268,-4.706],[1.331,-4.692],[1.422,-4.699],[1.373,-4.783],[1.261,-4.91],[1.121,-5.008],[1.016,-5.05],[0.882,-5.128],[0.847,-5.128],[0.77,-5.163],[0.567,-5.219],[0.223,-5.268],[0.209,-5.282],[-0.113,-5.289],[-0.169,-5.275],[-0.436,-5.261],[-0.639,-5.219],[-0.906,-5.135],[-1.144,-5.029],[-1.326,-4.903],[-1.361,-4.853],[-1.446,-4.783],[-1.495,-4.692]]]]},"properties":{"abbr":"10Cb","name":"10th cerebellar lobule (nodule)","plate":55,"ap_bregma_mm":-11.1,"area_mm2":1.1487,"traced_fraction":[1.0],"n_labels":1,"no_drawn_outline":false}},{"type":"Feature","geometry":{"type":"MultiPolygon","coordinates":[[[[0.567,-6.007],[0.37,-6.035],[0.251,-6.035],[0.188,-6.021],[0.111,-6.042],[0.041,-6.042],[0.02,-6.028],[-0.275,-6.035],[-0.422,-6.014],[-0.485,-5.965],[-0.478,-5.922],[-0.443,-5.887],[-0.338,-5.845],[-0.198,-5.845],[-0.064,-5.901],[-0.008,-5.958],[-0.001,-5.993],[0.02,-6.014],[0.041,-6.014],[0.041,-6.0],[0.083,-5.972],[0.139,-5.972],[0.188,-5.894],[0.265,-5.852],[0.349,-5.838],[0.483,-5.831],[0.595,-5.866],[0.623,-5.894],[0.623,-5.958],[0.567,-6.007]]]]},"properties":{"abbr":"10N","name":"dorsal motor nucleus of vagus","plate":55,"ap_bregma_mm":-11.1,"area_mm2":0.1582,"traced_fraction":[1.0],"n_labels":2,"no_drawn_outline":false}},{"type":"Feature","geometry":{"type":"MultiPolygon","coordinates":[[[[0.567,-6.007],[0.609,-6.098],[0.581,-6.232],[0.588,-6.267],[0.567,-6.281],[0.532,-6.38],[0.433,-6.513],[0.363,-6.534],[0.251,-6.541],[0.202,-6.534],[0.09,-6.513],[0.062,-6.52],[0.006,-6.52],[-0.071,-6.548],[-0.177,-6.548],[-0.226,-6.513],[-0.254,-6.513],[-0.345,-6.429],[-0.436,-6.239],[-0.45,-6.105],[-0.45,-6.063],[-0.422,-6.014],[-0.275,-6.035],[0.02,-6.028],[0.041,-6.042],[0.111,-6.042],[0.188,-6.021],[0.251,-6.035],[0.37,-6.035],[0.567,-6.007]]]]},"properties":{"abbr":"12N","name":"hypoglossal nucleus","plate":55,"ap_bregma_mm":-11.1,"area_mm2":0.4728,"traced_fraction":[0.995],"n_labels":2,"no_drawn_outline":false}},{"type":"Feature","geometry":{"type":"MultiPolygon","coordinates":[[[[-0.198,-7.252],[-0.268,-7.477],[-0.303,-7.547],[-0.394,-7.702],[-0.45,-7.751],[-0.457,-7.793],[-0.576,-7.835],[-0.808,-7.983],[-0.871,-8.004],[-0.871,-8.018],[-1.081,-8.11],[-1.193,-8.117],[-1.228,-8.103],[-1.277,-8.025],[-1.27,-7.955],[-1.137,-7.969],[-0.983,-7.927],[-0.899,-7.871],[-0.772,-7.751],[-0.702,-7.653],[-0.66,-7.533],[-0.66,-7.442],[-0.695,-7.35],[-0.597,-7.252],[-0.198,-7.252]]]]},"properties":{"abbr":"12n","name":"hypoglossal nerve","plate":55,"ap_bregma_mm":-11.1,"area_mm2":0.3069,"traced_fraction":[0.846],"n_labels":1,"no_drawn_outline":false}},{"type":"Feature","geometry":{"type":"MultiPolygon","coordinates":[[[[1.773,-5.711],[1.822,-5.725],[2.053,-5.803],[2.081,-5.824],[1.99,-5.936],[1.92,-6.056],[1.443,-6.056],[1.394,-6.147],[1.38,-6.147],[1.296,-6.063],[1.24,-5.972],[1.233,-5.915],[1.254,-5.831],[1.338,-5.775],[1.373,-5.732],[1.485,-5.704],[1.562,-5.69],[1.703,-5.69],[1.773,-5.711]]],[[[-1.425,-5.711],[-1.249,-5.74],[-1.235,-5.761],[-1.137,-5.81],[-1.102,-5.929],[-1.102,-5.993],[-1.13,-6.077],[-1.165,-6.126],[-1.831,-6.126],[-1.866,-6.098],[-1.957,-5.951],[-1.915,-5.908],[-1.656,-5.768],[-1.551,-5.732],[-1.425,-5.711]]]]},"properties":{"abbr":"5Sol","name":"trigeminal-solitary transition zone","plate":55,"ap_bregma_mm":-11.1,"area_mm2":0.5314,"traced_fraction":[0.752,0.715],"n_labels":2,"no_drawn_outline":true}},{"type":"Feature","geometry":{"type":"MultiPolygon","coordinates":[[[[0.882,-1.956],[0.882,-2.026],[0.84,-2.075],[0.756,-2.223],[0.602,-2.321],[0.377,-2.342],[0.377,-2.371],[0.3,-2.356],[0.118,-2.356],[0.104,-2.342],[0.006,-2.335],[-0.183,-2.342],[-0.19,-2.356],[-0.366,-2.363],[-0.562,-2.392],[-0.576,-2.371],[-0.8,-2.356],[-0.892,-2.328],[-0.99,-2.223],[-0.99,-2.209],[-1.067,-2.138],[-1.151,-1.998],[-1.186,-1.97],[-1.144,-1.892],[-1.137,-1.836],[-1.109,-1.822],[-1.102,-1.794],[-1.081,-1.787],[-0.955,-1.625],[-0.92,-1.611],[-0.899,-1.583],[-0.744,-1.505],[-0.548,-1.449],[-0.219,-1.407],[0.111,-1.421],[0.433,-1.491],[0.665,-1.604],[0.798,-1.731],[0.854,-1.829],[0.868,-1.935],[0.882,-1.956]]]]},"properties":{"abbr":"7Cb","name":"7th cerebellar lobule","plate":55,"ap_bregma_mm":-11.1,"area_mm2":1.5969,"traced_fraction":[1.0],"n_labels":1,"no_drawn_outline":false}},{"type":"Feature","geometry":{"type":"MultiPolygon","coordinates":[[[[0.377,-2.371],[0.56,-2.42],[0.707,-2.497],[0.798,-2.567],[0.84,-2.582],[0.84,-2.596],[0.98,-2.743],[1.022,-2.814],[1.008,-2.814],[0.44,-3.383],[0.44,-3.411],[0.237,-3.383],[0.181,-3.362],[0.041,-3.355],[-0.155,-3.355],[-0.471,-3.39],[-0.471,-3.362],[-1.074,-2.764],[-1.074,-2.743],[-1.039,-2.715],[-1.039,-2.701],[-0.927,-2.596],[-0.927,-2.582],[-0.899,-2.567],[-0.758,-2.469],[-0.562,-2.392],[-0.366,-2.363],[-0.19,-2.356],[-0.183,-2.342],[0.006,-2.335],[0.104,-2.342],[0.118,-2.356],[0.3,-2.356],[0.377,-2.371]]]]},"properties":{"abbr":"8Cb","name":"8th cerebellar lobule","plate":55,"ap_bregma_mm":-11.1,"area_mm2":1.5818,"traced_fraction":[0.742],"n_labels":1,"no_drawn_outline":false}},{"type":"Feature","geometry":{"type":"MultiPolygon","coordinates":[[[[0.44,-3.411],[0.728,-3.51],[0.945,-3.651],[1.044,-3.742],[1.065,-3.791],[1.121,-3.848],[1.191,-3.96],[1.247,-4.087],[-0.19,-4.08],[-0.303,-4.143],[-1.361,-4.143],[-1.305,-4.016],[-1.291,-4.009],[-1.242,-3.904],[-1.221,-3.89],[-1.207,-3.848],[-1.102,-3.721],[-1.102,-3.693],[-0.983,-3.573],[-0.913,-3.524],[-0.857,-3.503],[-0.843,-3.482],[-0.772,-3.454],[-0.625,-3.411],[-0.471,-3.39],[-0.155,-3.355],[0.041,-3.355],[0.181,-3.362],[0.237,-3.383],[0.44,-3.411]]]]},"properties":{"abbr":"9aCb","name":"9th cerebellar lobule, a","plate":55,"ap_bregma_mm":-11.1,"area_mm2":1.4992,"traced_fraction":[0.552],"n_labels":2,"no_drawn_outline":false}},{"type":"Feature","geometry":{"type":"MultiPolygon","coordinates":[[[[1.247,-4.087],[1.275,-4.178],[1.331,-4.291],[1.387,-4.368],[1.401,-4.41],[1.499,-4.537],[1.506,-4.572],[1.499,-4.593],[1.485,-4.593],[1.478,-4.628],[1.464,-4.628],[1.422,-4.699],[1.331,-4.692],[1.268,-4.706],[0.602,-4.748],[0.188,-4.755],[0.181,-4.769],[-0.19,-4.769],[-0.205,-4.755],[-0.843,-4.741],[-1.116,-4.713],[-1.242,-4.713],[-1.354,-4.692],[-1.495,-4.692],[-1.551,-4.565],[-1.565,-4.516],[-1.439,-4.248],[-1.361,-4.143],[-0.303,-4.143],[-0.19,-4.08],[1.247,-4.087]]]]},"properties":{"abbr":"9cCb","name":"9th cerebellar lobule, c","plate":55,"ap_bregma_mm":-11.1,"area_mm2":1.8039,"traced_fraction":[0.627],"n_labels":1,"no_drawn_outline":false}},{"type":"Feature","geometry":{"type":"MultiPolygon","coordinates":[[[[0.209,-5.282],[0.237,-5.303],[0.328,-5.31],[0.377,-5.332],[0.406,-5.395],[0.398,-5.43],[0.37,-5.486],[0.265,-5.592],[0.125,-5.669],[0.041,-5.669],[-0.057,-5.627],[-0.211,-5.479],[-0.232,-5.43],[-0.232,-5.381],[-0.219,-5.353],[-0.141,-5.317],[-0.113,-5.289],[0.209,-5.282]]]]},"properties":{"abbr":"AP","name":"area postrema","plate":55,"ap_bregma_mm":-11.1,"area_mm2":0.1818,"traced_fraction":[1.0],"n_labels":1,"no_drawn_outline":false}},{"type":"Feature","geometry":{"type":"MultiPolygon","coordinates":[[[[1.639,-6.893],[1.654,-6.893],[1.829,-7.069],[1.836,-7.111],[1.759,-7.125],[1.597,-7.16],[1.583,-7.104],[1.569,-7.104],[1.541,-7.139],[1.457,-7.16],[1.359,-7.125],[1.31,-7.083],[1.289,-7.027],[1.289,-6.977],[1.303,-6.935],[1.352,-6.879],[1.394,-6.865],[1.471,-6.865],[1.527,-6.893],[1.576,-6.949],[1.59,-6.949],[1.639,-6.893]]],[[[-1.354,-7.02],[-1.284,-7.02],[-1.249,-7.034],[-1.207,-7.097],[-1.2,-7.174],[-1.263,-7.245],[-1.404,-7.287],[-1.46,-7.231],[-1.46,-7.104],[-1.446,-7.104],[-1.397,-7.041],[-1.354,-7.02]]]]},"properties":{"abbr":"AmbL","name":"ambiguus nucleus, loose part","plate":55,"ap_bregma_mm":-11.1,"area_mm2":0.1649,"traced_fraction":[0.986,1.0],"n_labels":2,"no_drawn_outline":false}},{"type":"Feature","geometry":{"type":"MultiPolygon","coordinates":[[[[-1.074,-2.764],[-0.471,-3.362],[-0.471,-3.39],[-0.625,-3.411],[-0.772,-3.454],[-0.843,-3.482],[-0.857,-3.503],[-0.913,-3.524],[-0.983,-3.573],[-1.102,-3.693],[-1.102,-3.721],[-1.193,-3.826],[-1.305,-4.016],[-1.361,-4.143],[-1.439,-4.248],[-1.565,-4.516],[-1.607,-4.53],[-1.621,-4.572],[-1.635,-4.572],[-1.796,-4.741],[-1.936,-4.818],[-1.999,-4.839],[-2.196,-4.839],[-2.294,-4.804],[-2.301,-4.783],[-2.329,-4.769],[-2.371,-4.663],[-2.371,-4.502],[-2.322,-4.34],[-2.21,-4.157],[-2.182,-4.143],[-2.154,-4.087],[-2.112,-4.066],[-2.048,-3.995],[-1.845,-3.833],[-1.712,-3.693],[-1.677,-3.679],[-1.551,-3.496],[-1.537,-3.454],[-1.488,-3.39],[-1.263,-2.997],[-1.235,-2.975],[-1.144,-2.828],[-1.088,-2.764],[-1.074,-2.764]]],[[[1.022,-2.814],[1.233,-3.095],[1.324,-3.186],[1.394,-3.292],[1.576,-3.489],[1.625,-3.566],[1.646,-3.573],[1.66,-3.615],[1.724,-3.7],[1.738,-3.7],[1.766,-3.749],[1.913,-3.904],[1.927,-3.939],[1.941,-3.939],[2.018,-4.037],[2.165,-4.185],[2.165,-4.199],[2.256,-4.27],[2.348,-4.382],[2.404,-4.509],[2.397,-4.649],[2.32,-4.741],[2.256,-4.776],[2.186,-4.797],[2.004,-4.797],[1.731,-4.727],[1.583,-4.621],[1.555,-4.614],[1.534,-4.572],[1.506,-4.572],[1.499,-4.537],[1.401,-4.41],[1.387,-4.368],[1.331,-4.291],[1.275,-4.178],[1.247,-4.087],[1.191,-3.96],[1.121,-3.848],[1.065,-3.791],[1.044,-3.742],[0.945,-3.651],[0.728,-3.51],[0.44,-3.411],[0.44,-3.383],[1.008,-2.814],[1.022,-2.814]]]]},"properties":{"abbr":"Cop","name":"copula of the pyramis","plate":55,"ap_bregma_mm":-11.1,"area_mm2":2.822,"traced_fraction":[0.886,0.889],"n_labels":2,"no_drawn_outline":false}},{"type":"Feature","geometry":{"type":"MultiPolygon","coordinates":[[[[-1.151,-1.787],[-1.137,-1.836],[-1.144,-1.892],[-1.186,-1.97],[-1.256,-2.04],[-1.544,-2.181],[-1.551,-2.202],[-1.964,-2.378],[-2.715,-2.736],[-2.743,-2.764],[-2.862,-2.828],[-2.911,-2.877],[-2.946,-2.94],[-2.981,-2.877],[-3.051,-2.877],[-3.135,-2.8],[-3.156,-2.729],[-3.156,-2.575],[-3.121,-2.392],[-3.023,-2.152],[-2.904,-1.97],[-2.799,-1.871],[-2.497,-1.723],[-2.105,-1.618],[-1.908,-1.59],[-1.67,-1.59],[-1.354,-1.646],[-1.221,-1.709],[-1.172,-1.78],[-1.151,-1.787]]],[[[3.273,-2.849],[3.245,-2.849],[3.238,-2.863],[3.098,-2.828],[2.754,-2.673],[2.579,-2.61],[2.537,-2.582],[2.46,-2.56],[2.327,-2.49],[2.039,-2.385],[1.92,-2.321],[1.745,-2.258],[1.724,-2.23],[1.275,-2.005],[1.1,-1.949],[1.079,-1.913],[1.1,-1.864],[1.212,-1.801],[1.464,-1.738],[2.383,-1.738],[2.691,-1.766],[2.902,-1.808],[3.098,-1.899],[3.245,-2.054],[3.336,-2.244],[3.378,-2.406],[3.378,-2.589],[3.343,-2.743],[3.315,-2.793],[3.294,-2.8],[3.273,-2.849]]]]},"properties":{"abbr":"Crus2","name":"crus 2 of the ansiform lobule","plate":55,"ap_bregma_mm":-11.1,"area_mm2":2.8975,"traced_fraction":[1.0,1.0],"n_labels":2,"no_drawn_outline":false}},{"type":"Feature","geometry":{"type":"MultiPolygon","coordinates":[[[[1.745,-5.31],[1.773,-5.346],[1.787,-5.36],[1.78,-5.367],[1.801,-5.388],[1.696,-5.521],[1.562,-5.634],[1.506,-5.662],[1.485,-5.683],[1.485,-5.704],[1.373,-5.732],[1.268,-5.718],[1.149,-5.676],[1.177,-5.634],[1.247,-5.585],[1.268,-5.543],[1.275,-5.5],[1.24,-5.416],[1.24,-5.381],[1.275,-5.381],[1.429,-5.444],[1.541,-5.465],[1.625,-5.458],[1.66,-5.43],[1.66,-5.332],[1.604,-5.226],[1.499,-5.156],[1.38,-5.135],[1.359,-5.107],[1.387,-5.092],[1.478,-5.1],[1.597,-5.149],[1.745,-5.31]]],[[[-1.144,-5.451],[-1.144,-5.528],[-1.13,-5.571],[-1.102,-5.613],[-1.053,-5.648],[-1.095,-5.683],[-1.228,-5.718],[-1.249,-5.74],[-1.425,-5.711],[-1.425,-5.697],[-1.46,-5.669],[-1.481,-5.669],[-1.607,-5.585],[-1.621,-5.55],[-1.495,-5.557],[-1.376,-5.536],[-1.144,-5.451]]]]},"properties":{"abbr":"Cu","name":"cuneate nucleus","plate":55,"ap_bregma_mm":-11.1,"area_mm2":0.2329,"traced_fraction":[1.0,1.0],"n_labels":2,"no_drawn_outline":false}},{"type":"Feature","geometry":{"type":"MultiPolygon","coordinates":[[[[-0.821,-5.247],[-0.653,-5.289],[-0.653,-5.317],[-0.625,-5.346],[-0.618,-5.374],[-0.604,-5.374],[-0.611,-5.458],[-0.632,-5.507],[-0.632,-5.536],[-0.604,-5.571],[-0.639,-5.592],[-0.688,-5.592],[-0.744,-5.634],[-0.821,-5.662],[-0.871,-5.676],[-0.969,-5.669],[-0.969,-5.317],[-0.927,-5.282],[-0.871,-5.275],[-0.821,-5.247]]],[[[1.163,-5.317],[1.184,-5.353],[1.24,-5.381],[1.24,-5.416],[1.275,-5.5],[1.268,-5.543],[1.247,-5.585],[1.177,-5.634],[1.149,-5.676],[1.1,-5.669],[1.029,-5.683],[0.966,-5.655],[0.931,-5.655],[0.91,-5.648],[0.903,-5.641],[0.889,-5.62],[0.854,-5.606],[0.854,-5.585],[0.798,-5.543],[0.763,-5.458],[0.749,-5.353],[0.798,-5.282],[0.868,-5.247],[0.987,-5.247],[1.163,-5.317]]]]},"properties":{"abbr":"CuR","name":"cuneate nucleus, rotundus part","plate":55,"ap_bregma_mm":-11.1,"area_mm2":0.2958,"traced_fraction":[0.798,1.0],"n_labels":2,"no_drawn_outline":false}},{"type":"Feature","geometry":{"type":"MultiPolygon","coordinates":[[[[1.359,-5.107],[1.38,-5.135],[1.499,-5.156],[1.604,-5.226],[1.66,-5.332],[1.66,-5.43],[1.625,-5.458],[1.541,-5.465],[1.429,-5.444],[1.317,-5.395],[1.24,-5.381],[1.184,-5.353],[1.163,-5.317],[1.17,-5.24],[1.198,-5.191],[1.191,-5.163],[1.359,-5.107]]],[[[-1.06,-5.353],[-1.081,-5.402],[-1.144,-5.451],[-1.376,-5.536],[-1.495,-5.557],[-1.621,-5.55],[-1.635,-5.543],[-1.642,-5.486],[-1.628,-5.437],[-1.565,-5.339],[-1.551,-5.339],[-1.551,-5.325],[-1.481,-5.261],[-1.326,-5.17],[-1.207,-5.156],[-1.13,-5.177],[-1.067,-5.247],[-1.06,-5.353]]],[[[1.156,-5.17],[1.149,-5.184],[1.128,-5.177],[1.156,-5.17]]]]},"properties":{"abbr":"ECu","name":"external cuneate nucleus","plate":55,"ap_bregma_mm":-11.1,"area_mm2":0.2832,"traced_fraction":[1.0,1.0,1.0],"n_labels":2,"no_drawn_outline":false}},{"type":"Feature","geometry":{"type":"MultiPolygon","coordinates":[[[[0.749,-5.353],[0.763,-5.458],[0.798,-5.543],[0.784,-5.55],[0.658,-5.55],[0.644,-5.55],[0.609,-5.5],[0.546,-5.458],[0.539,-5.423],[0.637,-5.367],[0.651,-5.346],[0.749,-5.353]]]]},"properties":{"abbr":"Gr","name":"gracile nucleus","plate":55,"ap_bregma_mm":-11.1,"area_mm2":0.0352,"traced_fraction":[1.0],"n_labels":1,"no_drawn_outline":false}},{"type":"Feature","geometry":{"type":"MultiPolygon","coordinates":[[[[0.798,-7.646],[0.917,-7.695],[1.065,-7.73],[1.219,-7.814],[1.331,-7.835],[1.331,-7.892],[1.415,-7.906],[1.436,-7.934],[1.436,-7.983],[1.394,-8.032],[1.296,-8.089],[1.184,-8.103],[1.044,-8.061],[0.91,-7.983],[0.875,-8.011],[0.861,-8.011],[0.791,-7.934],[0.721,-7.899],[0.637,-7.878],[0.609,-7.842],[0.433,-7.8],[0.377,-7.758],[0.377,-7.737],[0.406,-7.716],[0.532,-7.716],[0.777,-7.807],[0.777,-7.73],[0.791,-7.723],[0.798,-7.646]]],[[[-0.716,-8.053],[-0.864,-8.194],[-0.899,-8.25],[-0.899,-8.293],[-0.878,-8.321],[-0.779,-8.342],[-0.8,-8.384],[-0.829,-8.405],[-0.836,-8.44],[-1.011,-8.391],[-1.235,-8.278],[-1.333,-8.201],[-1.333,-8.18],[-1.312,-8.159],[-1.256,-8.194],[-1.158,-8.222],[-1.053,-8.222],[-0.8,-8.061],[-0.758,-8.039],[-0.73,-8.039],[-0.716,-8.053]]]]},"properties":{"abbr":"IOD","name":"inferior olive, dorsal nucleus","plate":55,"ap_bregma_mm":-11.1,"area_mm2":0.3048,"traced_fraction":[0.949,1.0],"n_labels":2,"no_drawn_outline":false}},{"type":"Feature","geometry":{"type":"MultiPolygon","coordinates":[[[[-0.303,-7.547],[-0.24,-7.547],[-0.232,-7.561],[0.02,-7.561],[0.006,-7.737],[0.02,-7.835],[0.013,-8.159],[0.027,-8.18],[-0.015,-8.194],[-0.078,-8.215],[-0.141,-8.194],[-0.134,-8.173],[-0.05,-8.124],[-0.029,-8.075],[-0.029,-7.976],[-0.043,-7.92],[-0.099,-7.871],[-0.198,-7.871],[-0.24,-7.885],[-0.422,-7.99],[-0.653,-8.166],[-0.716,-8.18],[-0.716,-8.159],[-0.688,-8.131],[-0.604,-8.082],[-0.527,-8.011],[-0.513,-7.955],[-0.534,-7.934],[-0.534,-7.92],[-0.506,-7.906],[-0.387,-7.863],[-0.373,-7.807],[-0.387,-7.793],[-0.457,-7.793],[-0.45,-7.751],[-0.394,-7.702],[-0.303,-7.547]]],[[[0.097,-7.547],[0.398,-7.547],[0.469,-7.554],[0.469,-7.638],[0.532,-7.695],[0.532,-7.716],[0.406,-7.716],[0.377,-7.737],[0.377,-7.758],[0.433,-7.8],[0.609,-7.842],[0.637,-7.878],[0.616,-7.899],[0.616,-7.927],[0.84,-8.124],[0.847,-8.166],[0.623,-8.025],[0.546,-7.948],[0.44,-7.871],[0.356,-7.835],[0.293,-7.828],[0.202,-7.857],[0.132,-7.913],[0.104,-7.99],[0.104,-8.039],[0.132,-8.117],[0.174,-8.152],[0.307,-8.187],[0.272,-8.208],[0.167,-8.208],[0.146,-8.236],[0.062,-8.187],[0.076,-8.053],[0.069,-7.828],[0.09,-7.695],[0.083,-7.568],[0.097,-7.547]]],[[[0.265,-7.624],[0.272,-7.617],[0.279,-7.617],[0.272,-7.617],[0.265,-7.617],[0.244,-7.589],[0.216,-7.582],[0.16,-7.624],[0.139,-7.681],[0.153,-7.723],[0.23,-7.716],[0.258,-7.695],[0.265,-7.624]]],[[[-0.183,-7.589],[-0.211,-7.646],[-0.134,-7.596],[-0.183,-7.589]]],[[[-0.24,-7.653],[-0.247,-7.674],[-0.232,-7.674],[-0.24,-7.653]]]]},"properties":{"abbr":"IODM","name":"inferior olive, dorsomedial cell group","plate":55,"ap_bregma_mm":-11.1,"area_mm2":0.345,"traced_fraction":[0.941,0.915,0.986,0.966,1.0],"n_labels":2,"no_drawn_outline":false}},{"type":"Feature","geometry":{"type":"MultiPolygon","coordinates":[[[[0.847,-8.166],[0.854,-8.215],[0.924,-8.243],[0.931,-8.264],[0.917,-8.307],[0.882,-8.293],[0.798,-8.208],[0.672,-8.145],[0.602,-8.131],[0.595,-8.11],[0.553,-8.082],[0.455,-8.046],[0.476,-8.138],[0.363,-8.18],[0.307,-8.187],[0.174,-8.152],[0.132,-8.117],[0.104,-8.039],[0.104,-7.99],[0.132,-7.913],[0.202,-7.857],[0.293,-7.828],[0.356,-7.835],[0.44,-7.871],[0.546,-7.948],[0.623,-8.025],[0.847,-8.166]]],[[[-0.141,-8.194],[-0.394,-8.194],[-0.436,-8.145],[-0.415,-8.089],[-0.443,-8.089],[-0.569,-8.166],[-0.569,-8.18],[-0.604,-8.194],[-0.618,-8.222],[-0.737,-8.293],[-0.779,-8.342],[-0.878,-8.321],[-0.899,-8.293],[-0.899,-8.25],[-0.864,-8.194],[-0.716,-8.053],[-0.702,-8.053],[-0.674,-8.004],[-0.639,-7.976],[-0.534,-7.934],[-0.513,-7.955],[-0.527,-8.011],[-0.604,-8.082],[-0.688,-8.131],[-0.716,-8.159],[-0.716,-8.18],[-0.653,-8.166],[-0.583,-8.103],[-0.31,-7.92],[-0.198,-7.871],[-0.099,-7.871],[-0.043,-7.92],[-0.029,-7.976],[-0.029,-8.075],[-0.05,-8.124],[-0.134,-8.173],[-0.141,-8.194]]],[[[-0.232,-7.969],[-0.345,-8.018],[-0.345,-8.032],[-0.366,-8.039],[-0.366,-8.061],[-0.261,-8.039],[-0.198,-8.004],[-0.198,-7.976],[-0.232,-7.969]]]]},"properties":{"abbr":"IOM","name":"inferior olive, medial nucleus","plate":55,"ap_bregma_mm":-11.1,"area_mm2":0.3277,"traced_fraction":[1.0,1.0,1.0],"n_labels":2,"no_drawn_outline":false}},{"type":"Feature","geometry":{"type":"MultiPolygon","coordinates":[[[[-0.562,-6.077],[-0.45,-6.105],[-0.436,-6.239],[-0.541,-6.337],[-0.674,-6.513],[-0.779,-6.619],[-0.787,-6.696],[-0.864,-6.766],[-0.941,-6.865],[-1.109,-7.139],[-1.144,-7.174],[-1.158,-7.216],[-1.207,-7.28],[-1.235,-7.357],[-1.319,-7.343],[-1.319,-7.66],[-1.565,-7.66],[-1.607,-7.54],[-1.67,-7.477],[-1.67,-7.463],[-1.593,-7.378],[-1.537,-7.378],[-1.495,-7.336],[-1.495,-7.202],[-1.607,-7.104],[-1.53,-6.97],[-1.263,-6.703],[-1.249,-6.703],[-1.025,-6.492],[-0.983,-6.485],[-0.983,-6.457],[-0.955,-6.429],[-0.941,-6.429],[-0.892,-6.372],[-0.646,-6.176],[-0.562,-6.077]]],[[[0.742,-6.084],[0.756,-6.119],[0.819,-6.183],[1.071,-6.372],[1.24,-6.527],[1.31,-6.569],[1.639,-6.893],[1.59,-6.949],[1.576,-6.949],[1.527,-6.893],[1.471,-6.865],[1.394,-6.865],[1.352,-6.879],[1.303,-6.935],[1.289,-6.977],[1.289,-7.027],[1.31,-7.083],[1.359,-7.125],[1.457,-7.16],[1.513,-7.153],[1.569,-7.104],[1.583,-7.104],[1.597,-7.16],[1.759,-7.125],[1.766,-7.484],[1.709,-7.54],[1.506,-7.533],[1.506,-7.266],[1.464,-7.238],[1.415,-7.273],[1.296,-7.104],[1.191,-6.998],[1.001,-6.752],[0.938,-6.696],[0.938,-6.682],[0.588,-6.267],[0.581,-6.232],[0.609,-6.098],[0.742,-6.084]]],[[[-1.354,-7.02],[-1.397,-7.041],[-1.431,-7.09],[-1.46,-7.104],[-1.46,-7.231],[-1.404,-7.287],[-1.263,-7.245],[-1.2,-7.174],[-1.2,-7.118],[-1.221,-7.062],[-1.284,-7.02],[-1.354,-7.02]]]]},"properties":{"abbr":"IRt","name":"intermediate reticular nucleus","plate":55,"ap_bregma_mm":-11.1,"area_mm2":0.9775,"traced_fraction":[0.736,0.824,1.0],"n_labels":4,"no_drawn_outline":false}},{"type":"Feature","geometry":{"type":"MultiPolygon","coordinates":[[[[1.415,-7.273],[1.464,-7.238],[1.506,-7.266],[1.506,-7.533],[1.709,-7.54],[1.654,-7.674],[1.59,-7.744],[1.45,-7.814],[1.331,-7.835],[1.219,-7.814],[1.065,-7.73],[0.917,-7.695],[0.798,-7.646],[0.721,-7.596],[0.63,-7.505],[0.595,-7.442],[0.588,-7.329],[0.644,-7.266],[0.742,-7.231],[0.896,-7.223],[1.177,-7.35],[1.289,-7.35],[1.366,-7.315],[1.415,-7.273]]],[[[-0.695,-7.35],[-0.66,-7.442],[-0.66,-7.533],[-0.702,-7.653],[-0.772,-7.751],[-0.899,-7.871],[-0.983,-7.927],[-1.137,-7.969],[-1.27,-7.955],[-1.46,-7.863],[-1.53,-7.786],[-1.565,-7.66],[-1.319,-7.66],[-1.319,-7.343],[-1.235,-7.357],[-1.137,-7.364],[-0.997,-7.301],[-0.892,-7.28],[-0.772,-7.294],[-0.695,-7.35]]]]},"properties":{"abbr":"LRt","name":"lateral reticular nucleus","plate":55,"ap_bregma_mm":-11.1,"area_mm2":0.837,"traced_fraction":[0.843,0.804],"n_labels":2,"no_drawn_outline":false}},{"type":"Feature","geometry":{"type":"MultiPolygon","coordinates":[[[[-1.607,-7.104],[-1.495,-7.202],[-1.495,-7.336],[-1.537,-7.378],[-1.593,-7.378],[-1.67,-7.463],[-1.775,-7.392],[-1.831,-7.371],[-2.084,-7.371],[-2.098,-7.357],[-2.098,-7.301],[-2.056,-7.245],[-1.915,-7.167],[-1.733,-7.104],[-1.607,-7.104]]],[[[2.193,-7.167],[2.221,-7.231],[2.207,-7.301],[2.018,-7.42],[1.85,-7.449],[1.766,-7.484],[1.759,-7.125],[1.836,-7.111],[2.032,-7.104],[2.123,-7.125],[2.193,-7.167]]]]},"properties":{"abbr":"LRtS5","name":"lateral reticular nucleus, subtrigeminal part","plate":55,"ap_bregma_mm":-11.1,"area_mm2":0.2685,"traced_fraction":[0.819,0.795],"n_labels":2,"no_drawn_outline":false}},{"type":"Feature","geometry":{"type":"MultiPolygon","coordinates":[[[[-1.137,-5.81],[-1.109,-5.81],[-1.018,-5.859],[-0.969,-5.859],[-0.857,-5.936],[-0.836,-5.936],[-0.829,-5.951],[-0.808,-5.951],[-0.562,-6.077],[-0.646,-6.176],[-0.66,-6.176],[-0.878,-6.372],[-0.892,-6.372],[-0.941,-6.429],[-0.955,-6.429],[-0.983,-6.457],[-0.983,-6.485],[-1.025,-6.492],[-1.249,-6.703],[-1.263,-6.703],[-1.53,-6.97],[-1.607,-7.104],[-1.733,-7.104],[-1.915,-7.167],[-2.056,-7.245],[-2.091,-7.216],[-2.091,-7.139],[-1.978,-7.118],[-1.901,-7.083],[-1.754,-6.949],[-1.656,-6.802],[-1.558,-6.555],[-1.544,-6.555],[-1.284,-6.302],[-1.2,-6.197],[-1.165,-6.126],[-1.13,-6.077],[-1.102,-5.993],[-1.102,-5.929],[-1.137,-5.81]]],[[[1.254,-5.831],[1.233,-5.915],[1.24,-5.972],[1.296,-6.063],[1.38,-6.147],[1.394,-6.147],[1.471,-6.246],[1.492,-6.253],[1.499,-6.274],[1.576,-6.344],[1.703,-6.513],[1.731,-6.541],[1.752,-6.541],[1.752,-6.562],[1.85,-6.696],[1.99,-6.844],[2.165,-6.97],[2.285,-7.006],[2.285,-7.034],[2.264,-7.062],[2.264,-7.118],[2.277,-7.132],[2.235,-7.167],[2.193,-7.167],[2.123,-7.125],[2.032,-7.104],[1.836,-7.111],[1.829,-7.069],[1.654,-6.893],[1.639,-6.893],[1.31,-6.569],[1.24,-6.527],[1.071,-6.372],[0.819,-6.183],[0.756,-6.119],[0.742,-6.084],[1.008,-5.965],[1.071,-5.908],[1.114,-5.901],[1.226,-5.831],[1.254,-5.831]]]]},"properties":{"abbr":"MdD","name":"medullary reticular nucleus, dorsal part","plate":55,"ap_bregma_mm":-11.1,"area_mm2":1.0773,"traced_fraction":[0.986,0.993],"n_labels":2,"no_drawn_outline":false}},{"type":"Feature","geometry":{"type":"MultiPolygon","coordinates":[[[[-0.436,-6.239],[-0.345,-6.429],[-0.254,-6.513],[-0.254,-6.675],[-0.106,-6.675],[-0.134,-6.949],[-0.155,-7.104],[-0.198,-7.252],[-0.597,-7.252],[-0.695,-7.35],[-0.772,-7.294],[-0.892,-7.28],[-0.997,-7.301],[-1.137,-7.364],[-1.235,-7.357],[-1.207,-7.28],[-0.941,-6.865],[-0.864,-6.766],[-0.787,-6.696],[-0.779,-6.619],[-0.674,-6.513],[-0.541,-6.337],[-0.436,-6.239]]],[[[0.588,-6.267],[0.938,-6.682],[0.938,-6.696],[1.001,-6.752],[1.191,-6.998],[1.296,-7.104],[1.415,-7.273],[1.366,-7.315],[1.289,-7.35],[1.177,-7.35],[0.896,-7.223],[0.742,-7.231],[0.644,-7.266],[0.588,-7.329],[0.595,-7.442],[0.63,-7.505],[0.721,-7.596],[0.798,-7.646],[0.791,-7.723],[0.777,-7.73],[0.777,-7.807],[0.532,-7.716],[0.532,-7.695],[0.469,-7.638],[0.469,-7.554],[0.398,-7.547],[0.349,-7.456],[0.314,-7.35],[0.272,-7.062],[0.272,-6.942],[0.342,-6.935],[0.342,-6.787],[0.286,-6.787],[0.272,-6.766],[0.307,-6.703],[0.363,-6.71],[0.419,-6.668],[0.448,-6.562],[0.433,-6.513],[0.532,-6.38],[0.567,-6.281],[0.588,-6.267]]]]},"properties":{"abbr":"MdV","name":"medullary reticular nucleus, ventral part","plate":55,"ap_bregma_mm":-11.1,"area_mm2":1.4432,"traced_fraction":[0.767,0.898],"n_labels":2,"no_drawn_outline":false}},{"type":"Feature","geometry":{"type":"MultiPolygon","coordinates":[[[[-0.506,-5.62],[-0.401,-5.648],[-0.317,-5.69],[-0.232,-5.768],[-0.198,-5.845],[-0.338,-5.845],[-0.443,-5.887],[-0.478,-5.922],[-0.485,-5.965],[-0.422,-6.014],[-0.45,-6.063],[-0.45,-6.105],[-0.562,-6.077],[-0.808,-5.951],[-0.829,-5.951],[-0.836,-5.936],[-0.857,-5.936],[-0.969,-5.859],[-1.018,-5.859],[-1.109,-5.81],[-1.137,-5.81],[-1.235,-5.761],[-1.249,-5.74],[-1.228,-5.718],[-1.095,-5.683],[-1.053,-5.648],[-0.969,-5.669],[-0.871,-5.676],[-0.821,-5.662],[-0.808,-5.704],[-0.857,-5.754],[-0.913,-5.775],[-0.948,-5.831],[-0.92,-5.873],[-0.821,-5.845],[-0.73,-5.761],[-0.702,-5.711],[-0.646,-5.704],[-0.646,-5.718],[-0.632,-5.718],[-0.618,-5.69],[-0.597,-5.662],[-0.541,-5.648],[-0.506,-5.62]]],[[[0.931,-5.655],[0.966,-5.655],[1.029,-5.683],[1.1,-5.669],[1.149,-5.676],[1.212,-5.704],[1.373,-5.732],[1.338,-5.775],[1.254,-5.831],[1.226,-5.831],[1.156,-5.88],[1.071,-5.908],[1.037,-5.789],[0.931,-5.655]]]]},"properties":{"abbr":"Mx","name":"matrix region of the medulla","plate":55,"ap_bregma_mm":-11.1,"area_mm2":0.2732,"traced_fraction":[0.993,1.0],"n_labels":2,"no_drawn_outline":false}},{"type":"Feature","geometry":{"type":"MultiPolygon","coordinates":[[[[1.1,-1.949],[1.275,-2.005],[1.724,-2.23],[1.745,-2.258],[1.92,-2.321],[2.039,-2.385],[2.327,-2.49],[2.46,-2.56],[2.537,-2.582],[2.579,-2.61],[2.754,-2.673],[3.098,-2.828],[3.238,-2.863],[3.245,-2.891],[3.259,-2.891],[3.252,-2.947],[3.14,-3.074],[3.112,-3.081],[3.056,-3.13],[2.853,-3.222],[2.495,-3.39],[2.425,-3.447],[2.362,-3.475],[2.306,-3.531],[2.221,-3.608],[2.109,-3.798],[2.046,-3.848],[1.997,-3.848],[1.892,-3.777],[1.703,-3.587],[1.667,-3.566],[1.646,-3.573],[1.625,-3.566],[1.576,-3.489],[1.394,-3.292],[1.324,-3.186],[1.233,-3.095],[1.022,-2.814],[0.98,-2.743],[0.84,-2.596],[0.84,-2.582],[0.84,-2.539],[0.763,-2.363],[0.756,-2.223],[0.84,-2.075],[0.882,-2.026],[0.945,-1.991],[1.05,-1.963],[1.093,-1.963],[1.1,-1.963],[1.1,-1.949]]],[[[-1.186,-1.97],[-1.151,-1.998],[-1.067,-2.138],[-0.99,-2.209],[-0.99,-2.223],[-0.892,-2.328],[-0.885,-2.483],[-0.913,-2.546],[-0.899,-2.567],[-0.927,-2.582],[-0.927,-2.596],[-1.039,-2.701],[-1.039,-2.715],[-1.074,-2.743],[-1.074,-2.764],[-1.088,-2.764],[-1.144,-2.828],[-1.235,-2.975],[-1.263,-2.997],[-1.425,-3.285],[-1.537,-3.454],[-1.551,-3.496],[-1.677,-3.679],[-1.712,-3.693],[-1.845,-3.833],[-2.048,-3.995],[-2.112,-4.066],[-2.154,-4.087],[-2.217,-4.066],[-2.231,-4.073],[-2.301,-3.995],[-2.399,-3.615],[-2.49,-3.461],[-2.539,-3.39],[-2.603,-3.348],[-2.624,-3.334],[-2.637,-3.327],[-2.63,-3.32],[-2.645,-3.32],[-2.658,-3.313],[-2.792,-3.236],[-2.925,-3.116],[-2.96,-3.046],[-2.946,-2.94],[-2.911,-2.877],[-2.862,-2.828],[-2.743,-2.764],[-2.715,-2.736],[-1.964,-2.378],[-1.551,-2.202],[-1.544,-2.181],[-1.256,-2.04],[-1.186,-1.97]]]]},"properties":{"abbr":"PM","name":"paramedian lobule","plate":55,"ap_bregma_mm":-11.1,"area_mm2":4.4429,"traced_fraction":[1.0,1.0],"n_labels":2,"no_drawn_outline":false}},{"type":"Feature","geometry":{"type":"MultiPolygon","coordinates":[[[[0.658,-5.55],[0.784,-5.55],[0.784,-5.585],[0.854,-5.606],[0.889,-5.62],[0.903,-5.641],[0.91,-5.648],[0.931,-5.655],[1.037,-5.789],[1.071,-5.908],[1.008,-5.965],[0.742,-6.084],[0.609,-6.098],[0.567,-6.007],[0.623,-5.958],[0.623,-5.894],[0.595,-5.866],[0.483,-5.831],[0.349,-5.838],[0.37,-5.761],[0.461,-5.669],[0.532,-5.627],[0.609,-5.606],[0.658,-5.55]]],[[[-0.604,-5.571],[-0.52,-5.578],[-0.506,-5.62],[-0.541,-5.648],[-0.597,-5.662],[-0.618,-5.69],[-0.646,-5.704],[-0.702,-5.711],[-0.73,-5.761],[-0.821,-5.845],[-0.92,-5.873],[-0.948,-5.831],[-0.913,-5.775],[-0.857,-5.754],[-0.808,-5.704],[-0.821,-5.662],[-0.744,-5.634],[-0.688,-5.592],[-0.639,-5.592],[-0.604,-5.571]]],[[[0.763,-5.669],[0.749,-5.697],[0.749,-5.74],[0.763,-5.754],[0.805,-5.761],[0.819,-5.747],[0.861,-5.747],[0.812,-5.683],[0.763,-5.669]]]]},"properties":{"abbr":"PSol","name":"parasolitary nucleus","plate":55,"ap_bregma_mm":-11.1,"area_mm2":0.2693,"traced_fraction":[1.0,0.982,1.0],"n_labels":2,"no_drawn_outline":false}},{"type":"Feature","geometry":{"type":"MultiPolygon","coordinates":[[[[1.822,-5.725],[1.773,-5.711],[1.808,-5.606],[1.815,-5.536],[1.85,-5.514],[1.906,-5.514],[1.941,-5.536],[1.969,-5.536],[2.032,-5.578],[2.081,-5.634],[2.088,-5.697],[2.067,-5.718],[2.004,-5.725],[1.934,-5.697],[1.885,-5.655],[1.85,-5.648],[1.843,-5.697],[1.822,-5.725]]],[[[-1.635,-5.543],[-1.621,-5.55],[-1.607,-5.585],[-1.628,-5.655],[-1.684,-5.725],[-1.901,-5.845],[-1.971,-5.859],[-2.014,-5.838],[-2.014,-5.796],[-1.985,-5.761],[-1.978,-5.711],[-1.971,-5.683],[-1.95,-5.655],[-1.936,-5.669],[-1.908,-5.669],[-1.887,-5.641],[-1.81,-5.592],[-1.635,-5.543]]]]},"properties":{"abbr":"Pa5","name":"paratrigeminal nucleus","plate":55,"ap_bregma_mm":-11.1,"area_mm2":0.1115,"traced_fraction":[0.887,1.0],"n_labels":2,"no_drawn_outline":false}},{"type":"Feature","geometry":{"type":"MultiPolygon","coordinates":[[[[0.09,-6.513],[0.111,-6.668],[0.118,-7.062],[0.118,-7.449],[0.097,-7.547],[0.083,-7.568],[0.02,-7.561],[-0.015,-7.463],[-0.022,-7.371],[-0.022,-7.146],[-0.001,-7.062],[0.006,-6.949],[0.041,-6.598],[0.062,-6.52],[0.09,-6.513]]]]},"properties":{"abbr":"ROb","name":"raphe obscurus nucleus","plate":55,"ap_bregma_mm":-11.1,"area_mm2":0.1129,"traced_fraction":[0.978],"n_labels":1,"no_drawn_outline":false}},{"type":"Feature","geometry":{"type":"MultiPolygon","coordinates":[[[[0.02,-7.561],[0.083,-7.568],[0.09,-7.695],[0.069,-7.828],[0.076,-8.053],[0.062,-8.187],[0.027,-8.18],[0.013,-8.159],[0.02,-7.835],[0.006,-7.737],[0.02,-7.561]]]]},"properties":{"abbr":"RPa","name":"raphe pallidus nucleus","plate":55,"ap_bregma_mm":-11.1,"area_mm2":0.0379,"traced_fraction":[1.0],"n_labels":1,"no_drawn_outline":false}},{"type":"Feature","geometry":{"type":"MultiPolygon","coordinates":[[[[0.433,-6.513],[0.448,-6.562],[0.419,-6.668],[0.363,-6.71],[0.307,-6.703],[0.293,-6.675],[0.258,-6.682],[0.244,-6.64],[0.251,-6.591],[0.251,-6.541],[0.363,-6.534],[0.433,-6.513]]]]},"properties":{"abbr":"Ro","name":"nucleus of Roller","plate":55,"ap_bregma_mm":-11.1,"area_mm2":0.0293,"traced_fraction":[1.0],"n_labels":2,"no_drawn_outline":false}},{"type":"Feature","geometry":{"type":"MultiPolygon","coordinates":[[[[0.539,-5.423],[0.546,-5.458],[0.609,-5.5],[0.644,-5.55],[0.658,-5.55],[0.609,-5.606],[0.532,-5.627],[0.461,-5.669],[0.37,-5.761],[0.349,-5.838],[0.265,-5.852],[0.188,-5.894],[0.125,-5.859],[0.125,-5.669],[0.265,-5.592],[0.37,-5.486],[0.398,-5.43],[0.539,-5.423]]]]},"properties":{"abbr":"SolC","name":"nucleus of the solitary tract, commissural part","plate":55,"ap_bregma_mm":-11.1,"area_mm2":0.1199,"traced_fraction":[0.865],"n_labels":1,"no_drawn_outline":false}},{"type":"Feature","geometry":{"type":"MultiPolygon","coordinates":[[[[1.92,-6.056],[1.78,-6.344],[1.752,-6.443],[1.752,-6.541],[1.731,-6.541],[1.703,-6.513],[1.576,-6.344],[1.499,-6.274],[1.492,-6.253],[1.471,-6.246],[1.394,-6.147],[1.443,-6.056],[1.92,-6.056]]],[[[-1.831,-6.126],[-1.165,-6.126],[-1.2,-6.197],[-1.284,-6.302],[-1.544,-6.555],[-1.558,-6.555],[-1.572,-6.478],[-1.621,-6.365],[-1.782,-6.197],[-1.831,-6.126]]]]},"properties":{"abbr":"Sp5C","name":"spinal trigeminal nucleus, caudal part","plate":55,"ap_bregma_mm":-11.1,"area_mm2":0.2765,"traced_fraction":[0.67,0.629],"n_labels":2,"no_drawn_outline":true}},{"type":"Feature","geometry":{"type":"MultiPolygon","coordinates":[[[[2.081,-5.824],[2.264,-5.866],[2.502,-5.979],[2.635,-6.098],[2.684,-6.168],[2.712,-6.26],[2.712,-6.33],[2.726,-6.365],[2.712,-6.506],[2.614,-6.802],[2.565,-6.872],[2.474,-6.949],[2.376,-6.991],[2.285,-7.006],[2.165,-6.97],[1.99,-6.844],[1.85,-6.696],[1.752,-6.562],[1.752,-6.541],[1.752,-6.443],[1.78,-6.344],[1.92,-6.056],[1.99,-5.936],[2.081,-5.824]]],[[[-1.957,-5.951],[-1.866,-6.098],[-1.831,-6.126],[-1.782,-6.197],[-1.621,-6.365],[-1.579,-6.457],[-1.558,-6.555],[-1.628,-6.745],[-1.754,-6.949],[-1.901,-7.083],[-1.978,-7.118],[-2.091,-7.139],[-2.168,-7.118],[-2.238,-7.076],[-2.378,-6.942],[-2.42,-6.879],[-2.476,-6.745],[-2.504,-6.626],[-2.518,-6.499],[-2.511,-6.394],[-2.448,-6.176],[-2.406,-6.112],[-2.364,-6.077],[-2.252,-6.021],[-2.084,-5.993],[-1.957,-5.951]]]]},"properties":{"abbr":"Sp5I","name":"spinal trigeminal nucleus, interpolar part","plate":55,"ap_bregma_mm":-11.1,"area_mm2":1.6318,"traced_fraction":[0.989,1.0],"n_labels":2,"no_drawn_outline":false}},{"type":"Feature","geometry":{"type":"MultiPolygon","coordinates":[[[[-0.969,-5.317],[-0.969,-5.669],[-1.053,-5.648],[-1.074,-5.641],[-1.13,-5.571],[-1.144,-5.528],[-1.144,-5.451],[-1.081,-5.402],[-1.06,-5.353],[-0.969,-5.317]]]]},"properties":{"abbr":"cu","name":"cuneate fasciculus","plate":55,"ap_bregma_mm":-11.1,"area_mm2":0.0453,"traced_fraction":[0.677],"n_labels":1,"no_drawn_outline":true}},{"type":"Feature","geometry":{"type":"MultiPolygon","coordinates":[[[[2.874,-6.239],[2.895,-6.281],[2.895,-6.499],[2.817,-6.83],[2.726,-7.012],[2.523,-7.231],[2.474,-7.259],[2.46,-7.118],[2.558,-7.062],[2.656,-6.977],[2.768,-6.795],[2.817,-6.64],[2.853,-6.422],[2.838,-6.253],[2.874,-6.239]]],[[[-2.609,-6.717],[-2.603,-6.717],[-2.595,-6.724],[-2.581,-6.724],[-2.567,-6.752],[-2.539,-6.858],[-2.483,-6.977],[-2.434,-7.048],[-2.315,-7.153],[-2.322,-7.252],[-2.448,-7.266],[-2.483,-7.223],[-2.546,-7.083],[-2.595,-6.907],[-2.609,-6.717]]]]},"properties":{"abbr":"dsc","name":"dorsal spinocerebellar tract","plate":55,"ap_bregma_mm":-11.1,"area_mm2":0.1298,"traced_fraction":[0.969,0.88],"n_labels":2,"no_drawn_outline":false}},{"type":"Feature","geometry":{"type":"MultiPolygon","coordinates":[[[[-0.527,-5.353],[-0.394,-5.416],[-0.261,-5.444],[-0.261,-5.472],[-0.324,-5.528],[-0.52,-5.578],[-0.604,-5.571],[-0.632,-5.536],[-0.604,-5.374],[-0.541,-5.367],[-0.527,-5.353]]]]},"properties":{"abbr":"gr","name":"gracile fasciculus","plate":55,"ap_bregma_mm":-11.1,"area_mm2":0.0543,"traced_fraction":[1.0],"n_labels":1,"no_drawn_outline":false}},{"type":"Feature","geometry":{"type":"MultiPolygon","coordinates":[[[[0.09,-6.513],[0.202,-6.534],[0.216,-6.576],[0.251,-6.591],[0.244,-6.64],[0.258,-6.682],[0.272,-6.766],[0.286,-6.787],[0.342,-6.787],[0.342,-6.935],[0.272,-6.942],[0.272,-7.062],[0.118,-7.062],[0.111,-6.668],[0.09,-6.513]]],[[[0.062,-6.52],[0.041,-6.598],[0.006,-6.949],[-0.134,-6.949],[-0.106,-6.675],[-0.099,-6.661],[-0.113,-6.64],[-0.078,-6.591],[-0.071,-6.548],[0.006,-6.52],[0.062,-6.52]]]]},"properties":{"abbr":"mlf","name":"medial longitudinal fasciculus","plate":55,"ap_bregma_mm":-11.1,"area_mm2":0.1486,"traced_fraction":[0.773,0.868],"n_labels":2,"no_drawn_outline":false}},{"type":"Feature","geometry":{"type":"MultiPolygon","coordinates":[[[[0.602,-8.131],[0.672,-8.145],[0.798,-8.208],[0.882,-8.293],[0.917,-8.307],[0.931,-8.335],[0.917,-8.349],[0.735,-8.398],[0.567,-8.419],[0.419,-8.412],[0.272,-8.363],[0.146,-8.236],[0.167,-8.208],[0.272,-8.208],[0.307,-8.187],[0.363,-8.18],[0.476,-8.138],[0.602,-8.131]]],[[[-0.394,-8.194],[-0.141,-8.194],[-0.078,-8.215],[-0.198,-8.377],[-0.254,-8.412],[-0.261,-8.433],[-0.331,-8.468],[-0.38,-8.482],[-0.625,-8.49],[-0.836,-8.44],[-0.829,-8.405],[-0.8,-8.384],[-0.779,-8.342],[-0.737,-8.293],[-0.618,-8.222],[-0.583,-8.229],[-0.394,-8.194]]]]},"properties":{"abbr":"py","name":"pyramidal tract","plate":55,"ap_bregma_mm":-11.1,"area_mm2":0.3079,"traced_fraction":[1.0,1.0],"n_labels":2,"no_drawn_outline":false}},{"type":"Feature","geometry":{"type":"MultiPolygon","coordinates":[[[[2.46,-7.118],[2.474,-7.259],[2.243,-7.449],[2.221,-7.315],[2.207,-7.301],[2.221,-7.231],[2.193,-7.167],[2.235,-7.167],[2.277,-7.132],[2.292,-7.146],[2.341,-7.153],[2.46,-7.118]]],[[[-2.315,-7.153],[-2.189,-7.223],[-2.091,-7.216],[-2.056,-7.245],[-2.098,-7.301],[-2.098,-7.357],[-2.084,-7.371],[-2.133,-7.406],[-2.14,-7.589],[-2.231,-7.547],[-2.273,-7.491],[-2.343,-7.435],[-2.343,-7.42],[-2.385,-7.385],[-2.448,-7.266],[-2.322,-7.252],[-2.315,-7.153]]]]},"properties":{"abbr":"rs","name":"rubrospinal tract","plate":55,"ap_bregma_mm":-11.1,"area_mm2":0.1396,"traced_fraction":[0.817,0.75],"n_labels":2,"no_drawn_outline":false}},{"type":"Feature","geometry":{"type":"MultiPolygon","coordinates":[[[[-1.144,-5.029],[-0.906,-5.135],[-0.639,-5.219],[-0.436,-5.261],[-0.169,-5.275],[-0.113,-5.289],[-0.141,-5.317],[-0.219,-5.353],[-0.232,-5.381],[-0.232,-5.43],[-0.211,-5.479],[-0.057,-5.627],[0.041,-5.669],[0.125,-5.669],[0.125,-5.859],[0.188,-5.894],[0.139,-5.972],[0.083,-5.972],[0.055,-5.986],[0.041,-6.014],[0.02,-6.014],[-0.001,-5.993],[-0.008,-5.958],[-0.064,-5.901],[-0.198,-5.845],[-0.232,-5.768],[-0.317,-5.69],[-0.401,-5.648],[-0.506,-5.62],[-0.52,-5.578],[-0.324,-5.528],[-0.261,-5.472],[-0.261,-5.444],[-0.394,-5.416],[-0.527,-5.353],[-0.548,-5.325],[-0.604,-5.296],[-0.653,-5.289],[-0.821,-5.247],[-0.829,-5.233],[-0.99,-5.191],[-1.123,-5.128],[-1.172,-5.121],[-1.179,-5.107],[-1.144,-5.029]]]]},"properties":{"abbr":"sol","name":"solitary tract","plate":55,"ap_bregma_mm":-11.1,"area_mm2":0.261,"traced_fraction":[0.953],"n_labels":1,"no_drawn_outline":false}},{"type":"Feature","geometry":{"type":"MultiPolygon","coordinates":[[[[1.801,-5.388],[1.815,-5.388],[1.892,-5.458],[2.165,-5.543],[2.418,-5.69],[2.439,-5.704],[2.467,-5.718],[2.453,-5.725],[2.453,-5.754],[2.516,-5.817],[2.516,-5.831],[2.544,-5.845],[2.558,-5.873],[2.607,-5.908],[2.607,-5.922],[2.656,-5.929],[2.67,-5.951],[2.691,-5.993],[2.74,-6.042],[2.733,-6.049],[2.747,-6.049],[2.761,-6.063],[2.775,-6.084],[2.761,-6.084],[2.761,-6.112],[2.803,-6.19],[2.853,-6.176],[2.874,-6.239],[2.838,-6.253],[2.853,-6.422],[2.817,-6.64],[2.768,-6.795],[2.656,-6.977],[2.558,-7.062],[2.46,-7.118],[2.341,-7.153],[2.292,-7.146],[2.277,-7.132],[2.264,-7.118],[2.264,-7.062],[2.285,-7.034],[2.285,-7.006],[2.376,-6.991],[2.474,-6.949],[2.565,-6.872],[2.614,-6.802],[2.712,-6.506],[2.726,-6.415],[2.712,-6.26],[2.684,-6.168],[2.656,-6.126],[2.502,-5.979],[2.264,-5.866],[2.081,-5.824],[2.053,-5.803],[1.822,-5.725],[1.843,-5.697],[1.85,-5.648],[1.871,-5.648],[1.934,-5.697],[2.004,-5.725],[2.046,-5.725],[2.088,-5.697],[2.088,-5.655],[2.067,-5.613],[1.997,-5.55],[1.906,-5.514],[1.85,-5.514],[1.815,-5.536],[1.808,-5.606],[1.773,-5.711],[1.703,-5.69],[1.562,-5.69],[1.485,-5.704],[1.485,-5.683],[1.506,-5.662],[1.562,-5.634],[1.675,-5.528],[1.688,-5.528],[1.801,-5.388]]],[[[-1.607,-5.585],[-1.53,-5.641],[-1.46,-5.669],[-1.425,-5.697],[-1.425,-5.711],[-1.551,-5.732],[-1.656,-5.768],[-1.915,-5.908],[-1.957,-5.951],[-2.084,-5.993],[-2.252,-6.021],[-2.364,-6.077],[-2.406,-6.112],[-2.448,-6.176],[-2.511,-6.394],[-2.518,-6.499],[-2.504,-6.626],[-2.476,-6.745],[-2.42,-6.879],[-2.378,-6.942],[-2.238,-7.076],[-2.168,-7.118],[-2.091,-7.139],[-2.091,-7.216],[-2.189,-7.223],[-2.315,-7.153],[-2.434,-7.048],[-2.483,-6.977],[-2.539,-6.858],[-2.567,-6.752],[-2.581,-6.724],[-2.595,-6.724],[-2.595,-6.71],[-2.603,-6.717],[-2.609,-6.717],[-2.609,-6.295],[-2.539,-6.098],[-2.441,-5.993],[-2.21,-5.873],[-1.978,-5.69],[-1.978,-5.711],[-1.985,-5.761],[-2.014,-5.796],[-2.014,-5.838],[-1.971,-5.859],[-1.901,-5.845],[-1.684,-5.725],[-1.628,-5.655],[-1.607,-5.585]]]]},"properties":{"abbr":"sp5","name":"spinal trigeminal tract","plate":55,"ap_bregma_mm":-11.1,"area_mm2":0.6624,"traced_fraction":[0.978,1.0],"n_labels":2,"no_drawn_outline":false}},{"type":"Feature","geometry":{"type":"MultiPolygon","coordinates":[[[[-0.134,-6.949],[0.006,-6.949],[-0.001,-7.062],[-0.022,-7.146],[-0.022,-7.371],[-0.015,-7.463],[0.02,-7.561],[-0.232,-7.561],[-0.24,-7.547],[-0.303,-7.547],[-0.268,-7.477],[-0.198,-7.252],[-0.155,-7.104],[-0.134,-6.949]]],[[[0.118,-7.062],[0.272,-7.062],[0.314,-7.35],[0.349,-7.456],[0.398,-7.547],[0.097,-7.547],[0.118,-7.449],[0.118,-7.062]]]]},"properties":{"abbr":"ts","name":"tectospinal tract","plate":55,"ap_bregma_mm":-11.1,"area_mm2":0.2145,"traced_fraction":[0.845,0.767],"n_labels":2,"no_drawn_outline":false}},{"type":"Feature","geometry":{"type":"MultiPolygon","coordinates":[[[[2.207,-7.301],[2.221,-7.315],[2.243,-7.449],[1.787,-7.871],[1.457,-8.089],[1.443,-8.11],[1.071,-8.3],[0.931,-8.335],[0.917,-8.307],[0.931,-8.264],[0.924,-8.243],[0.98,-8.236],[0.98,-8.138],[0.952,-8.089],[0.924,-8.075],[0.875,-8.011],[0.91,-7.983],[1.044,-8.061],[1.184,-8.103],[1.296,-8.089],[1.394,-8.032],[1.436,-7.983],[1.436,-7.934],[1.415,-7.906],[1.331,-7.892],[1.331,-7.835],[1.45,-7.814],[1.59,-7.744],[1.654,-7.674],[1.709,-7.54],[1.766,-7.484],[1.85,-7.449],[2.018,-7.42],[2.207,-7.301]]],[[[-1.67,-7.463],[-1.67,-7.477],[-1.607,-7.54],[-1.565,-7.66],[-1.558,-7.709],[-1.516,-7.807],[-1.431,-7.885],[-1.27,-7.955],[-1.277,-8.025],[-1.34,-8.032],[-1.368,-8.082],[-1.361,-8.117],[-1.312,-8.159],[-1.333,-8.18],[-1.333,-8.201],[-1.523,-8.067],[-1.894,-7.73],[-1.985,-7.681],[-2.14,-7.589],[-2.133,-7.406],[-2.084,-7.371],[-1.831,-7.371],[-1.775,-7.392],[-1.67,-7.463]]]]},"properties":{"abbr":"vsc","name":"ventral spinocerebellar tract","plate":55,"ap_bregma_mm":-11.1,"area_mm2":0.5958,"traced_fraction":[0.965,0.922],"n_labels":2,"no_drawn_outline":false}},{"type":"Feature","geometry":{"type":"Polygon","coordinates":[[[0.756,-2.223],[0.763,-2.363],[0.84,-2.539],[0.84,-2.582],[0.798,-2.567],[0.707,-2.497],[0.56,-2.42],[0.377,-2.371],[0.377,-2.342],[0.602,-2.321],[0.756,-2.223]]]},"properties":{"abbr":null,"name":"unnamed sealed face","plate":55,"ap_bregma_mm":-11.1,"index":0}},{"type":"Feature","geometry":{"type":"Polygon","coordinates":[[[-0.892,-2.328],[-0.8,-2.356],[-0.576,-2.371],[-0.562,-2.392],[-0.758,-2.469],[-0.899,-2.567],[-0.913,-2.546],[-0.885,-2.483],[-0.892,-2.328]]]},"properties":{"abbr":null,"name":"unnamed sealed face","plate":55,"ap_bregma_mm":-11.1,"index":1}},{"type":"Feature","geometry":{"type":"Polygon","coordinates":[[[1.997,-3.848],[1.941,-3.939],[1.927,-3.939],[1.878,-3.862],[1.864,-3.862],[1.738,-3.7],[1.724,-3.7],[1.66,-3.615],[1.646,-3.573],[1.667,-3.566],[1.703,-3.587],[1.892,-3.777],[1.997,-3.848]]]},"properties":{"abbr":null,"name":"unnamed sealed face","plate":55,"ap_bregma_mm":-11.1,"index":2}},{"type":"Feature","geometry":{"type":"Polygon","coordinates":[[[-1.179,-5.107],[-1.172,-5.121],[-1.123,-5.128],[-0.927,-5.212],[-0.829,-5.233],[-0.821,-5.247],[-0.871,-5.275],[-0.927,-5.282],[-0.969,-5.317],[-1.06,-5.353],[-1.067,-5.247],[-1.13,-5.177],[-1.207,-5.156],[-1.326,-5.17],[-1.481,-5.261],[-1.551,-5.325],[-1.551,-5.339],[-1.565,-5.339],[-1.628,-5.437],[-1.642,-5.486],[-1.635,-5.543],[-1.81,-5.592],[-1.887,-5.641],[-1.908,-5.669],[-1.936,-5.669],[-1.95,-5.655],[-1.936,-5.627],[-1.754,-5.458],[-1.754,-5.444],[-1.74,-5.444],[-1.635,-5.332],[-1.621,-5.332],[-1.481,-5.198],[-1.305,-5.1],[-1.179,-5.107]]]},"properties":{"abbr":null,"name":"unnamed sealed face","plate":55,"ap_bregma_mm":-11.1,"index":3}},{"type":"Feature","geometry":{"type":"Polygon","coordinates":[[[0.882,-5.128],[0.917,-5.198],[1.128,-5.177],[1.149,-5.184],[1.156,-5.17],[1.191,-5.163],[1.198,-5.191],[1.17,-5.24],[1.163,-5.317],[0.987,-5.247],[0.868,-5.247],[0.798,-5.282],[0.749,-5.353],[0.651,-5.346],[0.637,-5.367],[0.539,-5.423],[0.398,-5.43],[0.406,-5.395],[0.377,-5.332],[0.328,-5.31],[0.237,-5.303],[0.209,-5.282],[0.223,-5.268],[0.567,-5.219],[0.77,-5.163],[0.847,-5.128],[0.882,-5.128]]]},"properties":{"abbr":null,"name":"unnamed sealed face","plate":55,"ap_bregma_mm":-11.1,"index":4}},{"type":"Feature","geometry":{"type":"Polygon","coordinates":[[[-0.254,-6.513],[-0.226,-6.513],[-0.177,-6.548],[-0.071,-6.548],[-0.078,-6.591],[-0.113,-6.64],[-0.099,-6.661],[-0.106,-6.675],[-0.254,-6.675],[-0.254,-6.513]]]},"properties":{"abbr":null,"name":"unnamed sealed face","plate":55,"ap_bregma_mm":-11.1,"index":5}},{"type":"Feature","geometry":{"type":"Polygon","coordinates":[[[-0.457,-7.793],[-0.387,-7.793],[-0.373,-7.807],[-0.387,-7.863],[-0.506,-7.906],[-0.534,-7.92],[-0.534,-7.934],[-0.639,-7.976],[-0.674,-8.004],[-0.695,-8.046],[-0.716,-8.053],[-0.73,-8.039],[-0.758,-8.039],[-1.053,-8.222],[-1.158,-8.222],[-1.256,-8.194],[-1.312,-8.159],[-1.361,-8.117],[-1.368,-8.082],[-1.34,-8.032],[-1.277,-8.025],[-1.228,-8.103],[-1.193,-8.117],[-1.081,-8.11],[-0.871,-8.018],[-0.871,-8.004],[-0.808,-7.983],[-0.576,-7.835],[-0.457,-7.793]]]},"properties":{"abbr":null,"name":"unnamed sealed face","plate":55,"ap_bregma_mm":-11.1,"index":6}},{"type":"Feature","geometry":{"type":"Polygon","coordinates":[[[0.637,-7.878],[0.721,-7.899],[0.791,-7.934],[0.861,-8.011],[0.875,-8.011],[0.875,-8.025],[0.952,-8.089],[0.98,-8.138],[0.98,-8.236],[0.924,-8.243],[0.868,-8.229],[0.854,-8.215],[0.847,-8.166],[0.84,-8.124],[0.616,-7.927],[0.616,-7.899],[0.637,-7.878]]]},"properties":{"abbr":null,"name":"unnamed sealed face","plate":55,"ap_bregma_mm":-11.1,"index":7}},{"type":"Feature","geometry":{"type":"MultiPolygon","coordinates":[[[[-0.401,-8.475],[-0.604,-8.482],[-0.737,-8.461],[-1.004,-8.384],[-1.221,-8.278],[-1.495,-8.082],[-1.894,-7.73],[-2.238,-7.533],[-2.378,-7.385],[-2.497,-7.188],[-2.539,-7.09],[-2.595,-6.893],[-2.616,-6.633],[-2.609,-6.302],[-2.539,-6.098],[-2.448,-6.0],[-2.21,-5.866],[-1.992,-5.704],[-1.929,-5.62],[-1.572,-5.275],[-1.467,-5.191],[-1.382,-5.135],[-1.298,-5.1],[-1.179,-5.107],[-1.144,-5.022],[-1.284,-4.931],[-1.439,-4.783],[-1.516,-4.656],[-1.551,-4.558],[-1.635,-4.565],[-1.796,-4.727],[-1.929,-4.804],[-2.014,-4.832],[-2.189,-4.832],[-2.28,-4.804],[-2.329,-4.762],[-2.371,-4.649],[-2.371,-4.509],[-2.315,-4.326],[-2.21,-4.164],[-2.238,-4.058],[-2.28,-4.023],[-2.301,-3.981],[-2.399,-3.622],[-2.462,-3.496],[-2.553,-3.376],[-2.799,-3.222],[-2.925,-3.109],[-2.96,-3.032],[-2.946,-2.94],[-2.988,-2.87],[-3.044,-2.87],[-3.086,-2.849],[-3.135,-2.793],[-3.156,-2.715],[-3.156,-2.589],[-3.121,-2.399],[-3.065,-2.237],[-2.974,-2.068],[-2.897,-1.963],[-2.799,-1.871],[-2.511,-1.731],[-2.098,-1.618],[-1.88,-1.59],[-1.705,-1.59],[-1.523,-1.611],[-1.368,-1.646],[-1.228,-1.709],[-1.165,-1.787],[-1.095,-1.794],[-0.962,-1.632],[-0.885,-1.576],[-0.758,-1.512],[-0.541,-1.449],[-0.19,-1.407],[0.083,-1.421],[0.223,-1.442],[0.419,-1.491],[0.56,-1.548],[0.665,-1.611],[0.784,-1.723],[0.847,-1.829],[0.868,-1.949],[0.945,-1.991],[1.044,-1.97],[1.093,-1.871],[1.212,-1.801],[1.478,-1.738],[2.341,-1.738],[2.67,-1.766],[2.887,-1.808],[3.091,-1.899],[3.231,-2.047],[3.301,-2.174],[3.35,-2.314],[3.371,-2.42],[3.371,-2.56],[3.35,-2.687],[3.329,-2.75],[3.266,-2.835],[3.245,-2.94],[3.14,-3.06],[3.035,-3.13],[2.523,-3.369],[2.355,-3.475],[2.221,-3.601],[2.095,-3.798],[2.039,-3.841],[1.997,-3.841],[1.934,-3.939],[2.179,-4.213],[2.264,-4.284],[2.348,-4.396],[2.397,-4.516],[2.397,-4.621],[2.369,-4.677],[2.32,-4.727],[2.249,-4.769],[2.165,-4.79],[2.011,-4.79],[1.717,-4.713],[1.562,-4.607],[1.464,-4.621],[1.359,-4.783],[1.261,-4.896],[1.1,-5.008],[0.875,-5.113],[0.91,-5.198],[1.156,-5.17],[1.394,-5.092],[1.506,-5.107],[1.597,-5.156],[1.85,-5.43],[1.92,-5.472],[2.151,-5.543],[2.243,-5.585],[2.488,-5.732],[2.6,-5.838],[2.691,-5.993],[2.838,-6.147],[2.887,-6.288],[2.887,-6.471],[2.859,-6.64],[2.803,-6.837],[2.712,-7.012],[2.53,-7.209],[2.249,-7.435],[1.787,-7.857],[1.401,-8.124],[1.058,-8.293],[0.756,-8.384],[0.539,-8.412],[0.427,-8.405],[0.272,-8.356],[0.104,-8.201],[0.034,-8.173],[-0.078,-8.208],[-0.219,-8.384],[-0.303,-8.447],[-0.394,-8.475],[-0.401,-8.475]]]]},"properties":{"abbr":"brain_outline","name":"outline of the section","plate":55,"ap_bregma_mm":-11.1}}]}
