{"type":"FeatureCollection","name":"GerbilAtlas plate 62","note":"Region extents cut from the atlas drawing (METHODS.md, Region extents). Coordinates are [ML, DV] in mm, ML positive to the right of the plate as printed, DV negative below the dorsal surface; AP is the plate bregma. traced_fraction is the share of each polygon boundary the atlas actually draws; below 0.5 the boundary is an estimate. no_drawn_outline marks a feature that lies only inside boundaries the atlas draws round more than one name and prints nothing within, so the whole of its outline is where the extraction cut it. Not a segmentation.","plate":62,"ap_bregma_mm":-13.55,"features":[{"type":"Feature","geometry":{"type":"MultiPolygon","coordinates":[[[[0.454,-7.566],[0.44,-7.636],[0.391,-7.7],[0.335,-7.7],[0.321,-7.671],[0.3,-7.615],[0.293,-7.51],[0.251,-7.376],[0.251,-7.32],[0.328,-7.214],[0.37,-7.2],[0.405,-7.228],[0.44,-7.341],[0.44,-7.552],[0.454,-7.566]]],[[[-0.261,-7.285],[-0.359,-7.65],[-0.373,-7.707],[-0.387,-7.721],[-0.43,-7.721],[-0.472,-7.686],[-0.493,-7.622],[-0.479,-7.58],[-0.479,-7.425],[-0.458,-7.306],[-0.43,-7.235],[-0.401,-7.207],[-0.366,-7.207],[-0.261,-7.285]]]]},"properties":{"abbr":"9N","name":"glossopharyngeal nerve nucleus","plate":62,"ap_bregma_mm":-13.55,"area_mm2":0.1475,"traced_fraction":[1.0,1.0],"n_labels":2,"no_drawn_outline":false}},{"type":"Feature","geometry":{"type":"MultiPolygon","coordinates":[[[[-0.633,-6.258],[-0.521,-6.3],[-0.5,-6.321],[-0.366,-6.349],[-0.359,-6.434],[-0.394,-6.448],[-0.5,-6.427],[-0.528,-6.434],[-0.549,-6.427],[-0.605,-6.328],[-0.647,-6.3],[-0.654,-6.279],[-0.633,-6.258]]],[[[0.615,-6.3],[0.552,-6.412],[0.461,-6.441],[0.342,-6.448],[0.363,-6.335],[0.44,-6.3],[0.615,-6.3]]]]},"properties":{"abbr":"Cu","name":"cuneate nucleus","plate":62,"ap_bregma_mm":-13.55,"area_mm2":0.0571,"traced_fraction":[1.0,1.0],"n_labels":2,"no_drawn_outline":false}},{"type":"Feature","geometry":{"type":"MultiPolygon","coordinates":[[[[-0.71,-6.082],[-0.661,-6.187],[-0.787,-6.173],[-1.025,-6.237],[-1.061,-6.265],[-1.173,-6.293],[-1.229,-6.321],[-1.285,-6.356],[-1.362,-6.434],[-1.453,-6.581],[-1.509,-6.792],[-1.495,-6.919],[-1.425,-7.038],[-1.481,-7.081],[-1.544,-7.074],[-1.607,-7.017],[-1.65,-6.926],[-1.663,-6.764],[-1.642,-6.638],[-1.6,-6.532],[-1.446,-6.314],[-1.285,-6.202],[-1.243,-6.194],[-1.194,-6.159],[-1.032,-6.096],[-0.857,-6.054],[-0.794,-6.054],[-0.71,-6.082]]],[[[1.513,-7.024],[1.471,-7.144],[1.407,-7.207],[1.352,-7.207],[1.323,-7.179],[1.323,-7.137],[1.352,-7.109],[1.401,-7.003],[1.435,-6.856],[1.435,-6.757],[1.415,-6.638],[1.344,-6.469],[1.211,-6.321],[1.064,-6.251],[1.015,-6.244],[0.91,-6.194],[0.805,-6.173],[0.685,-6.194],[0.692,-6.152],[0.755,-6.082],[0.896,-6.075],[1.176,-6.145],[1.274,-6.202],[1.379,-6.293],[1.471,-6.434],[1.485,-6.49],[1.513,-6.525],[1.548,-6.652],[1.548,-6.856],[1.513,-7.024]]]]},"properties":{"abbr":"Ge5","name":"gelatinous layer of the caudal spinal trigeminal nucleus","plate":62,"ap_bregma_mm":-13.55,"area_mm2":0.4107,"traced_fraction":[0.989,1.0],"n_labels":2,"no_drawn_outline":false}},{"type":"Feature","geometry":{"type":"MultiPolygon","coordinates":[[[[0.552,-6.412],[0.538,-6.469],[0.461,-6.602],[0.3,-6.602],[0.23,-6.588],[0.208,-6.567],[0.216,-6.546],[0.342,-6.448],[0.461,-6.441],[0.552,-6.412]]],[[[-0.359,-6.434],[-0.31,-6.497],[-0.226,-6.532],[-0.191,-6.567],[-0.226,-6.588],[-0.324,-6.595],[-0.401,-6.595],[-0.5,-6.567],[-0.528,-6.434],[-0.443,-6.434],[-0.436,-6.448],[-0.359,-6.434]]]]},"properties":{"abbr":"IB","name":"interstitial nucleus of the medulla","plate":62,"ap_bregma_mm":-13.55,"area_mm2":0.0765,"traced_fraction":[0.984,1.0],"n_labels":2,"no_drawn_outline":false}},{"type":"Feature","geometry":{"type":"MultiPolygon","coordinates":[[[[-1.089,-6.616],[-1.025,-6.687],[-0.542,-6.687],[-0.542,-6.743],[-0.507,-6.806],[-0.5,-6.877],[-0.507,-6.912],[-0.528,-6.919],[-0.556,-6.968],[-0.584,-7.088],[-1.011,-7.088],[-1.11,-7.193],[-1.215,-7.13],[-1.32,-7.13],[-1.327,-6.989],[-1.327,-6.975],[-1.264,-6.912],[-1.145,-6.666],[-1.103,-6.616],[-1.089,-6.616]]],[[[0.461,-6.673],[1.064,-6.673],[1.162,-6.926],[1.267,-7.109],[1.246,-7.123],[1.19,-7.123],[1.19,-7.2],[1.092,-7.193],[1.001,-7.249],[0.994,-7.179],[0.973,-7.151],[0.973,-7.046],[0.51,-7.046],[0.419,-6.94],[0.412,-6.926],[0.398,-6.919],[0.391,-6.884],[0.398,-6.834],[0.454,-6.757],[0.461,-6.673]]]]},"properties":{"abbr":"IRt","name":"intermediate reticular nucleus","plate":62,"ap_bregma_mm":-13.55,"area_mm2":0.6123,"traced_fraction":[0.53,0.504],"n_labels":2,"no_drawn_outline":true}},{"type":"Feature","geometry":{"type":"MultiPolygon","coordinates":[[[[-0.647,-6.3],[-0.605,-6.328],[-0.549,-6.427],[-0.528,-6.434],[-0.5,-6.567],[-0.542,-6.687],[-1.025,-6.687],[-1.089,-6.616],[-1.074,-6.581],[-1.004,-6.511],[-0.941,-6.469],[-0.78,-6.398],[-0.647,-6.3]]],[[[0.615,-6.3],[0.622,-6.3],[0.671,-6.314],[0.776,-6.377],[0.945,-6.504],[1.008,-6.567],[1.064,-6.673],[0.461,-6.673],[0.461,-6.602],[0.538,-6.469],[0.552,-6.412],[0.615,-6.3]]]]},"properties":{"abbr":"MdD","name":"medullary reticular nucleus, dorsal part","plate":62,"ap_bregma_mm":-13.55,"area_mm2":0.2877,"traced_fraction":[0.634,0.643],"n_labels":2,"no_drawn_outline":true}},{"type":"Feature","geometry":{"type":"MultiPolygon","coordinates":[[[[0.51,-7.046],[0.973,-7.046],[0.973,-7.151],[0.994,-7.179],[1.001,-7.249],[0.917,-7.327],[0.678,-7.489],[0.587,-7.524],[0.489,-7.531],[0.531,-7.263],[0.531,-7.095],[0.51,-7.046]]],[[[-0.584,-7.088],[-0.577,-7.355],[-0.521,-7.587],[-0.703,-7.545],[-0.892,-7.411],[-1.032,-7.278],[-1.046,-7.278],[-1.11,-7.193],[-1.011,-7.088],[-0.584,-7.088]]]]},"properties":{"abbr":"MdV","name":"medullary reticular nucleus, ventral part","plate":62,"ap_bregma_mm":-13.55,"area_mm2":0.3595,"traced_fraction":[0.645,0.712],"n_labels":2,"no_drawn_outline":true}},{"type":"Feature","geometry":{"type":"MultiPolygon","coordinates":[[[[0.012,-6.096],[0.061,-6.117],[0.195,-6.11],[0.195,-6.166],[0.11,-6.335],[0.117,-6.356],[0.103,-6.356],[0.089,-6.384],[0.089,-6.441],[0.026,-6.518],[0.026,-6.56],[0.061,-6.581],[0.145,-6.574],[0.145,-6.694],[0.117,-6.694],[0.117,-6.673],[-0.163,-6.673],[-0.163,-6.567],[-0.065,-6.574],[-0.016,-6.511],[0.005,-6.483],[0.005,-6.406],[-0.016,-6.328],[-0.016,-6.187],[-0.002,-6.117],[0.012,-6.103],[0.012,-6.096]]]]},"properties":{"abbr":"MnA","name":"median accessory nucleus of the medulla","plate":62,"ap_bregma_mm":-13.55,"area_mm2":0.0892,"traced_fraction":[0.72],"n_labels":1,"no_drawn_outline":true}},{"type":"Feature","geometry":{"type":"MultiPolygon","coordinates":[[[[-0.5,-6.567],[-0.401,-6.595],[-0.226,-6.588],[-0.191,-6.567],[-0.163,-6.567],[-0.163,-6.673],[0.117,-6.673],[0.117,-6.694],[0.145,-6.694],[0.145,-6.574],[0.208,-6.567],[0.23,-6.588],[0.3,-6.602],[0.461,-6.602],[0.461,-6.673],[0.454,-6.757],[0.405,-6.82],[0.391,-6.884],[0.272,-6.834],[0.117,-6.834],[0.04,-6.898],[0.026,-6.933],[0.026,-6.996],[0.054,-7.031],[0.089,-7.046],[0.195,-7.046],[0.349,-6.996],[0.398,-6.968],[0.412,-6.94],[0.419,-6.94],[0.51,-7.046],[0.531,-7.095],[0.531,-7.263],[0.489,-7.531],[0.454,-7.566],[0.44,-7.552],[0.44,-7.341],[0.405,-7.228],[0.37,-7.2],[0.328,-7.214],[0.251,-7.32],[0.153,-7.144],[0.082,-7.088],[0.026,-7.074],[-0.03,-7.046],[-0.121,-7.074],[-0.17,-7.116],[-0.205,-7.193],[-0.219,-7.193],[-0.261,-7.285],[-0.366,-7.207],[-0.401,-7.207],[-0.43,-7.235],[-0.458,-7.306],[-0.479,-7.425],[-0.479,-7.58],[-0.493,-7.622],[-0.507,-7.622],[-0.521,-7.587],[-0.577,-7.355],[-0.584,-7.088],[-0.556,-6.968],[-0.528,-6.919],[-0.507,-6.912],[-0.422,-6.975],[-0.282,-7.031],[-0.156,-7.038],[-0.093,-7.003],[-0.093,-6.926],[-0.114,-6.877],[-0.184,-6.834],[-0.338,-6.827],[-0.5,-6.877],[-0.507,-6.806],[-0.542,-6.743],[-0.542,-6.687],[-0.5,-6.567]]],[[[-0.044,-6.842],[-0.058,-6.891],[-0.051,-6.912],[-0.03,-6.919],[-0.016,-6.905],[-0.016,-6.856],[-0.023,-6.842],[-0.044,-6.842]]]]},"properties":{"abbr":"SolC","name":"nucleus of the solitary tract, commissural part","plate":62,"ap_bregma_mm":-13.55,"area_mm2":0.5005,"traced_fraction":[0.92,1.0],"n_labels":1,"no_drawn_outline":false}},{"type":"Feature","geometry":{"type":"MultiPolygon","coordinates":[[[[-0.661,-6.187],[-0.633,-6.258],[-0.654,-6.279],[-0.647,-6.3],[-0.78,-6.398],[-0.941,-6.469],[-1.004,-6.511],[-1.074,-6.581],[-1.089,-6.616],[-1.103,-6.616],[-1.145,-6.666],[-1.264,-6.912],[-1.327,-6.975],[-1.327,-6.989],[-1.425,-7.038],[-1.495,-6.919],[-1.509,-6.792],[-1.453,-6.581],[-1.362,-6.434],[-1.285,-6.356],[-1.229,-6.321],[-1.173,-6.293],[-1.061,-6.265],[-1.025,-6.237],[-0.787,-6.173],[-0.661,-6.187]]],[[[1.323,-7.137],[1.302,-7.137],[1.267,-7.109],[1.162,-6.926],[1.064,-6.673],[1.008,-6.567],[0.945,-6.504],[0.776,-6.377],[0.685,-6.321],[0.622,-6.3],[0.671,-6.194],[0.685,-6.194],[0.805,-6.173],[0.91,-6.194],[1.015,-6.244],[1.064,-6.251],[1.211,-6.321],[1.344,-6.469],[1.415,-6.638],[1.435,-6.757],[1.435,-6.856],[1.401,-7.003],[1.352,-7.109],[1.323,-7.137]]]]},"properties":{"abbr":"Sp5C","name":"spinal trigeminal nucleus, caudal part","plate":62,"ap_bregma_mm":-13.55,"area_mm2":0.6169,"traced_fraction":[0.975,0.997],"n_labels":2,"no_drawn_outline":false}},{"type":"Feature","geometry":{"type":"MultiPolygon","coordinates":[[[[0.784,-5.983],[0.755,-6.082],[0.692,-6.152],[0.685,-6.194],[0.671,-6.194],[0.622,-6.3],[0.615,-6.3],[0.44,-6.3],[0.363,-6.335],[0.356,-6.286],[0.321,-6.251],[0.272,-6.251],[0.223,-6.286],[0.159,-6.363],[0.117,-6.356],[0.11,-6.335],[0.195,-6.166],[0.195,-6.11],[0.23,-6.103],[0.335,-6.005],[0.391,-5.976],[0.615,-5.969],[0.784,-5.983]]],[[[-0.71,-5.998],[-0.464,-6.026],[-0.191,-6.096],[-0.198,-6.194],[-0.177,-6.244],[-0.177,-6.286],[-0.198,-6.286],[-0.254,-6.244],[-0.282,-6.244],[-0.331,-6.286],[-0.366,-6.349],[-0.5,-6.321],[-0.521,-6.3],[-0.633,-6.258],[-0.661,-6.187],[-0.71,-6.082],[-0.71,-5.998]]]]},"properties":{"abbr":"cu","name":"cuneate fasciculus","plate":62,"ap_bregma_mm":-13.55,"area_mm2":0.2828,"traced_fraction":[1.0,1.0],"n_labels":2,"no_drawn_outline":false}},{"type":"Feature","geometry":{"type":"MultiPolygon","coordinates":[[[[-0.177,-6.286],[-0.079,-6.412],[-0.058,-6.483],[-0.016,-6.511],[-0.065,-6.574],[-0.163,-6.567],[-0.191,-6.567],[-0.226,-6.532],[-0.31,-6.497],[-0.359,-6.434],[-0.366,-6.349],[-0.331,-6.286],[-0.282,-6.244],[-0.254,-6.244],[-0.198,-6.286],[-0.177,-6.286]]],[[[0.363,-6.335],[0.342,-6.448],[0.216,-6.546],[0.208,-6.567],[0.145,-6.574],[0.061,-6.581],[0.026,-6.56],[0.026,-6.518],[0.089,-6.441],[0.089,-6.384],[0.103,-6.356],[0.117,-6.356],[0.159,-6.363],[0.166,-6.342],[0.272,-6.251],[0.321,-6.251],[0.356,-6.286],[0.363,-6.335]]]]},"properties":{"abbr":"dcs","name":"dorsal corticospinal tract","plate":62,"ap_bregma_mm":-13.55,"area_mm2":0.1366,"traced_fraction":[0.972,1.0],"n_labels":2,"no_drawn_outline":false}},{"type":"Feature","geometry":{"type":"MultiPolygon","coordinates":[[[[-1.11,-7.193],[-1.053,-7.271],[-0.892,-7.411],[-0.962,-7.482],[-0.962,-7.622],[-0.976,-7.636],[-1.061,-7.636],[-1.061,-7.84],[-1.089,-7.819],[-1.11,-7.805],[-1.271,-7.693],[-1.404,-7.559],[-1.516,-7.397],[-1.586,-7.242],[-1.488,-7.179],[-1.32,-7.13],[-1.215,-7.13],[-1.11,-7.193]]],[[[1.19,-7.2],[1.316,-7.271],[1.422,-7.362],[1.443,-7.362],[1.379,-7.467],[1.352,-7.489],[1.127,-7.489],[1.113,-7.474],[1.043,-7.467],[1.043,-7.453],[0.917,-7.327],[1.001,-7.249],[1.092,-7.193],[1.19,-7.2]]]]},"properties":{"abbr":"dsc","name":"dorsal spinocerebellar tract","plate":62,"ap_bregma_mm":-13.55,"area_mm2":0.3728,"traced_fraction":[0.766,0.661],"n_labels":2,"no_drawn_outline":true}},{"type":"Feature","geometry":{"type":"MultiPolygon","coordinates":[[[[0.012,-6.096],[0.012,-6.103],[-0.002,-6.117],[-0.016,-6.187],[-0.016,-6.328],[0.005,-6.406],[0.005,-6.483],[-0.016,-6.511],[-0.058,-6.483],[-0.079,-6.412],[-0.177,-6.286],[-0.177,-6.244],[-0.198,-6.194],[-0.191,-6.096],[-0.128,-6.103],[-0.044,-6.082],[0.012,-6.096]]]]},"properties":{"abbr":"gr","name":"gracile fasciculus","plate":62,"ap_bregma_mm":-13.55,"area_mm2":0.0556,"traced_fraction":[1.0],"n_labels":1,"no_drawn_outline":false}},{"type":"Feature","geometry":{"type":"MultiPolygon","coordinates":[[[[0.026,-7.074],[0.082,-7.088],[0.153,-7.144],[0.251,-7.32],[0.251,-7.376],[0.293,-7.51],[0.3,-7.615],[0.321,-7.671],[0.026,-7.686],[0.012,-7.636],[-0.051,-7.65],[-0.359,-7.65],[-0.261,-7.285],[-0.219,-7.193],[-0.205,-7.193],[-0.135,-7.193],[-0.135,-7.285],[-0.051,-7.285],[-0.044,-7.418],[-0.037,-7.439],[-0.016,-7.439],[-0.002,-7.221],[0.012,-7.2],[0.012,-7.102],[0.026,-7.074]]]]},"properties":{"abbr":"mlf","name":"medial longitudinal fasciculus","plate":62,"ap_bregma_mm":-13.55,"area_mm2":0.2591,"traced_fraction":[0.761],"n_labels":2,"no_drawn_outline":false}},{"type":"Feature","geometry":{"type":"MultiPolygon","coordinates":[[[[0.026,-7.074],[0.012,-7.102],[0.012,-7.2],[-0.002,-7.221],[-0.065,-7.207],[-0.051,-7.285],[-0.135,-7.285],[-0.135,-7.193],[-0.205,-7.193],[-0.17,-7.116],[-0.121,-7.074],[-0.058,-7.046],[-0.002,-7.053],[0.026,-7.074]]]]},"properties":{"abbr":"pyx","name":"pyramidal decussation","plate":62,"ap_bregma_mm":-13.55,"area_mm2":0.0334,"traced_fraction":[0.758],"n_labels":1,"no_drawn_outline":false}},{"type":"Feature","geometry":{"type":"MultiPolygon","coordinates":[[[[-1.65,-6.926],[-1.621,-6.996],[-1.558,-7.067],[-1.481,-7.081],[-1.425,-7.038],[-1.327,-6.989],[-1.32,-7.13],[-1.488,-7.179],[-1.586,-7.242],[-1.691,-7.046],[-1.712,-6.94],[-1.65,-6.926]]],[[[1.513,-7.024],[1.604,-7.038],[1.576,-7.144],[1.499,-7.292],[1.443,-7.362],[1.422,-7.362],[1.316,-7.271],[1.19,-7.2],[1.19,-7.123],[1.246,-7.123],[1.267,-7.109],[1.302,-7.137],[1.323,-7.137],[1.323,-7.179],[1.352,-7.207],[1.407,-7.207],[1.471,-7.144],[1.513,-7.024]]]]},"properties":{"abbr":"rs","name":"rubrospinal tract","plate":62,"ap_bregma_mm":-13.55,"area_mm2":0.1114,"traced_fraction":[0.931,0.898],"n_labels":2,"no_drawn_outline":false}},{"type":"Feature","geometry":{"type":"MultiPolygon","coordinates":[[[[-0.71,-5.998],[-0.71,-6.082],[-0.794,-6.054],[-0.857,-6.054],[-1.032,-6.096],[-1.194,-6.159],[-1.243,-6.194],[-1.285,-6.202],[-1.446,-6.314],[-1.544,-6.441],[-1.629,-6.595],[-1.663,-6.764],[-1.65,-6.926],[-1.712,-6.94],[-1.748,-6.827],[-1.748,-6.616],[-1.678,-6.419],[-1.629,-6.363],[-1.586,-6.286],[-1.46,-6.159],[-1.285,-6.061],[-1.11,-5.998],[-0.969,-5.969],[-0.829,-5.969],[-0.71,-5.998]]],[[[0.784,-5.983],[1.001,-5.998],[1.155,-6.04],[1.344,-6.138],[1.492,-6.279],[1.604,-6.497],[1.639,-6.68],[1.639,-6.926],[1.604,-7.038],[1.513,-7.024],[1.548,-6.856],[1.548,-6.652],[1.513,-6.525],[1.485,-6.49],[1.471,-6.434],[1.379,-6.293],[1.274,-6.202],[1.176,-6.145],[0.896,-6.075],[0.755,-6.082],[0.784,-5.983]]]]},"properties":{"abbr":"sp5","name":"spinal trigeminal tract","plate":62,"ap_bregma_mm":-13.55,"area_mm2":0.3122,"traced_fraction":[0.998,0.991],"n_labels":2,"no_drawn_outline":false}},{"type":"Feature","geometry":{"type":"MultiPolygon","coordinates":[[[[0.321,-7.671],[0.335,-7.7],[0.391,-7.7],[0.398,-8.072],[0.321,-8.086],[0.117,-8.086],[0.082,-8.065],[0.061,-7.84],[0.026,-7.686],[0.321,-7.671]]]]},"properties":{"abbr":"ts","name":"tectospinal tract","plate":62,"ap_bregma_mm":-13.55,"area_mm2":0.1338,"traced_fraction":[0.647],"n_labels":1,"no_drawn_outline":true}},{"type":"Feature","geometry":{"type":"MultiPolygon","coordinates":[[[[0.917,-7.327],[1.043,-7.453],[1.043,-7.467],[1.085,-7.467],[1.127,-7.489],[1.352,-7.489],[1.352,-7.503],[1.316,-7.531],[1.246,-7.629],[1.211,-7.65],[1.106,-7.791],[0.994,-7.875],[0.692,-8.009],[0.51,-8.058],[0.398,-8.072],[0.391,-7.7],[0.44,-7.636],[0.454,-7.566],[0.489,-7.531],[0.587,-7.524],[0.678,-7.489],[0.917,-7.327]]],[[[-0.892,-7.411],[-0.703,-7.545],[-0.521,-7.587],[-0.507,-7.622],[-0.493,-7.622],[-0.472,-7.686],[-0.43,-7.721],[-0.387,-7.721],[-0.359,-7.65],[-0.051,-7.65],[-0.065,-7.735],[-0.072,-7.798],[-0.1,-8.072],[-0.184,-8.093],[-0.514,-8.086],[-0.717,-8.044],[-0.927,-7.946],[-1.032,-7.861],[-1.061,-7.84],[-1.061,-7.636],[-0.976,-7.636],[-0.962,-7.622],[-0.962,-7.482],[-0.892,-7.411]]]]},"properties":{"abbr":"vsc","name":"ventral spinocerebellar tract","plate":62,"ap_bregma_mm":-13.55,"area_mm2":0.8329,"traced_fraction":[0.724,0.762],"n_labels":2,"no_drawn_outline":true}},{"type":"Feature","geometry":{"type":"Polygon","coordinates":[[[-0.507,-6.912],[-0.5,-6.877],[-0.338,-6.827],[-0.184,-6.834],[-0.114,-6.877],[-0.093,-6.926],[-0.093,-7.003],[-0.156,-7.038],[-0.282,-7.031],[-0.422,-6.975],[-0.507,-6.912]]]},"properties":{"abbr":null,"name":"unnamed sealed face","plate":62,"ap_bregma_mm":-13.55,"index":0}},{"type":"Feature","geometry":{"type":"Polygon","coordinates":[[[0.391,-6.884],[0.398,-6.919],[0.412,-6.926],[0.412,-6.94],[0.398,-6.968],[0.349,-6.996],[0.195,-7.046],[0.089,-7.046],[0.054,-7.031],[0.026,-6.996],[0.026,-6.933],[0.04,-6.898],[0.117,-6.834],[0.272,-6.834],[0.391,-6.884]]]},"properties":{"abbr":null,"name":"unnamed sealed face","plate":62,"ap_bregma_mm":-13.55,"index":1}},{"type":"Feature","geometry":{"type":"MultiPolygon","coordinates":[[[[0.3,-8.079],[0.124,-8.079],[0.082,-8.058],[0.061,-7.854],[0.012,-7.629],[-0.058,-7.636],[-0.107,-8.065],[-0.135,-8.079],[-0.233,-8.086],[-0.5,-8.079],[-0.71,-8.037],[-0.913,-7.946],[-1.278,-7.678],[-1.397,-7.559],[-1.46,-7.474],[-1.523,-7.376],[-1.691,-7.031],[-1.748,-6.813],[-1.748,-6.623],[-1.684,-6.434],[-1.579,-6.279],[-1.467,-6.166],[-1.404,-6.124],[-1.299,-6.068],[-1.131,-6.005],[-0.955,-5.969],[-0.85,-5.969],[-0.682,-6.005],[-0.485,-6.026],[-0.156,-6.103],[-0.023,-6.082],[0.068,-6.117],[0.174,-6.117],[0.223,-6.103],[0.335,-6.005],[0.398,-5.976],[0.524,-5.969],[0.868,-5.983],[1.022,-6.005],[1.162,-6.047],[1.344,-6.145],[1.429,-6.216],[1.499,-6.3],[1.597,-6.497],[1.632,-6.701],[1.632,-6.898],[1.618,-6.975],[1.569,-7.13],[1.499,-7.271],[1.365,-7.467],[1.078,-7.805],[0.959,-7.882],[0.699,-7.995],[0.496,-8.051],[0.328,-8.072],[0.3,-8.079]]]]},"properties":{"abbr":"brain_outline","name":"outline of the section","plate":62,"ap_bregma_mm":-13.55}}]}
