{"type":"FeatureCollection","name":"GerbilAtlas plate 12","note":"Region extents cut from the atlas drawing (METHODS.md, Region extents). Coordinates are [ML, DV] in mm, ML positive to the right of the plate as printed, DV negative below the dorsal surface; AP is the plate bregma. traced_fraction is the share of each polygon boundary the atlas actually draws; below 0.5 the boundary is an estimate. no_drawn_outline marks a feature that lies only inside boundaries the atlas draws round more than one name and prints nothing within, so the whole of its outline is where the extraction cut it. Not a segmentation.","plate":12,"ap_bregma_mm":3.95,"features":[{"type":"Feature","geometry":{"type":"MultiPolygon","coordinates":[[[[2.467,-2.638],[2.397,-2.757],[1.927,-3.383],[1.492,-4.023],[1.471,-4.023],[1.436,-3.988],[1.338,-3.876],[1.275,-3.833],[1.05,-3.615],[1.036,-3.615],[0.272,-2.863],[0.174,-2.8],[0.188,-2.757],[0.307,-2.645],[0.405,-2.596],[0.651,-2.546],[1.071,-2.42],[1.415,-2.363],[1.786,-2.377],[2.067,-2.448],[2.467,-2.638]]],[[[-0.184,-2.828],[-0.198,-2.828],[-0.499,-3.102],[-0.513,-3.102],[-1.081,-3.658],[-1.081,-3.672],[-1.2,-3.784],[-1.2,-3.798],[-1.397,-4.002],[-1.46,-4.087],[-1.544,-4.164],[-1.551,-4.213],[-1.621,-4.248],[-1.873,-3.214],[-2.021,-2.701],[-2.035,-2.61],[-1.986,-2.589],[-1.656,-2.532],[-1.369,-2.504],[-0.829,-2.518],[-0.541,-2.574],[-0.359,-2.645],[-0.226,-2.75],[-0.184,-2.828]]]]},"properties":{"abbr":"M2","name":"secondary motor cortex","plate":12,"ap_bregma_mm":3.95,"area_mm2":3.7603,"traced_fraction":[1.0,1.0],"n_labels":2,"no_drawn_outline":false}},{"type":"Feature","geometry":{"type":"MultiPolygon","coordinates":[[[[-2.035,-2.61],[-2.021,-2.701],[-1.873,-3.214],[-1.621,-4.248],[-1.628,-4.262],[-1.635,-4.269],[-1.691,-4.262],[-1.937,-4.284],[-2.547,-4.368],[-2.876,-4.396],[-2.967,-4.417],[-3.1,-4.424],[-3.149,-4.445],[-3.213,-4.333],[-3.262,-4.185],[-3.311,-4.03],[-3.332,-3.89],[-3.332,-3.7],[-3.311,-3.566],[-3.248,-3.383],[-3.234,-3.376],[-3.185,-3.264],[-3.121,-3.179],[-2.946,-3.004],[-2.869,-2.961],[-2.778,-2.884],[-2.483,-2.743],[-2.035,-2.61]]],[[[2.467,-2.638],[2.586,-2.694],[2.677,-2.757],[2.705,-2.792],[2.789,-2.842],[2.908,-2.968],[3.0,-3.102],[3.112,-3.369],[3.154,-3.58],[3.168,-4.023],[3.14,-4.178],[3.077,-4.396],[2.971,-4.614],[1.983,-4.213],[1.759,-4.136],[1.723,-4.108],[1.66,-4.094],[1.611,-4.065],[1.569,-4.065],[1.492,-4.037],[1.492,-4.023],[1.927,-3.383],[2.397,-2.757],[2.467,-2.638]]]]},"properties":{"abbr":"M1","name":"primary motor cortex","plate":12,"ap_bregma_mm":3.95,"area_mm2":4.1563,"traced_fraction":[1.0,1.0],"n_labels":2,"no_drawn_outline":false}},{"type":"Feature","geometry":{"type":"MultiPolygon","coordinates":[[[[-0.043,-3.58],[-0.043,-3.911],[-0.078,-4.298],[-0.093,-4.966],[-0.163,-4.952],[-0.338,-4.86],[-1.06,-4.558],[-1.39,-4.396],[-1.439,-4.389],[-1.537,-4.333],[-1.607,-4.269],[-1.628,-4.269],[-1.628,-4.262],[-1.621,-4.248],[-1.551,-4.213],[-1.327,-4.129],[-1.165,-4.044],[-0.808,-3.904],[-0.661,-3.826],[-0.499,-3.77],[-0.17,-3.615],[-0.078,-3.58],[-0.043,-3.58]]],[[[0.062,-3.615],[0.146,-3.622],[0.461,-3.735],[0.896,-3.847],[1.31,-3.974],[1.436,-3.988],[1.471,-4.023],[1.492,-4.023],[1.492,-4.037],[1.485,-4.044],[1.471,-4.044],[1.38,-4.136],[1.338,-4.143],[1.212,-4.248],[0.84,-4.487],[0.377,-4.72],[0.167,-4.846],[0.069,-4.874],[0.062,-3.615]]]]},"properties":{"abbr":"PrL","name":"prelimbic cortex","plate":12,"ap_bregma_mm":3.95,"area_mm2":2.1026,"traced_fraction":[1.0,1.0],"n_labels":2,"no_drawn_outline":false}},{"type":"Feature","geometry":{"type":"MultiPolygon","coordinates":[[[[1.485,-4.044],[1.583,-4.445],[1.212,-4.445],[1.226,-4.403],[1.352,-4.22],[1.38,-4.164],[1.38,-4.136],[1.471,-4.044],[1.485,-4.044]]],[[[-1.628,-4.269],[-1.607,-4.269],[-1.537,-4.333],[-1.439,-4.389],[-1.432,-4.424],[-1.383,-4.487],[-1.446,-4.544],[-1.46,-4.572],[-1.46,-4.621],[-1.719,-4.621],[-1.705,-4.53],[-1.628,-4.269]]]]},"properties":{"abbr":"Cl","name":"claustrum","plate":12,"ap_bregma_mm":3.95,"area_mm2":0.1571,"traced_fraction":[0.746,0.66],"n_labels":2,"no_drawn_outline":true}},{"type":"Feature","geometry":{"type":"MultiPolygon","coordinates":[[[[1.569,-4.065],[1.611,-4.065],[1.66,-4.094],[1.723,-4.108],[1.759,-4.136],[1.983,-4.213],[2.971,-4.614],[2.929,-4.698],[2.656,-5.092],[2.516,-4.966],[2.502,-4.966],[2.382,-4.846],[2.369,-4.846],[2.312,-4.783],[2.298,-4.783],[2.067,-4.558],[2.053,-4.558],[1.836,-4.333],[1.822,-4.333],[1.583,-4.101],[1.569,-4.065]]],[[[-1.691,-4.262],[-1.691,-4.284],[-1.796,-4.368],[-1.986,-4.473],[-2.308,-4.691],[-2.715,-4.924],[-2.82,-5.001],[-3.03,-4.691],[-3.149,-4.445],[-3.1,-4.424],[-1.691,-4.262]]]]},"properties":{"abbr":"Fr3","name":"frontal cortex, area 3","plate":12,"ap_bregma_mm":3.95,"area_mm2":0.9306,"traced_fraction":[1.0,1.0],"n_labels":2,"no_drawn_outline":false}},{"type":"Feature","geometry":{"type":"MultiPolygon","coordinates":[[[[1.492,-4.037],[1.569,-4.065],[1.583,-4.101],[1.822,-4.333],[1.836,-4.333],[2.053,-4.558],[2.067,-4.558],[2.298,-4.783],[2.312,-4.783],[2.369,-4.846],[2.382,-4.846],[2.502,-4.966],[2.516,-4.966],[2.656,-5.092],[2.207,-5.655],[2.172,-5.683],[2.172,-5.697],[2.081,-5.753],[2.025,-5.761],[1.871,-5.669],[1.871,-5.585],[1.843,-5.444],[1.737,-5.085],[1.681,-4.811],[1.583,-4.445],[1.485,-4.044],[1.492,-4.037]]],[[[-1.691,-4.262],[-1.635,-4.269],[-1.628,-4.269],[-1.705,-4.53],[-1.719,-4.621],[-1.733,-4.635],[-1.796,-4.867],[-1.922,-5.451],[-1.958,-5.55],[-1.986,-5.69],[-1.986,-5.767],[-2.063,-5.81],[-2.175,-5.817],[-2.287,-5.746],[-2.364,-5.648],[-2.666,-5.24],[-2.68,-5.205],[-2.722,-5.163],[-2.82,-5.001],[-2.715,-4.924],[-2.308,-4.691],[-1.986,-4.473],[-1.796,-4.368],[-1.726,-4.319],[-1.691,-4.284],[-1.691,-4.262]]]]},"properties":{"abbr":"DLO","name":"dorsolateral orbital cortex","plate":12,"ap_bregma_mm":3.95,"area_mm2":1.7253,"traced_fraction":[1.0,1.0],"n_labels":4,"no_drawn_outline":false}},{"type":"Feature","geometry":{"type":"MultiPolygon","coordinates":[[[[1.212,-4.445],[1.583,-4.445],[1.681,-4.811],[1.737,-5.085],[1.843,-5.444],[1.871,-5.585],[1.871,-5.669],[1.744,-5.627],[1.485,-5.571],[1.296,-5.571],[1.155,-5.564],[1.099,-5.62],[1.078,-5.62],[1.064,-5.62],[0.938,-5.493],[0.931,-5.472],[0.588,-5.472],[0.637,-5.331],[0.777,-5.064],[1.015,-4.72],[1.036,-4.706],[1.064,-4.649],[1.085,-4.635],[1.191,-4.459],[1.212,-4.445]]],[[[-1.383,-4.487],[-1.327,-4.53],[-1.327,-4.544],[-1.214,-4.663],[-1.011,-4.959],[-0.878,-5.191],[-0.85,-5.268],[-0.836,-5.275],[-0.759,-5.479],[-1.081,-5.479],[-1.081,-5.789],[-1.116,-5.782],[-1.284,-5.669],[-1.354,-5.655],[-1.383,-5.641],[-1.467,-5.641],[-1.558,-5.662],[-1.635,-5.697],[-1.642,-5.683],[-1.726,-5.69],[-1.81,-5.718],[-1.838,-5.732],[-1.838,-5.746],[-1.909,-5.761],[-1.986,-5.767],[-1.986,-5.69],[-1.958,-5.55],[-1.922,-5.451],[-1.796,-4.867],[-1.733,-4.635],[-1.719,-4.621],[-1.46,-4.621],[-1.46,-4.572],[-1.446,-4.544],[-1.383,-4.487]]]]},"properties":{"abbr":"LO","name":"lateral orbital cortex","plate":12,"ap_bregma_mm":3.95,"area_mm2":1.9293,"traced_fraction":[0.812,0.779],"n_labels":2,"no_drawn_outline":false}},{"type":"Feature","geometry":{"type":"MultiPolygon","coordinates":[[[[1.38,-4.136],[1.38,-4.164],[1.352,-4.22],[1.226,-4.403],[1.212,-4.445],[1.191,-4.459],[1.085,-4.635],[1.064,-4.649],[1.036,-4.706],[1.015,-4.72],[0.777,-5.064],[0.637,-5.331],[0.588,-5.472],[0.546,-5.599],[0.532,-5.753],[0.125,-5.803],[0.069,-5.149],[0.069,-4.874],[0.125,-4.867],[0.377,-4.72],[0.84,-4.487],[1.212,-4.248],[1.338,-4.143],[1.38,-4.136]]],[[[-1.439,-4.389],[-1.39,-4.396],[-1.06,-4.558],[-0.338,-4.86],[-0.163,-4.952],[-0.093,-4.966],[-0.1,-5.324],[-0.128,-5.613],[-0.163,-5.817],[-0.408,-5.803],[-0.632,-5.746],[-0.689,-5.746],[-0.724,-5.571],[-0.759,-5.479],[-0.836,-5.275],[-0.85,-5.268],[-0.878,-5.191],[-1.011,-4.959],[-1.214,-4.663],[-1.327,-4.544],[-1.327,-4.53],[-1.383,-4.487],[-1.432,-4.424],[-1.439,-4.389]]]]},"properties":{"abbr":"MO","name":"medial orbital cortex","plate":12,"ap_bregma_mm":3.95,"area_mm2":1.6476,"traced_fraction":[1.0,1.0],"n_labels":2,"no_drawn_outline":false}},{"type":"Feature","geometry":{"type":"MultiPolygon","coordinates":[[[[0.588,-5.472],[0.931,-5.472],[0.938,-5.493],[1.064,-5.62],[1.078,-5.62],[1.092,-5.627],[1.092,-5.655],[1.057,-5.704],[1.001,-5.683],[0.945,-5.753],[0.728,-5.965],[0.672,-6.0],[0.588,-6.021],[0.538,-5.88],[0.532,-5.753],[0.538,-5.634],[0.588,-5.472]]],[[[-0.759,-5.479],[-0.724,-5.571],[-0.689,-5.746],[-0.703,-5.929],[-0.731,-6.007],[-0.752,-6.007],[-0.822,-5.957],[-0.878,-5.936],[-0.906,-5.908],[-0.934,-5.901],[-0.969,-5.859],[-1.032,-5.845],[-1.067,-5.803],[-1.081,-5.803],[-1.081,-5.789],[-1.081,-5.479],[-0.759,-5.479]]]]},"properties":{"abbr":"VO","name":"ventral orbital cortex","plate":12,"ap_bregma_mm":3.95,"area_mm2":0.3589,"traced_fraction":[0.722,0.591],"n_labels":2,"no_drawn_outline":true}},{"type":"Feature","geometry":{"type":"MultiPolygon","coordinates":[[[[-1.354,-5.655],[-1.348,-5.697],[-1.277,-5.824],[-1.263,-5.887],[-1.46,-5.887],[-1.726,-5.866],[-1.761,-5.887],[-1.894,-5.915],[-1.937,-5.957],[-1.937,-6.028],[-1.873,-6.14],[-1.824,-6.197],[-1.965,-6.204],[-2.0,-6.182],[-2.014,-6.182],[-2.021,-6.204],[-2.042,-6.14],[-2.098,-6.049],[-2.098,-6.042],[-2.098,-6.021],[-2.105,-5.922],[-2.084,-5.887],[-2.0,-5.824],[-1.958,-5.81],[-1.909,-5.761],[-1.838,-5.746],[-1.775,-5.746],[-1.663,-5.718],[-1.635,-5.697],[-1.6,-5.676],[-1.467,-5.641],[-1.383,-5.641],[-1.354,-5.655]]],[[[1.611,-5.796],[1.695,-5.81],[1.78,-5.852],[1.801,-5.887],[1.794,-5.993],[1.78,-6.0],[1.759,-6.063],[1.66,-6.197],[1.415,-6.464],[1.38,-6.527],[1.345,-6.661],[1.282,-6.78],[1.176,-6.9],[1.142,-6.914],[1.113,-6.872],[1.113,-6.731],[1.134,-6.675],[1.184,-6.605],[1.247,-6.534],[1.338,-6.393],[1.366,-6.372],[1.38,-6.337],[1.408,-6.316],[1.464,-6.225],[1.534,-6.112],[1.555,-6.098],[1.555,-6.077],[1.611,-6.014],[1.611,-5.95],[1.611,-5.796]]],[[[-2.105,-6.042],[-2.098,-6.042],[-2.098,-6.049],[-2.105,-6.042]]]]},"properties":{"abbr":"Pir","name":"piriform cortex","plate":12,"ap_bregma_mm":3.95,"area_mm2":0.3556,"traced_fraction":[0.973,0.962,1.0],"n_labels":2,"no_drawn_outline":false}},{"type":"Feature","geometry":{"type":"MultiPolygon","coordinates":[[[[1.611,-5.796],[1.611,-5.95],[1.541,-5.929],[1.338,-5.936],[1.31,-5.95],[1.148,-5.965],[0.98,-6.028],[0.931,-6.028],[0.938,-5.965],[0.987,-5.866],[1.05,-5.866],[1.205,-5.817],[1.345,-5.796],[1.611,-5.796]]],[[[-1.263,-5.887],[-1.214,-6.028],[-1.305,-6.042],[-1.432,-6.042],[-1.565,-6.021],[-1.761,-6.028],[-1.775,-6.042],[-1.761,-6.112],[-1.74,-6.126],[-1.74,-6.147],[-1.642,-6.267],[-1.628,-6.302],[-1.593,-6.33],[-1.516,-6.457],[-1.439,-6.534],[-1.418,-6.576],[-1.348,-6.647],[-1.333,-6.682],[-1.32,-6.682],[-1.277,-6.752],[-1.277,-6.83],[-1.333,-6.9],[-1.362,-6.879],[-1.376,-6.78],[-1.411,-6.682],[-1.509,-6.583],[-1.565,-6.492],[-1.719,-6.33],[-1.824,-6.197],[-1.873,-6.14],[-1.937,-6.028],[-1.937,-5.957],[-1.894,-5.915],[-1.761,-5.887],[-1.726,-5.866],[-1.46,-5.887],[-1.263,-5.887]]],[[[-0.646,-6.274],[-0.646,-6.471],[-0.296,-6.471],[-0.401,-6.865],[-0.443,-6.949],[-0.492,-6.914],[-0.541,-6.83],[-0.597,-6.78],[-0.682,-6.689],[-0.822,-6.612],[-0.934,-6.576],[-0.913,-6.492],[-0.857,-6.443],[-0.85,-6.422],[-0.871,-6.337],[-0.808,-6.302],[-0.646,-6.274]]]]},"properties":{"abbr":"2","name":"layer 2 of cortex","plate":12,"ap_bregma_mm":3.95,"area_mm2":0.4823,"traced_fraction":[0.943,0.998,0.767],"n_labels":4,"no_drawn_outline":false}},{"type":"Feature","geometry":{"type":"MultiPolygon","coordinates":[[[[-0.689,-5.746],[-0.632,-5.746],[-0.408,-5.803],[-0.163,-5.817],[-0.177,-5.922],[-0.205,-5.993],[-0.212,-6.014],[-0.219,-6.035],[-0.226,-6.049],[-0.233,-6.07],[-0.261,-6.161],[-0.317,-6.161],[-0.478,-6.126],[-0.625,-6.07],[-0.731,-6.007],[-0.703,-5.929],[-0.689,-5.746]]],[[[0.532,-5.753],[0.538,-5.88],[0.588,-6.021],[0.574,-6.056],[0.475,-6.105],[0.181,-6.182],[0.153,-6.077],[0.125,-5.803],[0.532,-5.753]]]]},"properties":{"abbr":"DP","name":"dorsal peduncular cortex","plate":12,"ap_bregma_mm":3.95,"area_mm2":0.3132,"traced_fraction":[1.0,1.0],"n_labels":2,"no_drawn_outline":false}},{"type":"Feature","geometry":{"type":"MultiPolygon","coordinates":[[[[1.611,-5.95],[1.611,-6.014],[1.555,-6.077],[1.555,-6.098],[1.534,-6.112],[1.464,-6.225],[1.345,-6.211],[1.345,-6.19],[1.373,-6.168],[1.408,-6.091],[1.401,-6.028],[1.366,-6.021],[1.331,-6.0],[1.254,-6.007],[1.008,-6.098],[0.945,-6.14],[0.903,-6.133],[0.91,-6.063],[0.931,-6.028],[0.98,-6.028],[1.148,-5.965],[1.31,-5.95],[1.338,-5.936],[1.541,-5.929],[1.611,-5.95]]],[[[-1.214,-6.028],[-1.2,-6.126],[-1.305,-6.112],[-1.425,-6.098],[-1.516,-6.133],[-1.502,-6.218],[-1.439,-6.323],[-1.593,-6.33],[-1.628,-6.302],[-1.642,-6.267],[-1.74,-6.147],[-1.74,-6.126],[-1.761,-6.112],[-1.775,-6.084],[-1.775,-6.042],[-1.761,-6.028],[-1.565,-6.021],[-1.432,-6.042],[-1.214,-6.028]]]]},"properties":{"abbr":"AOD","name":"anterior olfactory nucleus, dorsal part","plate":12,"ap_bregma_mm":3.95,"area_mm2":0.1726,"traced_fraction":[0.976,0.952],"n_labels":2,"no_drawn_outline":false}},{"type":"Feature","geometry":{"type":"MultiPolygon","coordinates":[[[[1.871,-5.669],[2.025,-5.761],[2.046,-5.81],[2.046,-5.901],[2.018,-5.993],[1.934,-6.133],[1.871,-6.274],[1.541,-6.78],[1.485,-6.886],[1.352,-7.02],[1.352,-7.033],[1.296,-7.076],[1.282,-7.076],[1.282,-7.041],[1.317,-6.984],[1.478,-6.801],[1.569,-6.647],[1.583,-6.633],[1.773,-6.337],[1.955,-5.986],[1.983,-5.894],[1.983,-5.81],[1.92,-5.739],[1.78,-5.676],[1.562,-5.62],[1.31,-5.592],[1.296,-5.571],[1.485,-5.571],[1.744,-5.627],[1.871,-5.669]]]]},"properties":{"abbr":"dlo","name":"dorsal lateral olfactory tract","plate":12,"ap_bregma_mm":3.95,"area_mm2":0.1055,"traced_fraction":[1.0],"n_labels":2,"no_drawn_outline":false}},{"type":"Feature","geometry":{"type":"MultiPolygon","coordinates":[[[[-1.354,-5.655],[-1.284,-5.669],[-1.116,-5.782],[-1.081,-5.789],[-1.081,-5.803],[-1.067,-5.803],[-1.032,-5.845],[-0.969,-5.859],[-0.934,-5.901],[-0.906,-5.908],[-0.878,-5.936],[-0.822,-5.957],[-0.752,-6.007],[-0.731,-6.007],[-0.625,-6.07],[-0.478,-6.126],[-0.317,-6.161],[-0.261,-6.161],[-0.261,-6.218],[-0.478,-6.239],[-0.646,-6.274],[-0.808,-6.302],[-0.871,-6.337],[-0.941,-6.274],[-0.983,-6.26],[-1.011,-6.232],[-1.032,-6.232],[-1.046,-6.211],[-1.081,-6.204],[-1.109,-6.175],[-1.144,-6.168],[-1.2,-6.126],[-1.214,-6.028],[-1.263,-5.887],[-1.277,-5.824],[-1.348,-5.697],[-1.354,-5.655]]],[[[1.057,-5.704],[0.987,-5.866],[0.938,-5.965],[0.931,-6.028],[0.91,-6.063],[0.903,-6.133],[0.945,-6.14],[1.008,-6.098],[1.254,-6.007],[1.331,-6.0],[1.366,-6.021],[1.254,-6.105],[1.254,-6.119],[1.219,-6.147],[1.176,-6.168],[1.176,-6.182],[1.113,-6.218],[1.113,-6.232],[1.029,-6.281],[1.029,-6.295],[1.001,-6.302],[0.966,-6.351],[0.931,-6.358],[0.903,-6.393],[0.847,-6.393],[0.847,-6.295],[0.749,-6.274],[0.553,-6.253],[0.363,-6.253],[0.202,-6.295],[0.181,-6.182],[0.475,-6.105],[0.574,-6.056],[0.588,-6.021],[0.672,-6.0],[0.728,-5.965],[0.945,-5.753],[1.001,-5.683],[1.057,-5.704]]]]},"properties":{"abbr":"Dtr","name":"dorsal transition zone","plate":12,"ap_bregma_mm":3.95,"area_mm2":0.5326,"traced_fraction":[0.968,0.992],"n_labels":2,"no_drawn_outline":false}},{"type":"Feature","geometry":{"type":"MultiPolygon","coordinates":[[[[1.345,-6.211],[1.464,-6.225],[1.408,-6.316],[1.38,-6.337],[1.366,-6.372],[1.338,-6.393],[1.324,-6.429],[1.184,-6.605],[1.071,-6.59],[1.233,-6.309],[1.247,-6.309],[1.247,-6.295],[1.261,-6.295],[1.268,-6.274],[1.331,-6.211],[1.345,-6.211]]],[[[-1.439,-6.323],[-1.369,-6.408],[-1.327,-6.485],[-1.291,-6.513],[-1.263,-6.576],[-1.193,-6.675],[-1.32,-6.682],[-1.333,-6.682],[-1.348,-6.647],[-1.516,-6.457],[-1.593,-6.33],[-1.439,-6.323]]]]},"properties":{"abbr":"AOL","name":"anterior olfactory nucleus, lateral part","plate":12,"ap_bregma_mm":3.95,"area_mm2":0.1144,"traced_fraction":[0.921,0.87],"n_labels":2,"no_drawn_outline":false}},{"type":"Feature","geometry":{"type":"MultiPolygon","coordinates":[[[[-0.261,-6.218],[-0.275,-6.422],[-0.296,-6.471],[-0.646,-6.471],[-0.646,-6.274],[-0.478,-6.239],[-0.261,-6.218]]],[[[0.847,-6.393],[0.861,-6.422],[0.861,-6.506],[0.714,-6.541],[0.623,-6.59],[0.609,-6.485],[0.546,-6.485],[0.546,-6.612],[0.581,-6.633],[0.538,-6.689],[0.538,-6.78],[0.483,-6.808],[0.398,-6.886],[0.349,-6.907],[0.307,-6.794],[0.202,-6.295],[0.363,-6.253],[0.553,-6.253],[0.749,-6.274],[0.847,-6.295],[0.847,-6.393]]]]},"properties":{"abbr":"DTT","name":"dorsal tenia tecta","plate":12,"ap_bregma_mm":3.95,"area_mm2":0.3345,"traced_fraction":[0.594,0.883],"n_labels":2,"no_drawn_outline":false}},{"type":"Feature","geometry":{"type":"MultiPolygon","coordinates":[[[[0.861,-6.506],[0.882,-6.548],[0.861,-6.583],[0.84,-6.689],[0.714,-6.837],[0.609,-6.872],[0.574,-6.872],[0.538,-6.78],[0.538,-6.689],[0.581,-6.633],[0.623,-6.59],[0.714,-6.541],[0.861,-6.506]]],[[[-0.934,-6.576],[-0.822,-6.612],[-0.682,-6.689],[-0.597,-6.78],[-0.625,-6.808],[-0.667,-6.907],[-0.71,-6.921],[-0.724,-6.942],[-0.843,-6.907],[-0.92,-6.83],[-0.962,-6.759],[-0.962,-6.738],[-0.962,-6.668],[-0.983,-6.64],[-0.976,-6.597],[-0.934,-6.576]]]]},"properties":{"abbr":"AOM","name":"anterior olfactory nucleus, medial part","plate":12,"ap_bregma_mm":3.95,"area_mm2":0.1632,"traced_fraction":[1.0,1.0],"n_labels":2,"no_drawn_outline":false}},{"type":"Feature","geometry":{"type":"MultiPolygon","coordinates":[[[[1.071,-6.59],[1.184,-6.605],[1.134,-6.675],[1.113,-6.731],[1.113,-6.872],[1.142,-6.914],[1.113,-6.942],[1.001,-6.984],[0.938,-6.998],[0.756,-6.984],[0.63,-6.921],[0.609,-6.872],[0.714,-6.837],[0.84,-6.689],[0.854,-6.703],[0.924,-6.696],[1.029,-6.633],[1.029,-6.619],[1.071,-6.59]]],[[[-1.193,-6.675],[-1.116,-6.745],[-1.039,-6.745],[-1.018,-6.731],[-0.962,-6.738],[-0.962,-6.759],[-0.92,-6.83],[-0.843,-6.907],[-0.724,-6.942],[-0.752,-6.984],[-0.822,-7.033],[-0.927,-7.076],[-1.011,-7.09],[-1.137,-7.076],[-1.242,-7.02],[-1.299,-6.963],[-1.333,-6.9],[-1.277,-6.83],[-1.277,-6.752],[-1.32,-6.682],[-1.193,-6.675]]]]},"properties":{"abbr":"AOVP","name":"anterior olfactory nucleus, ventroposterior part","plate":12,"ap_bregma_mm":3.95,"area_mm2":0.2817,"traced_fraction":[0.974,0.966],"n_labels":2,"no_drawn_outline":false}},{"type":"Feature","geometry":{"type":"MultiPolygon","coordinates":[[[[0.174,-2.8],[0.272,-2.863],[1.036,-3.615],[1.05,-3.615],[1.275,-3.833],[1.338,-3.876],[1.436,-3.988],[1.31,-3.974],[0.896,-3.847],[0.461,-3.735],[0.146,-3.622],[0.062,-3.615],[0.055,-3.334],[0.069,-3.123],[0.111,-2.919],[0.174,-2.8]]],[[[-0.184,-2.828],[-0.149,-2.884],[-0.085,-3.081],[-0.043,-3.432],[-0.043,-3.58],[-0.078,-3.58],[-0.17,-3.615],[-0.45,-3.749],[-0.661,-3.826],[-0.808,-3.904],[-1.165,-4.044],[-1.327,-4.129],[-1.551,-4.213],[-1.544,-4.164],[-1.46,-4.087],[-1.46,-4.072],[-1.32,-3.932],[-1.32,-3.918],[-1.2,-3.798],[-1.2,-3.784],[-1.081,-3.672],[-1.081,-3.658],[-0.513,-3.102],[-0.499,-3.102],[-0.394,-2.996],[-0.184,-2.828]]]]},"properties":{"abbr":"Cg1","name":"cingulate cortex, area 1","plate":12,"ap_bregma_mm":3.95,"area_mm2":1.3406,"traced_fraction":[1.0,1.0],"n_labels":2,"no_drawn_outline":false}},{"type":"Feature","geometry":{"type":"MultiPolygon","coordinates":[[[[-1.305,-6.112],[-1.2,-6.126],[-1.144,-6.168],[-1.109,-6.175],[-1.081,-6.204],[-1.046,-6.211],[-1.032,-6.232],[-1.011,-6.232],[-0.983,-6.26],[-0.941,-6.274],[-0.871,-6.337],[-0.85,-6.422],[-0.857,-6.443],[-0.913,-6.492],[-0.927,-6.492],[-0.976,-6.408],[-1.046,-6.358],[-1.095,-6.344],[-1.214,-6.281],[-1.291,-6.211],[-1.312,-6.175],[-1.305,-6.112]]]]},"properties":{"abbr":"DEn","name":"dorsal endopiriform nucleus","plate":12,"ap_bregma_mm":3.95,"area_mm2":0.0667,"traced_fraction":[1.0],"n_labels":1,"no_drawn_outline":false}},{"type":"Feature","geometry":{"type":"MultiPolygon","coordinates":[[[[-1.305,-6.112],[-1.312,-6.175],[-1.291,-6.211],[-1.214,-6.281],[-1.095,-6.344],[-1.067,-6.478],[-1.025,-6.555],[-0.976,-6.597],[-0.983,-6.64],[-0.962,-6.668],[-0.962,-6.738],[-1.018,-6.731],[-1.039,-6.745],[-1.116,-6.745],[-1.193,-6.675],[-1.263,-6.576],[-1.291,-6.513],[-1.327,-6.485],[-1.369,-6.408],[-1.439,-6.323],[-1.502,-6.218],[-1.516,-6.133],[-1.425,-6.098],[-1.305,-6.112]]]]},"properties":{"abbr":"aca","name":"anterior commissure, anterior part","plate":12,"ap_bregma_mm":3.95,"area_mm2":0.1562,"traced_fraction":[1.0],"n_labels":1,"no_drawn_outline":false}},{"type":"Feature","geometry":{"type":"MultiPolygon","coordinates":[[[[-1.095,-6.344],[-1.046,-6.358],[-0.976,-6.408],[-0.927,-6.492],[-0.913,-6.492],[-0.934,-6.576],[-0.976,-6.597],[-1.025,-6.555],[-1.067,-6.478],[-1.095,-6.344]]]]},"properties":{"abbr":"E","name":"ependyma and subependymal layer","plate":12,"ap_bregma_mm":3.95,"area_mm2":0.0244,"traced_fraction":[1.0],"n_labels":4,"no_drawn_outline":false}},{"type":"Feature","geometry":{"type":"MultiPolygon","coordinates":[[[[1.296,-5.571],[1.31,-5.592],[1.562,-5.62],[1.78,-5.676],[1.92,-5.739],[1.983,-5.81],[1.983,-5.894],[1.955,-5.986],[1.773,-6.337],[1.583,-6.633],[1.569,-6.633],[1.569,-6.647],[1.478,-6.801],[1.317,-6.984],[1.282,-7.041],[1.282,-7.076],[1.268,-7.083],[1.275,-7.097],[1.24,-7.139],[1.127,-7.223],[0.91,-7.322],[0.665,-7.322],[0.553,-7.273],[0.447,-7.181],[0.412,-7.118],[0.349,-6.907],[0.377,-6.9],[0.483,-6.808],[0.538,-6.78],[0.574,-6.872],[0.581,-6.921],[0.637,-7.012],[0.728,-7.104],[0.798,-7.139],[0.868,-7.146],[0.924,-7.118],[0.973,-7.062],[1.001,-6.984],[1.071,-6.963],[1.142,-6.914],[1.176,-6.9],[1.282,-6.78],[1.345,-6.661],[1.38,-6.527],[1.415,-6.464],[1.66,-6.197],[1.759,-6.063],[1.78,-6.0],[1.794,-5.993],[1.801,-5.887],[1.78,-5.852],[1.716,-5.817],[1.611,-5.796],[1.345,-5.796],[1.205,-5.817],[1.05,-5.866],[0.987,-5.866],[1.057,-5.704],[1.092,-5.655],[1.092,-5.627],[1.099,-5.62],[1.155,-5.564],[1.296,-5.571]]],[[[-1.824,-6.197],[-1.719,-6.33],[-1.565,-6.492],[-1.509,-6.583],[-1.411,-6.682],[-1.39,-6.724],[-1.362,-6.879],[-1.333,-6.9],[-1.299,-6.963],[-1.242,-7.02],[-1.137,-7.076],[-1.123,-7.125],[-1.06,-7.174],[-1.011,-7.188],[-0.892,-7.174],[-0.794,-7.118],[-0.731,-7.055],[-0.724,-7.026],[-0.682,-6.977],[-0.667,-6.907],[-0.625,-6.808],[-0.597,-6.78],[-0.541,-6.83],[-0.492,-6.914],[-0.443,-6.949],[-0.499,-7.083],[-0.625,-7.23],[-0.661,-7.245],[-0.682,-7.273],[-0.836,-7.35],[-0.997,-7.399],[-1.116,-7.399],[-1.214,-7.35],[-1.32,-7.245],[-1.333,-7.245],[-1.411,-7.153],[-1.425,-7.132],[-1.404,-7.118],[-1.411,-7.062],[-1.558,-6.773],[-1.621,-6.675],[-1.635,-6.675],[-1.649,-6.64],[-1.726,-6.555],[-1.74,-6.52],[-1.754,-6.52],[-1.768,-6.485],[-1.782,-6.485],[-1.796,-6.45],[-1.845,-6.401],[-1.93,-6.26],[-1.965,-6.225],[-1.965,-6.204],[-1.824,-6.197]]]]},"properties":{"abbr":"VTT","name":"ventral tenia tecta","plate":12,"ap_bregma_mm":3.95,"area_mm2":1.0407,"traced_fraction":[1.0,0.986],"n_labels":2,"no_drawn_outline":false}},{"type":"Feature","geometry":{"type":"Polygon","coordinates":[[[-1.909,-5.761],[-1.958,-5.81],[-2.0,-5.824],[-2.084,-5.887],[-2.105,-5.922],[-2.098,-6.021],[-2.112,-6.028],[-2.154,-5.971],[-2.154,-5.866],[-2.175,-5.817],[-2.063,-5.81],[-1.986,-5.767],[-1.909,-5.761]]]},"properties":{"abbr":null,"name":"unnamed sealed face","plate":12,"ap_bregma_mm":3.95,"index":0}},{"type":"Feature","geometry":{"type":"Polygon","coordinates":[[[1.366,-6.021],[1.401,-6.028],[1.408,-6.091],[1.373,-6.168],[1.345,-6.19],[1.345,-6.211],[1.331,-6.211],[1.268,-6.274],[1.268,-6.288],[1.233,-6.309],[1.071,-6.59],[1.043,-6.605],[1.029,-6.633],[0.924,-6.696],[0.854,-6.703],[0.84,-6.689],[0.861,-6.583],[0.882,-6.548],[0.861,-6.506],[0.861,-6.422],[0.847,-6.393],[0.903,-6.393],[0.91,-6.372],[0.966,-6.351],[1.001,-6.302],[1.029,-6.295],[1.029,-6.281],[1.113,-6.232],[1.113,-6.218],[1.176,-6.182],[1.176,-6.168],[1.219,-6.147],[1.254,-6.119],[1.254,-6.105],[1.366,-6.021]]]},"properties":{"abbr":null,"name":"unnamed sealed face","plate":12,"ap_bregma_mm":3.95,"index":1}},{"type":"Feature","geometry":{"type":"Polygon","coordinates":[[[-1.965,-6.204],[-1.965,-6.225],[-1.93,-6.26],[-1.845,-6.401],[-1.796,-6.45],[-1.782,-6.485],[-1.768,-6.485],[-1.754,-6.52],[-1.74,-6.52],[-1.726,-6.555],[-1.649,-6.64],[-1.635,-6.675],[-1.621,-6.675],[-1.558,-6.773],[-1.411,-7.062],[-1.404,-7.118],[-1.425,-7.132],[-1.558,-6.977],[-1.803,-6.612],[-1.88,-6.457],[-1.901,-6.443],[-1.922,-6.386],[-1.965,-6.33],[-2.021,-6.204],[-2.014,-6.182],[-1.965,-6.204]]]},"properties":{"abbr":null,"name":"unnamed sealed face","plate":12,"ap_bregma_mm":3.95,"index":2}},{"type":"Feature","geometry":{"type":"Polygon","coordinates":[[[0.574,-6.872],[0.609,-6.872],[0.63,-6.921],[0.756,-6.984],[0.826,-6.998],[0.938,-6.998],[1.001,-6.984],[0.973,-7.062],[0.924,-7.118],[0.868,-7.146],[0.798,-7.139],[0.728,-7.104],[0.637,-7.012],[0.581,-6.921],[0.574,-6.872]]]},"properties":{"abbr":null,"name":"unnamed sealed face","plate":12,"ap_bregma_mm":3.95,"index":3}},{"type":"Feature","geometry":{"type":"Polygon","coordinates":[[[-0.667,-6.907],[-0.682,-6.977],[-0.724,-7.026],[-0.731,-7.055],[-0.794,-7.118],[-0.892,-7.174],[-0.941,-7.188],[-1.06,-7.174],[-1.123,-7.125],[-1.137,-7.076],[-1.046,-7.09],[-0.927,-7.076],[-0.822,-7.033],[-0.752,-6.984],[-0.724,-6.942],[-0.71,-6.921],[-0.667,-6.907]]]},"properties":{"abbr":null,"name":"unnamed sealed face","plate":12,"ap_bregma_mm":3.95,"index":4}},{"type":"Feature","geometry":{"type":"MultiPolygon","coordinates":[[[[0.756,-7.322],[0.672,-7.315],[0.553,-7.266],[0.447,-7.174],[0.412,-7.104],[0.314,-6.808],[0.16,-6.098],[0.118,-5.775],[0.069,-5.099],[0.069,-3.897],[0.055,-3.397],[0.069,-3.144],[0.097,-2.975],[0.132,-2.863],[0.195,-2.75],[0.307,-2.645],[0.412,-2.596],[0.581,-2.56],[1.078,-2.42],[1.436,-2.363],[1.773,-2.377],[2.074,-2.455],[2.46,-2.631],[2.586,-2.701],[2.789,-2.849],[2.894,-2.961],[3.0,-3.116],[3.105,-3.376],[3.147,-3.594],[3.161,-4.002],[3.126,-4.192],[3.063,-4.403],[3.007,-4.537],[2.915,-4.698],[2.67,-5.064],[2.151,-5.704],[2.081,-5.746],[2.039,-5.81],[2.039,-5.887],[2.011,-5.979],[1.871,-6.253],[1.471,-6.886],[1.317,-7.055],[1.17,-7.181],[1.092,-7.23],[0.896,-7.315],[0.763,-7.322],[0.756,-7.322]]],[[[-1.018,-7.392],[-1.109,-7.392],[-1.214,-7.343],[-1.369,-7.202],[-1.551,-6.977],[-1.796,-6.612],[-1.993,-6.267],[-2.056,-6.112],[-2.154,-5.965],[-2.154,-5.873],[-2.182,-5.803],[-2.245,-5.775],[-2.322,-5.704],[-2.729,-5.142],[-3.023,-4.691],[-3.206,-4.34],[-3.311,-4.016],[-3.332,-3.862],[-3.332,-3.721],[-3.311,-3.573],[-3.248,-3.39],[-3.191,-3.278],[-3.114,-3.172],[-2.953,-3.011],[-2.764,-2.877],[-2.476,-2.743],[-2.007,-2.596],[-1.642,-2.532],[-1.333,-2.504],[-0.85,-2.518],[-0.555,-2.574],[-0.352,-2.652],[-0.24,-2.743],[-0.163,-2.87],[-0.093,-3.088],[-0.051,-3.461],[-0.051,-3.862],[-0.085,-4.34],[-0.106,-5.282],[-0.135,-5.585],[-0.184,-5.908],[-0.268,-6.168],[-0.282,-6.408],[-0.415,-6.872],[-0.492,-7.048],[-0.548,-7.132],[-0.625,-7.216],[-0.703,-7.273],[-0.85,-7.343],[-0.99,-7.385],[-1.018,-7.392]]]]},"properties":{"abbr":"brain_outline","name":"outline of the section","plate":12,"ap_bregma_mm":3.95}}]}
