{"type":"FeatureCollection","name":"GerbilAtlas plate 52","note":"Region extents cut from the atlas drawing (METHODS.md, Region extents). Coordinates are [ML, DV] in mm, ML positive to the right of the plate as printed, DV negative below the dorsal surface; AP is the plate bregma. traced_fraction is the share of each polygon boundary the atlas actually draws; below 0.5 the boundary is an estimate. no_drawn_outline marks a feature that lies only inside boundaries the atlas draws round more than one name and prints nothing within, so the whole of its outline is where the extraction cut it. Not a segmentation.","plate":52,"ap_bregma_mm":-10.05,"features":[{"type":"Feature","geometry":{"type":"MultiPolygon","coordinates":[[[[1.536,-4.155],[1.536,-4.514],[1.599,-4.626],[1.599,-4.704],[1.683,-4.866],[1.599,-4.922],[1.592,-4.943],[1.437,-4.992],[1.241,-4.999],[1.08,-4.978],[0.841,-4.971],[0.687,-5.02],[0.386,-5.062],[0.168,-5.077],[-0.217,-5.077],[-0.547,-5.034],[-0.638,-5.006],[-0.785,-4.922],[-0.841,-4.908],[-0.975,-4.887],[-1.255,-4.873],[-1.381,-4.845],[-1.381,-4.802],[-1.325,-4.69],[-1.22,-4.69],[-1.192,-4.619],[-1.066,-4.5],[-0.96,-4.289],[-0.975,-4.233],[-0.189,-4.205],[0.182,-4.219],[0.393,-4.226],[0.939,-4.296],[1.01,-4.289],[1.15,-4.31],[1.15,-4.296],[1.185,-4.268],[1.234,-4.155],[1.536,-4.155]]]]},"properties":{"abbr":"10Cb","name":"10th cerebellar lobule (nodule)","plate":52,"ap_bregma_mm":-10.05,"area_mm2":2.1299,"traced_fraction":[0.744],"n_labels":1,"no_drawn_outline":true}},{"type":"Feature","geometry":{"type":"MultiPolygon","coordinates":[[[[-0.687,-5.78],[-0.659,-5.78],[-0.561,-5.843],[-0.596,-5.892],[-0.61,-5.942],[-0.666,-5.928],[-0.673,-6.012],[-0.687,-6.026],[-0.729,-6.026],[-0.771,-6.005],[-0.792,-5.97],[-0.82,-5.956],[-0.841,-5.914],[-0.841,-5.836],[-0.827,-5.822],[-0.778,-5.815],[-0.729,-5.836],[-0.687,-5.78]]],[[[-1.423,-6.364],[-1.423,-6.525],[-1.297,-6.525],[-1.297,-6.568],[-1.234,-6.596],[-1.094,-6.596],[-1.283,-6.8],[-1.283,-6.814],[-1.318,-6.842],[-1.318,-6.863],[-1.332,-6.863],[-1.367,-6.912],[-1.507,-7.039],[-1.514,-7.018],[-1.5,-7.011],[-1.472,-6.898],[-1.479,-6.821],[-1.507,-6.786],[-1.57,-6.786],[-1.599,-6.8],[-1.704,-6.919],[-1.753,-7.011],[-1.788,-7.116],[-1.984,-7.109],[-1.963,-6.751],[-1.921,-6.652],[-1.851,-6.575],[-1.634,-6.483],[-1.528,-6.399],[-1.5,-6.399],[-1.423,-6.364]]],[[[1.669,-6.371],[1.69,-6.371],[1.872,-6.504],[1.942,-6.532],[1.984,-6.532],[2.083,-6.638],[2.138,-6.751],[2.138,-7.053],[2.153,-7.088],[2.005,-7.088],[1.928,-6.983],[1.753,-6.814],[1.641,-6.736],[1.564,-6.729],[1.557,-6.568],[1.669,-6.568],[1.669,-6.371]]]]},"properties":{"abbr":"10n","name":"vagus nerve","plate":52,"ap_bregma_mm":-10.05,"area_mm2":0.587,"traced_fraction":[0.932,0.793,0.756],"n_labels":3,"no_drawn_outline":false}},{"type":"Feature","geometry":{"type":"MultiPolygon","coordinates":[[[[-0.105,-6.026],[-0.098,-6.068],[-0.133,-6.132],[-0.133,-6.16],[-0.147,-6.174],[-0.203,-6.174],[-0.252,-6.202],[-0.379,-6.195],[-0.407,-6.174],[-0.421,-6.153],[-0.407,-6.082],[-0.301,-6.012],[-0.21,-5.998],[-0.182,-6.005],[-0.168,-6.026],[-0.105,-6.026]]],[[[0.301,-6.195],[0.295,-6.202],[0.119,-6.209],[0.091,-6.146],[0.056,-6.132],[0.035,-6.075],[0.042,-6.04],[0.077,-6.005],[0.161,-5.998],[0.224,-6.026],[0.28,-6.075],[0.288,-6.111],[0.301,-6.117],[0.301,-6.195]]]]},"properties":{"abbr":"12N","name":"hypoglossal nucleus","plate":52,"ap_bregma_mm":-10.05,"area_mm2":0.0902,"traced_fraction":[0.985,1.0],"n_labels":2,"no_drawn_outline":false}},{"type":"Feature","geometry":{"type":"MultiPolygon","coordinates":[[[[0.301,-5.506],[0.246,-5.639],[0.126,-5.801],[0.0,-5.9],[-0.07,-5.907],[-0.119,-5.885],[-0.182,-5.822],[-0.224,-5.801],[-0.252,-5.724],[-0.351,-5.569],[-0.386,-5.456],[-0.442,-5.365],[-0.442,-5.344],[-0.379,-5.337],[-0.351,-5.358],[-0.322,-5.506],[-0.301,-5.548],[-0.231,-5.604],[-0.182,-5.604],[-0.091,-5.548],[-0.063,-5.548],[-0.063,-5.576],[-0.084,-5.604],[-0.084,-5.646],[-0.07,-5.66],[0.028,-5.653],[0.077,-5.689],[0.14,-5.689],[0.154,-5.66],[0.154,-5.576],[0.119,-5.52],[0.119,-5.492],[0.301,-5.506]]]]},"properties":{"abbr":"4V","name":"4th ventricle","plate":52,"ap_bregma_mm":-10.05,"area_mm2":0.1353,"traced_fraction":[1.0],"n_labels":1,"no_drawn_outline":false}},{"type":"Feature","geometry":{"type":"MultiPolygon","coordinates":[[[[1.297,-5.801],[1.367,-5.801],[1.507,-5.85],[1.746,-5.984],[1.746,-5.998],[1.676,-6.068],[1.641,-6.153],[1.641,-6.244],[1.69,-6.343],[1.69,-6.371],[1.669,-6.371],[1.367,-6.209],[1.08,-6.117],[1.094,-6.089],[1.15,-6.061],[1.234,-5.977],[1.276,-5.907],[1.297,-5.801]]],[[[-1.416,-5.928],[-1.409,-5.97],[-1.346,-6.04],[-1.227,-6.111],[-1.094,-6.146],[-0.947,-6.153],[-0.925,-6.167],[-0.953,-6.188],[-1.283,-6.293],[-1.402,-6.343],[-1.423,-6.364],[-1.5,-6.399],[-1.528,-6.399],[-1.514,-6.336],[-1.514,-6.216],[-1.528,-6.167],[-1.599,-6.068],[-1.669,-6.04],[-1.676,-6.026],[-1.655,-6.005],[-1.542,-5.956],[-1.416,-5.928]]]]},"properties":{"abbr":"5Sol","name":"trigeminal-solitary transition zone","plate":52,"ap_bregma_mm":-10.05,"area_mm2":0.3282,"traced_fraction":[1.0,1.0],"n_labels":2,"no_drawn_outline":false}},{"type":"Feature","geometry":{"type":"MultiPolygon","coordinates":[[[[1.087,-1.525],[1.101,-1.567],[1.094,-1.658],[1.052,-1.792],[1.003,-1.898],[0.939,-1.975],[0.939,-1.996],[0.82,-2.059],[0.596,-2.102],[0.259,-2.13],[0.042,-2.123],[-0.161,-2.137],[-0.589,-2.137],[-0.869,-2.123],[-0.996,-2.087],[-1.045,-2.059],[-1.129,-2.01],[-1.178,-1.961],[-1.241,-1.778],[-1.255,-1.595],[-1.262,-1.574],[-1.248,-1.539],[-1.178,-1.426],[-1.045,-1.3],[-0.848,-1.208],[-0.729,-1.173],[-0.526,-1.145],[-0.119,-1.131],[0.049,-1.131],[0.231,-1.152],[0.533,-1.229],[0.743,-1.307],[0.884,-1.377],[0.939,-1.426],[0.989,-1.447],[1.066,-1.525],[1.087,-1.525]]]]},"properties":{"abbr":"6Cb","name":"6th cerebellar lobule","plate":52,"ap_bregma_mm":-10.05,"area_mm2":1.9884,"traced_fraction":[1.0],"n_labels":1,"no_drawn_outline":false}},{"type":"Feature","geometry":{"type":"MultiPolygon","coordinates":[[[[-1.045,-2.059],[-0.996,-2.087],[-0.869,-2.123],[-0.589,-2.137],[-0.161,-2.137],[0.042,-2.123],[0.259,-2.13],[0.596,-2.102],[0.596,-2.13],[0.631,-2.158],[0.785,-2.481],[0.785,-2.812],[0.722,-2.924],[0.722,-2.953],[0.393,-2.854],[0.182,-2.826],[0.098,-2.833],[-0.182,-2.826],[-0.343,-2.84],[-0.358,-2.854],[-0.463,-2.868],[-0.631,-2.917],[-0.659,-2.91],[-0.918,-3.009],[-1.122,-3.121],[-1.122,-2.798],[-1.038,-2.643],[-1.045,-2.059]]]]},"properties":{"abbr":"7Cb","name":"7th cerebellar lobule","plate":52,"ap_bregma_mm":-10.05,"area_mm2":1.3928,"traced_fraction":[0.669],"n_labels":1,"no_drawn_outline":true}},{"type":"Feature","geometry":{"type":"MultiPolygon","coordinates":[[[[0.098,-2.833],[0.098,-3.325],[-0.182,-3.325],[-0.182,-2.826],[0.098,-2.833]]]]},"properties":{"abbr":"8Cb","name":"8th cerebellar lobule","plate":52,"ap_bregma_mm":-10.05,"area_mm2":0.1391,"traced_fraction":[0.227],"n_labels":1,"no_drawn_outline":true}},{"type":"Feature","geometry":{"type":"MultiPolygon","coordinates":[[[[-0.182,-2.826],[-0.182,-3.325],[0.098,-3.325],[0.098,-2.833],[0.182,-2.826],[0.393,-2.854],[0.722,-2.953],[0.961,-3.058],[1.143,-3.171],[1.157,-3.192],[1.241,-3.241],[1.241,-3.262],[1.339,-3.332],[1.367,-3.36],[1.367,-3.382],[1.381,-3.382],[1.543,-3.536],[1.564,-3.536],[1.606,-3.593],[1.62,-3.593],[1.753,-3.775],[1.697,-3.818],[1.536,-4.155],[1.234,-4.155],[1.185,-4.268],[1.15,-4.296],[1.15,-4.31],[1.01,-4.289],[0.939,-4.296],[0.393,-4.226],[0.182,-4.219],[0.182,-4.001],[-0.189,-4.001],[-0.189,-4.205],[-0.975,-4.233],[-0.96,-4.289],[-1.066,-4.5],[-1.192,-4.619],[-1.22,-4.69],[-1.325,-4.69],[-1.325,-4.451],[-1.451,-4.219],[-1.451,-4.176],[-1.465,-4.169],[-1.627,-3.825],[-1.697,-3.754],[-1.725,-3.754],[-1.662,-3.642],[-1.591,-3.564],[-1.57,-3.522],[-1.444,-3.389],[-1.423,-3.382],[-1.423,-3.36],[-1.367,-3.304],[-1.122,-3.121],[-0.918,-3.009],[-0.659,-2.91],[-0.631,-2.917],[-0.463,-2.868],[-0.358,-2.854],[-0.343,-2.84],[-0.182,-2.826]]]]},"properties":{"abbr":"9aCb","name":"9th cerebellar lobule, a","plate":52,"ap_bregma_mm":-10.05,"area_mm2":3.6969,"traced_fraction":[0.564],"n_labels":2,"no_drawn_outline":true}},{"type":"Feature","geometry":{"type":"MultiPolygon","coordinates":[[[[0.182,-4.219],[-0.189,-4.205],[-0.189,-4.001],[0.182,-4.001],[0.182,-4.219]]]]},"properties":{"abbr":"9cCb","name":"9th cerebellar lobule, c","plate":52,"ap_bregma_mm":-10.05,"area_mm2":0.0784,"traced_fraction":[0.371],"n_labels":1,"no_drawn_outline":true}},{"type":"Feature","geometry":{"type":"MultiPolygon","coordinates":[[[[1.732,-7.236],[1.781,-7.264],[1.837,-7.264],[1.837,-7.313],[1.795,-7.292],[1.795,-7.278],[1.788,-7.292],[1.781,-7.299],[1.774,-7.306],[1.753,-7.412],[1.683,-7.461],[1.592,-7.461],[1.536,-7.412],[1.536,-7.285],[1.571,-7.243],[1.613,-7.222],[1.732,-7.236]]],[[[-1.76,-7.426],[-1.746,-7.362],[-1.69,-7.327],[-1.62,-7.313],[-1.585,-7.32],[-1.536,-7.355],[-1.514,-7.426],[-1.514,-7.482],[-1.536,-7.517],[-1.599,-7.559],[-1.676,-7.559],[-1.739,-7.51],[-1.76,-7.426]]]]},"properties":{"abbr":"AmbC","name":"ambiguus nucleus, compact part","plate":52,"ap_bregma_mm":-10.05,"area_mm2":0.0982,"traced_fraction":[0.93,0.965],"n_labels":2,"no_drawn_outline":false}},{"type":"Feature","geometry":{"type":"MultiPolygon","coordinates":[[[[1.304,-6.793],[1.388,-6.884],[1.465,-6.94],[1.465,-6.955],[1.697,-7.172],[1.697,-7.187],[1.732,-7.215],[1.732,-7.236],[1.613,-7.222],[1.571,-7.243],[1.536,-7.285],[1.536,-7.412],[1.592,-7.461],[1.683,-7.461],[1.753,-7.412],[1.774,-7.306],[1.781,-7.299],[1.788,-7.292],[1.795,-7.292],[1.837,-7.313],[2.068,-7.531],[2.019,-7.595],[1.977,-7.573],[1.886,-7.573],[1.767,-7.637],[1.753,-7.665],[1.76,-7.728],[1.858,-7.77],[1.851,-7.784],[1.872,-7.806],[1.837,-7.834],[1.718,-7.876],[1.648,-7.925],[1.606,-7.897],[1.599,-7.855],[1.55,-7.813],[1.437,-7.637],[1.381,-7.587],[1.374,-7.538],[1.325,-7.496],[1.255,-7.376],[1.192,-7.32],[1.185,-7.257],[1.164,-7.229],[1.108,-7.172],[1.073,-7.166],[1.038,-7.187],[0.982,-7.187],[0.933,-7.144],[0.912,-7.032],[0.918,-6.947],[0.933,-6.933],[0.968,-6.962],[1.003,-7.032],[1.038,-7.06],[1.045,-7.067],[1.052,-7.067],[1.087,-7.116],[1.108,-7.109],[1.115,-7.081],[1.122,-6.969],[1.08,-6.87],[1.157,-6.793],[1.304,-6.793]]],[[[-1.318,-6.863],[-1.269,-6.884],[-1.297,-6.919],[-1.297,-6.955],[-1.283,-6.969],[-1.178,-6.983],[-1.178,-7.032],[-1.199,-7.067],[-1.227,-7.18],[-1.227,-7.285],[-1.22,-7.306],[-1.171,-7.341],[-1.213,-7.447],[-1.283,-7.545],[-1.353,-7.693],[-1.416,-7.777],[-1.5,-7.939],[-1.563,-8.017],[-1.578,-8.017],[-1.578,-8.002],[-1.683,-7.911],[-1.69,-7.883],[-1.62,-7.876],[-1.606,-7.862],[-1.613,-7.827],[-1.662,-7.784],[-1.718,-7.756],[-1.767,-7.749],[-1.809,-7.756],[-1.844,-7.784],[-2.054,-7.651],[-2.054,-7.637],[-1.865,-7.44],[-1.76,-7.426],[-1.739,-7.51],[-1.676,-7.559],[-1.599,-7.559],[-1.536,-7.517],[-1.514,-7.482],[-1.521,-7.376],[-1.536,-7.355],[-1.557,-7.334],[-1.62,-7.313],[-1.69,-7.327],[-1.718,-7.292],[-1.718,-7.264],[-1.599,-7.151],[-1.528,-7.046],[-1.507,-7.039],[-1.472,-7.018],[-1.332,-6.863],[-1.318,-6.863]]]]},"properties":{"abbr":"Bo","name":"Bötzinger complex","plate":52,"ap_bregma_mm":-10.05,"area_mm2":0.8971,"traced_fraction":[0.857,0.976],"n_labels":2,"no_drawn_outline":false}},{"type":"Feature","geometry":{"type":"MultiPolygon","coordinates":[[[[-1.725,-3.754],[-1.697,-3.754],[-1.627,-3.825],[-1.493,-4.092],[-1.493,-4.113],[-1.451,-4.176],[-1.451,-4.219],[-1.325,-4.451],[-1.325,-4.69],[-1.381,-4.802],[-1.381,-4.845],[-1.451,-4.823],[-1.549,-4.732],[-1.641,-4.598],[-1.739,-4.5],[-1.781,-4.479],[-1.851,-4.479],[-1.935,-4.514],[-1.963,-4.556],[-2.117,-4.655],[-2.314,-4.753],[-2.37,-4.767],[-2.433,-4.809],[-2.433,-4.816],[-2.433,-4.823],[-2.482,-4.823],[-2.678,-4.88],[-2.797,-4.88],[-2.833,-4.859],[-2.861,-4.725],[-2.826,-4.655],[-2.741,-4.577],[-2.629,-4.528],[-2.622,-4.507],[-2.608,-4.507],[-2.608,-4.479],[-2.461,-4.444],[-2.349,-4.38],[-2.328,-4.38],[-2.054,-4.197],[-1.893,-4.043],[-1.746,-3.768],[-1.725,-3.754]]],[[[1.753,-3.775],[1.858,-3.923],[1.907,-4.029],[1.991,-4.155],[2.061,-4.233],[2.083,-4.233],[2.244,-4.373],[2.426,-4.472],[2.636,-4.535],[2.784,-4.563],[2.784,-4.577],[2.819,-4.598],[2.931,-4.634],[2.994,-4.669],[3.078,-4.767],[3.085,-4.887],[3.057,-4.936],[2.959,-5.006],[2.861,-5.006],[2.538,-4.929],[2.433,-4.873],[2.398,-4.873],[2.307,-4.83],[2.216,-4.781],[2.096,-4.753],[2.019,-4.739],[1.977,-4.718],[1.872,-4.725],[1.809,-4.753],[1.739,-4.83],[1.683,-4.866],[1.599,-4.704],[1.599,-4.626],[1.536,-4.514],[1.536,-4.155],[1.697,-3.818],[1.753,-3.775]]]]},"properties":{"abbr":"Cop","name":"copula of the pyramis","plate":52,"ap_bregma_mm":-10.05,"area_mm2":1.5299,"traced_fraction":[0.745,0.75],"n_labels":2,"no_drawn_outline":true}},{"type":"Feature","geometry":{"type":"MultiPolygon","coordinates":[[[[2.587,-1.208],[2.973,-1.265],[2.973,-1.898],[2.58,-1.898],[2.587,-1.208]]],[[[-1.311,-1.574],[-1.311,-1.588],[-1.255,-1.595],[-1.241,-1.778],[-1.178,-1.961],[-1.339,-2.017],[-1.683,-2.102],[-1.76,-2.109],[-1.858,-2.137],[-1.879,-2.158],[-1.942,-2.158],[-2.321,-2.291],[-2.349,-2.306],[-2.356,-2.327],[-2.482,-2.383],[-2.482,-2.411],[-2.468,-2.425],[-2.461,-2.657],[-2.342,-2.896],[-1.935,-3.304],[-1.367,-3.304],[-1.423,-3.36],[-1.423,-3.382],[-1.444,-3.389],[-1.57,-3.522],[-1.591,-3.564],[-1.662,-3.642],[-2.566,-3.642],[-2.706,-3.494],[-2.833,-3.438],[-2.833,-3.417],[-2.917,-3.438],[-3.001,-3.487],[-3.022,-3.487],[-3.022,-3.107],[-3.597,-3.107],[-3.611,-3.051],[-3.758,-2.763],[-3.772,-2.756],[-3.891,-2.495],[-3.919,-2.362],[-3.94,-2.151],[-3.926,-2.01],[-3.87,-1.905],[-3.646,-1.687],[-3.337,-1.511],[-3.162,-1.455],[-3.134,-1.433],[-2.959,-1.37],[-2.629,-1.314],[-2.286,-1.314],[-1.984,-1.342],[-1.627,-1.433],[-1.444,-1.525],[-1.311,-1.574]]]]},"properties":{"abbr":"Crus1","name":"crus 1 of the ansiform lobule","plate":52,"ap_bregma_mm":-10.05,"area_mm2":4.0906,"traced_fraction":[0.218,0.651],"n_labels":2,"no_drawn_outline":true}},{"type":"Feature","geometry":{"type":"MultiPolygon","coordinates":[[[[2.587,-1.208],[2.58,-1.898],[2.973,-1.898],[2.973,-1.265],[3.064,-1.279],[3.274,-1.342],[3.569,-1.497],[3.59,-1.525],[3.716,-1.609],[3.751,-1.658],[3.835,-1.729],[3.863,-1.778],[3.884,-1.785],[3.948,-1.862],[4.018,-1.996],[4.053,-2.179],[4.032,-2.545],[4.053,-2.967],[4.018,-3.093],[3.982,-3.157],[3.891,-3.234],[3.863,-3.234],[3.856,-3.248],[3.807,-3.262],[3.513,-3.213],[3.316,-3.206],[3.31,-3.192],[2.973,-3.199],[2.959,-3.213],[2.812,-3.22],[2.706,-3.241],[2.587,-3.234],[2.405,-3.332],[1.942,-3.332],[1.802,-3.403],[1.62,-3.593],[1.606,-3.593],[1.564,-3.536],[1.543,-3.536],[1.486,-3.473],[1.367,-3.382],[1.367,-3.36],[1.262,-3.283],[1.241,-3.262],[1.241,-3.241],[1.206,-3.227],[1.143,-3.171],[0.961,-3.058],[0.722,-2.953],[0.722,-2.924],[0.785,-2.812],[0.785,-2.481],[0.631,-2.158],[0.596,-2.13],[0.596,-2.102],[0.82,-2.059],[0.939,-1.996],[0.939,-1.975],[1.003,-1.898],[1.052,-1.792],[1.094,-1.658],[1.101,-1.567],[1.129,-1.567],[1.15,-1.532],[1.171,-1.532],[1.255,-1.433],[1.409,-1.328],[1.606,-1.244],[1.76,-1.201],[1.991,-1.166],[2.209,-1.166],[2.405,-1.173],[2.587,-1.208]]],[[[-1.178,-1.961],[-1.129,-2.01],[-1.045,-2.059],[-1.038,-2.643],[-1.122,-2.798],[-1.122,-3.121],[-1.367,-3.304],[-1.935,-3.304],[-2.342,-2.896],[-2.461,-2.657],[-2.468,-2.425],[-2.482,-2.411],[-2.482,-2.383],[-2.356,-2.327],[-2.349,-2.306],[-2.321,-2.291],[-1.942,-2.158],[-1.879,-2.158],[-1.858,-2.137],[-1.76,-2.109],[-1.683,-2.102],[-1.339,-2.017],[-1.178,-1.961]]],[[[-3.597,-3.107],[-3.022,-3.107],[-3.022,-3.487],[-3.134,-3.536],[-3.281,-3.571],[-3.288,-3.557],[-3.33,-3.564],[-3.513,-3.375],[-3.569,-3.241],[-3.597,-3.107]]]]},"properties":{"abbr":"Crus2","name":"crus 2 of the ansiform lobule","plate":52,"ap_bregma_mm":-10.05,"area_mm2":7.5116,"traced_fraction":[0.676,0.435,0.51],"n_labels":4,"no_drawn_outline":true}},{"type":"Feature","geometry":{"type":"MultiPolygon","coordinates":[[[[-1.823,-5.414],[-1.816,-5.414],[-1.774,-5.414],[-1.704,-5.442],[-1.69,-5.47],[-1.69,-5.52],[-1.718,-5.583],[-1.802,-5.618],[-1.9,-5.611],[-1.9,-5.667],[-1.865,-5.717],[-1.907,-5.759],[-1.991,-5.731],[-1.991,-5.576],[-1.914,-5.576],[-1.914,-5.513],[-1.893,-5.499],[-1.872,-5.449],[-1.83,-5.421],[-1.823,-5.414]]],[[[1.774,-5.421],[1.844,-5.492],[1.9,-5.52],[1.991,-5.541],[1.984,-5.59],[1.956,-5.618],[1.949,-5.646],[1.886,-5.689],[1.795,-5.681],[1.76,-5.618],[1.746,-5.541],[1.753,-5.435],[1.774,-5.421]]]]},"properties":{"abbr":"Cu","name":"cuneate nucleus","plate":52,"ap_bregma_mm":-10.05,"area_mm2":0.0924,"traced_fraction":[0.759,0.966],"n_labels":2,"no_drawn_outline":false}},{"type":"Feature","geometry":{"type":"MultiPolygon","coordinates":[[[[2.083,-5.977],[2.096,-5.991],[2.083,-6.033],[2.019,-6.117],[1.991,-6.209],[1.977,-6.329],[1.984,-6.532],[1.942,-6.532],[1.872,-6.504],[1.69,-6.371],[1.69,-6.343],[1.641,-6.244],[1.641,-6.153],[1.676,-6.068],[1.746,-5.998],[1.746,-5.984],[1.795,-5.984],[1.921,-5.949],[2.083,-5.977]]],[[[-1.676,-6.026],[-1.669,-6.04],[-1.599,-6.068],[-1.528,-6.167],[-1.514,-6.216],[-1.514,-6.336],[-1.528,-6.399],[-1.634,-6.483],[-1.851,-6.575],[-1.886,-6.406],[-1.935,-6.265],[-1.991,-6.167],[-2.04,-6.117],[-2.047,-6.089],[-1.928,-6.047],[-1.676,-6.026]]]]},"properties":{"abbr":"DMSp5","name":"dorsomedial spinal trigeminal nucleus","plate":52,"ap_bregma_mm":-10.05,"area_mm2":0.3559,"traced_fraction":[1.0,1.0],"n_labels":2,"no_drawn_outline":false}},{"type":"Feature","geometry":{"type":"MultiPolygon","coordinates":[[[[1.802,-5.238],[1.9,-5.238],[1.991,-5.26],[1.998,-5.26],[2.026,-5.337],[2.033,-5.435],[1.991,-5.541],[1.963,-5.541],[1.844,-5.492],[1.774,-5.421],[1.753,-5.358],[1.76,-5.302],[1.802,-5.238]]]]},"properties":{"abbr":"ECu","name":"external cuneate nucleus","plate":52,"ap_bregma_mm":-10.05,"area_mm2":0.0648,"traced_fraction":[0.971],"n_labels":1,"no_drawn_outline":false}},{"type":"Feature","geometry":{"type":"MultiPolygon","coordinates":[[[[1.444,-5.126],[1.627,-5.182],[1.697,-5.224],[1.802,-5.238],[1.76,-5.302],[1.753,-5.358],[1.444,-5.358],[1.444,-5.126]]],[[[-1.395,-5.182],[-1.395,-5.428],[-1.69,-5.428],[-1.704,-5.442],[-1.725,-5.442],[-1.746,-5.421],[-1.816,-5.414],[-1.802,-5.351],[-1.62,-5.238],[-1.514,-5.224],[-1.395,-5.182]]]]},"properties":{"abbr":"FVe","name":"F cell group of the vestibular complex","plate":52,"ap_bregma_mm":-10.05,"area_mm2":0.1297,"traced_fraction":[0.539,0.587],"n_labels":2,"no_drawn_outline":true}},{"type":"Feature","geometry":{"type":"MultiPolygon","coordinates":[[[[-0.119,-5.885],[-0.07,-5.907],[0.0,-5.9],[-0.021,-6.026],[0.021,-6.125],[0.056,-6.132],[0.091,-6.146],[0.119,-6.209],[0.126,-6.244],[0.182,-6.336],[0.246,-6.378],[0.288,-6.378],[0.372,-6.3],[0.4,-6.258],[0.421,-6.188],[0.435,-6.181],[0.477,-6.216],[0.561,-6.371],[0.582,-6.385],[0.806,-6.736],[0.876,-6.821],[0.912,-6.898],[0.933,-6.905],[0.933,-6.933],[0.912,-6.99],[0.933,-7.144],[0.982,-7.187],[1.038,-7.187],[1.073,-7.166],[1.108,-7.172],[1.164,-7.229],[1.185,-7.257],[1.192,-7.32],[1.255,-7.376],[1.325,-7.496],[1.374,-7.538],[1.381,-7.587],[1.437,-7.637],[1.55,-7.813],[1.5,-7.848],[1.444,-7.925],[1.087,-7.925],[1.087,-8.227],[1.066,-8.242],[1.017,-8.242],[0.968,-8.27],[0.968,-8.199],[0.715,-8.199],[0.715,-8.221],[0.582,-8.15],[0.568,-8.129],[0.568,-7.721],[0.042,-7.721],[0.049,-7.447],[0.063,-7.44],[0.07,-7.37],[0.063,-7.236],[0.077,-7.13],[0.084,-6.715],[0.091,-6.357],[0.07,-6.251],[0.042,-6.202],[-0.021,-6.153],[-0.077,-6.146],[-0.133,-6.16],[-0.133,-6.132],[-0.098,-6.068],[-0.105,-6.026],[-0.098,-5.991],[-0.126,-5.921],[-0.119,-5.885]]],[[[-0.147,-6.174],[-0.182,-6.251],[-0.21,-6.413],[-0.196,-6.715],[-0.203,-6.856],[-0.182,-6.997],[-0.168,-7.306],[-0.161,-7.348],[-0.14,-7.355],[-0.14,-7.637],[-0.126,-7.728],[-0.603,-7.728],[-0.596,-8.129],[-0.673,-8.185],[-0.764,-8.101],[-0.764,-7.939],[-1.5,-7.939],[-1.437,-7.813],[-1.353,-7.693],[-1.283,-7.545],[-1.213,-7.447],[-1.171,-7.341],[-1.108,-7.257],[-1.066,-7.172],[-1.045,-7.067],[-1.01,-7.067],[-0.989,-7.046],[-0.968,-6.99],[-0.939,-6.962],[-0.855,-6.793],[-0.841,-6.786],[-0.834,-6.751],[-0.778,-6.673],[-0.652,-6.427],[-0.603,-6.357],[-0.575,-6.286],[-0.54,-6.237],[-0.512,-6.223],[-0.498,-6.23],[-0.484,-6.286],[-0.442,-6.336],[-0.414,-6.357],[-0.358,-6.364],[-0.315,-6.343],[-0.273,-6.286],[-0.252,-6.202],[-0.203,-6.174],[-0.147,-6.174]]]]},"properties":{"abbr":"Gi","name":"gigantocellular reticular nucleus","plate":52,"ap_bregma_mm":-10.05,"area_mm2":3.0325,"traced_fraction":[0.705,0.71],"n_labels":2,"no_drawn_outline":true}},{"type":"Feature","geometry":{"type":"MultiPolygon","coordinates":[[[[0.042,-7.721],[0.568,-7.721],[0.568,-8.129],[0.365,-8.052],[0.301,-8.066],[0.267,-8.115],[0.259,-8.115],[0.217,-8.017],[0.161,-7.974],[0.105,-7.981],[0.063,-8.024],[0.063,-8.073],[0.098,-8.213],[0.147,-8.312],[0.196,-8.347],[0.252,-8.333],[0.267,-8.375],[0.4,-8.425],[0.421,-8.439],[0.421,-8.467],[0.154,-8.446],[0.049,-8.474],[0.035,-8.474],[0.021,-8.199],[-0.021,-8.108],[-0.021,-8.08],[0.021,-7.988],[0.042,-7.721]]],[[[-0.126,-7.728],[-0.126,-8.002],[-0.147,-8.002],[-0.182,-7.974],[-0.231,-7.974],[-0.259,-7.988],[-0.287,-8.017],[-0.309,-8.08],[-0.351,-8.143],[-0.421,-8.073],[-0.498,-8.08],[-0.596,-8.129],[-0.603,-7.728],[-0.126,-7.728]]]]},"properties":{"abbr":"GiV","name":"gigantocellular reticular nucleus, ventral part","plate":52,"ap_bregma_mm":-10.05,"area_mm2":0.3994,"traced_fraction":[0.742,0.534],"n_labels":2,"no_drawn_outline":true}},{"type":"Feature","geometry":{"type":"MultiPolygon","coordinates":[[[[-0.715,-8.221],[-0.778,-8.291],[-0.848,-8.333],[-0.848,-8.347],[-0.883,-8.361],[-0.939,-8.354],[-0.932,-8.221],[-0.715,-8.221]]]]},"properties":{"abbr":"IOD","name":"inferior olive, dorsal nucleus","plate":52,"ap_bregma_mm":-10.05,"area_mm2":0.0205,"traced_fraction":[0.446],"n_labels":2,"no_drawn_outline":true}},{"type":"Feature","geometry":{"type":"MultiPolygon","coordinates":[[[[-0.126,-8.002],[-0.119,-8.038],[-0.133,-8.045],[-0.147,-8.101],[-0.091,-8.122],[-0.105,-8.185],[-0.182,-8.185],[-0.196,-8.249],[-0.245,-8.326],[-0.301,-8.326],[-0.33,-8.305],[-0.358,-8.242],[-0.351,-8.143],[-0.33,-8.122],[-0.287,-8.017],[-0.259,-7.988],[-0.231,-7.974],[-0.182,-7.974],[-0.147,-8.002],[-0.126,-8.002]]],[[[0.259,-8.115],[0.267,-8.115],[0.301,-8.066],[0.365,-8.052],[0.568,-8.129],[0.582,-8.15],[0.715,-8.221],[0.736,-8.249],[0.856,-8.291],[0.939,-8.291],[0.968,-8.27],[1.017,-8.242],[1.066,-8.242],[1.087,-8.319],[0.989,-8.396],[0.933,-8.417],[0.856,-8.425],[0.792,-8.41],[0.785,-8.396],[0.722,-8.382],[0.589,-8.291],[0.463,-8.235],[0.428,-8.235],[0.365,-8.277],[0.316,-8.213],[0.295,-8.213],[0.28,-8.227],[0.288,-8.298],[0.274,-8.298],[0.252,-8.333],[0.196,-8.347],[0.147,-8.312],[0.098,-8.213],[0.063,-8.073],[0.063,-8.024],[0.091,-7.988],[0.161,-7.974],[0.217,-8.017],[0.259,-8.115]]]]},"properties":{"abbr":"IODM","name":"inferior olive, dorsomedial cell group","plate":52,"ap_bregma_mm":-10.05,"area_mm2":0.233,"traced_fraction":[0.968,0.987],"n_labels":2,"no_drawn_outline":false}},{"type":"Feature","geometry":{"type":"MultiPolygon","coordinates":[[[[-0.133,-8.509],[-0.147,-8.523],[-0.189,-8.523],[-0.238,-8.495],[-0.287,-8.474],[-0.343,-8.481],[-0.343,-8.41],[-0.315,-8.396],[-0.301,-8.326],[-0.245,-8.326],[-0.175,-8.319],[-0.133,-8.333],[-0.133,-8.509]]]]},"properties":{"abbr":"IOM","name":"inferior olive, medial nucleus","plate":52,"ap_bregma_mm":-10.05,"area_mm2":0.0338,"traced_fraction":[1.0],"n_labels":1,"no_drawn_outline":false}},{"type":"Feature","geometry":{"type":"MultiPolygon","coordinates":[[[[-0.533,-8.523],[-0.603,-8.565],[-0.715,-8.593],[-0.785,-8.551],[-0.792,-8.495],[-0.778,-8.453],[-0.659,-8.333],[-0.505,-8.227],[-0.463,-8.213],[-0.386,-8.256],[-0.379,-8.277],[-0.449,-8.361],[-0.575,-8.446],[-0.547,-8.516],[-0.533,-8.523]]],[[[0.792,-8.41],[0.771,-8.417],[0.778,-8.488],[0.729,-8.523],[0.631,-8.523],[0.519,-8.488],[0.54,-8.396],[0.386,-8.347],[0.365,-8.277],[0.428,-8.235],[0.463,-8.235],[0.589,-8.291],[0.722,-8.382],[0.785,-8.396],[0.792,-8.41]]]]},"properties":{"abbr":"IOPr","name":"inferior olive, principal nucleus","plate":52,"ap_bregma_mm":-10.05,"area_mm2":0.1367,"traced_fraction":[0.945,0.93],"n_labels":2,"no_drawn_outline":false}},{"type":"Feature","geometry":{"type":"MultiPolygon","coordinates":[[[[0.498,-6.047],[0.568,-6.104],[0.708,-6.139],[0.715,-6.174],[0.764,-6.237],[1.304,-6.793],[1.157,-6.793],[1.08,-6.87],[1.059,-6.856],[0.996,-6.856],[0.933,-6.905],[0.912,-6.898],[0.876,-6.821],[0.856,-6.807],[0.582,-6.385],[0.561,-6.371],[0.477,-6.216],[0.435,-6.181],[0.428,-6.174],[0.498,-6.047]]],[[[-0.561,-6.132],[-0.505,-6.181],[-0.512,-6.223],[-0.526,-6.223],[-0.575,-6.286],[-0.603,-6.357],[-0.617,-6.364],[-0.778,-6.673],[-0.834,-6.751],[-0.841,-6.786],[-0.855,-6.793],[-0.939,-6.962],[-0.968,-6.99],[-0.989,-7.046],[-1.01,-7.067],[-1.045,-7.067],[-1.038,-6.919],[-1.052,-6.863],[-1.073,-6.842],[-1.094,-6.828],[-1.178,-6.828],[-1.269,-6.884],[-1.318,-6.863],[-1.318,-6.842],[-1.283,-6.814],[-1.283,-6.8],[-1.094,-6.596],[-0.75,-6.223],[-0.764,-6.146],[-0.561,-6.132]]]]},"properties":{"abbr":"IRt","name":"intermediate reticular nucleus","plate":52,"ap_bregma_mm":-10.05,"area_mm2":0.5095,"traced_fraction":[0.925,0.992],"n_labels":2,"no_drawn_outline":false}},{"type":"Feature","geometry":{"type":"MultiPolygon","coordinates":[[[[1.55,-7.813],[1.599,-7.855],[1.606,-7.897],[1.648,-7.925],[1.571,-8.045],[1.473,-8.136],[1.157,-8.305],[1.087,-8.319],[1.066,-8.242],[1.087,-8.227],[1.087,-7.925],[1.444,-7.925],[1.5,-7.848],[1.55,-7.813]]],[[[-1.5,-7.939],[-0.764,-7.939],[-0.764,-8.101],[-0.673,-8.185],[-0.715,-8.221],[-0.932,-8.221],[-0.939,-8.354],[-1.024,-8.34],[-1.066,-8.368],[-1.213,-8.305],[-1.388,-8.192],[-1.465,-8.136],[-1.563,-8.038],[-1.563,-8.017],[-1.5,-7.939]]]]},"properties":{"abbr":"LPGi","name":"lateral paragigantocellular nucleus","plate":52,"ap_bregma_mm":-10.05,"area_mm2":0.4044,"traced_fraction":[0.484,0.433],"n_labels":2,"no_drawn_outline":true}},{"type":"Feature","geometry":{"type":"MultiPolygon","coordinates":[[[[1.564,-6.729],[1.641,-6.736],[1.753,-6.814],[1.928,-6.983],[2.005,-7.088],[2.005,-7.172],[1.9,-7.172],[1.746,-7.081],[1.641,-6.955],[1.515,-6.891],[1.486,-6.849],[1.486,-6.793],[1.528,-6.744],[1.564,-6.729]]],[[[-1.507,-7.039],[-1.528,-7.046],[-1.599,-7.151],[-1.718,-7.264],[-1.76,-7.264],[-1.795,-7.243],[-1.788,-7.116],[-1.753,-7.011],[-1.704,-6.919],[-1.676,-6.877],[-1.57,-6.786],[-1.507,-6.786],[-1.479,-6.821],[-1.472,-6.898],[-1.5,-7.011],[-1.514,-7.018],[-1.507,-7.039]]],[[[-1.045,-7.067],[-1.066,-7.172],[-1.108,-7.257],[-1.171,-7.341],[-1.185,-7.341],[-1.227,-7.285],[-1.227,-7.18],[-1.213,-7.109],[-1.178,-7.032],[-1.178,-6.983],[-1.283,-6.969],[-1.297,-6.955],[-1.297,-6.919],[-1.269,-6.884],[-1.178,-6.828],[-1.094,-6.828],[-1.073,-6.842],[-1.052,-6.863],[-1.038,-6.919],[-1.045,-7.067]]],[[[1.08,-6.87],[1.122,-6.969],[1.115,-7.081],[1.052,-7.067],[1.045,-7.067],[1.038,-7.06],[1.003,-7.032],[0.968,-6.962],[0.933,-6.933],[0.933,-6.905],[0.996,-6.856],[1.059,-6.856],[1.08,-6.87]]]]},"properties":{"abbr":"Li","name":"linear nucleus of the medulla","plate":52,"ap_bregma_mm":-10.05,"area_mm2":0.3037,"traced_fraction":[1.0,1.0,1.0,0.939],"n_labels":4,"no_drawn_outline":false}},{"type":"Feature","geometry":{"type":"MultiPolygon","coordinates":[[[[0.596,-5.864],[0.638,-5.892],[0.61,-5.942],[0.61,-5.998],[0.624,-6.005],[0.666,-6.005],[0.708,-5.977],[0.729,-5.949],[0.729,-5.921],[0.771,-5.921],[0.771,-6.139],[0.708,-6.139],[0.568,-6.104],[0.498,-6.047],[0.498,-5.956],[0.512,-5.956],[0.561,-5.885],[0.596,-5.864]]]]},"properties":{"abbr":"MVeMC","name":"medial vestibular nucleus, magnocellular part","plate":52,"ap_bregma_mm":-10.05,"area_mm2":0.047,"traced_fraction":[0.807],"n_labels":1,"no_drawn_outline":false}},{"type":"Feature","geometry":{"type":"MultiPolygon","coordinates":[[[[0.645,-5.168],[0.666,-5.168],[0.666,-5.238],[0.617,-5.407],[0.568,-5.499],[0.526,-5.618],[0.428,-5.773],[0.393,-5.801],[0.379,-5.843],[0.28,-5.815],[0.126,-5.801],[0.246,-5.639],[0.301,-5.506],[0.351,-5.414],[0.372,-5.386],[0.379,-5.337],[0.505,-5.252],[0.603,-5.21],[0.645,-5.168]]],[[[-0.505,-5.26],[-0.498,-5.288],[-0.442,-5.344],[-0.442,-5.365],[-0.386,-5.456],[-0.351,-5.569],[-0.252,-5.724],[-0.224,-5.801],[-0.322,-5.78],[-0.407,-5.78],[-0.512,-5.801],[-0.554,-5.738],[-0.638,-5.66],[-0.645,-5.632],[-0.736,-5.506],[-0.841,-5.302],[-0.869,-5.182],[-0.624,-5.217],[-0.505,-5.26]]]]},"properties":{"abbr":"MVePC","name":"medial vestibular nucleus, parvicellular part","plate":52,"ap_bregma_mm":-10.05,"area_mm2":0.3524,"traced_fraction":[0.992,1.0],"n_labels":2,"no_drawn_outline":false}},{"type":"Feature","geometry":{"type":"MultiPolygon","coordinates":[[[[1.795,-5.681],[1.886,-5.689],[1.9,-5.724],[1.97,-5.794],[1.977,-5.822],[1.984,-5.878],[2.061,-5.935],[2.083,-5.956],[2.083,-5.977],[1.921,-5.949],[1.83,-5.977],[1.746,-5.984],[1.507,-5.85],[1.367,-5.801],[1.297,-5.801],[1.241,-5.696],[1.634,-5.696],[1.795,-5.681]]],[[[-1.753,-5.689],[-1.739,-5.71],[-1.591,-5.752],[-1.325,-5.773],[-1.367,-5.843],[-1.395,-5.864],[-1.416,-5.928],[-1.542,-5.956],[-1.655,-6.005],[-1.676,-6.026],[-1.928,-6.047],[-2.047,-6.089],[-2.117,-6.089],[-2.117,-6.068],[-2.019,-5.984],[-2.012,-5.928],[-1.956,-5.815],[-1.907,-5.759],[-1.865,-5.717],[-1.802,-5.717],[-1.753,-5.689]]]]},"properties":{"abbr":"Mx","name":"matrix region of the medulla","plate":52,"ap_bregma_mm":-10.05,"area_mm2":0.3131,"traced_fraction":[1.0,1.0],"n_labels":2,"no_drawn_outline":false}},{"type":"Feature","geometry":{"type":"MultiPolygon","coordinates":[[[[1.08,-6.117],[1.367,-6.209],[1.669,-6.371],[1.669,-6.568],[1.557,-6.568],[1.564,-6.729],[1.528,-6.744],[1.486,-6.793],[1.486,-6.849],[1.515,-6.891],[1.465,-6.94],[1.388,-6.884],[1.304,-6.793],[0.764,-6.237],[0.715,-6.174],[0.708,-6.139],[0.771,-6.139],[0.912,-6.146],[1.08,-6.117]]],[[[-0.764,-6.146],[-0.75,-6.223],[-1.094,-6.596],[-1.234,-6.596],[-1.297,-6.568],[-1.297,-6.525],[-1.423,-6.525],[-1.423,-6.364],[-1.416,-6.35],[-1.283,-6.293],[-0.953,-6.188],[-0.925,-6.167],[-0.764,-6.146]]]]},"properties":{"abbr":"PCRt","name":"parvicellular reticular nucleus","plate":52,"ap_bregma_mm":-10.05,"area_mm2":0.5526,"traced_fraction":[0.831,0.704],"n_labels":2,"no_drawn_outline":false}},{"type":"Feature","geometry":{"type":"MultiPolygon","coordinates":[[[[3.807,-3.262],[3.821,-3.283],[3.849,-3.29],[3.849,-3.304],[3.87,-3.304],[3.877,-3.41],[3.835,-3.515],[3.583,-3.93],[3.499,-4.092],[3.38,-4.254],[3.169,-4.458],[3.12,-4.486],[2.945,-4.528],[2.833,-4.542],[2.784,-4.563],[2.636,-4.535],[2.426,-4.472],[2.244,-4.373],[2.083,-4.233],[2.061,-4.233],[1.991,-4.155],[1.907,-4.029],[1.858,-3.923],[1.753,-3.775],[1.62,-3.593],[1.802,-3.403],[1.942,-3.332],[2.405,-3.332],[2.587,-3.234],[2.706,-3.241],[2.812,-3.22],[2.959,-3.213],[2.973,-3.199],[3.31,-3.192],[3.316,-3.206],[3.513,-3.213],[3.807,-3.262]]],[[[-1.662,-3.642],[-1.725,-3.754],[-1.746,-3.768],[-1.893,-4.043],[-2.054,-4.197],[-2.328,-4.38],[-2.349,-4.38],[-2.461,-4.444],[-2.608,-4.479],[-2.755,-4.479],[-2.755,-4.465],[-2.896,-4.387],[-3.043,-4.12],[-3.169,-4.015],[-3.281,-3.782],[-3.302,-3.705],[-3.302,-3.593],[-3.281,-3.571],[-3.134,-3.536],[-3.022,-3.487],[-3.001,-3.487],[-2.917,-3.438],[-2.833,-3.417],[-2.833,-3.438],[-2.706,-3.494],[-2.566,-3.642],[-1.662,-3.642]]]]},"properties":{"abbr":"PM","name":"paramedian lobule","plate":52,"ap_bregma_mm":-10.05,"area_mm2":3.1337,"traced_fraction":[0.803,0.715],"n_labels":2,"no_drawn_outline":false}},{"type":"Feature","geometry":{"type":"MultiPolygon","coordinates":[[[[-0.224,-5.801],[-0.182,-5.822],[-0.119,-5.885],[-0.126,-5.921],[-0.098,-5.991],[-0.105,-6.026],[-0.168,-6.026],[-0.182,-6.005],[-0.21,-5.998],[-0.301,-6.012],[-0.407,-6.082],[-0.421,-6.111],[-0.421,-6.153],[-0.407,-6.174],[-0.421,-6.188],[-0.505,-6.181],[-0.561,-6.132],[-0.61,-6.04],[-0.61,-5.942],[-0.596,-5.892],[-0.561,-5.843],[-0.512,-5.801],[-0.407,-5.78],[-0.322,-5.78],[-0.224,-5.801]]],[[[0.126,-5.801],[0.28,-5.815],[0.379,-5.843],[0.428,-5.871],[0.498,-5.956],[0.498,-6.047],[0.428,-6.174],[0.301,-6.195],[0.301,-6.117],[0.288,-6.111],[0.28,-6.075],[0.224,-6.026],[0.161,-5.998],[0.077,-6.005],[0.042,-6.04],[0.035,-6.075],[0.056,-6.132],[0.021,-6.125],[-0.021,-6.026],[0.0,-5.9],[0.126,-5.801]]]]},"properties":{"abbr":"Pr","name":"prepositus nucleus","plate":52,"ap_bregma_mm":-10.05,"area_mm2":0.2536,"traced_fraction":[0.991,1.0],"n_labels":2,"no_drawn_outline":false}},{"type":"Feature","geometry":{"type":"MultiPolygon","coordinates":[[[[-0.091,-6.842],[-0.028,-6.842],[0.021,-7.264],[0.028,-7.433],[0.049,-7.447],[0.042,-7.721],[0.021,-7.988],[-0.021,-8.08],[-0.021,-8.108],[-0.07,-8.094],[-0.119,-8.038],[-0.126,-8.002],[-0.126,-7.728],[-0.14,-7.637],[-0.14,-7.355],[-0.126,-7.32],[-0.119,-7.081],[-0.091,-6.842]]]]},"properties":{"abbr":"ROb","name":"raphe obscurus nucleus","plate":52,"ap_bregma_mm":-10.05,"area_mm2":0.1793,"traced_fraction":[0.992],"n_labels":1,"no_drawn_outline":false}},{"type":"Feature","geometry":{"type":"MultiPolygon","coordinates":[[[[-0.407,-6.174],[-0.379,-6.195],[-0.252,-6.202],[-0.273,-6.286],[-0.315,-6.343],[-0.358,-6.364],[-0.414,-6.357],[-0.442,-6.336],[-0.484,-6.286],[-0.498,-6.23],[-0.512,-6.223],[-0.505,-6.181],[-0.421,-6.188],[-0.407,-6.174]]],[[[0.428,-6.174],[0.435,-6.181],[0.421,-6.188],[0.4,-6.258],[0.372,-6.3],[0.288,-6.378],[0.246,-6.378],[0.196,-6.35],[0.14,-6.272],[0.119,-6.209],[0.295,-6.202],[0.301,-6.195],[0.428,-6.174]]]]},"properties":{"abbr":"Ro","name":"nucleus of Roller","plate":52,"ap_bregma_mm":-10.05,"area_mm2":0.0713,"traced_fraction":[1.0,0.992],"n_labels":2,"no_drawn_outline":false}},{"type":"Feature","geometry":{"type":"MultiPolygon","coordinates":[[[[2.096,-5.991],[2.244,-6.075],[2.468,-6.3],[2.489,-6.35],[2.545,-6.413],[2.615,-6.589],[2.629,-6.751],[2.587,-6.933],[2.503,-7.088],[2.426,-7.166],[2.426,-7.18],[2.377,-7.215],[2.363,-7.201],[2.293,-7.201],[2.223,-7.172],[2.153,-7.088],[2.138,-7.053],[2.138,-6.751],[2.083,-6.638],[1.984,-6.532],[1.977,-6.329],[1.991,-6.209],[2.019,-6.117],[2.083,-6.033],[2.096,-5.991]]],[[[-2.117,-6.089],[-2.047,-6.089],[-2.04,-6.117],[-1.991,-6.167],[-1.935,-6.265],[-1.886,-6.406],[-1.851,-6.575],[-1.921,-6.652],[-1.963,-6.751],[-1.984,-7.109],[-2.026,-7.208],[-2.061,-7.243],[-2.103,-7.271],[-2.195,-7.299],[-2.216,-7.299],[-2.293,-7.215],[-2.419,-7.011],[-2.475,-6.842],[-2.489,-6.694],[-2.447,-6.49],[-2.405,-6.427],[-2.384,-6.364],[-2.293,-6.23],[-2.209,-6.146],[-2.117,-6.089]]]]},"properties":{"abbr":"Sp5I","name":"spinal trigeminal nucleus, interpolar part","plate":52,"ap_bregma_mm":-10.05,"area_mm2":1.0264,"traced_fraction":[1.0,1.0],"n_labels":2,"no_drawn_outline":false}},{"type":"Feature","geometry":{"type":"MultiPolygon","coordinates":[[[[1.444,-5.126],[1.444,-5.358],[1.753,-5.358],[1.774,-5.421],[1.753,-5.435],[1.746,-5.541],[1.76,-5.618],[1.795,-5.681],[1.634,-5.696],[1.241,-5.696],[1.164,-5.681],[1.143,-5.618],[1.08,-5.541],[1.038,-5.449],[0.996,-5.295],[0.968,-5.098],[1.192,-5.084],[1.339,-5.098],[1.444,-5.126]]],[[[-1.15,-5.681],[-1.171,-5.681],[-1.213,-5.745],[-1.325,-5.773],[-1.591,-5.752],[-1.739,-5.71],[-1.753,-5.689],[-1.725,-5.639],[-1.732,-5.618],[-1.718,-5.583],[-1.69,-5.52],[-1.69,-5.47],[-1.704,-5.442],[-1.69,-5.428],[-1.395,-5.428],[-1.395,-5.182],[-1.29,-5.154],[-1.045,-5.161],[-1.08,-5.449],[-1.129,-5.618],[-1.15,-5.639],[-1.15,-5.681]]]]},"properties":{"abbr":"SpVe","name":"spinal vestibular nucleus","plate":52,"ap_bregma_mm":-10.05,"area_mm2":0.6267,"traced_fraction":[0.807,0.791],"n_labels":2,"no_drawn_outline":false}},{"type":"Feature","geometry":{"type":"MultiPolygon","coordinates":[[[[-1.451,-4.823],[-1.514,-4.866],[-1.585,-4.873],[-1.683,-4.929],[-1.781,-4.95],[-1.823,-4.971],[-1.837,-5.013],[-1.858,-5.027],[-1.984,-5.013],[-2.033,-5.07],[-2.054,-5.077],[-2.216,-5.062],[-2.272,-5.098],[-2.335,-5.105],[-2.391,-5.049],[-2.391,-4.985],[-2.363,-4.894],[-2.356,-4.852],[-2.37,-4.837],[-2.384,-4.845],[-2.433,-4.823],[-2.433,-4.816],[-2.433,-4.809],[-2.37,-4.767],[-2.314,-4.753],[-2.117,-4.655],[-1.963,-4.556],[-1.935,-4.514],[-1.851,-4.479],[-1.781,-4.479],[-1.739,-4.5],[-1.641,-4.598],[-1.549,-4.732],[-1.451,-4.823]]],[[[2.019,-4.739],[2.096,-4.753],[2.111,-4.788],[2.181,-4.837],[2.272,-4.852],[2.307,-4.83],[2.398,-4.873],[2.412,-4.936],[2.531,-4.936],[2.615,-5.049],[2.643,-5.062],[2.755,-5.062],[2.861,-5.006],[2.959,-5.006],[2.987,-5.027],[3.043,-5.027],[3.127,-4.992],[3.274,-4.929],[3.344,-4.873],[3.394,-4.887],[3.415,-4.936],[3.415,-5.105],[3.429,-5.14],[3.555,-5.21],[3.625,-5.281],[3.632,-5.309],[3.66,-5.337],[3.667,-5.456],[3.625,-5.548],[3.373,-5.808],[3.288,-5.85],[3.211,-5.857],[2.734,-5.597],[2.552,-5.534],[2.503,-5.477],[2.538,-5.386],[2.538,-5.33],[2.524,-5.323],[2.51,-5.316],[2.461,-5.288],[2.44,-5.288],[2.391,-5.323],[2.293,-5.323],[2.258,-5.309],[2.216,-5.281],[2.209,-5.26],[2.089,-5.217],[2.068,-5.196],[2.047,-5.196],[2.026,-5.168],[1.998,-5.168],[1.984,-5.189],[1.991,-5.26],[1.9,-5.238],[1.802,-5.238],[1.697,-5.224],[1.627,-5.182],[1.599,-5.056],[1.606,-4.943],[1.592,-4.943],[1.599,-4.922],[1.683,-4.866],[1.739,-4.83],[1.739,-4.845],[1.865,-4.837],[2.019,-4.739]]],[[[-2.433,-5.084],[-2.405,-5.147],[-2.398,-5.231],[-2.342,-5.252],[-2.293,-5.302],[-2.293,-5.506],[-2.307,-5.541],[-2.391,-5.562],[-2.419,-5.583],[-2.433,-5.731],[-2.496,-5.864],[-2.545,-5.914],[-2.608,-5.928],[-2.671,-5.9],[-2.741,-5.892],[-2.741,-5.878],[-2.762,-5.878],[-2.762,-5.9],[-2.776,-5.9],[-2.826,-5.956],[-2.91,-5.935],[-2.98,-5.864],[-3.022,-5.787],[-3.022,-5.59],[-2.966,-5.372],[-2.868,-5.231],[-2.762,-5.175],[-2.629,-5.077],[-2.573,-5.056],[-2.489,-5.049],[-2.433,-5.084]]],[[[0.645,-5.168],[0.603,-5.21],[0.505,-5.252],[0.379,-5.337],[0.323,-5.337],[0.309,-5.351],[0.309,-5.4],[0.351,-5.414],[0.301,-5.506],[0.119,-5.492],[0.119,-5.52],[0.154,-5.576],[0.154,-5.66],[0.14,-5.689],[0.077,-5.689],[0.028,-5.653],[-0.07,-5.66],[-0.084,-5.646],[-0.084,-5.604],[-0.063,-5.576],[-0.063,-5.548],[-0.091,-5.548],[-0.161,-5.597],[-0.231,-5.604],[-0.301,-5.548],[-0.322,-5.506],[-0.351,-5.358],[-0.379,-5.337],[-0.442,-5.344],[-0.498,-5.288],[-0.505,-5.26],[-0.435,-5.231],[-0.182,-5.231],[-0.063,-5.26],[0.014,-5.26],[0.175,-5.224],[0.372,-5.231],[0.554,-5.161],[0.645,-5.168]]]]},"properties":{"abbr":"chp","name":"choroid plexus","plate":52,"ap_bregma_mm":-10.05,"area_mm2":2.2004,"traced_fraction":[1.0,1.0,1.0,1.0],"n_labels":4,"no_drawn_outline":false}},{"type":"Feature","geometry":{"type":"MultiPolygon","coordinates":[[[[2.791,-6.786],[2.966,-6.793],[2.924,-7.06],[2.847,-7.229],[2.805,-7.285],[2.636,-7.447],[2.426,-7.595],[2.391,-7.637],[2.195,-7.784],[2.068,-7.862],[2.054,-7.742],[2.026,-7.714],[2.047,-7.679],[2.104,-7.658],[2.244,-7.524],[2.349,-7.37],[2.489,-7.278],[2.629,-7.13],[2.742,-6.94],[2.791,-6.786]]]]},"properties":{"abbr":"dsc","name":"dorsal spinocerebellar tract","plate":52,"ap_bregma_mm":-10.05,"area_mm2":0.2702,"traced_fraction":[0.925],"n_labels":2,"no_drawn_outline":false}},{"type":"Feature","geometry":{"type":"MultiPolygon","coordinates":[[[[1.998,-5.26],[2.104,-5.288],[2.209,-5.358],[2.335,-5.485],[2.454,-5.646],[2.531,-5.71],[2.692,-5.836],[2.805,-5.956],[2.973,-6.174],[3.05,-6.329],[3.078,-6.427],[3.078,-6.568],[3.064,-6.617],[2.987,-6.736],[2.966,-6.793],[2.791,-6.786],[2.791,-6.455],[2.749,-6.315],[2.671,-6.174],[2.426,-5.921],[2.349,-5.864],[2.195,-5.808],[2.033,-5.808],[1.977,-5.822],[1.97,-5.794],[1.9,-5.724],[1.886,-5.689],[1.949,-5.646],[1.956,-5.618],[1.984,-5.59],[1.991,-5.541],[2.033,-5.435],[2.026,-5.337],[1.998,-5.26]]],[[[-1.802,-5.351],[-1.816,-5.414],[-1.823,-5.414],[-1.83,-5.421],[-1.872,-5.449],[-1.893,-5.499],[-1.914,-5.513],[-1.914,-5.576],[-1.991,-5.576],[-1.991,-5.731],[-1.907,-5.759],[-1.956,-5.815],[-2.012,-5.928],[-2.089,-5.921],[-2.195,-5.97],[-2.349,-6.082],[-2.468,-6.202],[-2.58,-6.385],[-2.622,-6.561],[-2.622,-6.828],[-2.573,-7.011],[-2.454,-7.236],[-2.272,-7.433],[-2.272,-7.468],[-2.216,-7.545],[-2.223,-7.602],[-2.251,-7.623],[-2.251,-7.693],[-2.559,-7.419],[-2.643,-7.285],[-2.699,-7.151],[-2.692,-7.039],[-2.741,-7.046],[-2.769,-6.997],[-2.812,-6.786],[-2.818,-6.532],[-2.805,-6.427],[-2.762,-6.258],[-2.706,-6.146],[-2.657,-6.075],[-2.587,-6.019],[-2.587,-6.005],[-2.559,-5.998],[-2.545,-5.97],[-2.496,-5.942],[-2.37,-5.822],[-2.286,-5.71],[-2.216,-5.548],[-2.201,-5.548],[-2.188,-5.513],[-2.146,-5.485],[-2.146,-5.47],[-2.026,-5.407],[-1.802,-5.351]]]]},"properties":{"abbr":"icp","name":"inferior cerebellar peduncle (restiform body)","plate":52,"ap_bregma_mm":-10.05,"area_mm2":1.0632,"traced_fraction":[0.965,0.926],"n_labels":2,"no_drawn_outline":false}},{"type":"Feature","geometry":{"type":"MultiPolygon","coordinates":[[[[0.288,-8.502],[0.288,-8.727],[0.203,-8.706],[0.119,-8.664],[0.105,-8.642],[-0.014,-8.593],[0.021,-8.586],[0.035,-8.53],[0.049,-8.523],[0.182,-8.502],[0.288,-8.502]]]]},"properties":{"abbr":"ml","name":"medial lemniscus","plate":52,"ap_bregma_mm":-10.05,"area_mm2":0.0438,"traced_fraction":[0.83],"n_labels":1,"no_drawn_outline":false}},{"type":"Feature","geometry":{"type":"MultiPolygon","coordinates":[[[[0.084,-6.715],[-0.042,-6.715],[-0.07,-6.715],[-0.196,-6.715],[-0.21,-6.413],[-0.182,-6.251],[-0.147,-6.174],[-0.133,-6.16],[-0.077,-6.146],[-0.021,-6.153],[0.042,-6.202],[0.07,-6.251],[0.091,-6.357],[0.084,-6.715]]]]},"properties":{"abbr":"mlf","name":"medial longitudinal fasciculus","plate":52,"ap_bregma_mm":-10.05,"area_mm2":0.1523,"traced_fraction":[0.913],"n_labels":1,"no_drawn_outline":false}},{"type":"Feature","geometry":{"type":"MultiPolygon","coordinates":[[[[-0.343,-8.41],[-0.343,-8.481],[-0.449,-8.502],[-0.442,-8.523],[-0.259,-8.516],[-0.238,-8.495],[-0.189,-8.523],[-0.147,-8.523],[-0.133,-8.509],[-0.119,-8.558],[-0.091,-8.593],[-0.042,-8.593],[-0.119,-8.621],[-0.259,-8.741],[-0.386,-8.79],[-0.568,-8.79],[-0.82,-8.706],[-0.82,-8.685],[-0.764,-8.65],[-0.715,-8.593],[-0.603,-8.565],[-0.533,-8.523],[-0.484,-8.509],[-0.442,-8.446],[-0.343,-8.41]]],[[[0.519,-8.488],[0.631,-8.523],[0.729,-8.523],[0.743,-8.544],[0.848,-8.565],[0.89,-8.6],[0.89,-8.607],[0.75,-8.685],[0.554,-8.741],[0.337,-8.741],[0.288,-8.727],[0.288,-8.502],[0.421,-8.502],[0.449,-8.481],[0.519,-8.488]]],[[[0.89,-8.6],[0.897,-8.6],[0.897,-8.607],[0.89,-8.607],[0.89,-8.6]]]]},"properties":{"abbr":"py","name":"pyramidal tract","plate":52,"ap_bregma_mm":-10.05,"area_mm2":0.2639,"traced_fraction":[1.0,0.895,1.0],"n_labels":2,"no_drawn_outline":false}},{"type":"Feature","geometry":{"type":"MultiPolygon","coordinates":[[[[1.515,-6.891],[1.641,-6.955],[1.746,-7.081],[1.9,-7.172],[2.005,-7.172],[2.005,-7.088],[2.153,-7.088],[2.223,-7.172],[2.293,-7.201],[2.363,-7.201],[2.377,-7.215],[2.293,-7.306],[2.293,-7.334],[2.349,-7.37],[2.244,-7.524],[2.104,-7.658],[2.047,-7.679],[2.019,-7.595],[2.068,-7.531],[1.837,-7.313],[1.837,-7.264],[1.781,-7.264],[1.732,-7.236],[1.732,-7.215],[1.697,-7.187],[1.697,-7.172],[1.606,-7.081],[1.592,-7.081],[1.465,-6.955],[1.465,-6.94],[1.515,-6.891]]],[[[-1.984,-7.109],[-1.788,-7.116],[-1.795,-7.243],[-1.76,-7.264],[-1.718,-7.264],[-1.718,-7.292],[-1.753,-7.32],[-1.746,-7.362],[-1.76,-7.426],[-1.865,-7.44],[-1.991,-7.566],[-2.054,-7.651],[-2.131,-7.616],[-2.216,-7.545],[-2.272,-7.468],[-2.272,-7.433],[-2.174,-7.433],[-2.167,-7.348],[-2.195,-7.32],[-2.195,-7.299],[-2.103,-7.271],[-2.061,-7.243],[-2.026,-7.208],[-1.984,-7.109]]]]},"properties":{"abbr":"rs","name":"rubrospinal tract","plate":52,"ap_bregma_mm":-10.05,"area_mm2":0.3879,"traced_fraction":[0.949,0.892],"n_labels":2,"no_drawn_outline":false}},{"type":"Feature","geometry":{"type":"MultiPolygon","coordinates":[[[[1.164,-5.681],[1.241,-5.696],[1.297,-5.801],[1.276,-5.907],[1.234,-5.977],[1.15,-6.061],[1.094,-6.089],[1.08,-6.117],[0.912,-6.146],[0.771,-6.139],[0.771,-5.921],[0.729,-5.921],[0.736,-5.864],[0.715,-5.843],[0.673,-5.85],[0.638,-5.892],[0.596,-5.864],[0.596,-5.85],[0.631,-5.829],[0.645,-5.801],[0.701,-5.773],[0.701,-5.759],[0.862,-5.681],[0.989,-5.667],[1.164,-5.681]]],[[[-1.15,-5.681],[-1.136,-5.724],[-1.01,-5.689],[-0.876,-5.696],[-0.715,-5.752],[-0.687,-5.78],[-0.729,-5.836],[-0.778,-5.815],[-0.827,-5.822],[-0.841,-5.836],[-0.841,-5.914],[-0.82,-5.956],[-0.792,-5.97],[-0.771,-6.005],[-0.729,-6.026],[-0.687,-6.026],[-0.673,-6.012],[-0.666,-5.928],[-0.61,-5.942],[-0.61,-6.04],[-0.561,-6.132],[-0.764,-6.146],[-0.925,-6.167],[-0.947,-6.153],[-1.094,-6.146],[-1.227,-6.111],[-1.346,-6.04],[-1.409,-5.97],[-1.416,-5.928],[-1.395,-5.864],[-1.367,-5.843],[-1.325,-5.773],[-1.213,-5.745],[-1.185,-5.696],[-1.15,-5.681]]]]},"properties":{"abbr":"sol","name":"solitary tract","plate":52,"ap_bregma_mm":-10.05,"area_mm2":0.4944,"traced_fraction":[0.882,0.977],"n_labels":3,"no_drawn_outline":false}},{"type":"Feature","geometry":{"type":"MultiPolygon","coordinates":[[[[2.791,-6.786],[2.742,-6.94],[2.629,-7.13],[2.489,-7.278],[2.349,-7.37],[2.293,-7.334],[2.293,-7.306],[2.377,-7.215],[2.391,-7.215],[2.482,-7.116],[2.545,-7.025],[2.587,-6.933],[2.629,-6.751],[2.615,-6.589],[2.545,-6.413],[2.489,-6.35],[2.468,-6.3],[2.244,-6.075],[2.096,-5.991],[2.083,-5.977],[2.083,-5.956],[1.984,-5.878],[1.977,-5.822],[2.033,-5.808],[2.195,-5.808],[2.349,-5.864],[2.426,-5.921],[2.671,-6.174],[2.749,-6.315],[2.791,-6.455],[2.791,-6.786]]],[[[-2.012,-5.928],[-2.019,-5.984],[-2.117,-6.068],[-2.117,-6.089],[-2.209,-6.146],[-2.293,-6.23],[-2.384,-6.364],[-2.384,-6.385],[-2.447,-6.49],[-2.489,-6.694],[-2.475,-6.842],[-2.419,-7.011],[-2.293,-7.215],[-2.216,-7.299],[-2.195,-7.299],[-2.195,-7.32],[-2.167,-7.348],[-2.174,-7.433],[-2.272,-7.433],[-2.454,-7.236],[-2.573,-7.011],[-2.622,-6.828],[-2.622,-6.561],[-2.58,-6.385],[-2.468,-6.202],[-2.349,-6.082],[-2.229,-5.991],[-2.089,-5.921],[-2.012,-5.928]]]]},"properties":{"abbr":"sp5","name":"spinal trigeminal tract","plate":52,"ap_bregma_mm":-10.05,"area_mm2":0.6081,"traced_fraction":[1.0,1.0],"n_labels":2,"no_drawn_outline":false}},{"type":"Feature","geometry":{"type":"MultiPolygon","coordinates":[[[[-0.196,-6.715],[-0.07,-6.715],[-0.091,-6.842],[-0.119,-7.081],[-0.126,-7.32],[-0.14,-7.355],[-0.161,-7.348],[-0.168,-7.306],[-0.182,-6.997],[-0.203,-6.856],[-0.196,-6.715]]],[[[-0.042,-6.715],[0.084,-6.715],[0.077,-7.13],[0.063,-7.236],[0.07,-7.37],[0.063,-7.44],[0.049,-7.447],[0.028,-7.433],[0.021,-7.264],[-0.028,-6.842],[-0.042,-6.715]]]]},"properties":{"abbr":"ts","name":"tectospinal tract","plate":52,"ap_bregma_mm":-10.05,"area_mm2":0.1042,"traced_fraction":[0.943,0.954],"n_labels":2,"no_drawn_outline":false}},{"type":"Feature","geometry":{"type":"MultiPolygon","coordinates":[[[[-2.216,-7.545],[-2.131,-7.616],[-2.054,-7.651],[-1.844,-7.784],[-1.844,-7.799],[-1.788,-7.841],[-1.69,-7.883],[-1.683,-7.911],[-1.648,-7.932],[-1.578,-8.002],[-1.578,-8.017],[-1.563,-8.017],[-1.563,-8.038],[-1.465,-8.136],[-1.388,-8.192],[-1.213,-8.305],[-1.066,-8.368],[-1.031,-8.417],[-0.939,-8.46],[-0.813,-8.467],[-0.778,-8.453],[-0.792,-8.495],[-0.785,-8.551],[-0.715,-8.593],[-0.764,-8.65],[-0.82,-8.685],[-0.82,-8.706],[-0.904,-8.671],[-0.947,-8.635],[-1.325,-8.425],[-1.43,-8.34],[-1.486,-8.312],[-1.542,-8.256],[-1.725,-8.136],[-1.753,-8.101],[-1.802,-8.073],[-2.251,-7.693],[-2.251,-7.623],[-2.223,-7.602],[-2.216,-7.545]]],[[[2.026,-7.714],[2.054,-7.742],[2.068,-7.862],[1.585,-8.192],[1.318,-8.34],[1.017,-8.551],[0.905,-8.6],[0.897,-8.6],[0.89,-8.6],[0.848,-8.565],[0.743,-8.544],[0.729,-8.523],[0.778,-8.488],[0.771,-8.417],[0.792,-8.41],[0.856,-8.425],[0.933,-8.417],[0.989,-8.396],[1.087,-8.319],[1.157,-8.305],[1.473,-8.136],[1.571,-8.045],[1.648,-7.925],[1.718,-7.876],[1.837,-7.834],[1.872,-7.806],[1.9,-7.784],[2.026,-7.714]]],[[[0.897,-8.6],[0.905,-8.6],[0.897,-8.607],[0.897,-8.6]]]]},"properties":{"abbr":"vsc","name":"ventral spinocerebellar tract","plate":52,"ap_bregma_mm":-10.05,"area_mm2":0.5193,"traced_fraction":[0.975,0.971,1.0],"n_labels":2,"no_drawn_outline":false}},{"type":"Feature","geometry":{"type":"Polygon","coordinates":[[[-1.451,-4.823],[-1.381,-4.845],[-1.255,-4.873],[-0.975,-4.887],[-0.841,-4.908],[-0.785,-4.922],[-0.638,-5.006],[-0.547,-5.034],[-0.217,-5.077],[0.168,-5.077],[0.386,-5.062],[0.617,-5.034],[0.841,-4.971],[1.08,-4.978],[1.241,-4.999],[1.437,-4.992],[1.592,-4.943],[1.606,-4.943],[1.599,-5.056],[1.627,-5.182],[1.444,-5.126],[1.339,-5.098],[1.192,-5.084],[0.968,-5.098],[0.989,-5.26],[1.038,-5.449],[1.08,-5.541],[1.143,-5.618],[1.164,-5.681],[1.059,-5.667],[0.862,-5.681],[0.701,-5.759],[0.701,-5.773],[0.645,-5.801],[0.596,-5.864],[0.582,-5.864],[0.519,-5.949],[0.498,-5.956],[0.428,-5.871],[0.379,-5.843],[0.393,-5.801],[0.428,-5.773],[0.526,-5.618],[0.568,-5.499],[0.617,-5.407],[0.666,-5.238],[0.666,-5.168],[0.645,-5.168],[0.554,-5.161],[0.372,-5.231],[0.175,-5.224],[0.014,-5.26],[-0.063,-5.26],[-0.182,-5.231],[-0.435,-5.231],[-0.505,-5.26],[-0.624,-5.217],[-0.869,-5.182],[-0.841,-5.302],[-0.736,-5.506],[-0.645,-5.632],[-0.638,-5.66],[-0.554,-5.738],[-0.512,-5.801],[-0.561,-5.843],[-0.645,-5.787],[-0.687,-5.78],[-0.715,-5.752],[-0.876,-5.696],[-1.01,-5.689],[-1.136,-5.724],[-1.15,-5.681],[-1.15,-5.639],[-1.129,-5.618],[-1.08,-5.449],[-1.045,-5.161],[-1.29,-5.154],[-1.395,-5.182],[-1.486,-5.217],[-1.62,-5.238],[-1.802,-5.351],[-2.026,-5.407],[-2.146,-5.47],[-2.146,-5.485],[-2.188,-5.513],[-2.201,-5.548],[-2.216,-5.548],[-2.286,-5.71],[-2.37,-5.822],[-2.496,-5.942],[-2.545,-5.97],[-2.559,-5.998],[-2.587,-6.005],[-2.608,-5.928],[-2.545,-5.914],[-2.496,-5.864],[-2.433,-5.731],[-2.419,-5.583],[-2.391,-5.562],[-2.307,-5.541],[-2.293,-5.506],[-2.293,-5.302],[-2.321,-5.266],[-2.398,-5.231],[-2.405,-5.147],[-2.433,-5.084],[-2.391,-5.049],[-2.335,-5.105],[-2.272,-5.098],[-2.216,-5.062],[-2.054,-5.077],[-2.033,-5.07],[-1.984,-5.013],[-1.858,-5.027],[-1.837,-5.013],[-1.823,-4.971],[-1.683,-4.929],[-1.606,-4.88],[-1.514,-4.866],[-1.451,-4.823]]]},"properties":{"abbr":null,"name":"unnamed sealed face","plate":52,"ap_bregma_mm":-10.05,"index":0}},{"type":"Feature","geometry":{"type":"Polygon","coordinates":[[[2.398,-4.873],[2.433,-4.873],[2.538,-4.929],[2.861,-5.006],[2.755,-5.062],[2.643,-5.062],[2.615,-5.049],[2.531,-4.936],[2.412,-4.936],[2.398,-4.873]]]},"properties":{"abbr":null,"name":"unnamed sealed face","plate":52,"ap_bregma_mm":-10.05,"index":1}},{"type":"Feature","geometry":{"type":"Polygon","coordinates":[[[2.258,-5.309],[2.209,-5.358],[2.104,-5.288],[1.998,-5.26],[1.991,-5.26],[1.984,-5.189],[1.998,-5.168],[2.026,-5.168],[2.047,-5.196],[2.209,-5.26],[2.216,-5.281],[2.258,-5.309]]]},"properties":{"abbr":null,"name":"unnamed sealed face","plate":52,"ap_bregma_mm":-10.05,"index":2}},{"type":"Feature","geometry":{"type":"Polygon","coordinates":[[[2.019,-7.595],[2.047,-7.679],[2.026,-7.714],[1.9,-7.784],[1.886,-7.77],[1.858,-7.77],[1.76,-7.728],[1.753,-7.665],[1.767,-7.637],[1.886,-7.573],[1.977,-7.573],[2.019,-7.595]]]},"properties":{"abbr":null,"name":"unnamed sealed face","plate":52,"ap_bregma_mm":-10.05,"index":3}},{"type":"Feature","geometry":{"type":"Polygon","coordinates":[[[-0.119,-8.038],[-0.07,-8.094],[-0.021,-8.108],[0.021,-8.199],[0.035,-8.474],[0.049,-8.474],[0.049,-8.523],[0.035,-8.53],[0.021,-8.586],[-0.014,-8.593],[-0.042,-8.593],[-0.091,-8.593],[-0.112,-8.572],[-0.133,-8.509],[-0.133,-8.333],[-0.175,-8.319],[-0.245,-8.326],[-0.196,-8.249],[-0.182,-8.185],[-0.105,-8.185],[-0.091,-8.122],[-0.147,-8.101],[-0.133,-8.045],[-0.119,-8.038]]]},"properties":{"abbr":null,"name":"unnamed sealed face","plate":52,"ap_bregma_mm":-10.05,"index":4}},{"type":"Feature","geometry":{"type":"Polygon","coordinates":[[[-0.351,-8.143],[-0.358,-8.242],[-0.33,-8.305],[-0.301,-8.326],[-0.309,-8.382],[-0.343,-8.41],[-0.442,-8.446],[-0.484,-8.509],[-0.533,-8.523],[-0.547,-8.516],[-0.575,-8.446],[-0.449,-8.361],[-0.379,-8.277],[-0.386,-8.256],[-0.463,-8.213],[-0.505,-8.227],[-0.659,-8.333],[-0.778,-8.453],[-0.813,-8.467],[-0.939,-8.46],[-1.031,-8.417],[-1.066,-8.368],[-1.024,-8.34],[-0.939,-8.354],[-0.883,-8.361],[-0.848,-8.347],[-0.848,-8.333],[-0.778,-8.291],[-0.715,-8.221],[-0.673,-8.185],[-0.596,-8.129],[-0.498,-8.08],[-0.421,-8.073],[-0.351,-8.143]]]},"properties":{"abbr":null,"name":"unnamed sealed face","plate":52,"ap_bregma_mm":-10.05,"index":5}},{"type":"Feature","geometry":{"type":"Polygon","coordinates":[[[0.365,-8.277],[0.386,-8.347],[0.54,-8.396],[0.519,-8.488],[0.449,-8.481],[0.421,-8.502],[0.288,-8.502],[0.182,-8.502],[0.049,-8.523],[0.049,-8.474],[0.154,-8.446],[0.421,-8.467],[0.428,-8.453],[0.4,-8.425],[0.267,-8.375],[0.252,-8.333],[0.267,-8.305],[0.288,-8.298],[0.28,-8.227],[0.295,-8.213],[0.316,-8.213],[0.365,-8.277]]]},"properties":{"abbr":null,"name":"unnamed sealed face","plate":52,"ap_bregma_mm":-10.05,"index":6}},{"type":"Feature","geometry":{"type":"MultiPolygon","coordinates":[[[[-0.407,-8.783],[-0.547,-8.783],[-0.624,-8.769],[-0.862,-8.685],[-1.332,-8.41],[-1.704,-8.143],[-2.244,-7.7],[-2.552,-7.419],[-2.65,-7.264],[-2.769,-6.983],[-2.805,-6.821],[-2.818,-6.666],[-2.818,-6.554],[-2.797,-6.399],[-2.762,-6.265],[-2.713,-6.16],[-2.65,-6.068],[-2.587,-6.012],[-2.608,-5.914],[-2.72,-5.885],[-2.776,-5.892],[-2.833,-5.949],[-2.91,-5.928],[-2.98,-5.857],[-3.022,-5.773],[-3.022,-5.597],[-2.959,-5.358],[-2.875,-5.238],[-2.601,-5.062],[-2.496,-5.049],[-2.44,-5.084],[-2.391,-5.041],[-2.391,-4.992],[-2.363,-4.901],[-2.391,-4.83],[-2.426,-4.816],[-2.475,-4.816],[-2.692,-4.873],[-2.797,-4.873],[-2.839,-4.845],[-2.861,-4.732],[-2.826,-4.655],[-2.741,-4.577],[-2.755,-4.465],[-2.868,-4.401],[-2.917,-4.352],[-3.05,-4.113],[-3.162,-4.015],[-3.274,-3.797],[-3.302,-3.684],[-3.302,-3.593],[-3.513,-3.368],[-3.562,-3.248],[-3.618,-3.037],[-3.835,-2.622],[-3.891,-2.481],[-3.919,-2.341],[-3.94,-2.109],[-3.926,-2.01],[-3.863,-1.898],[-3.653,-1.694],[-3.351,-1.518],[-2.952,-1.37],[-2.608,-1.314],[-2.328,-1.314],[-2.005,-1.342],[-1.641,-1.433],[-1.325,-1.574],[-1.248,-1.539],[-1.171,-1.419],[-1.052,-1.307],[-0.968,-1.258],[-0.82,-1.201],[-0.715,-1.173],[-0.505,-1.145],[0.014,-1.131],[0.259,-1.159],[0.54,-1.236],[0.75,-1.314],[0.862,-1.37],[0.989,-1.455],[1.066,-1.525],[1.164,-1.532],[1.248,-1.44],[1.353,-1.363],[1.465,-1.3],[1.655,-1.229],[1.837,-1.187],[2.019,-1.166],[2.377,-1.173],[3.022,-1.272],[3.26,-1.342],[3.485,-1.447],[3.667,-1.574],[3.814,-1.715],[3.933,-1.855],[4.011,-1.996],[4.039,-2.123],[4.046,-2.228],[4.025,-2.608],[4.046,-2.953],[4.011,-3.079],[3.969,-3.157],[3.891,-3.22],[3.863,-3.311],[3.87,-3.396],[3.842,-3.48],[3.485,-4.092],[3.365,-4.254],[3.169,-4.444],[3.106,-4.479],[2.938,-4.521],[2.924,-4.634],[2.994,-4.676],[3.057,-4.746],[3.078,-4.795],[3.078,-4.873],[3.05,-4.929],[3.127,-4.992],[3.253,-4.936],[3.344,-4.873],[3.387,-4.887],[3.408,-4.943],[3.408,-5.084],[3.422,-5.133],[3.45,-5.161],[3.548,-5.21],[3.618,-5.281],[3.653,-5.344],[3.66,-5.442],[3.625,-5.527],[3.548,-5.625],[3.365,-5.801],[3.274,-5.843],[3.211,-5.85],[2.742,-5.597],[2.552,-5.527],[2.503,-5.47],[2.538,-5.372],[2.538,-5.33],[2.475,-5.288],[2.44,-5.281],[2.384,-5.316],[2.3,-5.316],[2.258,-5.302],[2.202,-5.358],[2.314,-5.47],[2.461,-5.653],[2.699,-5.85],[2.819,-5.984],[2.959,-6.167],[3.043,-6.329],[3.071,-6.434],[3.071,-6.554],[3.05,-6.624],[2.966,-6.765],[2.917,-7.046],[2.847,-7.208],[2.784,-7.292],[2.636,-7.433],[2.174,-7.784],[1.585,-8.178],[1.311,-8.34],[1.017,-8.537],[0.757,-8.671],[0.54,-8.734],[0.351,-8.734],[0.203,-8.699],[0.014,-8.593],[-0.035,-8.586],[-0.098,-8.6],[-0.266,-8.734],[-0.379,-8.776],[-0.407,-8.783]]]]},"properties":{"abbr":"brain_outline","name":"outline of the section","plate":52,"ap_bregma_mm":-10.05}}]}
