{"type":"FeatureCollection","name":"GerbilAtlas plate 06","note":"Region extents cut from the atlas drawing (METHODS.md, Region extents). Coordinates are [ML, DV] in mm, ML positive to the right of the plate as printed, DV negative below the dorsal surface; AP is the plate bregma. traced_fraction is the share of each polygon boundary the atlas actually draws; below 0.5 the boundary is an estimate. no_drawn_outline marks a feature that lies only inside boundaries the atlas draws round more than one name and prints nothing within, so the whole of its outline is where the extraction cut it. Not a segmentation.","plate":6,"ap_bregma_mm":6.05,"features":[{"type":"Feature","geometry":{"type":"MultiPolygon","coordinates":[[[[1.592,-4.066],[1.571,-4.066],[1.571,-4.129],[1.585,-4.164],[1.641,-4.206],[1.641,-4.22],[1.753,-4.284],[1.823,-4.284],[1.865,-4.256],[1.907,-4.312],[1.886,-4.312],[1.9,-4.375],[1.956,-4.438],[2.012,-4.565],[2.026,-4.565],[2.033,-4.586],[2.068,-4.593],[2.082,-4.649],[2.068,-4.656],[2.068,-4.755],[2.103,-4.86],[1.977,-4.867],[1.9,-4.628],[1.872,-4.593],[1.858,-4.544],[1.844,-4.544],[1.788,-4.46],[1.444,-4.263],[1.241,-4.192],[1.143,-4.178],[1.038,-4.185],[0.897,-4.227],[0.799,-4.277],[0.799,-4.291],[0.708,-4.347],[0.659,-4.417],[0.645,-4.417],[0.561,-4.565],[0.498,-4.783],[0.484,-5.05],[0.505,-5.261],[0.61,-5.733],[0.652,-6.14],[0.659,-6.415],[0.68,-6.506],[0.715,-6.584],[0.771,-6.661],[0.912,-6.766],[0.933,-6.766],[0.939,-6.781],[1.073,-6.844],[1.269,-6.9],[1.409,-6.893],[1.486,-6.865],[1.564,-6.816],[1.634,-6.724],[1.711,-6.731],[1.662,-6.83],[1.662,-6.907],[1.564,-7.02],[1.493,-7.034],[1.332,-7.02],[1.241,-7.041],[1.108,-7.041],[1.003,-6.998],[0.799,-6.991],[0.771,-6.935],[0.722,-6.886],[0.68,-6.858],[0.582,-6.837],[0.533,-6.781],[0.484,-6.71],[0.484,-6.654],[0.442,-6.598],[0.428,-6.513],[0.4,-6.464],[0.4,-6.415],[0.421,-6.366],[0.407,-6.323],[0.421,-6.204],[0.407,-6.155],[0.323,-6.056],[0.308,-6.021],[0.308,-5.936],[0.329,-5.873],[0.308,-5.754],[0.308,-5.641],[0.323,-5.578],[0.308,-5.529],[0.245,-5.458],[0.224,-5.374],[0.175,-5.325],[0.203,-5.191],[0.231,-5.149],[0.238,-5.078],[0.274,-4.994],[0.274,-4.924],[0.245,-4.832],[0.231,-4.825],[0.231,-4.776],[0.316,-4.706],[0.316,-4.628],[0.274,-4.544],[0.274,-4.502],[0.329,-4.396],[0.407,-4.305],[0.652,-4.15],[0.708,-4.08],[0.715,-4.009],[0.764,-3.981],[0.926,-3.946],[1.136,-3.939],[1.381,-3.974],[1.528,-4.023],[1.592,-4.066]]],[[[2.061,-4.558],[2.068,-4.579],[2.054,-4.579],[2.061,-4.558]]]]},"properties":{"abbr":"IPl","name":"internal plexiform layer of the olfactory bulb","plate":6,"ap_bregma_mm":6.05,"area_mm2":1.2543,"traced_fraction":[0.994,1.0],"n_labels":2,"no_drawn_outline":false}},{"type":"Feature","geometry":{"type":"MultiPolygon","coordinates":[[[[-1.655,-4.136],[-1.655,-4.263],[-1.563,-4.354],[-1.55,-4.354],[-1.627,-4.417],[-1.683,-4.53],[-1.725,-4.558],[-1.732,-4.586],[-1.711,-4.614],[-1.676,-4.593],[-1.599,-4.474],[-1.529,-4.396],[-1.514,-4.396],[-1.514,-4.382],[-1.409,-4.326],[-1.346,-4.312],[-1.248,-4.312],[-1.115,-4.34],[-0.989,-4.389],[-0.855,-4.474],[-0.778,-4.502],[-0.708,-4.565],[-0.708,-4.579],[-0.694,-4.579],[-0.596,-4.748],[-0.554,-4.896],[-0.54,-5.057],[-0.561,-5.064],[-0.603,-5.346],[-0.645,-5.472],[-0.659,-5.564],[-0.729,-5.754],[-0.736,-5.817],[-0.722,-5.824],[-0.722,-5.859],[-0.75,-5.873],[-0.771,-5.929],[-0.778,-6.253],[-0.806,-6.401],[-0.862,-6.52],[-0.961,-6.626],[-0.996,-6.64],[-0.996,-6.654],[-1.136,-6.731],[-1.311,-6.781],[-1.514,-6.766],[-1.627,-6.724],[-1.725,-6.626],[-1.781,-6.485],[-1.795,-6.232],[-1.676,-6.232],[-1.676,-6.084],[-1.802,-6.084],[-1.809,-6.042],[-1.816,-5.887],[-1.858,-5.726],[-1.921,-5.613],[-1.998,-5.529],[-2.04,-5.514],[-2.061,-5.444],[-2.068,-5.233],[-2.04,-5.092],[-2.054,-5.064],[-2.026,-5.001],[-1.998,-4.874],[-1.942,-4.762],[-1.907,-4.727],[-1.767,-4.663],[-1.788,-4.621],[-1.865,-4.649],[-1.9,-4.614],[-1.9,-4.312],[-1.767,-4.192],[-1.655,-4.136]]],[[[0.975,-4.27],[0.996,-4.284],[1.248,-4.284],[1.269,-4.298],[1.381,-4.312],[1.486,-4.368],[1.522,-4.368],[1.514,-4.389],[1.535,-4.41],[1.655,-4.474],[1.725,-4.544],[1.739,-4.544],[1.767,-4.593],[1.781,-4.593],[1.865,-4.741],[1.893,-4.853],[1.935,-4.91],[1.914,-4.945],[1.914,-5.001],[1.942,-5.043],[1.914,-5.071],[1.914,-5.149],[1.879,-5.282],[1.781,-5.486],[1.767,-5.493],[1.767,-5.514],[1.613,-5.754],[1.613,-5.775],[1.585,-5.803],[1.493,-5.979],[1.5,-6.042],[1.535,-6.098],[1.522,-6.112],[1.522,-6.14],[1.585,-6.309],[1.613,-6.464],[1.641,-6.492],[1.627,-6.513],[1.606,-6.654],[1.571,-6.696],[1.556,-6.738],[1.528,-6.731],[1.486,-6.759],[1.444,-6.802],[1.451,-6.823],[1.269,-6.83],[1.059,-6.766],[1.052,-6.738],[0.897,-6.64],[0.827,-6.577],[0.827,-6.562],[0.813,-6.562],[0.778,-6.499],[0.757,-6.422],[0.715,-5.733],[0.659,-5.493],[0.631,-5.423],[0.617,-5.423],[0.589,-5.388],[0.568,-5.268],[0.554,-5.254],[0.568,-5.212],[0.568,-5.135],[0.561,-5.078],[0.54,-5.043],[0.561,-5.001],[0.561,-4.938],[0.54,-4.931],[0.54,-4.917],[0.561,-4.888],[0.561,-4.86],[0.575,-4.853],[0.631,-4.593],[0.701,-4.474],[0.694,-4.445],[0.708,-4.445],[0.708,-4.431],[0.785,-4.361],[0.912,-4.298],[0.968,-4.284],[0.975,-4.27]]],[[[-1.634,-4.762],[-1.662,-4.769],[-1.704,-4.811],[-1.767,-4.917],[-1.76,-5.078],[-1.774,-5.092],[-1.774,-5.17],[-1.746,-5.332],[-1.69,-5.437],[-1.557,-5.564],[-1.465,-5.683],[-1.374,-5.908],[-1.353,-5.993],[-1.353,-6.119],[-1.353,-6.169],[-1.353,-6.401],[-1.339,-6.415],[-1.262,-6.408],[-1.157,-6.288],[-1.108,-6.162],[-1.066,-5.915],[-0.982,-5.648],[-0.94,-5.557],[-0.94,-5.507],[-0.855,-5.325],[-0.82,-5.198],[-0.799,-5.078],[-0.806,-4.896],[-0.848,-4.699],[-0.904,-4.614],[-0.968,-4.551],[-1.087,-4.467],[-1.206,-4.417],[-1.395,-4.424],[-1.493,-4.481],[-1.563,-4.565],[-1.613,-4.671],[-1.634,-4.762]]],[[[0.827,-5.107],[0.813,-5.107],[0.82,-5.191],[0.884,-5.381],[0.975,-5.74],[1.052,-6.267],[1.08,-6.344],[1.122,-6.401],[1.171,-6.436],[1.234,-6.436],[1.255,-6.415],[1.255,-6.358],[1.192,-6.246],[1.178,-6.19],[1.157,-6.169],[1.129,-6.035],[1.129,-5.965],[1.157,-5.831],[1.171,-5.824],[1.255,-5.648],[1.304,-5.599],[1.318,-5.564],[1.458,-5.437],[1.514,-5.339],[1.577,-5.198],[1.577,-5.142],[1.613,-4.987],[1.613,-4.79],[1.599,-4.734],[1.543,-4.642],[1.472,-4.565],[1.402,-4.523],[1.22,-4.474],[1.094,-4.474],[1.003,-4.495],[0.954,-4.523],[0.869,-4.614],[0.813,-4.755],[0.792,-4.882],[0.799,-5.036],[0.827,-5.107]]]]},"properties":{"abbr":"GrO","name":"granular cell layer of the olfactory bulb","plate":6,"ap_bregma_mm":6.05,"area_mm2":3.2327,"traced_fraction":[0.9,1.0,0.998,1.0],"n_labels":2,"no_drawn_outline":false}},{"type":"Feature","geometry":{"type":"MultiPolygon","coordinates":[[[[2.103,-4.86],[2.153,-4.98],[2.153,-5.135],[1.998,-5.128],[1.998,-4.987],[1.977,-4.867],[2.103,-4.86]]]]},"properties":{"abbr":"Mi","name":"mitral cell layer of the olfactory bulb","plate":6,"ap_bregma_mm":6.05,"area_mm2":0.0398,"traced_fraction":[0.811],"n_labels":1,"no_drawn_outline":false}},{"type":"Feature","geometry":{"type":"MultiPolygon","coordinates":[[[[1.297,-4.663],[1.29,-4.882],[1.451,-4.882],[1.43,-5.015],[1.381,-5.121],[1.367,-5.121],[1.325,-5.177],[1.262,-5.212],[1.213,-5.226],[1.108,-5.226],[1.052,-5.191],[0.996,-5.114],[0.961,-5.036],[0.954,-4.91],[0.975,-4.783],[1.017,-4.706],[1.066,-4.663],[1.171,-4.628],[1.248,-4.635],[1.297,-4.663]]],[[[-1.444,-5.064],[-0.989,-5.064],[-1.038,-5.184],[-1.136,-5.296],[-1.136,-5.325],[-1.122,-5.325],[-1.101,-5.36],[-1.059,-5.388],[-1.122,-5.444],[-1.157,-5.451],[-1.192,-5.332],[-1.269,-5.332],[-1.353,-5.268],[-1.423,-5.149],[-1.444,-5.064]]]]},"properties":{"abbr":"EPlA","name":"external plexiform layer of the accessory olfactory bulb","plate":6,"ap_bregma_mm":6.05,"area_mm2":0.3057,"traced_fraction":[0.823,0.623],"n_labels":2,"no_drawn_outline":false}},{"type":"Feature","geometry":{"type":"MultiPolygon","coordinates":[[[[-0.806,-4.896],[-0.827,-4.903],[-0.841,-5.022],[-0.925,-5.226],[-1.003,-5.339],[-1.059,-5.388],[-1.094,-5.367],[-1.122,-5.325],[-1.136,-5.325],[-1.136,-5.296],[-1.038,-5.184],[-0.989,-5.064],[-0.947,-4.938],[-0.947,-4.811],[-0.982,-4.692],[-1.094,-4.558],[-1.178,-4.509],[-1.255,-4.488],[-1.332,-4.488],[-1.416,-4.523],[-1.465,-4.572],[-1.486,-4.614],[-1.5,-4.79],[-1.472,-4.994],[-1.444,-5.064],[-1.423,-5.149],[-1.353,-5.268],[-1.269,-5.332],[-1.192,-5.332],[-1.157,-5.451],[-1.304,-5.451],[-1.409,-5.388],[-1.5,-5.282],[-1.599,-5.092],[-1.634,-4.853],[-1.634,-4.762],[-1.599,-4.635],[-1.55,-4.544],[-1.493,-4.481],[-1.395,-4.424],[-1.206,-4.417],[-1.087,-4.467],[-0.968,-4.551],[-0.904,-4.614],[-0.848,-4.699],[-0.806,-4.896]]],[[[1.297,-4.663],[1.36,-4.699],[1.409,-4.755],[1.444,-4.832],[1.451,-4.882],[1.29,-4.882],[1.297,-4.663]]]]},"properties":{"abbr":"MiA","name":"mitral cell layer of the accessory olfactory bulb","plate":6,"ap_bregma_mm":6.05,"area_mm2":0.3071,"traced_fraction":[0.972,0.505],"n_labels":2,"no_drawn_outline":false}},{"type":"Feature","geometry":{"type":"MultiPolygon","coordinates":[[[[0.715,-4.009],[0.715,-4.059],[0.687,-4.115],[0.617,-4.178],[0.407,-4.305],[0.329,-4.396],[0.274,-4.502],[0.274,-4.544],[0.316,-4.628],[0.316,-4.706],[0.231,-4.776],[0.231,-4.825],[0.245,-4.832],[0.274,-4.924],[0.274,-4.994],[0.238,-5.078],[0.231,-5.149],[0.203,-5.191],[0.175,-5.325],[0.224,-5.374],[0.245,-5.458],[0.308,-5.529],[0.323,-5.578],[0.308,-5.641],[0.308,-5.754],[0.329,-5.873],[0.308,-5.936],[0.308,-6.021],[0.323,-6.056],[0.407,-6.155],[0.421,-6.204],[0.407,-6.267],[0.421,-6.366],[0.4,-6.415],[0.4,-6.464],[0.428,-6.513],[0.442,-6.598],[0.484,-6.654],[0.484,-6.71],[0.533,-6.781],[0.582,-6.837],[0.68,-6.858],[0.722,-6.886],[0.771,-6.935],[0.799,-6.991],[1.003,-6.998],[1.108,-7.041],[1.241,-7.041],[1.332,-7.02],[1.493,-7.034],[1.564,-7.02],[1.507,-7.097],[1.269,-7.224],[1.234,-7.195],[1.045,-7.174],[1.003,-7.139],[0.884,-7.174],[0.736,-7.167],[0.659,-7.104],[0.589,-7.09],[0.308,-6.795],[0.217,-6.569],[0.217,-6.492],[0.245,-6.422],[0.245,-6.351],[0.224,-6.316],[0.161,-6.274],[0.147,-6.232],[0.154,-6.084],[0.126,-6.021],[0.14,-5.958],[0.14,-5.831],[0.098,-5.74],[0.112,-5.585],[0.07,-5.486],[0.028,-5.444],[0.028,-5.346],[0.007,-5.311],[0.014,-5.268],[0.021,-5.177],[0.007,-5.163],[-0.014,-5.17],[-0.028,-5.17],[-0.063,-5.219],[-0.063,-5.24],[-0.105,-5.311],[-0.105,-5.388],[-0.077,-5.43],[-0.07,-5.479],[-0.147,-5.613],[-0.14,-5.711],[-0.182,-5.817],[-0.175,-5.929],[-0.231,-6.028],[-0.231,-6.056],[-0.21,-6.084],[-0.21,-6.133],[-0.245,-6.232],[-0.245,-6.358],[-0.217,-6.612],[-0.302,-6.689],[-0.372,-6.921],[-0.484,-7.027],[-0.505,-7.062],[-0.547,-7.076],[-0.589,-7.118],[-0.631,-7.132],[-0.694,-7.181],[-0.869,-7.181],[-0.911,-7.209],[-1.052,-7.195],[-1.122,-7.224],[-1.227,-7.224],[-1.276,-7.266],[-1.276,-7.28],[-1.276,-7.287],[-1.297,-7.28],[-1.416,-7.245],[-1.536,-7.174],[-1.536,-7.16],[-1.627,-7.111],[-1.655,-7.069],[-1.69,-7.048],[-1.718,-6.998],[-1.669,-6.984],[-1.627,-7.02],[-1.563,-7.02],[-1.508,-6.991],[-1.444,-6.991],[-1.346,-7.069],[-1.297,-7.069],[-1.206,-7.027],[-1.073,-7.027],[-1.045,-7.013],[-0.919,-7.006],[-0.855,-6.956],[-0.778,-6.935],[-0.68,-6.83],[-0.652,-6.83],[-0.533,-6.781],[-0.505,-6.752],[-0.505,-6.598],[-0.428,-6.534],[-0.421,-6.415],[-0.449,-6.316],[-0.4,-6.26],[-0.393,-6.204],[-0.379,-6.19],[-0.379,-6.133],[-0.421,-6.084],[-0.421,-6.021],[-0.372,-5.951],[-0.372,-5.887],[-0.351,-5.866],[-0.351,-5.796],[-0.315,-5.726],[-0.315,-5.613],[-0.252,-5.465],[-0.26,-5.325],[-0.217,-5.275],[-0.189,-5.17],[-0.203,-5.107],[-0.26,-5.001],[-0.26,-4.86],[-0.281,-4.832],[-0.281,-4.769],[-0.294,-4.741],[-0.281,-4.685],[-0.287,-4.628],[-0.337,-4.572],[-0.33,-4.481],[-0.372,-4.424],[-0.505,-4.389],[-0.582,-4.305],[-0.638,-4.291],[-0.729,-4.234],[-0.813,-4.213],[-0.975,-4.213],[-1.01,-4.164],[-1.024,-4.016],[-0.898,-4.094],[-0.61,-4.157],[-0.456,-4.227],[-0.323,-4.347],[-0.175,-4.572],[-0.196,-4.579],[-0.21,-4.642],[-0.175,-4.699],[-0.126,-4.867],[-0.084,-4.917],[-0.056,-5.057],[-0.014,-5.114],[0.007,-5.114],[0.021,-5.085],[0.021,-4.924],[0.042,-4.79],[0.119,-4.628],[0.245,-4.368],[0.379,-4.227],[0.379,-4.213],[0.54,-4.087],[0.715,-4.009]]],[[[2.082,-4.649],[2.181,-4.832],[2.195,-4.952],[2.244,-5.205],[2.251,-5.346],[2.251,-5.486],[2.23,-5.571],[2.23,-5.775],[2.16,-6.028],[2.138,-6.211],[2.061,-6.387],[1.914,-6.591],[1.851,-6.675],[1.837,-6.696],[1.823,-6.717],[1.816,-6.71],[1.802,-6.724],[1.809,-6.731],[1.802,-6.745],[1.795,-6.738],[1.795,-6.752],[1.732,-6.851],[1.662,-6.907],[1.662,-6.83],[1.711,-6.731],[1.732,-6.689],[1.781,-6.64],[1.816,-6.626],[1.872,-6.562],[1.956,-6.429],[1.956,-6.344],[1.9,-6.197],[1.907,-6.077],[1.949,-5.979],[2.089,-5.789],[2.089,-5.634],[2.16,-5.557],[2.174,-5.437],[2.166,-5.353],[2.145,-5.296],[2.153,-5.135],[2.153,-4.98],[2.103,-4.86],[2.068,-4.755],[2.068,-4.656],[2.082,-4.649]]]]},"properties":{"abbr":"Gl","name":"glomerular layer of the olfactory bulb","plate":6,"ap_bregma_mm":6.05,"area_mm2":1.764,"traced_fraction":[0.993,1.0],"n_labels":4,"no_drawn_outline":false}},{"type":"Feature","geometry":{"type":"MultiPolygon","coordinates":[[[[-0.014,-5.17],[-0.014,-5.247],[0.014,-5.268],[0.007,-5.311],[0.028,-5.346],[0.028,-5.444],[0.07,-5.486],[0.112,-5.585],[0.098,-5.74],[0.14,-5.831],[0.14,-5.958],[0.126,-6.021],[0.154,-6.084],[0.147,-6.232],[0.161,-6.274],[0.224,-6.316],[0.245,-6.351],[0.245,-6.422],[0.217,-6.492],[0.217,-6.569],[0.308,-6.795],[0.589,-7.09],[0.659,-7.104],[0.736,-7.167],[0.884,-7.174],[1.003,-7.139],[1.045,-7.174],[1.234,-7.195],[1.269,-7.224],[1.199,-7.287],[1.038,-7.364],[0.82,-7.378],[0.722,-7.406],[0.596,-7.406],[0.484,-7.371],[0.365,-7.301],[0.259,-7.188],[0.154,-6.963],[0.077,-6.633],[0.035,-6.337],[0.014,-5.733],[0.021,-5.465],[0.0,-5.458],[-0.028,-5.458],[-0.049,-5.676],[-0.042,-5.726],[-0.056,-5.754],[-0.105,-6.14],[-0.105,-6.844],[-0.14,-7.048],[-0.21,-7.195],[-0.252,-7.245],[-0.266,-7.245],[-0.294,-7.294],[-0.365,-7.35],[-0.428,-7.385],[-0.582,-7.435],[-0.848,-7.435],[-1.276,-7.287],[-1.276,-7.28],[-1.276,-7.266],[-1.227,-7.224],[-1.122,-7.224],[-1.052,-7.195],[-0.911,-7.209],[-0.869,-7.181],[-0.694,-7.181],[-0.631,-7.132],[-0.589,-7.118],[-0.547,-7.076],[-0.505,-7.062],[-0.484,-7.027],[-0.372,-6.921],[-0.309,-6.703],[-0.217,-6.612],[-0.245,-6.358],[-0.245,-6.232],[-0.21,-6.133],[-0.21,-6.084],[-0.231,-6.056],[-0.231,-6.028],[-0.175,-5.929],[-0.182,-5.817],[-0.14,-5.711],[-0.147,-5.613],[-0.07,-5.479],[-0.077,-5.43],[-0.105,-5.388],[-0.105,-5.311],[-0.063,-5.24],[-0.063,-5.219],[-0.035,-5.177],[-0.014,-5.17]]]]},"properties":{"abbr":"ON","name":"olfactory nerve layer","plate":6,"ap_bregma_mm":6.05,"area_mm2":0.9856,"traced_fraction":[1.0],"n_labels":2,"no_drawn_outline":false}},{"type":"Feature","geometry":{"type":"MultiPolygon","coordinates":[[[[-0.989,-5.064],[-1.444,-5.064],[-1.472,-4.994],[-1.493,-4.86],[-1.493,-4.649],[-1.465,-4.572],[-1.416,-4.523],[-1.332,-4.488],[-1.22,-4.495],[-1.136,-4.53],[-1.024,-4.628],[-0.982,-4.692],[-0.947,-4.811],[-0.947,-4.938],[-0.989,-5.064]]]]},"properties":{"abbr":"GlA","name":"glomerular layer of the accessory olfactory bulb","plate":6,"ap_bregma_mm":6.05,"area_mm2":0.2718,"traced_fraction":[0.796],"n_labels":1,"no_drawn_outline":false}},{"type":"Feature","geometry":{"type":"MultiPolygon","coordinates":[[[[1.577,-5.142],[1.472,-5.135],[1.465,-5.121],[1.381,-5.121],[1.43,-5.015],[1.451,-4.882],[1.444,-4.832],[1.409,-4.755],[1.36,-4.699],[1.297,-4.663],[1.248,-4.635],[1.171,-4.628],[1.108,-4.642],[1.017,-4.706],[0.975,-4.783],[0.954,-4.91],[0.961,-5.036],[0.996,-5.114],[0.848,-5.121],[0.827,-5.107],[0.799,-5.036],[0.792,-4.882],[0.813,-4.755],[0.869,-4.614],[0.954,-4.523],[1.003,-4.495],[1.094,-4.474],[1.22,-4.474],[1.402,-4.523],[1.472,-4.565],[1.522,-4.614],[1.599,-4.734],[1.613,-4.79],[1.613,-4.987],[1.577,-5.142]]]]},"properties":{"abbr":"GrA","name":"granule cell layer of the accessory olfactory bulb","plate":6,"ap_bregma_mm":6.05,"area_mm2":0.2579,"traced_fraction":[0.937],"n_labels":2,"no_drawn_outline":false}},{"type":"Feature","geometry":{"type":"MultiPolygon","coordinates":[[[[-1.634,-4.762],[-1.634,-4.853],[-1.599,-5.092],[-1.5,-5.282],[-1.409,-5.388],[-1.304,-5.451],[-1.157,-5.451],[-1.122,-5.444],[-1.059,-5.388],[-1.003,-5.339],[-0.925,-5.226],[-0.841,-5.022],[-0.827,-4.903],[-0.806,-4.896],[-0.799,-5.078],[-0.82,-5.198],[-0.855,-5.325],[-0.94,-5.507],[-0.953,-5.507],[-1.08,-5.641],[-1.15,-5.676],[-1.22,-5.69],[-1.311,-5.655],[-1.43,-5.578],[-1.557,-5.458],[-1.676,-5.275],[-1.732,-5.114],[-1.76,-5.078],[-1.767,-4.917],[-1.704,-4.811],[-1.662,-4.769],[-1.634,-4.762]]],[[[0.996,-5.114],[1.017,-5.156],[1.108,-5.226],[1.213,-5.226],[1.262,-5.212],[1.325,-5.177],[1.367,-5.121],[1.381,-5.121],[1.465,-5.121],[1.472,-5.135],[1.577,-5.142],[1.577,-5.198],[1.514,-5.339],[1.451,-5.332],[1.381,-5.43],[1.297,-5.486],[1.143,-5.486],[1.143,-5.514],[1.094,-5.507],[1.01,-5.465],[0.961,-5.402],[0.89,-5.254],[0.848,-5.121],[0.996,-5.114]]]]},"properties":{"abbr":"dlo","name":"dorsal lateral olfactory tract","plate":6,"ap_bregma_mm":6.05,"area_mm2":0.4306,"traced_fraction":[0.99,0.893],"n_labels":2,"no_drawn_outline":false}},{"type":"Feature","geometry":{"type":"MultiPolygon","coordinates":[[[[-2.04,-5.514],[-1.998,-5.529],[-1.921,-5.613],[-1.858,-5.726],[-1.816,-5.887],[-1.809,-6.042],[-1.844,-6.063],[-1.872,-6.035],[-1.9,-5.915],[-1.921,-5.859],[-1.935,-5.852],[-1.949,-5.789],[-1.963,-5.782],[-1.991,-5.669],[-2.04,-5.557],[-2.04,-5.514]]]]},"properties":{"abbr":"AOL","name":"anterior olfactory nucleus, lateral part","plate":6,"ap_bregma_mm":6.05,"area_mm2":0.0484,"traced_fraction":[1.0],"n_labels":1,"no_drawn_outline":false}},{"type":"Feature","geometry":{"type":"MultiPolygon","coordinates":[[[[-2.061,-5.444],[-2.04,-5.514],[-2.04,-5.557],[-1.991,-5.669],[-1.963,-5.782],[-1.949,-5.789],[-1.935,-5.852],[-1.921,-5.859],[-1.9,-5.915],[-1.872,-6.035],[-1.844,-6.063],[-1.844,-6.232],[-1.886,-6.253],[-2.012,-5.845],[-2.089,-5.648],[-2.11,-5.55],[-2.11,-5.451],[-2.061,-5.444]]]]},"properties":{"abbr":"AOE","name":"anterior olfactory nucleus, external part","plate":6,"ap_bregma_mm":6.05,"area_mm2":0.0624,"traced_fraction":[1.0],"n_labels":1,"no_drawn_outline":false}},{"type":"Feature","geometry":{"type":"MultiPolygon","coordinates":[[[[-1.024,-4.016],[-1.024,-4.108],[-1.01,-4.164],[-0.975,-4.213],[-0.813,-4.213],[-0.729,-4.234],[-0.638,-4.291],[-0.582,-4.305],[-0.505,-4.389],[-0.372,-4.424],[-0.33,-4.481],[-0.337,-4.572],[-0.287,-4.628],[-0.281,-4.685],[-0.294,-4.741],[-0.281,-4.769],[-0.281,-4.832],[-0.26,-4.86],[-0.26,-5.001],[-0.203,-5.107],[-0.189,-5.17],[-0.217,-5.275],[-0.26,-5.325],[-0.252,-5.465],[-0.315,-5.613],[-0.315,-5.726],[-0.351,-5.796],[-0.351,-5.866],[-0.372,-5.887],[-0.372,-5.951],[-0.421,-6.021],[-0.421,-6.084],[-0.379,-6.133],[-0.379,-6.19],[-0.393,-6.204],[-0.4,-6.26],[-0.449,-6.316],[-0.421,-6.415],[-0.428,-6.534],[-0.505,-6.598],[-0.505,-6.752],[-0.533,-6.781],[-0.652,-6.83],[-0.68,-6.83],[-0.778,-6.935],[-0.855,-6.956],[-0.919,-7.006],[-1.045,-7.013],[-1.073,-7.027],[-1.206,-7.027],[-1.297,-7.069],[-1.346,-7.069],[-1.444,-6.991],[-1.508,-6.991],[-1.563,-7.02],[-1.627,-7.02],[-1.669,-6.984],[-1.718,-6.998],[-1.767,-6.872],[-1.774,-6.851],[-1.795,-6.802],[-1.83,-6.773],[-1.823,-6.766],[-1.837,-6.766],[-1.935,-6.668],[-1.921,-6.654],[-1.921,-6.612],[-1.991,-6.373],[-2.033,-6.288],[-2.075,-6.239],[-2.11,-6.232],[-2.117,-6.253],[-2.195,-5.951],[-2.272,-5.768],[-2.258,-5.085],[-2.237,-4.987],[-2.159,-4.769],[-2.075,-4.607],[-2.04,-4.509],[-1.984,-4.396],[-1.9,-4.312],[-1.9,-4.614],[-1.865,-4.649],[-1.935,-4.671],[-1.956,-4.734],[-1.956,-4.762],[-1.942,-4.762],[-1.998,-4.874],[-2.026,-5.001],[-2.054,-5.064],[-2.089,-5.107],[-2.117,-5.226],[-2.124,-5.339],[-2.11,-5.451],[-2.11,-5.55],[-2.089,-5.648],[-2.012,-5.845],[-1.886,-6.253],[-1.83,-6.626],[-1.746,-6.745],[-1.634,-6.816],[-1.458,-6.858],[-1.255,-6.844],[-1.017,-6.766],[-0.876,-6.682],[-0.876,-6.668],[-0.82,-6.626],[-0.757,-6.534],[-0.715,-6.422],[-0.694,-6.281],[-0.694,-5.922],[-0.638,-5.704],[-0.575,-5.557],[-0.512,-5.311],[-0.491,-5.1],[-0.505,-4.896],[-0.561,-4.663],[-0.645,-4.537],[-0.701,-4.502],[-0.701,-4.488],[-0.729,-4.481],[-0.729,-4.467],[-0.869,-4.389],[-0.89,-4.389],[-0.898,-4.375],[-1.143,-4.291],[-1.192,-4.291],[-1.248,-4.27],[-1.395,-4.277],[-1.444,-4.291],[-1.55,-4.354],[-1.563,-4.354],[-1.655,-4.263],[-1.655,-4.136],[-1.493,-4.052],[-1.297,-3.995],[-1.101,-3.988],[-1.024,-4.016]]],[[[1.998,-5.128],[2.153,-5.135],[2.145,-5.296],[2.166,-5.353],[2.174,-5.437],[2.16,-5.557],[2.089,-5.634],[2.089,-5.789],[1.949,-5.979],[1.907,-6.077],[1.9,-6.197],[1.956,-6.344],[1.956,-6.429],[1.872,-6.562],[1.816,-6.626],[1.781,-6.64],[1.732,-6.689],[1.711,-6.731],[1.634,-6.724],[1.683,-6.605],[1.697,-6.422],[1.669,-6.26],[1.613,-6.105],[1.606,-6.007],[1.648,-5.915],[1.753,-5.789],[1.872,-5.557],[1.942,-5.367],[1.998,-5.128]]],[[[-2.11,-6.295],[-2.096,-6.295],[-2.103,-6.316],[-2.11,-6.295]]],[[[-2.096,-6.337],[-2.082,-6.337],[-2.089,-6.358],[-2.096,-6.337]]]]},"properties":{"abbr":"EPl","name":"external plexiform layer of the olfactory bulb","plate":6,"ap_bregma_mm":6.05,"area_mm2":1.9784,"traced_fraction":[0.961,0.971,1.0,1.0],"n_labels":2,"no_drawn_outline":false}},{"type":"Feature","geometry":{"type":"MultiPolygon","coordinates":[[[[1.157,-5.831],[1.129,-5.965],[1.136,-6.091],[1.157,-6.169],[1.143,-6.169],[1.143,-6.204],[1.192,-6.323],[1.185,-6.351],[1.143,-6.344],[1.08,-6.225],[1.045,-5.951],[1.038,-5.733],[1.01,-5.599],[1.01,-5.557],[1.059,-5.557],[1.15,-5.606],[1.164,-5.69],[1.143,-5.761],[1.143,-5.831],[1.157,-5.831]]],[[[-1.353,-6.169],[-1.353,-6.119],[-1.304,-6.119],[-1.283,-6.105],[-1.29,-5.915],[-1.325,-5.803],[-1.353,-5.761],[-1.353,-5.704],[-1.311,-5.704],[-1.248,-5.733],[-1.136,-5.74],[-1.101,-5.768],[-1.157,-6.126],[-1.192,-6.239],[-1.227,-6.281],[-1.255,-6.288],[-1.29,-6.246],[-1.29,-6.169],[-1.353,-6.169]]]]},"properties":{"abbr":"E","name":"ependyma and subependymal layer","plate":6,"ap_bregma_mm":6.05,"area_mm2":0.1624,"traced_fraction":[1.0,0.974],"n_labels":2,"no_drawn_outline":false}},{"type":"Feature","geometry":{"type":"MultiPolygon","coordinates":[[[[-1.76,-5.078],[-1.732,-5.114],[-1.676,-5.275],[-1.557,-5.458],[-1.43,-5.578],[-1.311,-5.655],[-1.22,-5.69],[-1.15,-5.676],[-1.08,-5.641],[-0.953,-5.507],[-0.94,-5.507],[-0.94,-5.557],[-0.982,-5.648],[-1.066,-5.915],[-1.108,-6.162],[-1.157,-6.288],[-1.262,-6.408],[-1.339,-6.415],[-1.353,-6.401],[-1.353,-6.169],[-1.29,-6.169],[-1.29,-6.246],[-1.269,-6.281],[-1.241,-6.288],[-1.206,-6.26],[-1.157,-6.126],[-1.101,-5.81],[-1.101,-5.768],[-1.136,-5.74],[-1.248,-5.733],[-1.311,-5.704],[-1.353,-5.704],[-1.353,-5.761],[-1.325,-5.803],[-1.29,-5.915],[-1.283,-6.007],[-1.283,-6.105],[-1.304,-6.119],[-1.353,-6.119],[-1.353,-5.993],[-1.423,-5.768],[-1.479,-5.662],[-1.557,-5.564],[-1.69,-5.437],[-1.746,-5.332],[-1.774,-5.17],[-1.774,-5.092],[-1.76,-5.078]]],[[[0.827,-5.107],[0.848,-5.121],[0.876,-5.219],[0.961,-5.402],[1.01,-5.465],[1.094,-5.507],[1.143,-5.514],[1.143,-5.486],[1.297,-5.486],[1.367,-5.444],[1.451,-5.332],[1.514,-5.339],[1.458,-5.437],[1.318,-5.564],[1.304,-5.599],[1.255,-5.648],[1.171,-5.824],[1.157,-5.831],[1.143,-5.831],[1.143,-5.761],[1.164,-5.69],[1.15,-5.606],[1.059,-5.557],[1.01,-5.557],[1.045,-5.796],[1.045,-5.951],[1.08,-6.225],[1.143,-6.344],[1.185,-6.351],[1.192,-6.323],[1.143,-6.204],[1.143,-6.169],[1.157,-6.169],[1.178,-6.19],[1.192,-6.246],[1.255,-6.358],[1.255,-6.415],[1.234,-6.436],[1.171,-6.436],[1.122,-6.401],[1.08,-6.344],[1.052,-6.267],[0.975,-5.74],[0.884,-5.381],[0.82,-5.191],[0.813,-5.107],[0.827,-5.107]]]]},"properties":{"abbr":"aci","name":"anterior commissure, intrabulbar part","plate":6,"ap_bregma_mm":6.05,"area_mm2":0.3381,"traced_fraction":[0.992,1.0],"n_labels":2,"no_drawn_outline":false}},{"type":"Feature","geometry":{"type":"Polygon","coordinates":[[[1.592,-4.066],[1.753,-4.15],[1.865,-4.256],[1.823,-4.284],[1.753,-4.284],[1.641,-4.22],[1.641,-4.206],[1.585,-4.164],[1.571,-4.129],[1.571,-4.066],[1.592,-4.066]]]},"properties":{"abbr":null,"name":"unnamed sealed face","plate":6,"ap_bregma_mm":6.05,"index":0}},{"type":"Feature","geometry":{"type":"Polygon","coordinates":[[[1.977,-4.867],[1.998,-4.987],[1.998,-5.128],[1.942,-5.367],[1.872,-5.557],[1.753,-5.789],[1.648,-5.915],[1.606,-6.007],[1.613,-6.105],[1.669,-6.26],[1.697,-6.422],[1.683,-6.605],[1.634,-6.724],[1.564,-6.816],[1.486,-6.865],[1.409,-6.893],[1.269,-6.9],[1.073,-6.844],[0.939,-6.781],[0.933,-6.766],[0.912,-6.766],[0.771,-6.661],[0.715,-6.584],[0.68,-6.506],[0.659,-6.415],[0.652,-6.14],[0.61,-5.733],[0.505,-5.261],[0.484,-5.05],[0.498,-4.783],[0.561,-4.565],[0.645,-4.417],[0.659,-4.417],[0.708,-4.347],[0.799,-4.291],[0.799,-4.277],[0.897,-4.227],[1.003,-4.192],[1.143,-4.178],[1.241,-4.192],[1.444,-4.263],[1.788,-4.46],[1.844,-4.544],[1.858,-4.544],[1.865,-4.579],[1.9,-4.628],[1.977,-4.867]]]},"properties":{"abbr":null,"name":"unnamed sealed face","plate":6,"ap_bregma_mm":6.05,"index":1}},{"type":"Feature","geometry":{"type":"Polygon","coordinates":[[[0.975,-4.27],[0.968,-4.284],[0.912,-4.298],[0.785,-4.361],[0.708,-4.431],[0.708,-4.445],[0.694,-4.445],[0.701,-4.474],[0.631,-4.593],[0.575,-4.853],[0.561,-4.86],[0.561,-4.888],[0.54,-4.917],[0.54,-4.931],[0.561,-4.938],[0.561,-5.001],[0.54,-5.043],[0.561,-5.078],[0.568,-5.135],[0.568,-5.212],[0.554,-5.254],[0.568,-5.268],[0.589,-5.388],[0.617,-5.423],[0.631,-5.423],[0.659,-5.493],[0.715,-5.733],[0.757,-6.422],[0.778,-6.499],[0.813,-6.562],[0.827,-6.562],[0.827,-6.577],[0.897,-6.64],[1.052,-6.738],[1.059,-6.766],[1.269,-6.83],[1.451,-6.823],[1.444,-6.802],[1.486,-6.759],[1.528,-6.731],[1.556,-6.738],[1.571,-6.696],[1.606,-6.654],[1.627,-6.513],[1.641,-6.492],[1.613,-6.464],[1.585,-6.309],[1.522,-6.14],[1.522,-6.112],[1.535,-6.098],[1.5,-6.042],[1.493,-5.979],[1.585,-5.803],[1.613,-5.775],[1.613,-5.754],[1.767,-5.514],[1.767,-5.493],[1.781,-5.486],[1.879,-5.282],[1.907,-5.191],[1.914,-5.071],[1.942,-5.043],[1.914,-5.001],[1.914,-4.945],[1.935,-4.91],[1.893,-4.853],[1.865,-4.741],[1.781,-4.593],[1.767,-4.593],[1.739,-4.544],[1.725,-4.544],[1.655,-4.474],[1.535,-4.41],[1.514,-4.389],[1.522,-4.368],[1.486,-4.368],[1.381,-4.312],[1.269,-4.298],[1.248,-4.284],[0.996,-4.284],[0.975,-4.27]]]},"properties":{"abbr":null,"name":"unnamed sealed face","plate":6,"ap_bregma_mm":6.05,"index":2}},{"type":"Feature","geometry":{"type":"Polygon","coordinates":[[[-1.886,-6.253],[-1.844,-6.232],[-1.844,-6.063],[-1.809,-6.042],[-1.802,-6.084],[-1.676,-6.084],[-1.676,-6.232],[-1.795,-6.232],[-1.795,-6.246],[-1.774,-6.513],[-1.725,-6.626],[-1.655,-6.689],[-1.655,-6.703],[-1.55,-6.759],[-1.416,-6.781],[-1.311,-6.781],[-1.136,-6.731],[-0.996,-6.654],[-0.996,-6.64],[-0.961,-6.626],[-0.883,-6.548],[-0.806,-6.401],[-0.778,-6.253],[-0.771,-5.929],[-0.75,-5.873],[-0.722,-5.859],[-0.722,-5.824],[-0.736,-5.817],[-0.729,-5.754],[-0.659,-5.564],[-0.645,-5.472],[-0.603,-5.346],[-0.561,-5.064],[-0.54,-5.057],[-0.554,-4.896],[-0.596,-4.748],[-0.694,-4.579],[-0.708,-4.579],[-0.708,-4.565],[-0.778,-4.502],[-0.855,-4.474],[-0.932,-4.417],[-1.073,-4.354],[-1.248,-4.312],[-1.346,-4.312],[-1.409,-4.326],[-1.514,-4.382],[-1.514,-4.396],[-1.529,-4.396],[-1.599,-4.474],[-1.676,-4.593],[-1.711,-4.614],[-1.732,-4.586],[-1.725,-4.558],[-1.683,-4.53],[-1.627,-4.417],[-1.55,-4.354],[-1.486,-4.312],[-1.395,-4.277],[-1.248,-4.27],[-1.227,-4.284],[-1.143,-4.291],[-0.898,-4.375],[-0.89,-4.389],[-0.869,-4.389],[-0.729,-4.467],[-0.729,-4.481],[-0.701,-4.488],[-0.701,-4.502],[-0.645,-4.537],[-0.561,-4.663],[-0.505,-4.896],[-0.491,-5.1],[-0.512,-5.311],[-0.575,-5.557],[-0.638,-5.704],[-0.694,-5.922],[-0.694,-6.281],[-0.715,-6.422],[-0.757,-6.534],[-0.82,-6.626],[-0.876,-6.668],[-0.876,-6.682],[-1.017,-6.766],[-1.255,-6.844],[-1.458,-6.858],[-1.634,-6.816],[-1.746,-6.745],[-1.83,-6.626],[-1.886,-6.253]]]},"properties":{"abbr":null,"name":"unnamed sealed face","plate":6,"ap_bregma_mm":6.05,"index":3}},{"type":"Feature","geometry":{"type":"Polygon","coordinates":[[[-0.175,-4.572],[-0.105,-4.642],[-0.014,-4.572],[0.028,-4.572],[0.119,-4.628],[0.042,-4.79],[0.021,-4.924],[0.021,-5.085],[0.007,-5.114],[-0.014,-5.114],[-0.056,-5.057],[-0.084,-4.917],[-0.126,-4.867],[-0.175,-4.699],[-0.21,-4.642],[-0.21,-4.607],[-0.196,-4.579],[-0.175,-4.572]]]},"properties":{"abbr":null,"name":"unnamed sealed face","plate":6,"ap_bregma_mm":6.05,"index":4}},{"type":"Feature","geometry":{"type":"Polygon","coordinates":[[[-1.935,-6.668],[-1.977,-6.64],[-2.005,-6.591],[-2.089,-6.358],[-2.082,-6.337],[-2.096,-6.337],[-2.103,-6.316],[-2.096,-6.295],[-2.11,-6.295],[-2.117,-6.253],[-2.11,-6.232],[-2.075,-6.239],[-2.033,-6.288],[-1.991,-6.373],[-1.921,-6.612],[-1.921,-6.654],[-1.935,-6.668]]]},"properties":{"abbr":null,"name":"unnamed sealed face","plate":6,"ap_bregma_mm":6.05,"index":5}},{"type":"Feature","geometry":{"type":"MultiPolygon","coordinates":[[[[-0.603,-7.428],[-0.834,-7.428],[-0.919,-7.406],[-1.43,-7.231],[-1.634,-7.097],[-1.711,-7.013],[-1.795,-6.802],[-1.977,-6.633],[-2.019,-6.548],[-2.103,-6.316],[-2.201,-5.936],[-2.272,-5.754],[-2.258,-5.1],[-2.237,-4.994],[-2.159,-4.776],[-1.998,-4.424],[-1.956,-4.361],[-1.865,-4.27],[-1.753,-4.185],[-1.508,-4.059],[-1.29,-3.995],[-1.129,-3.988],[-1.045,-4.002],[-0.898,-4.094],[-0.624,-4.157],[-0.463,-4.227],[-0.337,-4.34],[-0.175,-4.572],[-0.105,-4.642],[-0.018,-4.572],[0.018,-4.572],[0.119,-4.628],[0.07,-4.72],[0.112,-4.656],[0.161,-4.523],[0.252,-4.361],[0.4,-4.192],[0.554,-4.08],[0.771,-3.981],[0.939,-3.946],[1.108,-3.939],[1.367,-3.974],[1.514,-4.023],[1.655,-4.094],[1.753,-4.157],[1.858,-4.248],[2.005,-4.424],[2.054,-4.53],[2.068,-4.621],[2.174,-4.839],[2.237,-5.226],[2.244,-5.465],[2.223,-5.585],[2.223,-5.754],[2.153,-6.042],[2.132,-6.197],[2.068,-6.351],[1.977,-6.492],[1.718,-6.851],[1.641,-6.921],[1.507,-7.083],[1.283,-7.209],[1.178,-7.287],[1.024,-7.357],[0.834,-7.371],[0.701,-7.399],[0.603,-7.399],[0.47,-7.357],[0.358,-7.287],[0.238,-7.153],[0.161,-6.97],[0.126,-6.844],[0.077,-6.612],[0.035,-6.309],[0.014,-5.726],[-0.056,-5.718],[-0.112,-6.169],[-0.112,-6.823],[-0.147,-7.034],[-0.203,-7.167],[-0.315,-7.301],[-0.421,-7.371],[-0.568,-7.421],[-0.603,-7.428]]]]},"properties":{"abbr":"brain_outline","name":"outline of the section","plate":6,"ap_bregma_mm":6.05}}]}
