{"type":"FeatureCollection","name":"GerbilAtlas plate 04","note":"Region extents cut from the atlas drawing (METHODS.md, Region extents). Coordinates are [ML, DV] in mm, ML positive to the right of the plate as printed, DV negative below the dorsal surface; AP is the plate bregma. traced_fraction is the share of each polygon boundary the atlas actually draws; below 0.5 the boundary is an estimate. no_drawn_outline marks a feature that lies only inside boundaries the atlas draws round more than one name and prints nothing within, so the whole of its outline is where the extraction cut it. Not a segmentation.","plate":4,"ap_bregma_mm":6.75,"features":[{"type":"Feature","geometry":{"type":"MultiPolygon","coordinates":[[[[1.514,-4.536],[1.535,-4.578],[1.486,-4.599],[1.472,-4.564],[1.457,-4.564],[1.408,-4.501],[1.282,-4.416],[1.114,-4.339],[0.89,-4.283],[0.749,-4.283],[0.665,-4.304],[0.574,-4.353],[0.511,-4.416],[0.476,-4.501],[0.476,-4.564],[0.539,-4.986],[0.63,-5.443],[0.658,-5.746],[0.644,-5.83],[0.588,-5.816],[0.602,-5.682],[0.588,-5.5],[0.546,-5.288],[0.539,-5.183],[0.483,-4.944],[0.427,-4.55],[0.434,-4.48],[0.462,-4.409],[0.532,-4.332],[0.63,-4.269],[0.742,-4.241],[0.911,-4.241],[1.114,-4.297],[1.282,-4.36],[1.289,-4.374],[1.317,-4.374],[1.444,-4.459],[1.514,-4.536]]],[[[-0.59,-4.388],[-0.632,-4.43],[-0.653,-4.43],[-0.751,-4.36],[-0.807,-4.346],[-0.821,-4.325],[-0.856,-4.311],[-0.912,-4.311],[-0.926,-4.332],[-0.968,-4.325],[-1.137,-4.318],[-1.298,-4.339],[-1.382,-4.381],[-1.417,-4.43],[-1.424,-4.437],[-1.515,-4.529],[-1.543,-4.508],[-1.571,-4.508],[-1.522,-4.43],[-1.403,-4.332],[-1.214,-4.276],[-0.975,-4.262],[-0.835,-4.269],[-0.702,-4.311],[-0.59,-4.388]]]]},"properties":{"abbr":"IPl","name":"internal plexiform layer of the olfactory bulb","plate":4,"ap_bregma_mm":6.75,"area_mm2":0.1827,"traced_fraction":[1.0,0.997],"n_labels":2,"no_drawn_outline":false}},{"type":"Feature","geometry":{"type":"MultiPolygon","coordinates":[[[[-0.59,-4.388],[-0.506,-4.48],[-0.471,-4.564],[-0.457,-4.641],[-0.457,-4.831],[-0.506,-5.267],[-0.618,-5.633],[-0.618,-5.767],[-0.534,-6.182],[-0.541,-6.379],[-0.576,-6.477],[-0.674,-6.597],[-0.856,-6.709],[-0.982,-6.744],[-1.06,-6.758],[-1.221,-6.758],[-1.41,-6.723],[-1.487,-6.681],[-1.522,-6.646],[-1.571,-6.547],[-1.578,-6.421],[-1.557,-6.315],[-1.431,-6.062],[-1.403,-5.971],[-1.396,-5.865],[-1.424,-5.774],[-1.473,-5.703],[-1.529,-5.57],[-1.712,-5.338],[-1.747,-5.267],[-1.768,-5.176],[-1.761,-4.951],[-1.719,-4.782],[-1.641,-4.606],[-1.571,-4.606],[-1.564,-4.62],[-1.607,-4.691],[-1.684,-4.951],[-1.698,-5.148],[-1.67,-5.253],[-1.635,-5.324],[-1.508,-5.485],[-1.501,-5.521],[-1.431,-5.598],[-1.431,-5.619],[-1.389,-5.682],[-1.354,-5.816],[-1.347,-5.929],[-1.382,-6.076],[-1.473,-6.287],[-1.515,-6.463],[-1.515,-6.526],[-1.487,-6.59],[-1.403,-6.66],[-1.319,-6.695],[-1.235,-6.702],[-1.067,-6.695],[-1.024,-6.702],[-0.961,-6.688],[-0.828,-6.632],[-0.709,-6.547],[-0.611,-6.421],[-0.583,-6.273],[-0.59,-6.132],[-0.66,-5.816],[-0.667,-5.591],[-0.611,-5.394],[-0.576,-5.331],[-0.527,-5.085],[-0.506,-4.909],[-0.506,-4.789],[-0.52,-4.782],[-0.513,-4.67],[-0.506,-4.606],[-0.527,-4.578],[-0.576,-4.487],[-0.632,-4.445],[-0.632,-4.43],[-0.59,-4.388]]]]},"properties":{"abbr":"Mi","name":"mitral cell layer of the olfactory bulb","plate":4,"ap_bregma_mm":6.75,"area_mm2":0.3119,"traced_fraction":[0.999],"n_labels":2,"no_drawn_outline":false}},{"type":"Feature","geometry":{"type":"MultiPolygon","coordinates":[[[[1.766,-4.276],[1.787,-4.311],[1.696,-4.346],[1.689,-4.374],[1.766,-4.459],[1.78,-4.627],[1.815,-4.698],[1.822,-4.782],[1.85,-4.81],[1.857,-4.895],[1.906,-4.986],[1.913,-5.148],[1.885,-5.218],[1.612,-5.211],[1.612,-5.183],[1.626,-5.176],[1.654,-5.092],[1.661,-4.951],[1.633,-4.803],[1.598,-4.712],[1.605,-4.536],[1.514,-4.536],[1.444,-4.459],[1.317,-4.374],[1.289,-4.374],[1.282,-4.36],[1.114,-4.297],[0.911,-4.241],[0.742,-4.241],[0.63,-4.269],[0.532,-4.332],[0.462,-4.409],[0.441,-4.452],[0.427,-4.55],[0.483,-4.944],[0.539,-5.183],[0.546,-5.288],[0.588,-5.5],[0.602,-5.675],[0.588,-5.816],[0.553,-5.915],[0.539,-6.02],[0.539,-6.28],[0.574,-6.442],[0.63,-6.54],[0.693,-6.597],[0.714,-6.597],[0.728,-6.618],[0.749,-6.618],[0.911,-6.709],[1.086,-6.758],[1.247,-6.751],[1.324,-6.723],[1.338,-6.702],[1.366,-6.695],[1.387,-6.66],[1.401,-6.66],[1.5,-6.674],[1.444,-6.751],[1.415,-6.829],[1.373,-6.871],[0.995,-6.878],[0.911,-6.857],[0.763,-6.787],[0.644,-6.794],[0.595,-6.78],[0.532,-6.73],[0.441,-6.688],[0.364,-6.625],[0.364,-6.491],[0.35,-6.463],[0.357,-6.372],[0.336,-6.343],[0.322,-6.28],[0.322,-6.231],[0.343,-6.196],[0.343,-6.132],[0.308,-6.062],[0.308,-6.02],[0.336,-5.992],[0.329,-5.907],[0.343,-5.879],[0.343,-5.774],[0.315,-5.696],[0.315,-5.619],[0.301,-5.605],[0.301,-5.563],[0.329,-5.514],[0.329,-5.45],[0.308,-5.415],[0.308,-5.303],[0.28,-5.246],[0.308,-5.169],[0.294,-5.042],[0.28,-5.021],[0.294,-4.789],[0.259,-4.691],[0.266,-4.557],[0.245,-4.522],[0.238,-4.452],[0.294,-4.318],[0.371,-4.226],[0.399,-4.212],[0.434,-4.226],[0.525,-4.22],[0.595,-4.184],[0.658,-4.114],[0.742,-4.079],[0.834,-4.065],[1.072,-4.072],[1.261,-4.107],[1.303,-4.142],[1.366,-4.149],[1.535,-4.255],[1.633,-4.29],[1.668,-4.339],[1.766,-4.276]]],[[[-0.968,-4.325],[-0.926,-4.332],[-0.884,-4.346],[-0.807,-4.346],[-0.751,-4.36],[-0.653,-4.43],[-0.632,-4.43],[-0.632,-4.445],[-0.576,-4.487],[-0.527,-4.578],[-0.541,-4.578],[-0.541,-4.627],[-0.527,-4.67],[-0.513,-4.67],[-0.52,-4.782],[-0.534,-4.789],[-0.534,-4.881],[-0.548,-4.916],[-0.569,-5.141],[-0.618,-5.324],[-0.611,-5.394],[-0.667,-5.591],[-0.688,-5.605],[-0.709,-5.661],[-0.709,-5.788],[-0.625,-6.217],[-0.618,-6.308],[-0.632,-6.372],[-0.674,-6.449],[-0.688,-6.449],[-0.688,-6.463],[-0.793,-6.555],[-0.954,-6.646],[-1.052,-6.674],[-1.067,-6.695],[-1.235,-6.702],[-1.256,-6.674],[-1.333,-6.653],[-1.389,-6.618],[-1.452,-6.555],[-1.48,-6.491],[-1.466,-6.386],[-1.403,-6.273],[-1.326,-6.062],[-1.312,-6.006],[-1.312,-5.83],[-1.368,-5.612],[-1.473,-5.492],[-1.508,-5.485],[-1.635,-5.324],[-1.67,-5.253],[-1.698,-5.148],[-1.684,-4.951],[-1.607,-4.691],[-1.564,-4.62],[-1.571,-4.606],[-1.571,-4.599],[-1.55,-4.592],[-1.515,-4.529],[-1.424,-4.437],[-1.417,-4.43],[-1.221,-4.353],[-0.982,-4.346],[-0.968,-4.325]]],[[[-1.291,-4.923],[-1.312,-4.937],[-1.326,-4.972],[-1.333,-5.113],[-1.319,-5.169],[-1.214,-5.394],[-1.116,-5.563],[-1.06,-5.781],[-1.067,-5.95],[-1.151,-6.175],[-1.165,-6.308],[-1.13,-6.358],[-1.031,-6.351],[-0.968,-6.287],[-0.926,-6.203],[-0.912,-6.147],[-0.912,-6.083],[-0.926,-6.076],[-0.926,-6.055],[-0.912,-6.041],[-0.912,-5.823],[-0.926,-5.809],[-0.919,-5.753],[-0.912,-5.591],[-0.807,-5.253],[-0.786,-5.134],[-0.793,-5.099],[-0.765,-4.902],[-0.772,-4.803],[-0.8,-4.747],[-0.856,-4.691],[-0.898,-4.67],[-0.997,-4.648],[-1.074,-4.656],[-1.2,-4.712],[-1.27,-4.796],[-1.291,-4.923]]],[[[1.598,-4.958],[1.612,-4.972],[1.612,-5.042],[1.584,-5.148],[1.535,-5.239],[1.444,-5.352],[1.345,-5.507],[1.331,-5.556],[1.275,-5.647],[1.268,-5.689],[1.254,-5.696],[1.219,-5.823],[1.219,-5.943],[1.247,-6.041],[1.408,-6.386],[1.415,-6.505],[1.401,-6.562],[1.359,-6.646],[1.289,-6.702],[1.233,-6.723],[1.135,-6.723],[1.121,-6.702],[1.156,-6.681],[1.282,-6.66],[1.338,-6.604],[1.366,-6.526],[1.338,-6.365],[1.275,-6.189],[1.198,-6.027],[1.17,-5.9],[1.17,-5.76],[1.219,-5.64],[1.303,-5.478],[1.352,-5.415],[1.352,-5.394],[1.507,-5.204],[1.577,-5.028],[1.577,-4.979],[1.598,-4.958]]]]},"properties":{"abbr":"GrO","name":"granular cell layer of the olfactory bulb","plate":4,"ap_bregma_mm":6.75,"area_mm2":2.6269,"traced_fraction":[0.96,1.0,1.0,1.0],"n_labels":2,"no_drawn_outline":false}},{"type":"Feature","geometry":{"type":"MultiPolygon","coordinates":[[[[-0.898,-4.135],[-0.772,-4.149],[-0.653,-4.205],[-0.527,-4.234],[-0.464,-4.262],[-0.351,-4.36],[-0.337,-4.395],[-0.337,-4.459],[-0.295,-4.487],[-0.253,-4.543],[-0.253,-4.916],[-0.281,-5.021],[-0.281,-5.106],[-0.26,-5.183],[-0.281,-5.345],[-0.253,-5.408],[-0.26,-5.436],[-0.302,-5.471],[-0.316,-5.514],[-0.344,-6.034],[-0.33,-6.301],[-0.408,-6.667],[-0.443,-6.723],[-0.492,-6.766],[-0.646,-6.85],[-0.821,-6.906],[-1.046,-6.934],[-1.193,-6.927],[-1.375,-6.885],[-1.494,-6.822],[-1.592,-6.744],[-1.684,-6.604],[-1.726,-6.491],[-1.768,-6.266],[-1.726,-5.985],[-1.831,-5.879],[-1.873,-5.725],[-1.915,-5.661],[-1.943,-5.57],[-1.978,-5.345],[-1.978,-5.014],[-1.929,-4.768],[-1.88,-4.656],[-1.817,-4.564],[-1.754,-4.508],[-1.698,-4.402],[-1.607,-4.276],[-1.284,-4.163],[-1.024,-4.177],[-0.898,-4.135]]],[[[-1.571,-4.508],[-1.613,-4.557],[-1.613,-4.571],[-1.571,-4.599],[-1.571,-4.606],[-1.635,-4.599],[-1.677,-4.677],[-1.74,-4.852],[-1.768,-5.014],[-1.768,-5.176],[-1.747,-5.267],[-1.684,-5.38],[-1.529,-5.57],[-1.473,-5.703],[-1.424,-5.774],[-1.396,-5.865],[-1.403,-5.971],[-1.431,-6.062],[-1.557,-6.315],[-1.578,-6.421],[-1.571,-6.547],[-1.522,-6.646],[-1.487,-6.681],[-1.41,-6.723],[-1.221,-6.758],[-1.06,-6.758],[-0.982,-6.744],[-0.856,-6.709],[-0.674,-6.597],[-0.576,-6.477],[-0.541,-6.379],[-0.534,-6.182],[-0.618,-5.767],[-0.618,-5.633],[-0.506,-5.267],[-0.457,-4.831],[-0.457,-4.641],[-0.471,-4.564],[-0.506,-4.48],[-0.59,-4.388],[-0.702,-4.311],[-0.835,-4.269],[-0.975,-4.262],[-1.214,-4.276],[-1.403,-4.332],[-1.522,-4.43],[-1.571,-4.508]]],[[[1.612,-5.211],[1.885,-5.218],[1.857,-5.267],[1.829,-5.408],[1.675,-5.584],[1.682,-5.711],[1.64,-5.753],[1.633,-5.837],[1.577,-5.858],[1.549,-5.893],[1.556,-5.978],[1.619,-6.097],[1.619,-6.175],[1.654,-6.273],[1.654,-6.336],[1.619,-6.421],[1.605,-6.526],[1.5,-6.674],[1.401,-6.66],[1.451,-6.576],[1.472,-6.456],[1.451,-6.379],[1.359,-6.217],[1.345,-6.161],[1.282,-6.034],[1.254,-5.929],[1.254,-5.802],[1.282,-5.725],[1.296,-5.718],[1.296,-5.696],[1.415,-5.478],[1.436,-5.464],[1.598,-5.211],[1.612,-5.211]]]]},"properties":{"abbr":"EPl","name":"external plexiform layer of the olfactory bulb","plate":4,"ap_bregma_mm":6.75,"area_mm2":1.886,"traced_fraction":[1.0,0.999,0.933],"n_labels":2,"no_drawn_outline":false}},{"type":"Feature","geometry":{"type":"MultiPolygon","coordinates":[[[[1.766,-4.276],[1.668,-4.339],[1.633,-4.29],[1.535,-4.255],[1.366,-4.149],[1.303,-4.142],[1.261,-4.107],[1.072,-4.072],[0.834,-4.065],[0.7,-4.093],[0.658,-4.114],[0.595,-4.184],[0.525,-4.22],[0.434,-4.226],[0.399,-4.212],[0.371,-4.226],[0.294,-4.318],[0.238,-4.452],[0.245,-4.522],[0.266,-4.557],[0.259,-4.691],[0.294,-4.789],[0.28,-5.021],[0.294,-5.042],[0.308,-5.169],[0.28,-5.246],[0.308,-5.303],[0.308,-5.415],[0.329,-5.45],[0.329,-5.514],[0.301,-5.563],[0.301,-5.605],[0.315,-5.619],[0.315,-5.696],[0.343,-5.774],[0.343,-5.879],[0.329,-5.907],[0.336,-5.992],[0.308,-6.02],[0.308,-6.062],[0.343,-6.132],[0.343,-6.196],[0.322,-6.231],[0.322,-6.28],[0.336,-6.343],[0.357,-6.372],[0.35,-6.463],[0.364,-6.491],[0.364,-6.625],[0.42,-6.674],[0.532,-6.73],[0.595,-6.78],[0.644,-6.794],[0.763,-6.787],[0.911,-6.857],[0.995,-6.878],[1.373,-6.871],[1.415,-6.829],[1.444,-6.751],[1.5,-6.674],[1.605,-6.526],[1.619,-6.421],[1.654,-6.336],[1.654,-6.273],[1.619,-6.175],[1.619,-6.097],[1.556,-5.978],[1.549,-5.893],[1.577,-5.858],[1.633,-5.837],[1.64,-5.753],[1.682,-5.711],[1.675,-5.584],[1.829,-5.408],[1.857,-5.267],[1.885,-5.218],[1.913,-5.148],[1.906,-4.986],[1.857,-4.895],[1.85,-4.81],[1.822,-4.782],[1.815,-4.698],[1.78,-4.627],[1.766,-4.459],[1.689,-4.374],[1.696,-4.346],[1.787,-4.311],[1.927,-4.599],[1.983,-4.782],[1.99,-4.803],[1.997,-4.824],[2.046,-4.951],[2.11,-5.204],[2.11,-5.366],[2.089,-5.366],[2.061,-5.394],[2.061,-5.542],[2.075,-5.556],[2.067,-5.563],[2.082,-5.563],[2.067,-5.668],[2.046,-5.661],[2.012,-5.696],[1.99,-5.774],[1.927,-5.83],[1.934,-5.957],[1.899,-6.013],[1.899,-6.076],[1.941,-6.196],[1.976,-6.224],[1.927,-6.322],[1.584,-6.751],[1.563,-6.794],[1.408,-6.941],[1.38,-6.948],[1.303,-7.012],[1.198,-7.047],[1.191,-7.04],[1.107,-7.012],[0.953,-6.991],[0.84,-6.991],[0.672,-6.948],[0.553,-6.941],[0.483,-6.892],[0.406,-6.878],[0.378,-6.864],[0.23,-6.709],[0.217,-6.632],[0.146,-6.533],[0.146,-6.463],[0.167,-6.428],[0.181,-6.351],[0.16,-6.315],[0.16,-6.273],[0.125,-6.168],[0.132,-5.886],[0.083,-5.457],[0.083,-5.359],[0.104,-5.246],[0.104,-5.092],[0.118,-5.042],[0.104,-4.578],[0.181,-4.409],[0.315,-4.234],[0.322,-4.184],[0.322,-4.177],[0.49,-4.072],[0.693,-4.008],[0.925,-3.966],[1.135,-3.966],[1.338,-4.001],[1.549,-4.072],[1.703,-4.184],[1.766,-4.276]]],[[[-0.38,-4.17],[-0.386,-4.205],[-0.295,-4.29],[-0.253,-4.311],[-0.169,-4.416],[-0.106,-4.564],[-0.085,-4.719],[-0.113,-5.028],[-0.113,-5.225],[-0.092,-5.31],[-0.099,-5.929],[-0.148,-6.111],[-0.148,-6.421],[-0.19,-6.562],[-0.26,-6.723],[-0.337,-6.843],[-0.478,-6.983],[-0.576,-7.04],[-0.702,-7.075],[-0.87,-7.075],[-0.926,-7.061],[-1.291,-7.068],[-1.326,-7.054],[-1.375,-7.061],[-1.382,-7.075],[-1.403,-7.061],[-1.424,-7.047],[-1.473,-7.019],[-1.62,-6.878],[-1.824,-6.597],[-1.943,-6.351],[-2.041,-6.055],[-2.034,-5.781],[-2.111,-5.443],[-2.111,-5.246],[-2.076,-5.007],[-1.992,-4.719],[-1.859,-4.466],[-1.789,-4.388],[-1.775,-4.353],[-1.656,-4.226],[-1.501,-4.135],[-1.347,-4.086],[-1.34,-4.072],[-1.207,-4.022],[-1.067,-3.987],[-0.856,-3.987],[-0.548,-4.065],[-0.38,-4.17]]],[[[-0.898,-4.135],[-1.024,-4.177],[-1.284,-4.163],[-1.607,-4.276],[-1.698,-4.402],[-1.754,-4.508],[-1.817,-4.564],[-1.88,-4.656],[-1.929,-4.768],[-1.978,-5.014],[-1.978,-5.345],[-1.943,-5.57],[-1.915,-5.661],[-1.873,-5.725],[-1.831,-5.879],[-1.726,-5.985],[-1.768,-6.266],[-1.74,-6.435],[-1.684,-6.604],[-1.592,-6.744],[-1.494,-6.822],[-1.375,-6.885],[-1.193,-6.927],[-1.046,-6.934],[-0.821,-6.906],[-0.646,-6.85],[-0.492,-6.766],[-0.443,-6.723],[-0.408,-6.667],[-0.33,-6.301],[-0.344,-6.034],[-0.316,-5.514],[-0.302,-5.471],[-0.26,-5.436],[-0.253,-5.408],[-0.281,-5.345],[-0.281,-5.281],[-0.26,-5.225],[-0.281,-5.021],[-0.253,-4.916],[-0.253,-4.543],[-0.26,-4.522],[-0.337,-4.459],[-0.337,-4.395],[-0.351,-4.36],[-0.464,-4.262],[-0.527,-4.234],[-0.653,-4.205],[-0.772,-4.149],[-0.898,-4.135]]],[[[0.315,-4.177],[0.322,-4.177],[0.322,-4.184],[0.315,-4.184],[0.315,-4.177]]],[[[2.096,-5.535],[2.082,-5.563],[2.082,-5.556],[2.082,-5.535],[2.096,-5.535]]],[[[2.061,-5.915],[2.054,-5.943],[2.046,-5.915],[2.061,-5.915]]]]},"properties":{"abbr":"Gl","name":"glomerular layer of the olfactory bulb","plate":4,"ap_bregma_mm":6.75,"area_mm2":2.602,"traced_fraction":[0.994,1.0,1.0,1.0,1.0,1.0],"n_labels":2,"no_drawn_outline":false}},{"type":"Feature","geometry":{"type":"MultiPolygon","coordinates":[[[[-0.38,-4.17],[-0.288,-4.205],[-0.085,-4.36],[-0.001,-4.388],[-0.029,-4.388],[-0.001,-4.388],[0.09,-4.332],[0.238,-4.22],[0.308,-4.184],[0.315,-4.184],[0.322,-4.184],[0.315,-4.234],[0.181,-4.409],[0.104,-4.578],[0.118,-5.042],[0.104,-5.092],[0.104,-5.246],[0.083,-5.359],[0.083,-5.457],[0.132,-5.886],[0.125,-6.168],[0.16,-6.273],[0.16,-6.315],[0.181,-6.351],[0.167,-6.428],[0.146,-6.463],[0.146,-6.533],[0.217,-6.632],[0.23,-6.709],[0.378,-6.864],[0.406,-6.878],[0.483,-6.892],[0.553,-6.941],[0.672,-6.948],[0.84,-6.991],[0.953,-6.991],[1.107,-7.012],[1.191,-7.04],[1.198,-7.047],[1.17,-7.061],[1.17,-7.075],[1.058,-7.131],[0.911,-7.187],[0.904,-7.202],[0.7,-7.293],[0.462,-7.356],[0.336,-7.349],[0.266,-7.328],[0.245,-7.3],[0.217,-7.293],[0.097,-7.159],[0.034,-7.124],[0.006,-7.124],[-0.057,-7.159],[-0.204,-7.328],[-0.288,-7.37],[-0.513,-7.398],[-0.674,-7.384],[-1.081,-7.258],[-1.277,-7.159],[-1.382,-7.075],[-1.354,-7.054],[-1.291,-7.068],[-0.926,-7.061],[-0.87,-7.075],[-0.702,-7.075],[-0.576,-7.04],[-0.478,-6.983],[-0.337,-6.843],[-0.26,-6.723],[-0.19,-6.562],[-0.148,-6.421],[-0.148,-6.111],[-0.099,-5.929],[-0.092,-5.31],[-0.113,-5.225],[-0.113,-5.028],[-0.085,-4.719],[-0.106,-4.564],[-0.169,-4.416],[-0.253,-4.311],[-0.295,-4.29],[-0.386,-4.205],[-0.38,-4.17]]],[[[0.315,-4.177],[0.315,-4.184],[0.308,-4.184],[0.315,-4.177]]]]},"properties":{"abbr":"ON","name":"olfactory nerve layer","plate":4,"ap_bregma_mm":6.75,"area_mm2":1.5022,"traced_fraction":[1.0,1.0],"n_labels":2,"no_drawn_outline":false}},{"type":"Feature","geometry":{"type":"MultiPolygon","coordinates":[[[[-0.793,-5.099],[-0.828,-5.141],[-0.849,-5.211],[-0.912,-5.317],[-0.982,-5.359],[-1.039,-5.366],[-1.088,-5.345],[-1.151,-5.281],[-1.193,-5.211],[-1.291,-4.923],[-1.27,-4.796],[-1.2,-4.712],[-1.074,-4.656],[-0.997,-4.648],[-0.898,-4.67],[-0.856,-4.691],[-0.8,-4.747],[-0.772,-4.803],[-0.765,-4.902],[-0.793,-5.099]]],[[[0.946,-4.782],[0.995,-4.782],[1.051,-4.803],[1.107,-4.86],[1.128,-4.902],[1.135,-5.028],[1.086,-5.085],[1.023,-5.085],[0.988,-5.071],[0.897,-4.972],[0.883,-4.937],[0.883,-4.845],[0.911,-4.803],[0.946,-4.782]]]]},"properties":{"abbr":"GrA","name":"granule cell layer of the accessory olfactory bulb","plate":4,"ap_bregma_mm":6.75,"area_mm2":0.3386,"traced_fraction":[1.0,1.0],"n_labels":2,"no_drawn_outline":false}},{"type":"Feature","geometry":{"type":"MultiPolygon","coordinates":[[[[1.598,-4.958],[1.577,-4.979],[1.577,-5.028],[1.507,-5.204],[1.352,-5.394],[1.352,-5.415],[1.275,-5.528],[1.17,-5.76],[1.17,-5.9],[1.198,-6.027],[1.275,-6.189],[1.338,-6.365],[1.366,-6.526],[1.338,-6.604],[1.282,-6.66],[1.156,-6.681],[1.121,-6.702],[0.995,-6.674],[0.988,-6.646],[0.826,-6.569],[0.756,-6.519],[0.658,-6.407],[0.616,-6.273],[0.616,-6.069],[0.63,-5.943],[0.651,-5.879],[0.644,-5.83],[0.658,-5.746],[0.679,-5.725],[0.693,-5.668],[0.679,-5.401],[0.56,-4.951],[0.518,-4.684],[0.525,-4.501],[0.567,-4.416],[0.581,-4.416],[0.623,-4.36],[0.679,-4.332],[0.749,-4.318],[0.911,-4.325],[1.121,-4.381],[1.324,-4.487],[1.324,-4.501],[1.401,-4.543],[1.5,-4.684],[1.542,-4.705],[1.591,-4.86],[1.598,-4.958]]],[[[0.883,-5.141],[0.883,-5.162],[0.868,-5.19],[0.876,-5.38],[0.883,-5.443],[0.904,-5.45],[0.89,-5.5],[0.897,-5.668],[0.883,-5.851],[0.883,-5.95],[0.897,-5.964],[0.868,-5.999],[0.883,-6.175],[0.918,-6.245],[1.002,-6.329],[1.058,-6.365],[1.149,-6.372],[1.163,-6.358],[1.156,-6.315],[1.079,-6.245],[1.044,-6.182],[0.981,-5.943],[0.974,-5.837],[1.002,-5.626],[1.002,-5.528],[0.988,-5.5],[1.002,-5.485],[1.009,-5.422],[1.023,-5.415],[1.065,-5.296],[1.135,-5.183],[1.191,-5.056],[1.198,-4.951],[1.17,-4.881],[1.128,-4.817],[1.023,-4.726],[0.953,-4.698],[0.855,-4.705],[0.805,-4.775],[0.805,-4.867],[0.855,-5.007],[0.862,-5.12],[0.883,-5.141]]],[[[-1.291,-4.923],[-1.193,-5.211],[-1.151,-5.281],[-1.088,-5.345],[-1.039,-5.366],[-0.982,-5.359],[-0.912,-5.317],[-0.884,-5.345],[-0.898,-5.394],[-1.074,-5.408],[-1.074,-5.429],[-1.018,-5.521],[-0.989,-5.739],[-1.018,-5.985],[-1.046,-6.09],[-1.046,-6.175],[-1.024,-6.196],[-0.975,-6.189],[-0.94,-6.076],[-0.926,-6.076],[-0.912,-6.083],[-0.926,-6.203],[-0.968,-6.287],[-1.031,-6.351],[-1.13,-6.358],[-1.165,-6.308],[-1.151,-6.175],[-1.067,-5.95],[-1.06,-5.781],[-1.116,-5.563],[-1.214,-5.394],[-1.319,-5.169],[-1.333,-5.113],[-1.326,-4.972],[-1.312,-4.937],[-1.291,-4.923]]]]},"properties":{"abbr":"aci","name":"anterior commissure, intrabulbar part","plate":4,"ap_bregma_mm":6.75,"area_mm2":1.5335,"traced_fraction":[1.0,1.0,1.0],"n_labels":2,"no_drawn_outline":false}},{"type":"Feature","geometry":{"type":"MultiPolygon","coordinates":[[[[1.009,-5.422],[1.002,-5.485],[0.988,-5.5],[1.002,-5.528],[1.002,-5.626],[0.974,-5.837],[0.981,-5.943],[1.044,-6.182],[1.079,-6.245],[1.156,-6.315],[1.163,-6.358],[1.149,-6.372],[1.058,-6.365],[1.002,-6.329],[0.918,-6.245],[0.883,-6.175],[0.868,-5.999],[0.897,-5.964],[0.883,-5.95],[0.883,-5.851],[0.897,-5.668],[0.89,-5.5],[0.904,-5.45],[0.918,-5.408],[0.925,-5.275],[0.911,-5.204],[0.883,-5.162],[0.883,-5.141],[0.932,-5.113],[1.023,-5.183],[1.002,-5.359],[1.009,-5.422]]],[[[-0.898,-5.394],[-0.905,-5.443],[-0.954,-5.563],[-0.954,-5.689],[-0.933,-5.753],[-0.919,-5.753],[-0.926,-5.809],[-0.94,-5.823],[-0.947,-5.929],[-0.947,-6.041],[-0.926,-6.055],[-0.926,-6.076],[-0.94,-6.076],[-0.975,-6.189],[-1.024,-6.196],[-1.046,-6.175],[-1.046,-6.09],[-1.018,-5.985],[-0.989,-5.739],[-1.018,-5.521],[-1.06,-5.457],[-1.074,-5.408],[-0.898,-5.394]]]]},"properties":{"abbr":"E","name":"ependyma and subependymal layer","plate":4,"ap_bregma_mm":6.75,"area_mm2":0.2028,"traced_fraction":[1.0,1.0],"n_labels":4,"no_drawn_outline":false}},{"type":"Feature","geometry":{"type":"Polygon","coordinates":[[[1.514,-4.536],[1.605,-4.536],[1.598,-4.712],[1.633,-4.803],[1.661,-4.951],[1.654,-5.092],[1.626,-5.176],[1.612,-5.183],[1.612,-5.211],[1.598,-5.211],[1.436,-5.464],[1.415,-5.478],[1.394,-5.535],[1.345,-5.598],[1.254,-5.802],[1.254,-5.929],[1.268,-5.992],[1.359,-6.217],[1.451,-6.379],[1.472,-6.456],[1.451,-6.576],[1.401,-6.66],[1.387,-6.66],[1.387,-6.674],[1.324,-6.723],[1.247,-6.751],[1.086,-6.758],[0.911,-6.709],[0.791,-6.639],[0.728,-6.618],[0.63,-6.54],[0.574,-6.442],[0.539,-6.28],[0.539,-6.02],[0.553,-5.915],[0.588,-5.816],[0.644,-5.83],[0.651,-5.879],[0.63,-5.943],[0.616,-6.069],[0.616,-6.273],[0.658,-6.407],[0.756,-6.519],[0.826,-6.569],[0.988,-6.646],[0.995,-6.674],[1.121,-6.702],[1.135,-6.723],[1.233,-6.723],[1.289,-6.702],[1.359,-6.646],[1.401,-6.562],[1.415,-6.505],[1.408,-6.386],[1.247,-6.041],[1.219,-5.943],[1.219,-5.823],[1.254,-5.696],[1.268,-5.689],[1.275,-5.647],[1.331,-5.556],[1.345,-5.507],[1.444,-5.352],[1.535,-5.239],[1.584,-5.148],[1.612,-5.042],[1.612,-4.972],[1.598,-4.958],[1.591,-4.86],[1.542,-4.705],[1.514,-4.698],[1.423,-4.564],[1.352,-4.508],[1.324,-4.501],[1.324,-4.487],[1.121,-4.381],[0.911,-4.325],[0.749,-4.318],[0.679,-4.332],[0.623,-4.36],[0.623,-4.374],[0.567,-4.416],[0.525,-4.501],[0.518,-4.684],[0.56,-4.951],[0.679,-5.401],[0.693,-5.668],[0.679,-5.725],[0.658,-5.746],[0.63,-5.443],[0.539,-4.986],[0.476,-4.564],[0.476,-4.501],[0.511,-4.416],[0.574,-4.353],[0.665,-4.304],[0.749,-4.283],[0.89,-4.283],[1.114,-4.339],[1.282,-4.416],[1.408,-4.501],[1.423,-4.529],[1.472,-4.564],[1.486,-4.599],[1.535,-4.578],[1.514,-4.536]]]},"properties":{"abbr":null,"name":"unnamed sealed face","plate":4,"ap_bregma_mm":6.75,"index":0}},{"type":"Feature","geometry":{"type":"Polygon","coordinates":[[[1.009,-5.422],[1.002,-5.359],[1.023,-5.183],[0.932,-5.113],[0.883,-5.141],[0.862,-5.12],[0.855,-5.007],[0.805,-4.867],[0.805,-4.775],[0.855,-4.705],[0.953,-4.698],[1.023,-4.726],[1.128,-4.817],[1.17,-4.881],[1.198,-4.951],[1.191,-5.056],[1.135,-5.183],[1.065,-5.296],[1.044,-5.373],[1.009,-5.422]]]},"properties":{"abbr":null,"name":"unnamed sealed face","plate":4,"ap_bregma_mm":6.75,"index":1}},{"type":"Feature","geometry":{"type":"Polygon","coordinates":[[[0.946,-4.782],[0.911,-4.803],[0.883,-4.845],[0.883,-4.937],[0.897,-4.972],[0.988,-5.071],[1.023,-5.085],[1.086,-5.085],[1.135,-5.028],[1.128,-4.902],[1.107,-4.86],[1.051,-4.803],[0.995,-4.782],[0.946,-4.782]]]},"properties":{"abbr":null,"name":"unnamed sealed face","plate":4,"ap_bregma_mm":6.75,"index":2}},{"type":"Feature","geometry":{"type":"Polygon","coordinates":[[[-0.793,-5.099],[-0.786,-5.134],[-0.807,-5.253],[-0.912,-5.591],[-0.919,-5.753],[-0.933,-5.753],[-0.954,-5.689],[-0.954,-5.563],[-0.926,-5.507],[-0.898,-5.394],[-0.884,-5.345],[-0.912,-5.317],[-0.849,-5.211],[-0.828,-5.141],[-0.793,-5.099]]]},"properties":{"abbr":null,"name":"unnamed sealed face","plate":4,"ap_bregma_mm":6.75,"index":3}},{"type":"Feature","geometry":{"type":"Polygon","coordinates":[[[-1.508,-5.485],[-1.473,-5.492],[-1.368,-5.612],[-1.312,-5.83],[-1.312,-6.006],[-1.326,-6.062],[-1.403,-6.273],[-1.466,-6.386],[-1.48,-6.491],[-1.452,-6.555],[-1.389,-6.618],[-1.333,-6.653],[-1.256,-6.674],[-1.235,-6.702],[-1.291,-6.702],[-1.403,-6.66],[-1.487,-6.59],[-1.515,-6.526],[-1.515,-6.463],[-1.473,-6.287],[-1.382,-6.076],[-1.347,-5.929],[-1.354,-5.816],[-1.389,-5.682],[-1.431,-5.619],[-1.431,-5.598],[-1.501,-5.521],[-1.508,-5.485]]]},"properties":{"abbr":null,"name":"unnamed sealed face","plate":4,"ap_bregma_mm":6.75,"index":4}},{"type":"Feature","geometry":{"type":"Polygon","coordinates":[[[-0.667,-5.591],[-0.66,-5.816],[-0.59,-6.132],[-0.583,-6.273],[-0.611,-6.421],[-0.66,-6.498],[-0.674,-6.498],[-0.709,-6.547],[-0.793,-6.611],[-0.961,-6.688],[-1.024,-6.702],[-1.067,-6.695],[-1.052,-6.674],[-0.954,-6.646],[-0.793,-6.555],[-0.737,-6.512],[-0.688,-6.449],[-0.674,-6.449],[-0.632,-6.372],[-0.618,-6.308],[-0.625,-6.217],[-0.709,-5.788],[-0.709,-5.661],[-0.688,-5.605],[-0.667,-5.591]]]},"properties":{"abbr":null,"name":"unnamed sealed face","plate":4,"ap_bregma_mm":6.75,"index":5}},{"type":"Feature","geometry":{"type":"Polygon","coordinates":[[[2.067,-5.668],[2.061,-5.915],[2.046,-5.915],[2.054,-5.943],[2.025,-6.14],[1.976,-6.224],[1.941,-6.196],[1.899,-6.076],[1.899,-6.013],[1.934,-5.957],[1.927,-5.83],[1.99,-5.774],[2.012,-5.696],[2.046,-5.661],[2.067,-5.668]]]},"properties":{"abbr":null,"name":"unnamed sealed face","plate":4,"ap_bregma_mm":6.75,"index":6}},{"type":"Feature","geometry":{"type":"MultiPolygon","coordinates":[[[[-0.436,-7.384],[-0.597,-7.391],[-0.779,-7.349],[-1.074,-7.251],[-1.263,-7.159],[-1.48,-7.005],[-1.613,-6.878],[-1.817,-6.597],[-1.936,-6.358],[-2.027,-6.097],[-2.041,-6.034],[-2.034,-5.795],[-2.111,-5.422],[-2.111,-5.267],[-2.076,-5.014],[-1.992,-4.726],[-1.866,-4.48],[-1.768,-4.346],[-1.662,-4.234],[-1.515,-4.142],[-1.179,-4.016],[-1.052,-3.987],[-0.877,-3.987],[-0.555,-4.065],[-0.408,-4.156],[-0.309,-4.198],[-0.071,-4.367],[0.006,-4.388],[0.252,-4.212],[0.476,-4.079],[0.7,-4.008],[0.939,-3.966],[1.107,-3.966],[1.261,-3.987],[1.429,-4.03],[1.57,-4.086],[1.71,-4.198],[1.801,-4.339],[1.92,-4.606],[2.033,-4.937],[2.103,-5.211],[2.103,-5.5],[2.067,-5.584],[2.054,-5.915],[2.018,-6.132],[1.913,-6.322],[1.542,-6.801],[1.408,-6.927],[1.268,-7.019],[1.212,-7.033],[1.107,-7.096],[0.686,-7.286],[0.448,-7.349],[0.294,-7.335],[0.209,-7.279],[0.09,-7.152],[0.02,-7.117],[-0.015,-7.124],[-0.064,-7.159],[-0.211,-7.321],[-0.302,-7.363],[-0.429,-7.384],[-0.436,-7.384]]]]},"properties":{"abbr":"brain_outline","name":"outline of the section","plate":4,"ap_bregma_mm":6.75}}]}
