{"type":"FeatureCollection","name":"GerbilAtlas plate 37","note":"Region extents cut from the atlas drawing (METHODS.md, Region extents). Coordinates are [ML, DV] in mm, ML positive to the right of the plate as printed, DV negative below the dorsal surface; AP is the plate bregma. traced_fraction is the share of each polygon boundary the atlas actually draws; below 0.5 the boundary is an estimate. no_drawn_outline marks a feature that lies only inside boundaries the atlas draws round more than one name and prints nothing within, so the whole of its outline is where the extraction cut it. Not a segmentation.","plate":37,"ap_bregma_mm":-4.8,"features":[{"type":"Feature","geometry":{"type":"MultiPolygon","coordinates":[[[[-0.069,-4.832],[-0.076,-4.881],[-0.034,-4.994],[-0.02,-5.113],[-0.034,-5.296],[-0.055,-5.353],[-0.083,-5.374],[-0.16,-5.353],[-0.252,-5.353],[-0.336,-5.303],[-0.378,-5.205],[-0.378,-4.952],[-0.343,-4.881],[-0.244,-4.797],[-0.181,-4.797],[-0.104,-4.832],[-0.069,-4.832]]],[[[0.407,-4.931],[0.407,-5.085],[0.386,-5.191],[0.26,-5.296],[0.092,-5.367],[0.043,-5.275],[0.043,-5.219],[0.029,-5.205],[0.036,-5.113],[0.043,-5.015],[0.064,-4.966],[0.064,-4.924],[0.085,-4.888],[0.071,-4.846],[0.078,-4.818],[0.141,-4.825],[0.204,-4.797],[0.295,-4.804],[0.337,-4.839],[0.373,-4.91],[0.407,-4.931]]]]},"properties":{"abbr":"3N","name":"oculomotor nucleus","plate":37,"ap_bregma_mm":-4.8,"area_mm2":0.3351,"traced_fraction":[1.0,1.0],"n_labels":2,"no_drawn_outline":false}},{"type":"Feature","geometry":{"type":"MultiPolygon","coordinates":[[[[-1.121,-6.225],[-0.967,-6.358],[-0.981,-6.358],[-1.016,-6.401],[-1.023,-6.534],[-1.044,-6.541],[-1.107,-6.612],[-1.121,-6.612],[-1.205,-6.52],[-1.296,-6.387],[-1.303,-6.302],[-1.254,-6.239],[-1.184,-6.218],[-1.121,-6.225]]],[[[1.396,-6.358],[1.207,-6.59],[1.025,-6.71],[1.011,-6.387],[1.038,-6.351],[1.102,-6.33],[1.116,-6.309],[1.193,-6.267],[1.298,-6.225],[1.354,-6.225],[1.389,-6.253],[1.396,-6.358]]]]},"properties":{"abbr":"3n","name":"oculomotor nerve","plate":37,"ap_bregma_mm":-4.8,"area_mm2":0.1895,"traced_fraction":[0.758,0.802],"n_labels":2,"no_drawn_outline":false}},{"type":"Feature","geometry":{"type":"MultiPolygon","coordinates":[[[[0.197,-3.862],[0.225,-3.89],[0.239,-3.939],[0.064,-4.115],[0.022,-4.185],[-0.013,-4.185],[-0.034,-4.136],[-0.146,-4.023],[-0.231,-3.96],[-0.216,-3.883],[-0.167,-3.833],[-0.055,-3.777],[0.029,-3.77],[0.197,-3.862]]]]},"properties":{"abbr":"Aq","name":"aqueduct","plate":37,"ap_bregma_mm":-4.8,"area_mm2":0.1137,"traced_fraction":[1.0],"n_labels":1,"no_drawn_outline":false}},{"type":"Feature","geometry":{"type":"MultiPolygon","coordinates":[[[[-2.663,-3.672],[-2.586,-3.756],[-2.523,-3.862],[-2.502,-3.939],[-2.495,-4.066],[-2.558,-4.544],[-2.607,-4.727],[-2.636,-4.755],[-2.811,-4.685],[-2.867,-4.628],[-2.916,-4.523],[-2.944,-4.347],[-2.93,-4.073],[-2.888,-3.876],[-2.853,-3.805],[-2.797,-3.742],[-2.663,-3.672]]],[[[2.567,-3.862],[2.651,-3.862],[2.7,-3.876],[2.756,-3.925],[2.777,-3.967],[2.798,-4.073],[2.784,-4.417],[2.763,-4.509],[2.728,-4.551],[2.686,-4.572],[2.553,-4.572],[2.483,-4.53],[2.469,-4.509],[2.476,-4.164],[2.49,-4.058],[2.546,-3.918],[2.546,-3.876],[2.567,-3.862]]]]},"properties":{"abbr":"BIC","name":"nucleus of the brachium of the inferior colliculus","plate":37,"ap_bregma_mm":-4.8,"area_mm2":0.5676,"traced_fraction":[1.0,1.0],"n_labels":2,"no_drawn_outline":false}},{"type":"Feature","geometry":{"type":"MultiPolygon","coordinates":[[[[4.586,-6.154],[4.727,-6.19],[4.902,-6.19],[4.902,-6.225],[4.846,-6.358],[4.706,-6.555],[4.649,-6.668],[4.621,-6.759],[4.586,-6.977],[4.593,-7.055],[4.509,-7.083],[4.369,-7.09],[4.201,-7.041],[4.025,-6.956],[3.99,-6.921],[3.941,-6.9],[3.843,-6.801],[3.773,-6.661],[3.745,-6.555],[3.738,-6.372],[3.983,-6.393],[4.18,-6.365],[4.376,-6.267],[4.467,-6.168],[4.586,-6.154]]],[[[-4.606,-6.302],[-4.592,-6.323],[-4.543,-6.344],[-4.402,-6.38],[-4.304,-6.422],[-4.045,-6.45],[-3.869,-6.583],[-3.764,-6.612],[-3.638,-6.626],[-3.568,-6.661],[-3.498,-6.717],[-3.407,-6.83],[-3.393,-6.872],[-3.4,-6.963],[-3.421,-7.069],[-3.435,-7.076],[-3.463,-7.146],[-3.589,-7.266],[-3.715,-7.329],[-3.82,-7.357],[-3.947,-7.364],[-4.059,-7.35],[-4.185,-7.294],[-4.465,-7.104],[-5.04,-6.661],[-5.153,-6.597],[-5.209,-6.59],[-5.503,-6.661],[-5.678,-6.668],[-5.671,-6.633],[-5.545,-6.506],[-5.531,-6.506],[-5.426,-6.401],[-5.377,-6.38],[-5.349,-6.408],[-5.279,-6.408],[-4.984,-6.337],[-4.963,-6.316],[-4.942,-6.323],[-4.928,-6.26],[-4.914,-6.225],[-4.851,-6.218],[-4.802,-6.225],[-4.641,-6.302],[-4.606,-6.302]]]]},"properties":{"abbr":"CEnt","name":"caudomedial entothinal cortex","plate":37,"ap_bregma_mm":-4.8,"area_mm2":1.9005,"traced_fraction":[1.0,1.0],"n_labels":2,"no_drawn_outline":false}},{"type":"Feature","geometry":{"type":"MultiPolygon","coordinates":[[[[0.099,-5.796],[0.099,-5.845],[0.106,-5.866],[0.12,-5.866],[0.134,-6.028],[-0.118,-6.028],[-0.097,-5.803],[0.099,-5.796]]]]},"properties":{"abbr":"CLi","name":"caudal linear nucleus of the raphe","plate":37,"ap_bregma_mm":-4.8,"area_mm2":0.0519,"traced_fraction":[0.652],"n_labels":1,"no_drawn_outline":true}},{"type":"Feature","geometry":{"type":"MultiPolygon","coordinates":[[[[-0.567,-3.081],[-0.574,-3.285],[-0.532,-3.461],[-0.455,-3.566],[-0.35,-3.672],[-0.259,-3.735],[-0.167,-3.833],[-0.21,-3.869],[-0.231,-3.96],[-0.385,-3.96],[-0.63,-3.89],[-0.897,-3.77],[-0.974,-3.714],[-1.114,-3.644],[-1.128,-3.587],[-1.114,-3.447],[-1.051,-3.306],[-1.009,-3.25],[-0.911,-3.165],[-0.805,-3.116],[-0.651,-3.074],[-0.567,-3.081]]],[[[1.06,-3.651],[1.032,-3.658],[1.011,-3.686],[0.933,-3.735],[0.702,-3.84],[0.457,-3.918],[0.239,-3.939],[0.225,-3.89],[0.197,-3.862],[0.253,-3.805],[0.274,-3.763],[0.407,-3.63],[0.485,-3.503],[0.527,-3.306],[0.527,-3.207],[0.506,-3.13],[0.618,-3.095],[0.716,-3.088],[0.793,-3.102],[0.884,-3.144],[0.961,-3.243],[1.025,-3.376],[1.06,-3.559],[1.06,-3.651]]]]},"properties":{"abbr":"DLPAG","name":"dorsolateral periaqueductal gray","plate":37,"ap_bregma_mm":-4.8,"area_mm2":0.8789,"traced_fraction":[1.0,1.0],"n_labels":2,"no_drawn_outline":false}},{"type":"Feature","geometry":{"type":"MultiPolygon","coordinates":[[[[-0.567,-3.081],[-0.441,-3.095],[-0.195,-3.172],[-0.055,-3.193],[0.204,-3.179],[0.394,-3.137],[0.506,-3.13],[0.527,-3.207],[0.527,-3.306],[0.485,-3.503],[0.407,-3.63],[0.274,-3.763],[0.253,-3.805],[0.197,-3.862],[0.029,-3.77],[-0.055,-3.777],[-0.167,-3.833],[-0.259,-3.735],[-0.35,-3.672],[-0.455,-3.566],[-0.532,-3.461],[-0.574,-3.285],[-0.567,-3.081]]]]},"properties":{"abbr":"DMPAG","name":"dorsomedial periaqueductal gray","plate":37,"ap_bregma_mm":-4.8,"area_mm2":0.5977,"traced_fraction":[1.0],"n_labels":1,"no_drawn_outline":false}},{"type":"Feature","geometry":{"type":"MultiPolygon","coordinates":[[[[-0.02,-5.113],[0.036,-5.113],[0.029,-5.205],[0.043,-5.219],[0.043,-5.275],[0.092,-5.367],[0.071,-5.395],[0.064,-5.444],[0.05,-5.55],[0.029,-5.564],[-0.041,-5.564],[-0.055,-5.55],[-0.069,-5.451],[-0.083,-5.374],[-0.055,-5.353],[-0.034,-5.296],[-0.02,-5.113]]]]},"properties":{"abbr":"DR","name":"dorsal raphe nucleus","plate":37,"ap_bregma_mm":-4.8,"area_mm2":0.0459,"traced_fraction":[1.0],"n_labels":1,"no_drawn_outline":false}},{"type":"Feature","geometry":{"type":"MultiPolygon","coordinates":[[[[2.041,-4.27],[1.964,-4.326],[1.824,-4.375],[1.627,-4.417],[1.564,-4.417],[1.487,-4.305],[1.389,-4.199],[1.298,-4.037],[1.235,-3.847],[1.207,-3.615],[1.151,-3.411],[1.081,-3.271],[0.996,-3.144],[0.912,-3.067],[0.793,-3.018],[0.576,-3.011],[0.365,-3.053],[0.176,-3.116],[-0.013,-3.137],[-0.301,-3.081],[-0.42,-3.032],[-0.595,-2.982],[-0.763,-2.982],[-0.897,-3.032],[-1.009,-3.116],[-1.142,-3.271],[-1.247,-3.468],[-1.317,-3.728],[-1.443,-4.094],[-1.5,-4.213],[-1.507,-4.262],[-1.542,-4.34],[-1.542,-4.375],[-1.675,-4.375],[-1.829,-4.354],[-2.018,-4.312],[-2.11,-4.277],[-2.096,-4.227],[-2.011,-4.108],[-2.004,-4.08],[-1.969,-4.044],[-1.843,-3.805],[-1.759,-3.594],[-1.675,-3.313],[-1.605,-3.158],[-1.479,-2.975],[-1.352,-2.849],[-1.261,-2.785],[-1.107,-2.729],[-0.911,-2.729],[-0.707,-2.792],[-0.455,-2.926],[-0.343,-2.968],[-0.132,-3.011],[0.12,-3.018],[0.239,-2.989],[0.337,-2.94],[0.527,-2.792],[0.555,-2.757],[0.674,-2.68],[0.779,-2.645],[0.912,-2.645],[1.053,-2.673],[1.214,-2.778],[1.354,-2.919],[1.48,-3.116],[1.606,-3.383],[1.74,-3.735],[1.789,-3.918],[1.859,-4.066],[1.908,-4.143],[2.041,-4.27]]]]},"properties":{"abbr":"DpG","name":"deep gray layer of the superior colliculus","plate":37,"ap_bregma_mm":-4.8,"area_mm2":1.9851,"traced_fraction":[1.0],"n_labels":2,"no_drawn_outline":false}},{"type":"Feature","geometry":{"type":"MultiPolygon","coordinates":[[[[1.564,-4.417],[1.417,-4.445],[1.221,-4.452],[0.87,-4.396],[0.828,-4.375],[0.828,-4.354],[0.863,-4.312],[0.919,-4.277],[1.032,-4.171],[1.095,-4.051],[1.109,-3.883],[1.06,-3.651],[1.06,-3.559],[1.025,-3.376],[0.961,-3.243],[0.884,-3.144],[0.814,-3.109],[0.716,-3.088],[0.618,-3.095],[0.506,-3.13],[0.394,-3.137],[0.204,-3.179],[-0.055,-3.193],[-0.195,-3.172],[-0.441,-3.095],[-0.567,-3.081],[-0.651,-3.074],[-0.805,-3.116],[-0.911,-3.165],[-1.009,-3.25],[-1.051,-3.306],[-1.114,-3.447],[-1.128,-3.517],[-1.114,-3.644],[-1.128,-3.749],[-1.128,-3.911],[-1.114,-4.002],[-1.058,-4.129],[-1.037,-4.143],[-1.016,-4.192],[-0.946,-4.255],[-0.939,-4.284],[-1.002,-4.298],[-1.121,-4.354],[-1.219,-4.375],[-1.542,-4.375],[-1.542,-4.34],[-1.514,-4.284],[-1.5,-4.213],[-1.443,-4.094],[-1.317,-3.728],[-1.247,-3.468],[-1.142,-3.271],[-1.009,-3.116],[-0.897,-3.032],[-0.763,-2.982],[-0.595,-2.982],[-0.42,-3.032],[-0.301,-3.081],[-0.013,-3.137],[0.176,-3.116],[0.365,-3.053],[0.576,-3.011],[0.751,-3.011],[0.842,-3.032],[0.912,-3.067],[0.996,-3.144],[1.081,-3.271],[1.151,-3.411],[1.207,-3.615],[1.235,-3.847],[1.298,-4.037],[1.389,-4.199],[1.487,-4.305],[1.564,-4.417]]]]},"properties":{"abbr":"DpWh","name":"deep white layer of the superior colliculus","plate":37,"ap_bregma_mm":-4.8,"area_mm2":0.7759,"traced_fraction":[1.0],"n_labels":2,"no_drawn_outline":false}},{"type":"Feature","geometry":{"type":"MultiPolygon","coordinates":[[[[0.078,-4.818],[0.071,-4.846],[0.085,-4.888],[0.064,-4.924],[0.064,-4.966],[0.043,-5.015],[0.036,-5.113],[-0.02,-5.113],[-0.034,-4.994],[-0.076,-4.881],[-0.069,-4.832],[-0.048,-4.691],[-0.013,-4.621],[0.008,-4.621],[0.022,-4.642],[0.043,-4.748],[0.078,-4.818]]]]},"properties":{"abbr":"EW","name":"Edinger–Westphal nucleus","plate":37,"ap_bregma_mm":-4.8,"area_mm2":0.0487,"traced_fraction":[1.0],"n_labels":1,"no_drawn_outline":false}},{"type":"Feature","geometry":{"type":"MultiPolygon","coordinates":[[[[5.82,-4.101],[5.911,-4.122],[6.241,-4.248],[6.669,-4.375],[6.893,-4.431],[7.096,-4.459],[7.089,-4.614],[7.061,-4.769],[7.005,-4.959],[6.956,-5.043],[6.732,-4.973],[6.339,-4.769],[6.115,-4.621],[5.982,-4.495],[5.968,-4.495],[5.855,-4.375],[5.806,-4.354],[5.806,-4.164],[5.82,-4.101]]],[[[-5.812,-4.312],[-5.798,-4.516],[-5.847,-4.53],[-6.036,-4.67],[-6.225,-4.769],[-6.436,-4.839],[-6.597,-4.917],[-6.997,-5.064],[-7.039,-4.966],[-7.144,-4.607],[-7.144,-4.354],[-6.674,-4.354],[-5.812,-4.312]]]]},"properties":{"abbr":"Ect","name":"ectorhinal cortex","plate":37,"ap_bregma_mm":-4.8,"area_mm2":1.2537,"traced_fraction":[1.0,1.0],"n_labels":2,"no_drawn_outline":false}},{"type":"Feature","geometry":{"type":"MultiPolygon","coordinates":[[[[-0.006,-6.38],[0.057,-6.387],[0.134,-6.464],[0.127,-6.506],[0.141,-6.562],[0.085,-6.569],[0.001,-6.619],[-0.062,-6.619],[-0.139,-6.576],[-0.21,-6.562],[-0.21,-6.471],[-0.132,-6.393],[-0.09,-6.38],[-0.006,-6.38]]]]},"properties":{"abbr":"IF","name":"interfascicular nucleus","plate":37,"ap_bregma_mm":-4.8,"area_mm2":0.0642,"traced_fraction":[1.0],"n_labels":1,"no_drawn_outline":false}},{"type":"Feature","geometry":{"type":"MultiPolygon","coordinates":[[[[0.162,-6.816],[0.204,-6.851],[0.225,-6.914],[0.246,-7.02],[0.239,-7.146],[0.253,-7.181],[0.169,-7.231],[0.057,-7.259],[-0.027,-7.259],[-0.118,-7.252],[-0.322,-7.174],[-0.301,-7.167],[-0.315,-7.027],[-0.301,-6.907],[-0.259,-6.844],[-0.21,-6.83],[-0.153,-6.872],[-0.069,-6.907],[0.071,-6.907],[0.162,-6.816]]]]},"properties":{"abbr":"IPC","name":"interpeduncular nucleus, caudal subnucleus","plate":37,"ap_bregma_mm":-4.8,"area_mm2":0.1964,"traced_fraction":[1.0],"n_labels":1,"no_drawn_outline":false}},{"type":"Feature","geometry":{"type":"MultiPolygon","coordinates":[[[[0.169,-6.562],[0.267,-6.583],[0.302,-6.619],[0.302,-6.661],[0.323,-6.689],[0.358,-6.801],[0.365,-6.935],[0.344,-7.048],[0.344,-7.09],[0.358,-7.111],[0.365,-7.118],[0.253,-7.181],[0.239,-7.146],[0.246,-7.02],[0.232,-6.942],[0.204,-6.851],[0.162,-6.816],[0.176,-6.668],[0.169,-6.562]]]]},"properties":{"abbr":"IPL","name":"interpeduncular nucleus, lateral subnucleus","plate":37,"ap_bregma_mm":-4.8,"area_mm2":0.0794,"traced_fraction":[0.981],"n_labels":1,"no_drawn_outline":false}},{"type":"Feature","geometry":{"type":"MultiPolygon","coordinates":[[[[-0.21,-6.562],[-0.139,-6.576],[-0.062,-6.619],[0.001,-6.619],[0.05,-6.583],[0.141,-6.562],[0.169,-6.562],[0.176,-6.668],[0.162,-6.816],[0.071,-6.907],[-0.069,-6.907],[-0.153,-6.872],[-0.21,-6.83],[-0.21,-6.787],[-0.238,-6.724],[-0.238,-6.583],[-0.21,-6.562]]]]},"properties":{"abbr":"IPR","name":"interpeduncular nucleus, rostral subnucleus","plate":37,"ap_bregma_mm":-4.8,"area_mm2":0.1169,"traced_fraction":[0.98],"n_labels":1,"no_drawn_outline":false}},{"type":"Feature","geometry":{"type":"MultiPolygon","coordinates":[[[[-0.932,-4.291],[-0.854,-4.312],[-0.854,-4.333],[-0.77,-4.417],[-0.616,-4.516],[-0.588,-4.572],[-0.546,-4.614],[-0.497,-4.741],[-0.651,-4.769],[-0.735,-4.762],[-0.784,-4.748],[-0.876,-4.677],[-0.925,-4.6],[-0.953,-4.509],[-0.953,-4.368],[-0.932,-4.291]]],[[[0.828,-4.375],[0.87,-4.396],[0.891,-4.473],[0.898,-4.579],[0.87,-4.663],[0.828,-4.713],[0.751,-4.755],[0.674,-4.776],[0.485,-4.769],[0.506,-4.727],[0.576,-4.656],[0.639,-4.551],[0.702,-4.495],[0.814,-4.375],[0.828,-4.375]]]]},"properties":{"abbr":"InC","name":"interstitial nucleus of Cajal","plate":37,"ap_bregma_mm":-4.8,"area_mm2":0.2124,"traced_fraction":[1.0,1.0],"n_labels":2,"no_drawn_outline":false}},{"type":"Feature","geometry":{"type":"MultiPolygon","coordinates":[[[[2.651,-3.313],[2.665,-3.313],[2.679,-3.341],[2.721,-3.559],[2.721,-3.594],[2.7,-3.644],[2.609,-3.742],[2.539,-3.693],[2.441,-3.594],[2.441,-3.58],[2.237,-3.39],[2.237,-3.376],[2.034,-3.158],[1.971,-3.053],[1.824,-2.905],[1.578,-2.722],[1.536,-2.673],[1.487,-2.666],[1.459,-2.631],[1.368,-2.575],[1.088,-2.434],[0.919,-2.392],[0.772,-2.392],[0.695,-2.406],[0.576,-2.469],[0.288,-2.764],[0.19,-2.835],[0.057,-2.884],[-0.083,-2.891],[-0.238,-2.87],[-0.392,-2.814],[-0.665,-2.567],[-0.791,-2.476],[-0.876,-2.434],[-1.135,-2.427],[-1.212,-2.441],[-1.219,-2.258],[-1.058,-2.223],[-0.904,-2.209],[-0.735,-2.209],[-0.609,-2.237],[-0.56,-2.265],[-0.504,-2.328],[-0.441,-2.455],[-0.406,-2.56],[-0.329,-2.694],[-0.259,-2.75],[-0.167,-2.75],[-0.139,-2.729],[-0.125,-2.722],[-0.048,-2.736],[0.029,-2.722],[0.05,-2.722],[0.05,-2.736],[0.078,-2.75],[0.148,-2.75],[0.19,-2.736],[0.253,-2.68],[0.302,-2.596],[0.344,-2.399],[0.373,-2.328],[0.478,-2.237],[0.646,-2.188],[0.926,-2.188],[1.011,-2.202],[1.228,-2.258],[1.333,-2.3],[1.635,-2.476],[1.894,-2.68],[2.048,-2.835],[2.202,-3.074],[2.343,-3.229],[2.553,-3.32],[2.651,-3.313]]]]},"properties":{"abbr":"InG","name":"intermediate gray layer of the superior colliculus","plate":37,"ap_bregma_mm":-4.8,"area_mm2":0.9848,"traced_fraction":[0.978],"n_labels":2,"no_drawn_outline":false}},{"type":"Feature","geometry":{"type":"MultiPolygon","coordinates":[[[[-1.219,-2.258],[-1.212,-2.441],[-1.135,-2.427],[-0.876,-2.434],[-0.791,-2.476],[-0.665,-2.567],[-0.392,-2.814],[-0.294,-2.856],[-0.083,-2.891],[0.057,-2.884],[0.19,-2.835],[0.288,-2.764],[0.576,-2.469],[0.695,-2.406],[0.772,-2.392],[0.919,-2.392],[1.088,-2.434],[1.368,-2.575],[1.459,-2.631],[1.487,-2.666],[1.536,-2.673],[1.578,-2.722],[1.824,-2.905],[1.971,-3.053],[2.034,-3.158],[2.237,-3.376],[2.237,-3.39],[2.336,-3.489],[2.35,-3.489],[2.539,-3.693],[2.609,-3.742],[2.609,-3.763],[2.567,-3.833],[2.567,-3.862],[2.546,-3.876],[2.525,-3.876],[2.427,-3.981],[2.427,-3.995],[2.273,-4.136],[2.146,-4.227],[2.041,-4.27],[1.908,-4.143],[1.859,-4.066],[1.789,-3.918],[1.74,-3.735],[1.606,-3.383],[1.48,-3.116],[1.354,-2.919],[1.214,-2.778],[1.053,-2.673],[0.912,-2.645],[0.779,-2.645],[0.639,-2.701],[0.337,-2.94],[0.239,-2.989],[0.12,-3.018],[-0.132,-3.011],[-0.343,-2.968],[-0.455,-2.926],[-0.707,-2.792],[-0.911,-2.729],[-1.107,-2.729],[-1.261,-2.785],[-1.352,-2.849],[-1.479,-2.975],[-1.605,-3.158],[-1.675,-3.313],[-1.759,-3.594],[-1.843,-3.805],[-1.969,-4.044],[-2.004,-4.08],[-2.011,-4.108],[-2.096,-4.227],[-2.11,-4.277],[-2.313,-4.185],[-2.467,-4.066],[-2.495,-4.066],[-2.502,-3.939],[-2.523,-3.862],[-2.586,-3.756],[-2.663,-3.672],[-2.748,-3.573],[-2.72,-3.538],[-2.685,-3.44],[-2.691,-3.299],[-2.614,-3.285],[-2.565,-3.285],[-2.495,-3.257],[-2.425,-3.179],[-2.362,-3.067],[-2.194,-2.849],[-2.068,-2.729],[-1.878,-2.596],[-1.766,-2.497],[-1.5,-2.342],[-1.303,-2.272],[-1.219,-2.258]]]]},"properties":{"abbr":"InWh","name":"intermediate white layer of the superior colliculus","plate":37,"ap_bregma_mm":-4.8,"area_mm2":2.8844,"traced_fraction":[0.985],"n_labels":2,"no_drawn_outline":false}},{"type":"Feature","geometry":{"type":"MultiPolygon","coordinates":[[[[-5.776,-4.698],[-5.721,-4.994],[-5.643,-5.254],[-5.552,-5.472],[-5.454,-5.662],[-5.37,-5.761],[-5.23,-5.873],[-5.096,-5.943],[-4.963,-5.986],[-5.033,-6.07],[-5.202,-6.19],[-5.328,-6.316],[-5.377,-6.38],[-5.426,-6.401],[-5.531,-6.506],[-5.545,-6.506],[-5.671,-6.633],[-5.678,-6.668],[-5.868,-6.626],[-6.05,-6.506],[-6.183,-6.365],[-6.218,-6.302],[-6.295,-6.218],[-6.393,-6.056],[-6.414,-6.042],[-6.513,-5.894],[-6.562,-5.796],[-6.569,-5.753],[-6.562,-5.69],[-6.499,-5.627],[-6.485,-5.627],[-6.422,-5.55],[-6.414,-5.55],[-6.351,-5.521],[-6.267,-5.458],[-6.071,-5.261],[-6.001,-5.149],[-5.854,-4.783],[-5.812,-4.72],[-5.776,-4.698]]],[[[5.771,-4.706],[5.792,-4.713],[5.89,-4.853],[6.157,-5.339],[6.269,-5.718],[6.318,-5.775],[6.367,-5.782],[6.402,-6.176],[6.402,-6.527],[6.367,-6.766],[6.325,-6.907],[6.29,-6.977],[6.276,-6.977],[6.255,-7.034],[6.157,-7.132],[5.954,-7.266],[5.848,-7.252],[5.708,-7.153],[5.568,-7.055],[5.575,-6.984],[5.512,-6.759],[5.414,-6.583],[5.189,-6.302],[5.147,-6.218],[5.14,-6.154],[5.323,-6.084],[5.428,-6.0],[5.512,-5.852],[5.582,-5.641],[5.596,-5.627],[5.624,-5.627],[5.624,-5.493],[5.708,-5.106],[5.743,-4.811],[5.771,-4.706]]]]},"properties":{"abbr":"LEnt","name":"lateral entorhinal cortex","plate":37,"ap_bregma_mm":-4.8,"area_mm2":3.1671,"traced_fraction":[1.0,0.98],"n_labels":2,"no_drawn_outline":false}},{"type":"Feature","geometry":{"type":"MultiPolygon","coordinates":[[[[-1.114,-3.644],[-0.728,-3.855],[-0.385,-3.96],[-0.231,-3.96],[-0.146,-4.023],[-0.034,-4.136],[-0.013,-4.185],[-0.146,-4.22],[-0.686,-4.248],[-0.799,-4.277],[-0.854,-4.312],[-0.932,-4.291],[-0.939,-4.284],[-0.946,-4.255],[-1.016,-4.192],[-1.037,-4.143],[-1.058,-4.129],[-1.114,-4.002],[-1.128,-3.911],[-1.114,-3.644]]],[[[1.06,-3.651],[1.109,-3.883],[1.095,-4.051],[1.032,-4.171],[0.919,-4.277],[0.863,-4.312],[0.828,-4.284],[0.709,-4.255],[0.099,-4.213],[0.022,-4.185],[0.064,-4.115],[0.239,-3.939],[0.457,-3.918],[0.702,-3.84],[0.933,-3.735],[1.011,-3.686],[1.032,-3.658],[1.06,-3.651]]]]},"properties":{"abbr":"LPAG","name":"lateral periaqueductal gray","plate":37,"ap_bregma_mm":-4.8,"area_mm2":0.7608,"traced_fraction":[1.0,1.0],"n_labels":2,"no_drawn_outline":false}},{"type":"Feature","geometry":{"type":"MultiPolygon","coordinates":[[[[5.14,-6.154],[5.147,-6.218],[5.189,-6.302],[5.414,-6.583],[5.512,-6.759],[5.575,-6.984],[5.568,-7.055],[5.372,-6.949],[5.126,-6.893],[4.895,-6.914],[4.748,-6.998],[4.621,-7.055],[4.593,-7.055],[4.586,-6.977],[4.621,-6.759],[4.649,-6.668],[4.706,-6.555],[4.846,-6.358],[4.902,-6.225],[4.902,-6.19],[5.14,-6.154]]]]},"properties":{"abbr":"MEnt","name":"medial entorhinal cortex","plate":37,"ap_bregma_mm":-4.8,"area_mm2":0.5073,"traced_fraction":[1.0],"n_labels":1,"no_drawn_outline":false}},{"type":"Feature","geometry":{"type":"MultiPolygon","coordinates":[[[[4.348,-3.186],[4.516,-3.186],[4.586,-3.2],[4.691,-3.243],[4.776,-3.32],[4.867,-3.461],[4.993,-3.7],[5.049,-3.833],[5.119,-4.08],[5.147,-4.255],[5.147,-4.459],[5.098,-4.755],[5.035,-5.001],[4.951,-5.219],[4.874,-5.275],[4.776,-5.303],[4.691,-5.275],[4.621,-5.212],[4.537,-5.163],[4.439,-5.163],[4.145,-5.261],[4.089,-5.261],[4.299,-4.846],[4.306,-4.832],[4.313,-4.811],[4.313,-4.825],[4.32,-4.811],[4.313,-4.811],[4.334,-4.769],[4.369,-4.685],[4.39,-4.495],[4.327,-4.248],[4.201,-4.016],[3.906,-3.58],[4.131,-3.404],[4.215,-3.355],[4.348,-3.186]]],[[[-4.213,-3.229],[-4.129,-3.306],[-4.073,-3.397],[-3.982,-3.489],[-3.834,-3.587],[-4.108,-3.932],[-4.346,-4.185],[-4.423,-4.298],[-4.465,-4.396],[-4.451,-4.466],[-4.43,-4.487],[-4.437,-4.495],[-4.423,-4.495],[-4.367,-4.558],[-4.115,-4.832],[-4.031,-4.959],[-4.003,-4.973],[-3.897,-5.113],[-3.862,-5.184],[-4.22,-5.184],[-4.297,-5.198],[-4.395,-5.24],[-4.486,-5.325],[-4.5,-5.36],[-4.5,-5.437],[-4.465,-5.521],[-4.571,-5.479],[-4.683,-5.409],[-4.802,-5.289],[-4.935,-5.078],[-5.019,-4.86],[-5.061,-4.685],[-5.103,-4.333],[-5.096,-4.157],[-5.061,-4.023],[-4.963,-3.798],[-4.879,-3.672],[-4.816,-3.608],[-4.788,-3.559],[-4.697,-3.475],[-4.697,-3.461],[-4.55,-3.32],[-4.473,-3.271],[-4.353,-3.236],[-4.213,-3.229]]]]},"properties":{"abbr":"MoS","name":"molecular layer of the subiculum","plate":37,"ap_bregma_mm":-4.8,"area_mm2":3.3097,"traced_fraction":[1.0,1.0],"n_labels":4,"no_drawn_outline":false}},{"type":"Feature","geometry":{"type":"MultiPolygon","coordinates":[[[[-0.139,-2.729],[-0.167,-2.75],[-0.259,-2.75],[-0.329,-2.694],[-0.406,-2.56],[-0.441,-2.455],[-0.504,-2.328],[-0.56,-2.265],[-0.609,-2.237],[-0.735,-2.209],[-0.904,-2.209],[-1.058,-2.223],[-1.219,-2.258],[-1.303,-2.272],[-1.5,-2.342],[-1.766,-2.497],[-1.878,-2.596],[-2.068,-2.729],[-2.194,-2.849],[-2.362,-3.067],[-2.425,-3.179],[-2.495,-3.257],[-2.565,-3.285],[-2.614,-3.285],[-2.614,-3.2],[-2.572,-3.151],[-2.551,-2.933],[-2.488,-2.792],[-2.362,-2.631],[-2.11,-2.392],[-1.829,-2.195],[-1.507,-2.026],[-1.268,-1.949],[-1.058,-1.899],[-0.841,-1.871],[-0.679,-1.878],[-0.553,-1.906],[-0.448,-1.97],[-0.364,-2.054],[-0.315,-2.145],[-0.28,-2.265],[-0.238,-2.596],[-0.202,-2.673],[-0.139,-2.729]]],[[[2.616,-3.257],[2.651,-3.313],[2.553,-3.32],[2.343,-3.229],[2.244,-3.13],[2.048,-2.835],[1.894,-2.68],[1.635,-2.476],[1.333,-2.3],[1.228,-2.258],[1.011,-2.202],[0.926,-2.188],[0.646,-2.188],[0.478,-2.237],[0.373,-2.328],[0.344,-2.399],[0.302,-2.596],[0.253,-2.68],[0.211,-2.722],[0.148,-2.75],[0.078,-2.75],[0.05,-2.736],[0.05,-2.722],[0.085,-2.687],[0.113,-2.603],[0.127,-2.258],[0.141,-2.181],[0.19,-2.089],[0.281,-1.998],[0.379,-1.941],[0.555,-1.885],[0.947,-1.885],[1.109,-1.934],[1.578,-2.152],[1.796,-2.279],[1.908,-2.363],[1.971,-2.392],[2.167,-2.532],[2.294,-2.659],[2.35,-2.736],[2.448,-2.961],[2.497,-3.158],[2.574,-3.243],[2.616,-3.257]]]]},"properties":{"abbr":"Op","name":"optic nerve layer of the superior colliculus","plate":37,"ap_bregma_mm":-4.8,"area_mm2":1.7423,"traced_fraction":[1.0,1.0],"n_labels":2,"no_drawn_outline":false}},{"type":"Feature","geometry":{"type":"MultiPolygon","coordinates":[[[[-1.044,-6.063],[-1.023,-6.063],[-0.869,-6.154],[-0.763,-6.168],[-0.763,-6.183],[-0.763,-6.316],[-0.791,-6.316],[-0.791,-6.478],[-0.967,-6.358],[-1.121,-6.225],[-1.114,-6.154],[-1.044,-6.063]]],[[[1.102,-6.091],[1.158,-6.168],[1.172,-6.246],[1.193,-6.267],[1.116,-6.309],[1.102,-6.33],[1.038,-6.351],[1.011,-6.387],[0.821,-6.485],[0.814,-6.161],[1.102,-6.091]]]]},"properties":{"abbr":"PBP","name":"parabrachial pigmented nucleus of the ventral tegmental area","plate":37,"ap_bregma_mm":-4.8,"area_mm2":0.1745,"traced_fraction":[0.769,0.785],"n_labels":2,"no_drawn_outline":false}},{"type":"Feature","geometry":{"type":"MultiPolygon","coordinates":[[[[-0.146,-6.302],[-0.013,-6.302],[-0.006,-6.38],[-0.09,-6.38],[-0.132,-6.393],[-0.21,-6.471],[-0.259,-6.492],[-0.308,-6.548],[-0.322,-6.548],[-0.378,-6.64],[-0.392,-6.64],[-0.455,-6.71],[-0.574,-6.907],[-0.609,-6.928],[-0.616,-6.766],[-0.651,-6.738],[-0.63,-6.668],[-0.63,-6.59],[-0.658,-6.548],[-0.581,-6.464],[-0.469,-6.393],[-0.265,-6.323],[-0.146,-6.302]]]]},"properties":{"abbr":"PIF","name":"parainterfascicular nucleus of the ventral tegmental area","plate":37,"ap_bregma_mm":-4.8,"area_mm2":0.1454,"traced_fraction":[0.965],"n_labels":1,"no_drawn_outline":false}},{"type":"Feature","geometry":{"type":"MultiPolygon","coordinates":[[[[-0.21,-6.471],[-0.21,-6.562],[-0.238,-6.583],[-0.336,-6.619],[-0.371,-6.654],[-0.413,-6.752],[-0.434,-6.844],[-0.434,-7.041],[-0.42,-7.139],[-0.581,-7.104],[-0.672,-7.111],[-0.686,-7.097],[-0.679,-7.076],[-0.672,-7.062],[-0.651,-7.048],[-0.623,-6.991],[-0.609,-6.928],[-0.574,-6.907],[-0.455,-6.71],[-0.392,-6.64],[-0.378,-6.64],[-0.322,-6.548],[-0.308,-6.548],[-0.259,-6.492],[-0.21,-6.471]]]]},"properties":{"abbr":"PN","name":"paranigral nucleus of the ventral tegmental area","plate":37,"ap_bregma_mm":-4.8,"area_mm2":0.0761,"traced_fraction":[1.0],"n_labels":1,"no_drawn_outline":false}},{"type":"Feature","geometry":{"type":"MultiPolygon","coordinates":[[[[5.806,-4.354],[5.855,-4.375],[5.968,-4.495],[5.982,-4.495],[6.115,-4.621],[6.339,-4.769],[6.732,-4.973],[6.956,-5.043],[6.893,-5.184],[6.718,-5.367],[6.528,-5.479],[6.402,-5.514],[6.381,-5.514],[6.374,-5.536],[6.36,-5.634],[6.367,-5.782],[6.318,-5.775],[6.269,-5.718],[6.157,-5.339],[5.89,-4.853],[5.792,-4.713],[5.771,-4.706],[5.785,-4.466],[5.806,-4.354]]],[[[-5.798,-4.516],[-5.776,-4.621],[-5.776,-4.698],[-5.812,-4.72],[-5.854,-4.783],[-6.001,-5.149],[-6.071,-5.261],[-6.267,-5.458],[-6.351,-5.521],[-6.414,-5.55],[-6.422,-5.55],[-6.414,-5.521],[-6.436,-5.458],[-6.45,-5.416],[-6.492,-5.388],[-6.646,-5.423],[-6.758,-5.402],[-6.8,-5.381],[-6.898,-5.275],[-6.997,-5.064],[-6.632,-4.931],[-6.436,-4.839],[-6.225,-4.769],[-6.036,-4.67],[-5.847,-4.53],[-5.798,-4.516]]]]},"properties":{"abbr":"PRh","name":"perirhinal cortex","plate":37,"ap_bregma_mm":-4.8,"area_mm2":1.2122,"traced_fraction":[1.0,1.0],"n_labels":2,"no_drawn_outline":false}},{"type":"Feature","geometry":{"type":"MultiPolygon","coordinates":[[[[-0.799,-5.5],[-0.925,-5.578],[-1.023,-5.62],[-1.051,-5.648],[-1.135,-5.683],[-1.17,-5.662],[-1.303,-5.627],[-1.387,-5.585],[-1.437,-5.542],[-1.464,-5.514],[-1.486,-5.444],[-1.492,-5.325],[-1.479,-5.282],[-1.437,-5.233],[-1.352,-5.198],[-1.233,-5.198],[-1.065,-5.282],[-0.876,-5.409],[-0.799,-5.5]]],[[[1.712,-5.599],[1.698,-5.599],[1.705,-5.648],[1.67,-5.718],[1.606,-5.761],[1.508,-5.789],[1.2,-5.796],[1.095,-5.711],[1.074,-5.676],[0.968,-5.578],[0.968,-5.564],[1.067,-5.486],[1.207,-5.416],[1.305,-5.388],[1.417,-5.381],[1.557,-5.416],[1.705,-5.564],[1.712,-5.599]]]]},"properties":{"abbr":"PaR","name":"pararubral nucleus","plate":37,"ap_bregma_mm":-4.8,"area_mm2":0.444,"traced_fraction":[1.0,0.936],"n_labels":2,"no_drawn_outline":false}},{"type":"Feature","geometry":{"type":"MultiPolygon","coordinates":[[[[3.843,-5.831],[3.934,-5.845],[4.068,-5.894],[4.222,-5.929],[4.376,-5.943],[4.453,-5.965],[4.649,-5.957],[4.762,-5.979],[4.923,-5.965],[5.056,-5.929],[5.161,-5.873],[5.203,-5.873],[5.196,-5.901],[5.119,-5.979],[5.056,-6.014],[4.979,-6.035],[4.776,-6.042],[4.712,-6.056],[4.607,-6.105],[4.586,-6.154],[4.467,-6.168],[4.376,-6.267],[4.18,-6.365],[3.983,-6.393],[3.738,-6.372],[3.752,-6.183],[3.843,-5.831]]]]},"properties":{"abbr":"PaS","name":"parasubiculum","plate":37,"ap_bregma_mm":-4.8,"area_mm2":0.3812,"traced_fraction":[1.0],"n_labels":1,"no_drawn_outline":false}},{"type":"Feature","geometry":{"type":"MultiPolygon","coordinates":[[[[-2.72,-1.681],[-2.516,-1.913],[-2.706,-2.103],[-2.748,-2.188],[-2.762,-2.188],[-2.769,-2.216],[-2.797,-2.244],[-2.972,-2.603],[-3.021,-2.659],[-3.063,-2.736],[-3.084,-2.743],[-3.147,-2.849],[-3.834,-3.587],[-3.982,-3.489],[-4.073,-3.397],[-4.129,-3.306],[-4.213,-3.229],[-4.206,-3.215],[-4.052,-3.144],[-3.912,-3.004],[-3.673,-2.856],[-3.47,-2.673],[-3.421,-2.596],[-3.428,-2.532],[-3.477,-2.49],[-3.554,-2.483],[-3.638,-2.504],[-3.862,-2.518],[-4.024,-2.518],[-4.101,-2.504],[-4.087,-2.483],[-4.038,-2.462],[-3.806,-2.406],[-3.54,-2.279],[-3.526,-2.258],[-2.993,-1.913],[-2.79,-1.723],[-2.72,-1.681]]],[[[2.686,-1.702],[2.981,-1.885],[3.745,-2.293],[3.927,-2.335],[4.081,-2.335],[4.166,-2.356],[4.131,-2.406],[4.068,-2.427],[3.941,-2.455],[3.78,-2.469],[3.717,-2.49],[3.661,-2.553],[3.661,-2.631],[3.724,-2.715],[4.117,-2.982],[4.173,-3.046],[4.285,-3.116],[4.348,-3.186],[4.215,-3.355],[4.131,-3.404],[3.906,-3.58],[3.794,-3.432],[3.675,-3.32],[3.619,-3.243],[3.205,-2.842],[3.072,-2.659],[3.023,-2.617],[2.918,-2.469],[2.89,-2.448],[2.728,-2.209],[2.623,-2.096],[2.63,-2.089],[2.616,-2.075],[2.609,-2.082],[2.532,-1.991],[2.483,-1.963],[2.462,-1.949],[2.441,-1.934],[2.427,-1.927],[2.434,-1.92],[2.434,-1.906],[2.532,-1.808],[2.665,-1.73],[2.686,-1.702]]]]},"properties":{"abbr":"Post","name":"postsubiculum","plate":37,"ap_bregma_mm":-4.8,"area_mm2":2.2548,"traced_fraction":[1.0,1.0],"n_labels":2,"no_drawn_outline":false}},{"type":"Feature","geometry":{"type":"MultiPolygon","coordinates":[[[[4.776,-5.303],[4.762,-5.339],[4.621,-5.486],[4.579,-5.564],[4.551,-5.655],[4.551,-5.824],[4.579,-5.887],[4.649,-5.957],[4.453,-5.965],[4.376,-5.943],[4.222,-5.929],[4.068,-5.894],[3.934,-5.845],[3.843,-5.831],[3.962,-5.486],[4.089,-5.261],[4.145,-5.261],[4.439,-5.163],[4.537,-5.163],[4.621,-5.212],[4.691,-5.275],[4.776,-5.303]]],[[[-3.862,-5.184],[-3.82,-5.24],[-3.75,-5.388],[-3.75,-5.542],[-3.764,-5.571],[-3.855,-5.648],[-4.031,-5.746],[-4.185,-5.866],[-4.227,-5.761],[-4.29,-5.662],[-4.353,-5.599],[-4.451,-5.542],[-4.465,-5.521],[-4.5,-5.437],[-4.5,-5.36],[-4.486,-5.325],[-4.395,-5.24],[-4.297,-5.198],[-4.22,-5.184],[-3.862,-5.184]]]]},"properties":{"abbr":"PrS","name":"presubiculum","plate":37,"ap_bregma_mm":-4.8,"area_mm2":0.8222,"traced_fraction":[1.0,1.0],"n_labels":2,"no_drawn_outline":false}},{"type":"Feature","geometry":{"type":"MultiPolygon","coordinates":[[[[0.968,-5.564],[0.968,-5.578],[1.074,-5.676],[1.074,-5.69],[1.186,-5.796],[1.2,-5.796],[1.2,-5.817],[1.249,-5.901],[1.249,-5.965],[1.179,-6.049],[1.102,-6.091],[0.814,-6.161],[0.709,-6.176],[0.583,-6.168],[0.457,-6.133],[0.394,-6.098],[0.33,-6.035],[0.281,-5.95],[0.232,-5.753],[0.232,-5.585],[0.26,-5.514],[0.302,-5.472],[0.471,-5.402],[0.569,-5.388],[0.688,-5.395],[0.786,-5.43],[0.933,-5.55],[0.968,-5.564]]],[[[-0.42,-5.458],[-0.301,-5.634],[-0.28,-5.725],[-0.28,-5.796],[-0.315,-5.972],[-0.343,-6.035],[-0.406,-6.098],[-0.532,-6.154],[-0.763,-6.183],[-0.763,-6.168],[-0.869,-6.154],[-1.023,-6.063],[-1.044,-6.063],[-1.163,-5.929],[-1.205,-5.852],[-1.198,-5.746],[-1.135,-5.683],[-1.051,-5.648],[-1.023,-5.62],[-0.925,-5.578],[-0.799,-5.5],[-0.574,-5.402],[-0.497,-5.409],[-0.42,-5.458]]]]},"properties":{"abbr":"RMC","name":"red nucleus, magnocellular part","plate":37,"ap_bregma_mm":-4.8,"area_mm2":1.1054,"traced_fraction":[1.0,1.0],"n_labels":2,"no_drawn_outline":false}},{"type":"Feature","geometry":{"type":"MultiPolygon","coordinates":[[[[-1.437,-5.542],[-1.387,-5.585],[-1.303,-5.627],[-1.212,-5.648],[-1.135,-5.683],[-1.198,-5.746],[-1.205,-5.852],[-1.163,-5.929],[-1.044,-6.063],[-1.114,-6.154],[-1.121,-6.225],[-1.184,-6.218],[-1.254,-6.239],[-1.303,-6.302],[-1.296,-6.387],[-1.317,-6.387],[-1.422,-6.281],[-1.464,-6.218],[-1.731,-5.965],[-1.731,-5.95],[-1.689,-5.908],[-1.654,-5.824],[-1.605,-5.824],[-1.605,-5.732],[-1.584,-5.718],[-1.584,-5.683],[-1.437,-5.542]]],[[[1.67,-5.718],[1.789,-5.831],[1.789,-5.852],[1.88,-5.943],[1.894,-5.943],[1.48,-6.309],[1.396,-6.358],[1.389,-6.253],[1.354,-6.225],[1.298,-6.225],[1.193,-6.267],[1.172,-6.246],[1.158,-6.168],[1.102,-6.091],[1.179,-6.049],[1.249,-5.965],[1.249,-5.901],[1.2,-5.817],[1.2,-5.796],[1.508,-5.789],[1.606,-5.761],[1.67,-5.718]]]]},"properties":{"abbr":"RRF","name":"retrorubral field","plate":37,"ap_bregma_mm":-4.8,"area_mm2":0.5777,"traced_fraction":[0.791,0.896],"n_labels":2,"no_drawn_outline":false}},{"type":"Feature","geometry":{"type":"MultiPolygon","coordinates":[[[[-1.689,-0.352],[-1.464,-0.352],[-1.198,-0.387],[-1.009,-0.443],[-0.897,-0.507],[-0.897,-0.528],[-0.988,-0.612],[-1.198,-0.753],[-1.577,-0.95],[-1.99,-1.119],[-2.032,-1.112],[-2.032,-1.083],[-1.899,-0.936],[-1.808,-0.774],[-1.703,-0.457],[-1.689,-0.352]]],[[[1.572,-0.359],[1.572,-0.422],[1.635,-0.612],[1.761,-0.844],[1.859,-0.957],[2.09,-1.119],[2.125,-1.161],[2.09,-1.196],[1.663,-1.02],[1.326,-0.844],[1.074,-0.675],[0.947,-0.556],[0.933,-0.556],[0.87,-0.493],[0.849,-0.45],[0.891,-0.422],[1.102,-0.366],[1.249,-0.352],[1.572,-0.359]]]]},"properties":{"abbr":"RSD","name":"retrosplenial dysgranular cortex","plate":37,"ap_bregma_mm":-4.8,"area_mm2":0.7879,"traced_fraction":[1.0,1.0],"n_labels":2,"no_drawn_outline":false}},{"type":"Feature","geometry":{"type":"MultiPolygon","coordinates":[[[[-2.081,-1.238],[-2.068,-1.252],[-1.955,-1.252],[-1.892,-1.266],[-1.752,-1.322],[-1.696,-1.358],[-1.619,-1.435],[-1.584,-1.505],[-1.913,-1.604],[-2.096,-1.681],[-2.131,-1.695],[-2.257,-1.752],[-2.397,-1.843],[-2.411,-1.85],[-2.516,-1.913],[-2.72,-1.681],[-2.72,-1.667],[-2.706,-1.667],[-2.607,-1.569],[-2.383,-1.393],[-2.229,-1.309],[-2.18,-1.266],[-2.081,-1.238]]],[[[2.265,-1.365],[2.322,-1.379],[2.399,-1.421],[2.602,-1.576],[2.686,-1.702],[2.665,-1.73],[2.532,-1.808],[2.434,-1.906],[2.434,-1.92],[2.42,-1.92],[2.406,-1.913],[2.413,-1.906],[2.399,-1.906],[2.385,-1.899],[2.371,-1.892],[2.35,-1.878],[2.252,-1.815],[2.027,-1.709],[1.761,-1.583],[1.389,-1.449],[1.396,-1.428],[1.459,-1.386],[1.627,-1.322],[1.859,-1.316],[2.146,-1.372],[2.265,-1.365]]]]},"properties":{"abbr":"RSGa","name":"retrosplenial granular cortex, a region","plate":37,"ap_bregma_mm":-4.8,"area_mm2":0.7514,"traced_fraction":[1.0,1.0],"n_labels":2,"no_drawn_outline":false}},{"type":"Feature","geometry":{"type":"MultiPolygon","coordinates":[[[[0.849,-0.45],[0.87,-0.493],[1.074,-0.675],[1.326,-0.844],[1.663,-1.02],[2.09,-1.196],[2.104,-1.238],[2.139,-1.28],[2.21,-1.316],[2.265,-1.365],[2.146,-1.372],[1.859,-1.316],[1.627,-1.322],[1.459,-1.386],[1.396,-1.428],[1.389,-1.449],[1.004,-1.358],[0.842,-1.294],[0.702,-1.203],[0.681,-1.168],[0.632,-1.133],[0.604,-1.069],[0.555,-1.006],[0.52,-0.901],[0.52,-0.788],[0.569,-0.654],[0.695,-0.521],[0.849,-0.45]]],[[[-0.897,-0.507],[-0.812,-0.556],[-0.714,-0.654],[-0.651,-0.767],[-0.616,-0.908],[-0.616,-1.112],[-0.63,-1.203],[-0.651,-1.238],[-0.77,-1.316],[-0.939,-1.372],[-1.584,-1.505],[-1.619,-1.435],[-1.696,-1.358],[-1.752,-1.322],[-1.892,-1.266],[-1.955,-1.252],[-2.068,-1.252],[-2.081,-1.238],[-2.081,-1.224],[-1.997,-1.161],[-1.99,-1.119],[-1.577,-0.95],[-1.198,-0.753],[-0.988,-0.612],[-0.897,-0.528],[-0.897,-0.507]]]]},"properties":{"abbr":"RSGb","name":"retrosplenial granular cortex, b region","plate":37,"ap_bregma_mm":-4.8,"area_mm2":1.5573,"traced_fraction":[1.0,1.0],"n_labels":2,"no_drawn_outline":false}},{"type":"Feature","geometry":{"type":"MultiPolygon","coordinates":[[[[-1.731,-5.95],[-1.731,-5.965],[-1.464,-6.218],[-1.422,-6.281],[-1.317,-6.387],[-1.296,-6.387],[-1.205,-6.52],[-1.121,-6.612],[-1.107,-6.612],[-1.107,-6.626],[-1.016,-6.71],[-0.869,-6.794],[-0.756,-6.801],[-0.714,-6.787],[-0.651,-6.738],[-0.616,-6.766],[-0.609,-6.928],[-0.623,-6.991],[-0.651,-7.048],[-0.672,-7.062],[-0.686,-7.012],[-0.735,-6.977],[-0.96,-6.963],[-1.037,-6.942],[-1.149,-6.886],[-1.275,-6.794],[-1.5,-6.548],[-1.689,-6.26],[-1.857,-6.098],[-1.913,-6.098],[-1.941,-6.119],[-2.068,-6.119],[-2.18,-6.084],[-2.25,-6.042],[-2.348,-5.922],[-2.383,-5.803],[-2.39,-5.725],[-2.341,-5.676],[-2.236,-5.634],[-2.18,-5.62],[-2.068,-5.627],[-1.745,-5.95],[-1.731,-5.95]]],[[[2.041,-5.803],[2.111,-5.803],[2.174,-5.831],[2.322,-5.979],[2.364,-6.056],[2.364,-6.112],[2.301,-6.19],[2.202,-6.239],[2.083,-6.239],[1.943,-6.197],[1.859,-6.204],[1.578,-6.492],[1.473,-6.654],[1.305,-6.816],[1.158,-6.914],[1.025,-6.977],[0.877,-7.012],[0.772,-7.02],[0.758,-7.034],[0.688,-7.048],[0.667,-7.076],[0.611,-7.041],[0.583,-7.041],[0.583,-6.984],[0.569,-6.963],[0.576,-6.914],[0.527,-6.914],[0.379,-6.675],[0.365,-6.675],[0.33,-6.626],[0.302,-6.619],[0.267,-6.583],[0.232,-6.52],[0.134,-6.464],[0.057,-6.387],[0.078,-6.33],[0.169,-6.344],[0.33,-6.401],[0.415,-6.45],[0.52,-6.52],[0.618,-6.626],[0.59,-6.689],[0.59,-6.738],[0.639,-6.808],[0.716,-6.837],[0.772,-6.844],[0.856,-6.823],[0.947,-6.773],[1.025,-6.71],[1.207,-6.59],[1.396,-6.358],[1.48,-6.309],[1.894,-5.943],[2.027,-5.803],[2.041,-5.803]]]]},"properties":{"abbr":"SNC","name":"substantia nigra, compact part","plate":37,"ap_bregma_mm":-4.8,"area_mm2":1.1793,"traced_fraction":[1.0,0.998],"n_labels":2,"no_drawn_outline":false}},{"type":"Feature","geometry":{"type":"MultiPolygon","coordinates":[[[[2.539,-6.042],[2.448,-6.401],[2.357,-6.569],[2.294,-6.64],[2.195,-6.717],[1.81,-6.963],[1.593,-7.062],[1.466,-7.104],[1.263,-7.146],[1.137,-7.146],[1.067,-7.132],[0.87,-7.076],[0.828,-7.076],[0.758,-7.048],[0.758,-7.034],[0.772,-7.02],[0.877,-7.012],[1.025,-6.977],[1.158,-6.914],[1.305,-6.816],[1.473,-6.654],[1.578,-6.492],[1.859,-6.204],[1.943,-6.197],[2.083,-6.239],[2.202,-6.239],[2.301,-6.19],[2.364,-6.112],[2.364,-6.056],[2.322,-5.979],[2.174,-5.831],[2.111,-5.803],[2.041,-5.803],[2.055,-5.761],[2.174,-5.648],[2.244,-5.641],[2.35,-5.669],[2.483,-5.796],[2.504,-5.859],[2.518,-5.993],[2.539,-6.042]]],[[[-2.39,-5.725],[-2.383,-5.803],[-2.348,-5.922],[-2.25,-6.042],[-2.18,-6.084],[-2.068,-6.119],[-1.941,-6.119],[-1.913,-6.098],[-1.857,-6.098],[-1.689,-6.26],[-1.5,-6.548],[-1.275,-6.794],[-1.149,-6.886],[-1.037,-6.942],[-0.96,-6.963],[-0.735,-6.977],[-0.686,-7.012],[-0.672,-7.062],[-0.679,-7.076],[-0.686,-7.097],[-0.7,-7.097],[-0.721,-7.076],[-0.911,-7.09],[-0.974,-7.076],[-1.254,-7.062],[-1.408,-7.034],[-1.492,-7.005],[-1.689,-6.907],[-1.885,-6.78],[-2.004,-6.682],[-2.089,-6.555],[-2.152,-6.499],[-2.348,-6.197],[-2.446,-5.979],[-2.474,-5.831],[-2.467,-5.796],[-2.411,-5.725],[-2.39,-5.725]]]]},"properties":{"abbr":"SNR","name":"substantia nigra, reticular part","plate":37,"ap_bregma_mm":-4.8,"area_mm2":1.4742,"traced_fraction":[1.0,1.0],"n_labels":2,"no_drawn_outline":false}},{"type":"Feature","geometry":{"type":"MultiPolygon","coordinates":[[[[4.166,-2.356],[4.32,-2.392],[4.537,-2.504],[4.727,-2.638],[4.979,-2.87],[4.979,-2.884],[5.063,-2.961],[5.063,-2.975],[5.168,-3.088],[5.344,-3.327],[5.505,-3.622],[5.582,-3.826],[5.638,-4.087],[5.645,-4.284],[5.638,-4.466],[5.575,-4.959],[5.498,-5.275],[5.4,-5.571],[5.301,-5.768],[5.203,-5.873],[5.161,-5.873],[5.056,-5.929],[4.923,-5.965],[4.762,-5.979],[4.649,-5.957],[4.579,-5.887],[4.551,-5.824],[4.551,-5.655],[4.579,-5.564],[4.621,-5.486],[4.762,-5.339],[4.776,-5.303],[4.874,-5.275],[4.951,-5.219],[5.035,-5.001],[5.098,-4.755],[5.147,-4.459],[5.147,-4.255],[5.119,-4.08],[5.077,-3.918],[4.993,-3.7],[4.867,-3.461],[4.776,-3.32],[4.691,-3.243],[4.586,-3.2],[4.516,-3.186],[4.348,-3.186],[4.285,-3.116],[4.173,-3.046],[4.117,-2.982],[3.724,-2.715],[3.661,-2.631],[3.661,-2.553],[3.717,-2.49],[3.78,-2.469],[3.941,-2.455],[4.068,-2.427],[4.131,-2.406],[4.166,-2.356]]],[[[-4.213,-3.229],[-4.353,-3.236],[-4.473,-3.271],[-4.55,-3.32],[-4.697,-3.461],[-4.697,-3.475],[-4.788,-3.559],[-4.816,-3.608],[-4.879,-3.672],[-4.963,-3.798],[-5.061,-4.023],[-5.096,-4.157],[-5.103,-4.333],[-5.061,-4.685],[-5.019,-4.86],[-4.935,-5.078],[-4.802,-5.289],[-4.683,-5.409],[-4.571,-5.479],[-4.465,-5.521],[-4.451,-5.542],[-4.353,-5.599],[-4.29,-5.662],[-4.227,-5.761],[-4.185,-5.866],[-4.339,-6.014],[-4.381,-6.021],[-4.465,-6.014],[-4.76,-5.922],[-4.872,-5.922],[-4.872,-5.901],[-4.9,-5.866],[-4.977,-5.838],[-5.096,-5.768],[-5.216,-5.662],[-5.356,-5.465],[-5.468,-5.233],[-5.559,-4.924],[-5.552,-4.881],[-5.566,-4.741],[-5.58,-4.713],[-5.58,-4.565],[-5.594,-4.509],[-5.587,-4.27],[-5.566,-4.108],[-5.531,-3.974],[-5.342,-3.601],[-4.942,-3.074],[-4.683,-2.821],[-4.402,-2.61],[-4.227,-2.525],[-4.101,-2.504],[-4.024,-2.518],[-3.862,-2.518],[-3.638,-2.504],[-3.554,-2.483],[-3.477,-2.49],[-3.428,-2.532],[-3.421,-2.596],[-3.47,-2.673],[-3.673,-2.856],[-3.912,-3.004],[-4.052,-3.144],[-4.206,-3.215],[-4.213,-3.229]]]]},"properties":{"abbr":"STr","name":"subiculum, transition area","plate":37,"ap_bregma_mm":-4.8,"area_mm2":4.6625,"traced_fraction":[1.0,1.0],"n_labels":2,"no_drawn_outline":false}},{"type":"Feature","geometry":{"type":"MultiPolygon","coordinates":[[[[0.639,-4.551],[0.576,-4.656],[0.506,-4.727],[0.485,-4.769],[0.45,-4.811],[0.436,-4.874],[0.407,-4.931],[0.373,-4.91],[0.337,-4.839],[0.295,-4.804],[0.204,-4.797],[0.141,-4.825],[0.078,-4.818],[0.043,-4.748],[0.022,-4.642],[0.008,-4.621],[-0.013,-4.621],[-0.048,-4.691],[-0.069,-4.832],[-0.104,-4.832],[-0.181,-4.797],[-0.244,-4.797],[-0.343,-4.881],[-0.378,-4.952],[-0.406,-4.924],[-0.42,-4.853],[-0.476,-4.755],[-0.497,-4.741],[-0.546,-4.614],[-0.455,-4.572],[-0.35,-4.544],[-0.048,-4.551],[-0.027,-4.558],[-0.013,-4.607],[0.015,-4.607],[0.036,-4.558],[0.05,-4.551],[0.092,-4.551],[0.232,-4.502],[0.436,-4.502],[0.639,-4.551]]]]},"properties":{"abbr":"Su3","name":"supraoculomotor periaqueductal gray","plate":37,"ap_bregma_mm":-4.8,"area_mm2":0.2927,"traced_fraction":[1.0],"n_labels":2,"no_drawn_outline":false}},{"type":"Feature","geometry":{"type":"MultiPolygon","coordinates":[[[[0.702,-4.495],[0.639,-4.551],[0.436,-4.502],[0.232,-4.502],[0.092,-4.551],[0.05,-4.551],[0.05,-4.53],[0.099,-4.473],[0.316,-4.396],[0.471,-4.396],[0.541,-4.41],[0.646,-4.452],[0.702,-4.495]]],[[[-0.048,-4.551],[-0.35,-4.544],[-0.455,-4.572],[-0.546,-4.614],[-0.588,-4.572],[-0.616,-4.516],[-0.511,-4.445],[-0.42,-4.417],[-0.301,-4.41],[-0.188,-4.431],[-0.097,-4.466],[-0.055,-4.509],[-0.048,-4.551]]]]},"properties":{"abbr":"Su3C","name":"supraoculomotor cap","plate":37,"ap_bregma_mm":-4.8,"area_mm2":0.125,"traced_fraction":[1.0,1.0],"n_labels":2,"no_drawn_outline":false}},{"type":"Feature","geometry":{"type":"MultiPolygon","coordinates":[[[[-0.125,-2.722],[-0.139,-2.729],[-0.202,-2.673],[-0.238,-2.596],[-0.28,-2.265],[-0.315,-2.145],[-0.364,-2.054],[-0.448,-1.97],[-0.553,-1.906],[-0.679,-1.878],[-0.841,-1.871],[-1.058,-1.899],[-1.268,-1.949],[-1.507,-2.026],[-1.829,-2.195],[-2.11,-2.392],[-2.362,-2.631],[-2.488,-2.792],[-2.551,-2.933],[-2.572,-3.151],[-2.614,-3.2],[-2.67,-3.004],[-2.67,-2.87],[-2.657,-2.807],[-2.579,-2.645],[-2.502,-2.546],[-2.481,-2.497],[-2.397,-2.392],[-2.327,-2.328],[-2.327,-2.314],[-2.102,-2.117],[-1.913,-1.991],[-1.479,-1.787],[-1.121,-1.681],[-0.833,-1.639],[-0.637,-1.653],[-0.413,-1.745],[-0.231,-1.885],[-0.153,-1.991],[-0.125,-2.082],[-0.125,-2.202],[-0.16,-2.392],[-0.16,-2.518],[-0.125,-2.722]]],[[[2.616,-3.257],[2.574,-3.243],[2.497,-3.158],[2.448,-2.961],[2.35,-2.736],[2.294,-2.659],[2.167,-2.532],[1.971,-2.392],[1.908,-2.363],[1.796,-2.279],[1.578,-2.152],[1.109,-1.934],[0.947,-1.885],[0.555,-1.885],[0.379,-1.941],[0.281,-1.998],[0.19,-2.089],[0.141,-2.181],[0.127,-2.258],[0.113,-2.603],[0.085,-2.687],[0.05,-2.722],[0.029,-2.722],[0.022,-2.652],[0.043,-2.553],[0.043,-2.356],[0.022,-2.223],[0.022,-2.089],[0.05,-2.005],[0.162,-1.878],[0.33,-1.752],[0.436,-1.702],[0.569,-1.667],[0.737,-1.646],[0.884,-1.646],[1.081,-1.681],[1.452,-1.794],[1.81,-1.963],[2.034,-2.103],[2.265,-2.293],[2.265,-2.307],[2.329,-2.363],[2.434,-2.497],[2.574,-2.807],[2.616,-2.933],[2.637,-3.053],[2.637,-3.151],[2.616,-3.257]]]]},"properties":{"abbr":"SuG","name":"superficial gray layer of the superior colliculus","plate":37,"ap_bregma_mm":-4.8,"area_mm2":1.4979,"traced_fraction":[1.0,1.0],"n_labels":2,"no_drawn_outline":false}},{"type":"Feature","geometry":{"type":"MultiPolygon","coordinates":[[[[-2.67,-4.825],[-2.558,-4.945],[-2.516,-4.966],[-2.481,-4.966],[-2.481,-5.121],[-2.965,-5.128],[-2.986,-5.071],[-3.007,-4.881],[-2.811,-4.881],[-2.734,-4.86],[-2.67,-4.825]]],[[[2.63,-4.917],[2.693,-4.973],[2.791,-5.001],[2.869,-4.987],[2.89,-4.966],[2.939,-4.966],[2.897,-5.128],[2.897,-5.219],[2.343,-5.219],[2.343,-5.071],[2.399,-5.071],[2.553,-4.994],[2.63,-4.917]]]]},"properties":{"abbr":"SubB","name":"subbrachial nucleus","plate":37,"ap_bregma_mm":-4.8,"area_mm2":0.2459,"traced_fraction":[0.458,0.412],"n_labels":2,"no_drawn_outline":true}},{"type":"Feature","geometry":{"type":"MultiPolygon","coordinates":[[[[-6.239,-2.504],[-6.225,-2.504],[-6.225,-2.518],[-5.84,-2.828],[-5.742,-2.926],[-5.671,-2.968],[-5.524,-3.109],[-5.405,-3.186],[-5.377,-3.222],[-5.356,-3.222],[-5.587,-3.58],[-5.713,-3.826],[-5.77,-4.002],[-5.812,-4.312],[-6.674,-4.354],[-7.144,-4.354],[-7.116,-4.171],[-7.039,-3.897],[-6.877,-3.573],[-6.835,-3.461],[-6.604,-3.039],[-6.239,-2.504]]],[[[6.318,-2.567],[6.36,-2.61],[6.395,-2.673],[6.416,-2.68],[6.564,-2.898],[6.683,-3.046],[6.837,-3.278],[6.907,-3.411],[6.998,-3.651],[7.068,-3.932],[7.096,-4.15],[7.096,-4.459],[6.893,-4.431],[6.669,-4.375],[6.241,-4.248],[5.911,-4.122],[5.82,-4.101],[5.813,-3.876],[5.743,-3.601],[5.603,-3.313],[5.47,-3.116],[5.463,-3.088],[5.975,-2.792],[6.318,-2.567]]]]},"properties":{"abbr":"TeA","name":"temporal association cortex","plate":37,"ap_bregma_mm":-4.8,"area_mm2":3.7953,"traced_fraction":[1.0,1.0],"n_labels":2,"no_drawn_outline":false}},{"type":"Feature","geometry":{"type":"MultiPolygon","coordinates":[[[[4.25,-0.858],[4.453,-0.922],[4.551,-0.964],[4.558,-0.978],[4.628,-0.999],[5.035,-1.231],[5.056,-1.259],[5.231,-1.372],[5.238,-1.393],[5.308,-1.435],[5.4,-1.526],[5.414,-1.526],[5.519,-1.639],[5.533,-1.639],[5.666,-1.766],[5.666,-1.78],[5.771,-1.878],[5.792,-1.913],[5.778,-1.913],[5.694,-2.005],[5.645,-2.033],[5.463,-2.202],[5.224,-2.392],[5.126,-2.49],[5.077,-2.518],[5.021,-2.581],[4.979,-2.56],[4.811,-2.406],[4.446,-2.16],[4.124,-1.977],[3.871,-1.857],[3.843,-1.829],[3.871,-1.737],[3.955,-1.576],[4.06,-1.309],[4.124,-1.189],[4.187,-0.999],[4.25,-0.858]]],[[[-4.185,-0.915],[-4.185,-0.943],[-4.15,-1.013],[-4.073,-1.14],[-3.954,-1.393],[-3.939,-1.4],[-3.939,-1.421],[-3.926,-1.428],[-3.694,-1.878],[-3.792,-1.956],[-4.003,-2.061],[-4.241,-2.216],[-4.5,-2.413],[-4.577,-2.455],[-4.767,-2.624],[-4.802,-2.638],[-4.809,-2.659],[-4.823,-2.659],[-4.935,-2.518],[-5.047,-2.406],[-5.145,-2.272],[-5.335,-2.068],[-5.412,-1.963],[-5.566,-1.808],[-5.566,-1.787],[-5.3,-1.562],[-5.089,-1.428],[-5.082,-1.407],[-4.893,-1.28],[-4.802,-1.238],[-4.788,-1.217],[-4.669,-1.147],[-4.213,-0.929],[-4.185,-0.915]]]]},"properties":{"abbr":"V1B","name":"primary visual cortex, binocular area","plate":37,"ap_bregma_mm":-4.8,"area_mm2":3.4731,"traced_fraction":[1.0,1.0],"n_labels":2,"no_drawn_outline":false}},{"type":"Feature","geometry":{"type":"MultiPolygon","coordinates":[[[[-2.579,-0.457],[-2.488,-0.985],[-2.418,-1.245],[-2.579,-1.316],[-2.586,-1.33],[-2.607,-1.33],[-2.614,-1.344],[-2.649,-1.351],[-2.706,-1.393],[-2.867,-1.47],[-2.979,-1.512],[-3.358,-1.702],[-3.666,-1.878],[-3.694,-1.878],[-3.926,-1.428],[-3.939,-1.421],[-3.939,-1.4],[-3.954,-1.393],[-4.073,-1.14],[-4.15,-1.013],[-4.185,-0.943],[-4.185,-0.915],[-4.087,-0.865],[-3.884,-0.802],[-3.736,-0.739],[-3.217,-0.584],[-2.839,-0.493],[-2.579,-0.457]]],[[[2.462,-0.486],[3.219,-0.598],[3.668,-0.69],[4.11,-0.802],[4.25,-0.858],[4.187,-0.999],[4.124,-1.189],[4.06,-1.309],[3.955,-1.576],[3.871,-1.737],[3.843,-1.829],[3.766,-1.808],[3.724,-1.78],[3.682,-1.773],[3.64,-1.745],[3.324,-1.625],[3.296,-1.604],[2.953,-1.491],[2.693,-1.4],[2.644,-1.365],[2.49,-1.309],[2.441,-1.273],[2.427,-0.872],[2.462,-0.486]]]]},"properties":{"abbr":"V1M","name":"primary visual cortex, monocular area","plate":37,"ap_bregma_mm":-4.8,"area_mm2":3.0738,"traced_fraction":[1.0,1.0],"n_labels":2,"no_drawn_outline":false}},{"type":"Feature","geometry":{"type":"MultiPolygon","coordinates":[[[[-5.566,-1.787],[-5.566,-1.808],[-5.412,-1.963],[-5.335,-2.068],[-5.145,-2.272],[-5.047,-2.406],[-4.935,-2.518],[-4.823,-2.659],[-4.907,-2.757],[-4.921,-2.757],[-5.089,-2.919],[-5.089,-2.933],[-5.356,-3.222],[-5.377,-3.222],[-5.405,-3.186],[-5.524,-3.109],[-5.671,-2.968],[-5.742,-2.926],[-5.84,-2.828],[-6.225,-2.518],[-6.225,-2.504],[-6.232,-2.497],[-6.127,-2.349],[-5.91,-2.117],[-5.91,-2.103],[-5.721,-1.913],[-5.706,-1.913],[-5.566,-1.787]]],[[[5.792,-1.913],[5.869,-1.984],[5.989,-2.138],[6.052,-2.195],[6.304,-2.532],[6.318,-2.567],[5.975,-2.792],[5.463,-3.088],[5.323,-2.912],[5.168,-2.75],[5.168,-2.736],[5.021,-2.596],[5.021,-2.581],[5.077,-2.518],[5.126,-2.49],[5.224,-2.392],[5.238,-2.392],[5.645,-2.033],[5.694,-2.005],[5.778,-1.913],[5.792,-1.913]]]]},"properties":{"abbr":"V2L","name":"secondary visual cortex, lateral area","plate":37,"ap_bregma_mm":-4.8,"area_mm2":1.8028,"traced_fraction":[1.0,1.0],"n_labels":2,"no_drawn_outline":false}},{"type":"Feature","geometry":{"type":"MultiPolygon","coordinates":[[[[-1.689,-0.352],[-1.703,-0.457],[-1.808,-0.774],[-1.899,-0.936],[-2.032,-1.083],[-2.032,-1.112],[-2.222,-1.161],[-2.418,-1.245],[-2.488,-0.985],[-2.579,-0.457],[-2.369,-0.408],[-1.857,-0.352],[-1.689,-0.352]]],[[[1.572,-0.359],[1.663,-0.359],[2.462,-0.486],[2.427,-0.872],[2.441,-1.273],[2.252,-1.196],[2.125,-1.161],[2.09,-1.119],[1.859,-0.957],[1.761,-0.844],[1.635,-0.612],[1.572,-0.422],[1.572,-0.359]]]]},"properties":{"abbr":"V2M","name":"secondary visual cortex, medial area","plate":37,"ap_bregma_mm":-4.8,"area_mm2":1.0471,"traced_fraction":[1.0,1.0],"n_labels":2,"no_drawn_outline":false}},{"type":"Feature","geometry":{"type":"MultiPolygon","coordinates":[[[[-0.013,-4.185],[0.022,-4.185],[0.099,-4.213],[0.709,-4.255],[0.828,-4.284],[0.863,-4.312],[0.828,-4.354],[0.828,-4.375],[0.814,-4.375],[0.702,-4.495],[0.646,-4.452],[0.541,-4.41],[0.471,-4.396],[0.316,-4.396],[0.099,-4.473],[0.05,-4.53],[0.05,-4.551],[0.036,-4.558],[-0.027,-4.558],[-0.048,-4.551],[-0.055,-4.509],[-0.097,-4.466],[-0.188,-4.431],[-0.301,-4.41],[-0.448,-4.424],[-0.539,-4.459],[-0.616,-4.516],[-0.77,-4.417],[-0.854,-4.333],[-0.854,-4.312],[-0.799,-4.277],[-0.686,-4.248],[-0.146,-4.22],[-0.013,-4.185]]]]},"properties":{"abbr":"VLPAG","name":"ventrolateral periaqueductal gray","plate":37,"ap_bregma_mm":-4.8,"area_mm2":0.3491,"traced_fraction":[1.0],"n_labels":1,"no_drawn_outline":false}},{"type":"Feature","geometry":{"type":"MultiPolygon","coordinates":[[[[0.232,-5.753],[0.281,-5.95],[0.33,-6.035],[0.394,-6.098],[0.457,-6.133],[0.583,-6.168],[0.709,-6.176],[0.814,-6.161],[0.821,-6.485],[0.73,-6.562],[0.618,-6.626],[0.471,-6.485],[0.33,-6.401],[0.169,-6.344],[0.176,-6.168],[0.155,-6.133],[0.134,-6.028],[0.12,-5.866],[0.106,-5.866],[0.099,-5.845],[0.099,-5.796],[0.099,-5.775],[0.155,-5.775],[0.162,-5.753],[0.232,-5.753]]],[[[-0.28,-5.796],[-0.097,-5.803],[-0.118,-6.028],[-0.16,-6.204],[-0.146,-6.302],[-0.265,-6.323],[-0.469,-6.393],[-0.581,-6.464],[-0.658,-6.548],[-0.742,-6.52],[-0.791,-6.478],[-0.791,-6.316],[-0.763,-6.316],[-0.763,-6.183],[-0.532,-6.154],[-0.406,-6.098],[-0.343,-6.035],[-0.315,-5.972],[-0.28,-5.796]]]]},"properties":{"abbr":"VTA","name":"ventral tegmental area","plate":37,"ap_bregma_mm":-4.8,"area_mm2":0.5235,"traced_fraction":[0.814,0.799],"n_labels":2,"no_drawn_outline":false}},{"type":"Feature","geometry":{"type":"MultiPolygon","coordinates":[[[[-0.076,-1.956],[-0.076,-1.991],[-0.034,-1.984],[-0.034,-1.963],[-0.02,-1.963],[0.064,-1.85],[0.253,-1.702],[0.407,-1.625],[0.59,-1.576],[1.046,-1.583],[1.417,-1.688],[1.593,-1.773],[1.649,-1.787],[2.006,-1.97],[2.006,-1.984],[2.076,-2.012],[2.146,-2.061],[2.392,-2.279],[2.413,-2.321],[2.518,-2.441],[2.686,-2.771],[2.77,-3.06],[2.77,-3.2],[2.693,-3.306],[2.665,-3.313],[2.651,-3.313],[2.616,-3.257],[2.637,-3.151],[2.637,-3.053],[2.616,-2.933],[2.574,-2.807],[2.434,-2.497],[2.329,-2.363],[2.265,-2.307],[2.265,-2.293],[2.034,-2.103],[1.81,-1.963],[1.452,-1.794],[1.081,-1.681],[0.884,-1.646],[0.737,-1.646],[0.569,-1.667],[0.436,-1.702],[0.33,-1.752],[0.162,-1.878],[0.064,-1.984],[0.022,-2.089],[0.022,-2.223],[0.043,-2.356],[0.043,-2.553],[0.022,-2.652],[0.029,-2.722],[-0.027,-2.736],[-0.125,-2.722],[-0.16,-2.518],[-0.16,-2.392],[-0.125,-2.202],[-0.125,-2.082],[-0.153,-1.991],[-0.231,-1.885],[-0.413,-1.745],[-0.637,-1.653],[-0.833,-1.639],[-1.121,-1.681],[-1.479,-1.787],[-1.913,-1.991],[-2.102,-2.117],[-2.327,-2.314],[-2.327,-2.328],[-2.397,-2.392],[-2.481,-2.497],[-2.502,-2.546],[-2.579,-2.645],[-2.657,-2.807],[-2.67,-2.87],[-2.67,-3.004],[-2.614,-3.2],[-2.614,-3.285],[-2.691,-3.299],[-2.713,-3.25],[-2.72,-3.236],[-2.727,-3.222],[-2.734,-3.207],[-2.741,-3.193],[-2.804,-3.074],[-2.811,-2.947],[-2.79,-2.849],[-2.762,-2.736],[-2.691,-2.596],[-2.6,-2.483],[-2.551,-2.399],[-2.348,-2.181],[-2.278,-2.138],[-2.271,-2.117],[-2.187,-2.054],[-2.117,-2.019],[-1.955,-1.899],[-1.675,-1.759],[-1.352,-1.639],[-1.121,-1.583],[-0.953,-1.562],[-0.637,-1.576],[-0.434,-1.632],[-0.35,-1.681],[-0.329,-1.709],[-0.259,-1.745],[-0.125,-1.892],[-0.097,-1.956],[-0.076,-1.956]]]]},"properties":{"abbr":"Zo","name":"zonal layer of the superior colliculus","plate":37,"ap_bregma_mm":-4.8,"area_mm2":0.8587,"traced_fraction":[1.0],"n_labels":2,"no_drawn_outline":false}},{"type":"Feature","geometry":{"type":"MultiPolygon","coordinates":[[[[-4.732,-2.778],[-4.683,-2.821],[-4.942,-3.074],[-5.342,-3.601],[-5.531,-3.974],[-5.566,-4.108],[-5.587,-4.27],[-5.594,-4.509],[-5.58,-4.565],[-5.58,-4.713],[-5.566,-4.741],[-5.552,-4.881],[-5.559,-4.924],[-5.468,-5.233],[-5.356,-5.465],[-5.216,-5.662],[-5.096,-5.768],[-4.977,-5.838],[-5.005,-5.887],[-5.019,-5.887],[-5.244,-5.739],[-5.377,-5.599],[-5.517,-5.339],[-5.601,-5.078],[-5.65,-4.832],[-5.678,-4.558],[-5.678,-4.234],[-5.65,-4.037],[-5.601,-3.862],[-5.391,-3.468],[-5.174,-3.222],[-5.174,-3.207],[-5.124,-3.165],[-5.124,-3.151],[-5.061,-3.095],[-5.061,-3.081],[-4.781,-2.807],[-4.732,-2.778]]],[[[5.519,-5.458],[5.596,-5.493],[5.624,-5.493],[5.624,-5.627],[5.596,-5.627],[5.582,-5.641],[5.477,-5.592],[5.47,-5.557],[5.519,-5.458]]]]},"properties":{"abbr":"alv","name":"alveus of the hippocampus","plate":37,"ap_bregma_mm":-4.8,"area_mm2":0.3423,"traced_fraction":[0.999,0.598],"n_labels":2,"no_drawn_outline":false}},{"type":"Feature","geometry":{"type":"MultiPolygon","coordinates":[[[[-2.748,-3.573],[-2.663,-3.672],[-2.797,-3.742],[-2.853,-3.805],[-2.888,-3.876],[-2.93,-4.073],[-2.944,-4.347],[-2.916,-4.523],[-2.867,-4.628],[-2.811,-4.685],[-2.636,-4.755],[-2.67,-4.825],[-2.734,-4.86],[-2.811,-4.881],[-3.007,-4.881],[-3.077,-4.382],[-3.07,-3.953],[-3.049,-3.826],[-2.986,-3.693],[-2.951,-3.672],[-2.937,-3.644],[-2.867,-3.608],[-2.783,-3.587],[-2.769,-3.58],[-2.748,-3.573]]],[[[2.721,-3.594],[2.749,-3.594],[2.833,-3.622],[2.953,-3.791],[3.009,-3.974],[3.044,-4.199],[3.037,-4.649],[3.009,-4.804],[2.939,-4.966],[2.89,-4.966],[2.869,-4.987],[2.791,-5.001],[2.693,-4.973],[2.63,-4.917],[2.588,-4.874],[2.511,-4.727],[2.476,-4.593],[2.483,-4.53],[2.553,-4.572],[2.686,-4.572],[2.728,-4.551],[2.763,-4.509],[2.784,-4.417],[2.798,-4.073],[2.777,-3.967],[2.756,-3.925],[2.7,-3.876],[2.651,-3.862],[2.567,-3.862],[2.567,-3.833],[2.609,-3.763],[2.609,-3.742],[2.7,-3.644],[2.721,-3.594]]]]},"properties":{"abbr":"bic","name":"brachium of the inferior colliculus","plate":37,"ap_bregma_mm":-4.8,"area_mm2":0.6831,"traced_fraction":[1.0,1.0],"n_labels":2,"no_drawn_outline":false}},{"type":"Feature","geometry":{"type":"MultiPolygon","coordinates":[[[[2.89,-5.43],[2.883,-5.592],[2.854,-5.739],[2.77,-5.929],[2.644,-6.126],[2.595,-6.211],[2.476,-6.583],[2.357,-6.759],[2.027,-7.041],[1.578,-7.343],[1.445,-7.392],[1.354,-7.406],[1.179,-7.399],[1.095,-7.378],[0.989,-7.35],[0.835,-7.266],[0.716,-7.125],[0.723,-7.118],[0.709,-7.118],[0.667,-7.076],[0.688,-7.048],[0.758,-7.034],[0.758,-7.048],[0.828,-7.076],[0.87,-7.076],[1.067,-7.132],[1.137,-7.146],[1.263,-7.146],[1.466,-7.104],[1.627,-7.048],[1.81,-6.963],[2.195,-6.717],[2.294,-6.64],[2.357,-6.569],[2.448,-6.401],[2.539,-6.042],[2.581,-6.0],[2.644,-5.894],[2.707,-5.739],[2.7,-5.676],[2.644,-5.592],[2.644,-5.536],[2.693,-5.486],[2.763,-5.451],[2.833,-5.43],[2.89,-5.43]]],[[[-2.467,-5.796],[-2.474,-5.831],[-2.446,-5.979],[-2.348,-6.197],[-2.152,-6.499],[-2.089,-6.555],[-2.004,-6.682],[-1.885,-6.78],[-1.689,-6.907],[-1.492,-7.005],[-1.408,-7.034],[-1.254,-7.062],[-0.974,-7.076],[-0.911,-7.09],[-0.721,-7.076],[-0.7,-7.097],[-0.707,-7.118],[-0.728,-7.118],[-0.946,-7.231],[-1.191,-7.294],[-1.408,-7.287],[-1.577,-7.223],[-1.689,-7.118],[-1.703,-7.118],[-1.773,-7.041],[-1.885,-6.956],[-2.173,-6.668],[-2.194,-6.626],[-2.418,-6.351],[-2.467,-6.239],[-2.488,-6.225],[-2.551,-6.098],[-2.621,-5.852],[-2.699,-5.697],[-2.706,-5.683],[-2.678,-5.669],[-2.572,-5.676],[-2.502,-5.739],[-2.467,-5.796]]]]},"properties":{"abbr":"cp","name":"cerebral peduncle","plate":37,"ap_bregma_mm":-4.8,"area_mm2":0.962,"traced_fraction":[1.0,1.0],"n_labels":2,"no_drawn_outline":false}},{"type":"Feature","geometry":{"type":"MultiPolygon","coordinates":[[[[-2.867,-1.47],[-2.86,-1.569],[-3.477,-1.885],[-3.764,-2.054],[-4.045,-2.251],[-4.255,-2.377],[-4.367,-2.476],[-4.514,-2.575],[-4.627,-2.687],[-4.69,-2.722],[-4.732,-2.778],[-4.781,-2.807],[-5.061,-3.081],[-5.061,-3.095],[-5.124,-3.151],[-5.124,-3.165],[-5.174,-3.207],[-5.174,-3.222],[-5.391,-3.468],[-5.601,-3.862],[-5.65,-4.037],[-5.678,-4.234],[-5.678,-4.558],[-5.65,-4.832],[-5.601,-5.078],[-5.517,-5.339],[-5.377,-5.599],[-5.244,-5.739],[-5.019,-5.887],[-5.005,-5.887],[-4.977,-5.838],[-4.9,-5.866],[-4.879,-5.887],[-4.872,-5.922],[-4.942,-5.957],[-4.963,-5.986],[-5.096,-5.943],[-5.23,-5.873],[-5.37,-5.761],[-5.454,-5.662],[-5.552,-5.472],[-5.643,-5.254],[-5.721,-4.994],[-5.776,-4.698],[-5.776,-4.621],[-5.798,-4.516],[-5.812,-4.312],[-5.77,-4.002],[-5.713,-3.826],[-5.587,-3.58],[-5.356,-3.222],[-5.089,-2.933],[-5.089,-2.919],[-4.921,-2.757],[-4.907,-2.757],[-4.823,-2.659],[-4.809,-2.659],[-4.802,-2.638],[-4.767,-2.624],[-4.577,-2.455],[-4.5,-2.413],[-4.241,-2.216],[-4.003,-2.061],[-3.792,-1.956],[-3.694,-1.878],[-3.666,-1.878],[-3.358,-1.702],[-2.979,-1.512],[-2.867,-1.47]]],[[[2.953,-1.491],[3.296,-1.604],[3.324,-1.625],[3.64,-1.745],[3.682,-1.773],[3.724,-1.78],[3.766,-1.808],[3.843,-1.829],[3.871,-1.857],[4.124,-1.977],[4.446,-2.16],[4.811,-2.406],[4.979,-2.56],[5.021,-2.581],[5.021,-2.596],[5.224,-2.8],[5.224,-2.814],[5.323,-2.912],[5.463,-3.088],[5.47,-3.116],[5.603,-3.313],[5.743,-3.601],[5.813,-3.876],[5.82,-4.101],[5.806,-4.164],[5.806,-4.354],[5.785,-4.466],[5.771,-4.706],[5.743,-4.811],[5.708,-5.106],[5.624,-5.493],[5.596,-5.493],[5.519,-5.458],[5.645,-5.001],[5.673,-4.79],[5.701,-4.685],[5.729,-4.389],[5.729,-4.171],[5.708,-3.953],[5.652,-3.728],[5.624,-3.644],[5.589,-3.594],[5.568,-3.524],[5.484,-3.355],[5.316,-3.116],[5.147,-2.947],[5.084,-2.863],[5.028,-2.821],[5.028,-2.807],[4.783,-2.567],[4.72,-2.532],[4.678,-2.483],[4.565,-2.413],[4.551,-2.392],[4.025,-2.061],[3.486,-1.801],[3.303,-1.695],[2.946,-1.562],[2.953,-1.491]]]]},"properties":{"abbr":"dcw","name":"deep cerebral white matter","plate":37,"ap_bregma_mm":-4.8,"area_mm2":1.3162,"traced_fraction":[0.996,0.994],"n_labels":2,"no_drawn_outline":false}},{"type":"Feature","geometry":{"type":"MultiPolygon","coordinates":[[[[-2.607,-1.569],[-2.706,-1.667],[-2.72,-1.667],[-2.72,-1.681],[-2.79,-1.723],[-2.993,-1.913],[-3.308,-2.124],[-3.337,-2.131],[-3.526,-2.258],[-3.54,-2.279],[-3.771,-2.392],[-4.038,-2.462],[-4.087,-2.483],[-4.101,-2.504],[-4.227,-2.525],[-4.402,-2.61],[-4.683,-2.821],[-4.732,-2.778],[-4.69,-2.722],[-4.627,-2.687],[-4.514,-2.575],[-4.367,-2.476],[-4.255,-2.377],[-4.045,-2.251],[-3.764,-2.054],[-3.477,-1.885],[-2.86,-1.569],[-2.72,-1.512],[-2.663,-1.512],[-2.628,-1.562],[-2.607,-1.569]]],[[[2.946,-1.562],[3.303,-1.695],[3.486,-1.801],[4.025,-2.061],[4.551,-2.392],[4.565,-2.413],[4.678,-2.483],[4.72,-2.532],[4.783,-2.567],[5.028,-2.807],[5.028,-2.821],[5.084,-2.863],[5.147,-2.947],[5.316,-3.116],[5.484,-3.355],[5.568,-3.524],[5.589,-3.594],[5.624,-3.644],[5.652,-3.728],[5.708,-3.953],[5.729,-4.171],[5.729,-4.389],[5.701,-4.685],[5.673,-4.79],[5.645,-5.001],[5.519,-5.458],[5.47,-5.557],[5.477,-5.592],[5.463,-5.592],[5.35,-5.831],[5.287,-5.922],[5.273,-5.922],[5.224,-5.986],[5.161,-6.028],[5.14,-6.021],[5.119,-5.979],[5.196,-5.901],[5.203,-5.873],[5.301,-5.768],[5.4,-5.571],[5.498,-5.275],[5.575,-4.959],[5.638,-4.466],[5.645,-4.284],[5.638,-4.087],[5.582,-3.826],[5.505,-3.622],[5.344,-3.327],[5.287,-3.264],[5.224,-3.158],[5.063,-2.975],[5.063,-2.961],[4.979,-2.884],[4.979,-2.87],[4.727,-2.638],[4.537,-2.504],[4.32,-2.392],[4.166,-2.356],[4.081,-2.335],[3.927,-2.335],[3.745,-2.293],[2.981,-1.885],[2.686,-1.702],[2.602,-1.576],[2.651,-1.534],[2.714,-1.512],[2.805,-1.52],[2.946,-1.562]]]]},"properties":{"abbr":"dhc","name":"dorsal hippocampal commissure","plate":37,"ap_bregma_mm":-4.8,"area_mm2":1.3744,"traced_fraction":[0.995,1.0],"n_labels":2,"no_drawn_outline":false}},{"type":"Feature","geometry":{"type":"MultiPolygon","coordinates":[[[[-0.322,-5.381],[-0.223,-5.437],[-0.069,-5.451],[-0.055,-5.55],[-0.041,-5.564],[0.029,-5.564],[0.05,-5.55],[0.064,-5.444],[0.176,-5.451],[0.253,-5.395],[0.295,-5.381],[0.302,-5.472],[0.26,-5.514],[0.232,-5.585],[0.232,-5.753],[0.162,-5.753],[0.155,-5.775],[0.099,-5.775],[0.099,-5.796],[-0.097,-5.803],[-0.28,-5.796],[-0.28,-5.725],[-0.301,-5.634],[-0.42,-5.458],[-0.364,-5.402],[-0.336,-5.402],[-0.322,-5.381]]]]},"properties":{"abbr":"dtgx","name":"dorsal tegmental decussation","plate":37,"ap_bregma_mm":-4.8,"area_mm2":0.1951,"traced_fraction":[0.793],"n_labels":1,"no_drawn_outline":false}},{"type":"Feature","geometry":{"type":"MultiPolygon","coordinates":[[[[-2.032,-1.112],[-1.99,-1.119],[-1.997,-1.161],[-2.081,-1.224],[-2.081,-1.238],[-2.18,-1.266],[-2.229,-1.309],[-2.383,-1.393],[-2.607,-1.569],[-2.621,-1.569],[-2.663,-1.512],[-2.748,-1.52],[-2.86,-1.569],[-2.867,-1.47],[-2.706,-1.393],[-2.691,-1.372],[-2.418,-1.245],[-2.222,-1.161],[-2.032,-1.112]]],[[[2.125,-1.161],[2.252,-1.196],[2.441,-1.273],[2.462,-1.294],[2.553,-1.322],[2.693,-1.4],[2.953,-1.491],[2.946,-1.562],[2.805,-1.52],[2.714,-1.512],[2.651,-1.534],[2.602,-1.576],[2.399,-1.421],[2.322,-1.379],[2.265,-1.365],[2.231,-1.33],[2.139,-1.28],[2.104,-1.238],[2.09,-1.196],[2.125,-1.161]]]]},"properties":{"abbr":"fmj","name":"forceps major of the corpus callosum","plate":37,"ap_bregma_mm":-4.8,"area_mm2":0.2454,"traced_fraction":[0.969,0.993],"n_labels":2,"no_drawn_outline":false}},{"type":"Feature","geometry":{"type":"MultiPolygon","coordinates":[[[[2.546,-3.876],[2.546,-3.918],[2.49,-4.058],[2.476,-4.164],[2.469,-4.509],[2.483,-4.53],[2.476,-4.593],[2.511,-4.727],[2.588,-4.874],[2.63,-4.917],[2.553,-4.994],[2.399,-5.071],[2.343,-5.071],[2.343,-5.219],[2.897,-5.219],[2.89,-5.43],[2.833,-5.43],[2.763,-5.451],[2.693,-5.486],[2.644,-5.536],[2.644,-5.592],[2.7,-5.676],[2.707,-5.739],[2.644,-5.894],[2.581,-6.0],[2.539,-6.042],[2.518,-5.993],[2.504,-5.859],[2.483,-5.796],[2.35,-5.669],[2.244,-5.641],[2.174,-5.648],[2.055,-5.761],[2.041,-5.803],[2.027,-5.803],[1.894,-5.943],[1.88,-5.943],[1.789,-5.852],[1.789,-5.831],[1.67,-5.718],[1.705,-5.648],[1.712,-5.599],[1.705,-5.564],[1.557,-5.416],[1.417,-5.381],[1.305,-5.388],[1.207,-5.416],[1.067,-5.486],[0.968,-5.564],[0.905,-5.528],[0.821,-5.451],[0.744,-5.409],[0.688,-5.395],[0.506,-5.395],[0.4,-5.423],[0.302,-5.472],[0.295,-5.381],[0.394,-5.303],[0.471,-5.163],[0.478,-4.959],[0.464,-4.902],[0.45,-4.874],[0.436,-4.874],[0.45,-4.811],[0.485,-4.769],[0.674,-4.776],[0.751,-4.755],[0.828,-4.713],[0.87,-4.663],[0.898,-4.579],[0.891,-4.473],[0.87,-4.396],[1.221,-4.452],[1.417,-4.445],[1.564,-4.417],[1.627,-4.417],[1.824,-4.375],[1.964,-4.326],[2.041,-4.27],[2.146,-4.227],[2.273,-4.136],[2.427,-3.995],[2.427,-3.981],[2.525,-3.876],[2.546,-3.876]]],[[[-2.495,-4.066],[-2.467,-4.066],[-2.313,-4.185],[-2.11,-4.277],[-2.018,-4.312],[-1.829,-4.354],[-1.675,-4.375],[-1.542,-4.375],[-1.219,-4.375],[-1.121,-4.354],[-1.002,-4.298],[-0.939,-4.284],[-0.932,-4.291],[-0.953,-4.368],[-0.953,-4.509],[-0.925,-4.6],[-0.876,-4.677],[-0.82,-4.727],[-0.735,-4.762],[-0.651,-4.769],[-0.497,-4.741],[-0.434,-4.825],[-0.406,-4.924],[-0.427,-4.931],[-0.455,-5.022],[-0.448,-5.198],[-0.406,-5.289],[-0.322,-5.381],[-0.336,-5.402],[-0.364,-5.402],[-0.42,-5.458],[-0.497,-5.409],[-0.574,-5.402],[-0.799,-5.5],[-0.876,-5.409],[-1.065,-5.282],[-1.233,-5.198],[-1.352,-5.198],[-1.437,-5.233],[-1.479,-5.282],[-1.492,-5.325],[-1.486,-5.444],[-1.464,-5.514],[-1.437,-5.542],[-1.584,-5.683],[-1.584,-5.718],[-1.605,-5.732],[-1.605,-5.824],[-1.654,-5.824],[-1.689,-5.908],[-1.731,-5.95],[-1.745,-5.95],[-2.068,-5.627],[-2.18,-5.62],[-2.236,-5.634],[-2.341,-5.676],[-2.39,-5.725],[-2.411,-5.725],[-2.467,-5.796],[-2.502,-5.739],[-2.572,-5.676],[-2.678,-5.669],[-2.706,-5.683],[-2.706,-5.676],[-2.825,-5.437],[-2.832,-5.423],[-2.839,-5.409],[-2.846,-5.395],[-2.853,-5.381],[-2.944,-5.205],[-2.965,-5.128],[-2.481,-5.121],[-2.481,-4.966],[-2.516,-4.966],[-2.558,-4.945],[-2.67,-4.825],[-2.636,-4.755],[-2.607,-4.727],[-2.558,-4.544],[-2.495,-4.066]]]]},"properties":{"abbr":"mRt","name":"mesencehalic reticular formation","plate":37,"ap_bregma_mm":-4.8,"area_mm2":5.1078,"traced_fraction":[0.861,0.844],"n_labels":2,"no_drawn_outline":false}},{"type":"Feature","geometry":{"type":"MultiPolygon","coordinates":[[[[-0.967,-6.358],[-0.791,-6.478],[-0.742,-6.52],[-0.658,-6.548],[-0.63,-6.59],[-0.63,-6.668],[-0.651,-6.738],[-0.714,-6.787],[-0.756,-6.801],[-0.869,-6.794],[-1.016,-6.71],[-1.107,-6.626],[-1.107,-6.612],[-1.044,-6.541],[-1.023,-6.534],[-1.016,-6.401],[-0.981,-6.358],[-0.967,-6.358]]],[[[1.011,-6.387],[1.025,-6.71],[0.947,-6.773],[0.856,-6.823],[0.772,-6.844],[0.716,-6.837],[0.639,-6.808],[0.59,-6.738],[0.59,-6.689],[0.618,-6.626],[0.73,-6.562],[0.821,-6.485],[1.011,-6.387]]]]},"properties":{"abbr":"ml","name":"medial lemniscus","plate":37,"ap_bregma_mm":-4.8,"area_mm2":0.2551,"traced_fraction":[0.815,0.81],"n_labels":2,"no_drawn_outline":false}},{"type":"Feature","geometry":{"type":"MultiPolygon","coordinates":[[[[-0.118,-6.028],[0.134,-6.028],[0.155,-6.133],[0.176,-6.168],[0.169,-6.344],[0.078,-6.33],[0.057,-6.387],[-0.006,-6.38],[-0.013,-6.302],[-0.146,-6.302],[-0.16,-6.204],[-0.118,-6.028]]]]},"properties":{"abbr":"vtgx","name":"ventral tegmental decussation","plate":37,"ap_bregma_mm":-4.8,"area_mm2":0.0937,"traced_fraction":[0.712],"n_labels":1,"no_drawn_outline":true}},{"type":"Feature","geometry":{"type":"Polygon","coordinates":[[[0.436,-4.874],[0.45,-4.874],[0.478,-4.959],[0.471,-5.163],[0.394,-5.303],[0.295,-5.381],[0.253,-5.395],[0.176,-5.451],[0.064,-5.444],[0.071,-5.395],[0.092,-5.367],[0.26,-5.296],[0.386,-5.191],[0.407,-5.085],[0.407,-4.931],[0.436,-4.874]]]},"properties":{"abbr":null,"name":"unnamed sealed face","plate":37,"ap_bregma_mm":-4.8,"index":0}},{"type":"Feature","geometry":{"type":"Polygon","coordinates":[[[-0.406,-4.924],[-0.378,-4.952],[-0.378,-5.205],[-0.336,-5.303],[-0.252,-5.353],[-0.16,-5.353],[-0.083,-5.374],[-0.069,-5.451],[-0.223,-5.437],[-0.322,-5.381],[-0.406,-5.289],[-0.448,-5.198],[-0.455,-5.022],[-0.441,-4.959],[-0.427,-4.931],[-0.406,-4.924]]]},"properties":{"abbr":null,"name":"unnamed sealed face","plate":37,"ap_bregma_mm":-4.8,"index":1}},{"type":"Feature","geometry":{"type":"Polygon","coordinates":[[[5.477,-5.592],[5.582,-5.641],[5.512,-5.852],[5.428,-6.0],[5.323,-6.084],[5.14,-6.154],[4.902,-6.19],[4.727,-6.19],[4.586,-6.154],[4.607,-6.105],[4.712,-6.056],[4.776,-6.042],[4.979,-6.035],[5.056,-6.014],[5.119,-5.979],[5.14,-6.021],[5.161,-6.028],[5.224,-5.986],[5.273,-5.922],[5.287,-5.922],[5.35,-5.831],[5.463,-5.592],[5.477,-5.592]]]},"properties":{"abbr":null,"name":"unnamed sealed face","plate":37,"ap_bregma_mm":-4.8,"index":2}},{"type":"Feature","geometry":{"type":"Polygon","coordinates":[[[-4.402,-6.38],[-4.543,-6.344],[-4.592,-6.323],[-4.606,-6.302],[-4.564,-6.211],[-4.416,-6.211],[-4.367,-6.274],[-4.402,-6.38]]]},"properties":{"abbr":null,"name":"unnamed sealed face","plate":37,"ap_bregma_mm":-4.8,"index":3}},{"type":"Feature","geometry":{"type":"Polygon","coordinates":[[[-0.238,-6.583],[-0.238,-6.724],[-0.21,-6.787],[-0.21,-6.83],[-0.259,-6.844],[-0.301,-6.907],[-0.315,-6.984],[-0.301,-7.167],[-0.322,-7.174],[-0.42,-7.139],[-0.434,-7.041],[-0.434,-6.844],[-0.413,-6.752],[-0.371,-6.654],[-0.336,-6.619],[-0.238,-6.583]]]},"properties":{"abbr":null,"name":"unnamed sealed face","plate":37,"ap_bregma_mm":-4.8,"index":4}},{"type":"Feature","geometry":{"type":"Polygon","coordinates":[[[0.302,-6.619],[0.33,-6.626],[0.365,-6.675],[0.379,-6.675],[0.527,-6.914],[0.576,-6.914],[0.569,-6.963],[0.583,-6.984],[0.583,-7.041],[0.485,-7.055],[0.365,-7.118],[0.358,-7.111],[0.344,-7.09],[0.365,-6.935],[0.358,-6.801],[0.323,-6.689],[0.302,-6.661],[0.302,-6.619]]]},"properties":{"abbr":null,"name":"unnamed sealed face","plate":37,"ap_bregma_mm":-4.8,"index":5}},{"type":"Feature","geometry":{"type":"MultiPolygon","coordinates":[[[[-3.926,-7.357],[-4.087,-7.336],[-4.171,-7.294],[-4.451,-7.104],[-5.061,-6.647],[-5.16,-6.59],[-5.195,-6.583],[-5.524,-6.654],[-5.692,-6.661],[-5.868,-6.619],[-6.057,-6.492],[-6.176,-6.365],[-6.302,-6.197],[-6.506,-5.894],[-6.562,-5.789],[-6.569,-5.711],[-6.555,-5.683],[-6.443,-5.578],[-6.414,-5.528],[-6.45,-5.416],[-6.499,-5.381],[-6.625,-5.416],[-6.758,-5.395],[-6.807,-5.367],[-6.877,-5.296],[-6.926,-5.219],[-7.018,-5.015],[-7.123,-4.677],[-7.151,-4.551],[-7.151,-4.375],[-7.109,-4.15],[-7.039,-3.904],[-6.793,-3.376],[-6.597,-3.032],[-6.309,-2.596],[-6.12,-2.342],[-5.882,-2.075],[-5.742,-1.934],[-5.475,-1.702],[-5.279,-1.548],[-4.9,-1.287],[-4.676,-1.154],[-4.374,-0.999],[-4.08,-0.865],[-3.666,-0.718],[-3.182,-0.577],[-2.825,-0.493],[-2.699,-0.479],[-2.404,-0.415],[-1.829,-0.352],[-1.507,-0.352],[-1.345,-0.366],[-1.184,-0.394],[-1.023,-0.443],[-0.904,-0.5],[-0.812,-0.563],[-0.728,-0.647],[-0.658,-0.767],[-0.623,-0.922],[-0.623,-1.076],[-0.637,-1.189],[-0.658,-1.231],[-0.763,-1.301],[-0.953,-1.365],[-1.577,-1.498],[-1.906,-1.597],[-2.229,-1.73],[-2.537,-1.92],[-2.706,-2.096],[-2.818,-2.272],[-2.986,-2.603],[-3.161,-2.849],[-3.841,-3.587],[-4.087,-3.89],[-4.346,-4.178],[-4.437,-4.312],[-4.473,-4.403],[-4.458,-4.459],[-4.136,-4.818],[-3.912,-5.106],[-3.806,-5.282],[-3.757,-5.395],[-3.757,-5.536],[-3.778,-5.571],[-3.855,-5.634],[-4.038,-5.746],[-4.199,-5.866],[-4.346,-6.007],[-4.43,-6.014],[-4.774,-5.915],[-4.872,-5.915],[-4.942,-5.95],[-5.026,-6.049],[-5.216,-6.197],[-5.335,-6.309],[-5.279,-6.408],[-4.977,-6.33],[-4.914,-6.225],[-4.893,-6.218],[-4.816,-6.225],[-4.599,-6.316],[-4.613,-6.309],[-4.561,-6.209],[-4.421,-6.209],[-4.377,-6.271],[-4.409,-6.387],[-4.514,-6.351],[-4.297,-6.422],[-4.052,-6.45],[-3.884,-6.576],[-3.792,-6.605],[-3.645,-6.626],[-3.575,-6.661],[-3.491,-6.731],[-3.407,-6.844],[-3.4,-6.9],[-3.428,-7.055],[-3.463,-7.125],[-3.519,-7.195],[-3.61,-7.266],[-3.729,-7.322],[-3.841,-7.35],[-3.905,-7.35],[-3.926,-7.357]]],[[[5.975,-7.245],[5.939,-7.259],[5.848,-7.245],[5.519,-7.02],[5.358,-6.942],[5.175,-6.893],[5.07,-6.886],[4.93,-6.9],[4.86,-6.921],[4.783,-6.97],[4.607,-7.048],[4.488,-7.076],[4.376,-7.083],[4.208,-7.034],[4.053,-6.963],[3.934,-6.886],[3.85,-6.801],[3.773,-6.654],[3.745,-6.534],[3.738,-6.323],[3.752,-6.197],[3.836,-5.838],[3.969,-5.472],[4.264,-4.924],[4.369,-4.67],[4.39,-4.53],[4.383,-4.459],[4.327,-4.255],[4.264,-4.122],[4.047,-3.777],[3.822,-3.468],[3.591,-3.215],[3.219,-2.849],[2.875,-2.42],[2.721,-2.202],[2.532,-1.991],[2.231,-1.801],[1.747,-1.576],[1.361,-1.435],[1.011,-1.351],[0.87,-1.301],[0.73,-1.217],[0.639,-1.133],[0.541,-0.971],[0.52,-0.879],[0.52,-0.802],[0.541,-0.718],[0.576,-0.647],[0.688,-0.528],[0.891,-0.422],[1.116,-0.366],[1.291,-0.352],[1.635,-0.359],[3.198,-0.598],[3.815,-0.725],[4.117,-0.809],[4.439,-0.922],[4.663,-1.02],[4.916,-1.161],[5.147,-1.316],[5.316,-1.449],[5.61,-1.716],[5.911,-2.04],[6.115,-2.286],[6.683,-3.06],[6.837,-3.292],[6.9,-3.418],[6.991,-3.658],[7.061,-3.946],[7.089,-4.178],[7.089,-4.431],[7.082,-4.586],[7.054,-4.755],[6.991,-4.966],[6.893,-5.163],[6.837,-5.24],[6.676,-5.388],[6.535,-5.465],[6.423,-5.5],[6.36,-5.536],[6.353,-5.718],[6.395,-6.218],[6.395,-6.499],[6.36,-6.752],[6.311,-6.914],[6.241,-7.034],[6.157,-7.118],[5.996,-7.231],[5.975,-7.245]]],[[[1.424,-7.385],[1.319,-7.399],[1.186,-7.392],[0.975,-7.336],[0.828,-7.252],[0.667,-7.069],[0.597,-7.034],[0.534,-7.034],[0.471,-7.055],[0.176,-7.216],[0.043,-7.252],[-0.111,-7.245],[-0.455,-7.125],[-0.602,-7.097],[-0.721,-7.111],[-0.96,-7.223],[-1.093,-7.266],[-1.219,-7.287],[-1.401,-7.28],[-1.507,-7.252],[-1.577,-7.216],[-1.906,-6.928],[-2.159,-6.675],[-2.411,-6.351],[-2.544,-6.105],[-2.621,-5.859],[-2.944,-5.191],[-2.979,-5.092],[-3.056,-4.551],[-3.077,-4.34],[-3.07,-3.967],[-3.042,-3.805],[-2.979,-3.686],[-2.916,-3.63],[-2.741,-3.566],[-2.699,-3.489],[-2.685,-3.418],[-2.691,-3.299],[-2.804,-3.06],[-2.811,-2.961],[-2.762,-2.743],[-2.685,-2.589],[-2.523,-2.363],[-2.362,-2.195],[-2.194,-2.061],[-1.941,-1.892],[-1.668,-1.759],[-1.366,-1.646],[-1.149,-1.59],[-0.932,-1.562],[-0.651,-1.576],[-0.427,-1.639],[-0.259,-1.752],[-0.139,-1.885],[-0.097,-1.956],[-0.027,-1.963],[0.05,-1.864],[0.253,-1.702],[0.415,-1.625],[0.604,-1.576],[0.983,-1.576],[1.13,-1.604],[1.403,-1.688],[1.635,-1.787],[1.929,-1.934],[2.076,-2.019],[2.237,-2.138],[2.371,-2.265],[2.525,-2.462],[2.679,-2.778],[2.763,-3.067],[2.763,-3.186],[2.728,-3.25],[2.686,-3.292],[2.672,-3.355],[2.707,-3.545],[2.749,-3.594],[2.812,-3.615],[2.848,-3.644],[2.939,-3.777],[3.002,-3.981],[3.037,-4.22],[3.03,-4.628],[3.002,-4.79],[2.932,-4.952],[2.89,-5.142],[2.875,-5.571],[2.848,-5.725],[2.777,-5.894],[2.595,-6.197],[2.462,-6.59],[2.343,-6.759],[2.055,-7.005],[1.656,-7.287],[1.55,-7.343],[1.431,-7.385],[1.424,-7.385]]]]},"properties":{"abbr":"brain_outline","name":"outline of the section","plate":37,"ap_bregma_mm":-4.8}}]}
