{"type":"FeatureCollection","name":"GerbilAtlas plate 60","note":"Region extents cut from the atlas drawing (METHODS.md, Region extents). Coordinates are [ML, DV] in mm, ML positive to the right of the plate as printed, DV negative below the dorsal surface; AP is the plate bregma. traced_fraction is the share of each polygon boundary the atlas actually draws; below 0.5 the boundary is an estimate. no_drawn_outline marks a feature that lies only inside boundaries the atlas draws round more than one name and prints nothing within, so the whole of its outline is where the extraction cut it. Not a segmentation.","plate":60,"ap_bregma_mm":-12.85,"features":[{"type":"Feature","geometry":{"type":"MultiPolygon","coordinates":[[[[0.429,-7.308],[0.408,-7.308],[0.324,-7.217],[0.324,-7.196],[0.282,-7.125],[0.282,-7.09],[0.289,-7.076],[0.338,-7.083],[0.45,-7.153],[0.471,-7.224],[0.429,-7.308]]],[[[-0.433,-7.111],[-0.419,-7.196],[-0.426,-7.238],[-0.518,-7.322],[-0.553,-7.329],[-0.567,-7.322],[-0.581,-7.273],[-0.567,-7.182],[-0.511,-7.125],[-0.433,-7.111]]]]},"properties":{"abbr":"11N","name":"accessory nerve nucleus","plate":60,"ap_bregma_mm":-12.85,"area_mm2":0.0489,"traced_fraction":[1.0,0.837],"n_labels":2,"no_drawn_outline":false}},{"type":"Feature","geometry":{"type":"MultiPolygon","coordinates":[[[[-0.244,-6.605],[-0.146,-6.619],[-0.146,-6.633],[-0.097,-6.668],[-0.097,-6.717],[-0.083,-6.724],[-0.09,-6.809],[-0.076,-6.816],[-0.118,-6.858],[-0.16,-6.858],[-0.195,-6.816],[-0.209,-6.816],[-0.3,-6.689],[-0.3,-6.619],[-0.258,-6.612],[-0.244,-6.605]]],[[[0.177,-6.788],[0.163,-6.788],[0.12,-6.844],[0.092,-6.844],[0.043,-6.816],[0.008,-6.682],[0.022,-6.682],[0.064,-6.633],[0.114,-6.612],[0.177,-6.612],[0.226,-6.633],[0.233,-6.675],[0.177,-6.788]]]]},"properties":{"abbr":"CeCv","name":"central cervical nucleus of the spinal cord","plate":60,"ap_bregma_mm":-12.85,"area_mm2":0.0737,"traced_fraction":[1.0,1.0],"n_labels":2,"no_drawn_outline":false}},{"type":"Feature","geometry":{"type":"MultiPolygon","coordinates":[[[[0.66,-6.162],[0.646,-6.197],[0.632,-6.204],[0.59,-6.218],[0.506,-6.295],[0.38,-6.366],[0.38,-6.288],[0.345,-6.218],[0.394,-6.169],[0.464,-6.141],[0.646,-6.134],[0.66,-6.162]]],[[[-0.363,-6.225],[-0.391,-6.26],[-0.426,-6.352],[-0.553,-6.295],[-0.581,-6.267],[-0.658,-6.232],[-0.672,-6.211],[-0.721,-6.204],[-0.721,-6.155],[-0.623,-6.155],[-0.609,-6.141],[-0.504,-6.148],[-0.363,-6.225]]]]},"properties":{"abbr":"Cu","name":"cuneate nucleus","plate":60,"ap_bregma_mm":-12.85,"area_mm2":0.0792,"traced_fraction":[0.992,1.0],"n_labels":2,"no_drawn_outline":false}},{"type":"Feature","geometry":{"type":"MultiPolygon","coordinates":[[[[-0.931,-5.88],[-0.819,-6.0],[-0.763,-6.148],[-0.798,-6.141],[-0.868,-6.077],[-0.917,-6.056],[-0.987,-6.042],[-1.092,-6.049],[-1.219,-6.084],[-1.324,-6.134],[-1.541,-6.288],[-1.702,-6.457],[-1.759,-6.542],[-1.829,-6.703],[-1.843,-6.802],[-1.822,-6.9],[-1.759,-7.006],[-1.695,-7.055],[-1.723,-7.083],[-1.78,-7.083],[-1.822,-7.062],[-1.871,-7.006],[-1.906,-6.935],[-1.927,-6.851],[-1.92,-6.668],[-1.864,-6.513],[-1.829,-6.471],[-1.815,-6.422],[-1.738,-6.338],[-1.738,-6.316],[-1.534,-6.141],[-1.296,-5.979],[-1.1,-5.894],[-0.931,-5.88]]],[[[1.698,-7.139],[1.698,-7.146],[1.691,-7.153],[1.558,-7.167],[1.544,-7.132],[1.614,-7.083],[1.677,-6.999],[1.719,-6.837],[1.719,-6.696],[1.663,-6.478],[1.537,-6.295],[1.523,-6.295],[1.516,-6.274],[1.453,-6.225],[1.453,-6.211],[1.368,-6.148],[1.242,-6.084],[1.151,-6.056],[0.962,-6.042],[0.85,-6.063],[0.703,-6.112],[0.709,-6.063],[0.822,-5.93],[0.976,-5.88],[1.116,-5.887],[1.249,-5.93],[1.46,-6.056],[1.663,-6.253],[1.719,-6.338],[1.733,-6.394],[1.775,-6.471],[1.824,-6.71],[1.817,-6.809],[1.782,-6.949],[1.726,-7.069],[1.698,-7.097],[1.698,-7.139]]]]},"properties":{"abbr":"Ge5","name":"gelatinous layer of the caudal spinal trigeminal nucleus","plate":60,"ap_bregma_mm":-12.85,"area_mm2":0.4425,"traced_fraction":[1.0,0.995],"n_labels":2,"no_drawn_outline":false}},{"type":"Feature","geometry":{"type":"MultiPolygon","coordinates":[[[[-0.721,-6.204],[-0.672,-6.211],[-0.602,-6.267],[-0.581,-6.267],[-0.553,-6.295],[-0.504,-6.309],[-0.49,-6.33],[-0.426,-6.352],[-0.433,-6.513],[-0.511,-6.52],[-0.609,-6.429],[-0.686,-6.295],[-0.742,-6.232],[-0.742,-6.211],[-0.721,-6.204]]]]},"properties":{"abbr":"IB","name":"interstitial nucleus of the medulla","plate":60,"ap_bregma_mm":-12.85,"area_mm2":0.0466,"traced_fraction":[1.0],"n_labels":1,"no_drawn_outline":false}},{"type":"Feature","geometry":{"type":"MultiPolygon","coordinates":[[[[0.885,-6.738],[0.92,-6.752],[1.039,-6.752],[1.039,-6.823],[1.032,-6.823],[1.025,-6.83],[1.025,-6.837],[0.99,-6.879],[0.997,-6.907],[0.85,-6.907],[0.85,-6.767],[0.885,-6.738]]],[[[-1.064,-6.759],[-1.079,-6.795],[-1.043,-6.851],[-1.05,-6.872],[-1.071,-6.872],[-1.113,-6.907],[-1.149,-6.914],[-1.212,-6.963],[-1.289,-6.999],[-1.296,-6.9],[-1.226,-6.83],[-1.226,-6.759],[-1.064,-6.759]]]]},"properties":{"abbr":"IRt","name":"intermediate reticular nucleus","plate":60,"ap_bregma_mm":-12.85,"area_mm2":0.061,"traced_fraction":[0.353,0.639],"n_labels":2,"no_drawn_outline":true}},{"type":"Feature","geometry":{"type":"MultiPolygon","coordinates":[[[[0.646,-6.197],[0.716,-6.267],[1.011,-6.38],[1.179,-6.478],[1.27,-6.57],[1.333,-6.675],[1.362,-6.759],[1.375,-6.914],[1.193,-6.921],[1.039,-6.823],[1.039,-6.752],[0.92,-6.752],[0.885,-6.738],[0.871,-6.717],[0.85,-6.717],[0.822,-6.689],[0.618,-6.584],[0.436,-6.52],[0.436,-6.499],[0.555,-6.359],[0.562,-6.33],[0.597,-6.295],[0.632,-6.204],[0.646,-6.197]]],[[[-0.742,-6.232],[-0.686,-6.295],[-0.609,-6.429],[-0.511,-6.52],[-0.833,-6.633],[-1.064,-6.759],[-1.226,-6.759],[-1.226,-6.83],[-1.296,-6.9],[-1.345,-6.914],[-1.415,-6.963],[-1.464,-6.956],[-1.471,-6.83],[-1.457,-6.788],[-1.38,-6.626],[-1.352,-6.605],[-1.296,-6.513],[-1.198,-6.429],[-1.043,-6.359],[-0.826,-6.295],[-0.742,-6.232]]]]},"properties":{"abbr":"MdD","name":"medullary reticular nucleus, dorsal part","plate":60,"ap_bregma_mm":-12.85,"area_mm2":0.604,"traced_fraction":[0.87,0.909],"n_labels":2,"no_drawn_outline":false}},{"type":"Feature","geometry":{"type":"MultiPolygon","coordinates":[[[[0.815,-6.774],[0.822,-6.774],[0.829,-6.767],[0.85,-6.767],[0.85,-6.907],[0.997,-6.907],[1.039,-6.907],[1.039,-6.844],[1.025,-6.837],[1.025,-6.83],[1.032,-6.823],[1.039,-6.823],[1.193,-6.921],[1.375,-6.914],[1.396,-7.027],[1.453,-7.104],[1.425,-7.111],[1.425,-7.146],[1.404,-7.189],[1.326,-7.153],[1.256,-7.153],[1.151,-7.217],[1.137,-7.245],[1.109,-7.252],[0.976,-7.364],[0.829,-7.421],[0.646,-7.421],[0.534,-7.385],[0.436,-7.329],[0.429,-7.308],[0.471,-7.224],[0.45,-7.153],[0.338,-7.083],[0.289,-7.076],[0.282,-7.09],[0.268,-7.09],[0.254,-7.055],[0.163,-6.956],[0.275,-6.795],[0.317,-6.738],[0.359,-6.64],[0.394,-6.605],[0.443,-6.605],[0.541,-6.633],[0.562,-6.654],[0.583,-6.654],[0.773,-6.752],[0.78,-6.767],[0.815,-6.774]]],[[[-0.272,-6.963],[-0.307,-6.985],[-0.37,-7.104],[-0.433,-7.111],[-0.511,-7.125],[-0.567,-7.182],[-0.581,-7.252],[-0.567,-7.322],[-0.567,-7.336],[-0.574,-7.35],[-0.63,-7.371],[-0.777,-7.393],[-0.938,-7.399],[-1.036,-7.371],[-1.134,-7.315],[-1.373,-7.076],[-1.289,-6.999],[-1.212,-6.963],[-1.149,-6.914],[-1.113,-6.907],[-1.071,-6.872],[-1.05,-6.872],[-1.043,-6.851],[-1.022,-6.851],[-1.015,-6.837],[-0.7,-6.689],[-0.539,-6.633],[-0.483,-6.626],[-0.447,-6.647],[-0.391,-6.774],[-0.279,-6.928],[-0.272,-6.963]]]]},"properties":{"abbr":"MdV","name":"medullary reticular nucleus, ventral part","plate":60,"ap_bregma_mm":-12.85,"area_mm2":1.0772,"traced_fraction":[0.848,0.985],"n_labels":2,"no_drawn_outline":false}},{"type":"Feature","geometry":{"type":"MultiPolygon","coordinates":[[[[-0.034,-5.986],[0.099,-5.965],[0.142,-6.0],[0.177,-6.007],[0.177,-6.028],[0.198,-6.042],[0.177,-6.204],[0.156,-6.274],[0.135,-6.281],[0.135,-6.309],[0.106,-6.309],[0.078,-6.338],[0.043,-6.338],[0.015,-6.323],[-0.027,-6.267],[-0.062,-6.26],[-0.062,-6.281],[-0.076,-6.281],[-0.076,-6.295],[-0.09,-6.295],[-0.118,-6.33],[-0.16,-6.33],[-0.216,-6.281],[-0.244,-6.197],[-0.251,-6.007],[-0.258,-6.0],[-0.16,-5.965],[-0.034,-5.986]]]]},"properties":{"abbr":"MnA","name":"median accessory nucleus of the medulla","plate":60,"ap_bregma_mm":-12.85,"area_mm2":0.1374,"traced_fraction":[1.0],"n_labels":1,"no_drawn_outline":false}},{"type":"Feature","geometry":{"type":"MultiPolygon","coordinates":[[[[-0.216,-6.281],[-0.174,-6.323],[-0.118,-6.33],[-0.104,-6.401],[-0.013,-6.387],[0.071,-6.415],[0.106,-6.443],[0.142,-6.443],[0.156,-6.422],[0.184,-6.415],[0.212,-6.478],[0.296,-6.548],[0.366,-6.556],[0.401,-6.527],[0.436,-6.52],[0.618,-6.584],[0.822,-6.689],[0.85,-6.717],[0.829,-6.767],[0.822,-6.774],[0.815,-6.774],[0.78,-6.767],[0.773,-6.752],[0.583,-6.654],[0.562,-6.654],[0.541,-6.633],[0.443,-6.605],[0.394,-6.605],[0.359,-6.64],[0.317,-6.738],[0.275,-6.795],[0.177,-6.788],[0.233,-6.675],[0.226,-6.633],[0.177,-6.612],[0.114,-6.612],[0.064,-6.633],[0.057,-6.598],[-0.146,-6.598],[-0.146,-6.619],[-0.244,-6.605],[-0.251,-6.598],[-0.251,-6.527],[-0.293,-6.45],[-0.293,-6.373],[-0.272,-6.323],[-0.216,-6.281]]]]},"properties":{"abbr":"SolC","name":"nucleus of the solitary tract, commissural part","plate":60,"ap_bregma_mm":-12.85,"area_mm2":0.1843,"traced_fraction":[0.908],"n_labels":1,"no_drawn_outline":false}},{"type":"Feature","geometry":{"type":"MultiPolygon","coordinates":[[[[-0.763,-6.148],[-0.721,-6.155],[-0.721,-6.204],[-0.742,-6.211],[-0.742,-6.232],[-0.826,-6.295],[-1.079,-6.373],[-1.198,-6.429],[-1.254,-6.471],[-1.38,-6.626],[-1.429,-6.717],[-1.471,-6.83],[-1.464,-6.956],[-1.478,-6.992],[-1.527,-7.027],[-1.59,-7.048],[-1.695,-7.055],[-1.759,-7.006],[-1.822,-6.9],[-1.843,-6.802],[-1.829,-6.703],[-1.759,-6.542],[-1.702,-6.457],[-1.541,-6.288],[-1.324,-6.134],[-1.219,-6.084],[-1.092,-6.049],[-0.987,-6.042],[-0.917,-6.056],[-0.868,-6.077],[-0.798,-6.141],[-0.763,-6.148]]],[[[1.544,-7.132],[1.488,-7.132],[1.453,-7.104],[1.396,-7.027],[1.375,-6.914],[1.362,-6.759],[1.333,-6.675],[1.27,-6.57],[1.179,-6.478],[1.011,-6.38],[0.716,-6.267],[0.646,-6.197],[0.66,-6.162],[0.695,-6.119],[0.703,-6.112],[0.85,-6.063],[0.962,-6.042],[1.151,-6.056],[1.242,-6.084],[1.368,-6.148],[1.453,-6.211],[1.453,-6.225],[1.474,-6.232],[1.523,-6.295],[1.537,-6.295],[1.663,-6.478],[1.719,-6.696],[1.719,-6.837],[1.677,-6.999],[1.635,-7.062],[1.544,-7.132]]]]},"properties":{"abbr":"Sp5C","name":"spinal trigeminal nucleus, caudal part","plate":60,"ap_bregma_mm":-12.85,"area_mm2":0.9473,"traced_fraction":[1.0,0.994],"n_labels":1,"no_drawn_outline":false}},{"type":"Feature","geometry":{"type":"MultiPolygon","coordinates":[[[[0.85,-5.803],[0.822,-5.93],[0.709,-6.063],[0.703,-6.112],[0.695,-6.119],[0.66,-6.162],[0.646,-6.134],[0.464,-6.141],[0.394,-6.169],[0.345,-6.218],[0.254,-6.19],[0.177,-6.204],[0.198,-6.042],[0.226,-6.007],[0.254,-6.007],[0.45,-5.908],[0.724,-5.824],[0.85,-5.803]]],[[[-0.945,-5.81],[-0.693,-5.838],[-0.419,-5.923],[-0.279,-6.0],[-0.258,-6.0],[-0.251,-6.007],[-0.244,-6.197],[-0.314,-6.19],[-0.363,-6.225],[-0.504,-6.148],[-0.609,-6.141],[-0.623,-6.155],[-0.721,-6.155],[-0.763,-6.148],[-0.819,-6.0],[-0.931,-5.88],[-0.945,-5.81]]]]},"properties":{"abbr":"cu","name":"cuneate fasciculus","plate":60,"ap_bregma_mm":-12.85,"area_mm2":0.314,"traced_fraction":[1.0,1.0],"n_labels":2,"no_drawn_outline":false}},{"type":"Feature","geometry":{"type":"MultiPolygon","coordinates":[[[[-0.244,-6.197],[-0.216,-6.281],[-0.272,-6.323],[-0.293,-6.373],[-0.293,-6.45],[-0.251,-6.527],[-0.251,-6.598],[-0.258,-6.612],[-0.3,-6.619],[-0.384,-6.598],[-0.412,-6.57],[-0.433,-6.513],[-0.426,-6.352],[-0.391,-6.26],[-0.363,-6.225],[-0.314,-6.19],[-0.244,-6.197]]],[[[0.345,-6.218],[0.38,-6.288],[0.38,-6.366],[0.373,-6.401],[0.401,-6.492],[0.436,-6.499],[0.436,-6.52],[0.401,-6.527],[0.366,-6.556],[0.296,-6.548],[0.212,-6.478],[0.184,-6.415],[0.156,-6.309],[0.156,-6.274],[0.177,-6.204],[0.254,-6.19],[0.345,-6.218]]]]},"properties":{"abbr":"dcs","name":"dorsal corticospinal tract","plate":60,"ap_bregma_mm":-12.85,"area_mm2":0.1288,"traced_fraction":[0.994,1.0],"n_labels":2,"no_drawn_outline":false}},{"type":"Feature","geometry":{"type":"MultiPolygon","coordinates":[[[[-1.373,-7.076],[-1.134,-7.315],[-1.036,-7.371],[-1.036,-7.758],[-1.233,-7.709],[-1.457,-7.589],[-1.653,-7.421],[-1.773,-7.245],[-1.752,-7.224],[-1.632,-7.189],[-1.583,-7.153],[-1.373,-7.076]]],[[[1.404,-7.189],[1.404,-7.203],[1.537,-7.322],[1.537,-7.336],[1.411,-7.463],[1.411,-7.477],[1.242,-7.632],[1.186,-7.582],[1.186,-7.456],[1.158,-7.435],[1.158,-7.407],[1.144,-7.393],[1.137,-7.245],[1.151,-7.217],[1.256,-7.153],[1.326,-7.153],[1.404,-7.189]]]]},"properties":{"abbr":"dsc","name":"dorsal spinocerebellar tract","plate":60,"ap_bregma_mm":-12.85,"area_mm2":0.4026,"traced_fraction":[0.838,0.7],"n_labels":2,"no_drawn_outline":false}},{"type":"Feature","geometry":{"type":"MultiPolygon","coordinates":[[[[0.163,-6.956],[0.254,-7.055],[0.268,-7.09],[0.282,-7.09],[0.282,-7.125],[0.324,-7.196],[0.324,-7.217],[0.408,-7.308],[0.394,-7.308],[0.317,-7.385],[0.317,-7.498],[0.261,-7.554],[0.043,-7.554],[0.022,-7.393],[0.05,-7.104],[0.092,-7.013],[0.163,-6.956]]],[[[-0.272,-6.963],[-0.244,-6.992],[-0.209,-7.076],[-0.188,-7.146],[-0.181,-7.273],[-0.167,-7.294],[-0.16,-7.456],[-0.181,-7.646],[-0.405,-7.646],[-0.405,-7.864],[-0.679,-7.793],[-0.777,-7.786],[-0.777,-7.393],[-0.63,-7.371],[-0.574,-7.35],[-0.567,-7.336],[-0.553,-7.329],[-0.518,-7.322],[-0.426,-7.238],[-0.419,-7.196],[-0.433,-7.111],[-0.37,-7.104],[-0.307,-6.985],[-0.272,-6.963]]]]},"properties":{"abbr":"mlf","name":"medial longitudinal fasciculus","plate":60,"ap_bregma_mm":-12.85,"area_mm2":0.4721,"traced_fraction":[0.713,0.719],"n_labels":2,"no_drawn_outline":true}},{"type":"Feature","geometry":{"type":"MultiPolygon","coordinates":[[[[-0.433,-6.513],[-0.412,-6.57],[-0.384,-6.598],[-0.3,-6.619],[-0.3,-6.689],[-0.209,-6.816],[-0.195,-6.816],[-0.16,-6.858],[-0.118,-6.858],[-0.076,-6.816],[0.043,-6.816],[0.092,-6.844],[0.12,-6.844],[0.148,-6.802],[0.177,-6.788],[0.275,-6.795],[0.163,-6.956],[0.092,-7.013],[0.05,-7.104],[0.022,-7.393],[0.043,-7.554],[0.057,-7.618],[0.114,-7.73],[0.226,-7.836],[0.233,-7.864],[0.036,-7.864],[-0.055,-7.814],[-0.076,-7.786],[-0.097,-7.786],[-0.104,-7.814],[-0.153,-7.829],[-0.174,-7.857],[-0.216,-7.878],[-0.37,-7.871],[-0.37,-7.864],[-0.342,-7.829],[-0.279,-7.8],[-0.216,-7.744],[-0.181,-7.646],[-0.16,-7.456],[-0.167,-7.294],[-0.181,-7.273],[-0.181,-7.196],[-0.209,-7.076],[-0.244,-6.992],[-0.272,-6.963],[-0.279,-6.928],[-0.391,-6.774],[-0.447,-6.647],[-0.483,-6.626],[-0.665,-6.675],[-0.917,-6.788],[-1.022,-6.851],[-1.043,-6.851],[-1.079,-6.795],[-1.064,-6.759],[-0.833,-6.633],[-0.511,-6.52],[-0.433,-6.513]]]]},"properties":{"abbr":"pyx","name":"pyramidal decussation","plate":60,"ap_bregma_mm":-12.85,"area_mm2":0.4154,"traced_fraction":[0.987],"n_labels":1,"no_drawn_outline":false}},{"type":"Feature","geometry":{"type":"MultiPolygon","coordinates":[[[[1.453,-7.104],[1.488,-7.132],[1.544,-7.132],[1.558,-7.167],[1.691,-7.153],[1.698,-7.167],[1.663,-7.21],[1.635,-7.238],[1.628,-7.231],[1.593,-7.266],[1.6,-7.273],[1.551,-7.322],[1.537,-7.322],[1.439,-7.224],[1.425,-7.224],[1.404,-7.189],[1.425,-7.146],[1.425,-7.111],[1.453,-7.104]]]]},"properties":{"abbr":"rs","name":"rubrospinal tract","plate":60,"ap_bregma_mm":-12.85,"area_mm2":0.032,"traced_fraction":[0.95],"n_labels":1,"no_drawn_outline":false}},{"type":"Feature","geometry":{"type":"MultiPolygon","coordinates":[[[[1.719,-7.146],[1.698,-7.146],[1.698,-7.139],[1.698,-7.097],[1.726,-7.069],[1.782,-6.949],[1.817,-6.809],[1.824,-6.71],[1.775,-6.471],[1.733,-6.394],[1.719,-6.338],[1.663,-6.253],[1.46,-6.056],[1.249,-5.93],[1.074,-5.88],[0.976,-5.88],[0.822,-5.93],[0.85,-5.803],[0.913,-5.789],[1.116,-5.796],[1.326,-5.838],[1.495,-5.908],[1.628,-5.993],[1.754,-6.119],[1.831,-6.232],[1.901,-6.415],[1.915,-6.647],[1.887,-6.816],[1.831,-6.978],[1.747,-7.125],[1.719,-7.146]]],[[[-0.945,-5.81],[-0.931,-5.88],[-1.1,-5.894],[-1.296,-5.979],[-1.534,-6.141],[-1.738,-6.316],[-1.738,-6.338],[-1.815,-6.422],[-1.829,-6.471],[-1.864,-6.513],[-1.92,-6.668],[-1.927,-6.851],[-1.906,-6.935],[-1.871,-7.006],[-1.934,-7.02],[-2.004,-6.865],[-2.018,-6.661],[-1.99,-6.52],[-1.962,-6.45],[-1.85,-6.253],[-1.66,-6.063],[-1.436,-5.923],[-1.296,-5.859],[-1.149,-5.817],[-1.015,-5.803],[-0.945,-5.81]]]]},"properties":{"abbr":"sp5","name":"spinal trigeminal tract","plate":60,"ap_bregma_mm":-12.85,"area_mm2":0.4129,"traced_fraction":[1.0,1.0],"n_labels":2,"no_drawn_outline":false}},{"type":"Feature","geometry":{"type":"MultiPolygon","coordinates":[[[[-1.296,-6.9],[-1.289,-6.999],[-1.373,-7.076],[-1.583,-7.153],[-1.632,-7.189],[-1.752,-7.224],[-1.773,-7.245],[-1.857,-7.132],[-1.934,-7.02],[-1.871,-7.006],[-1.822,-7.062],[-1.78,-7.083],[-1.723,-7.083],[-1.695,-7.055],[-1.59,-7.048],[-1.527,-7.027],[-1.478,-6.992],[-1.464,-6.956],[-1.415,-6.963],[-1.345,-6.914],[-1.296,-6.9]]],[[[0.408,-7.308],[0.429,-7.308],[0.436,-7.329],[0.534,-7.385],[0.534,-7.857],[0.303,-7.85],[0.233,-7.864],[0.226,-7.836],[0.114,-7.73],[0.071,-7.653],[0.043,-7.554],[0.261,-7.554],[0.317,-7.498],[0.317,-7.385],[0.394,-7.308],[0.408,-7.308]]],[[[-0.181,-7.646],[-0.216,-7.744],[-0.258,-7.786],[-0.342,-7.829],[-0.37,-7.864],[-0.384,-7.864],[-0.405,-7.864],[-0.405,-7.646],[-0.181,-7.646]]],[[[-0.384,-7.864],[-0.37,-7.864],[-0.37,-7.871],[-0.384,-7.864]]]]},"properties":{"abbr":"ts","name":"tectospinal tract","plate":60,"ap_bregma_mm":-12.85,"area_mm2":0.2842,"traced_fraction":[0.97,0.535,0.522,1.0],"n_labels":3,"no_drawn_outline":true}},{"type":"Feature","geometry":{"type":"MultiPolygon","coordinates":[[[[1.137,-7.245],[1.144,-7.393],[1.158,-7.407],[1.158,-7.435],[1.186,-7.456],[1.186,-7.582],[1.242,-7.632],[1.186,-7.688],[1.081,-7.751],[0.955,-7.8],[0.801,-7.843],[0.534,-7.857],[0.534,-7.385],[0.646,-7.421],[0.829,-7.421],[0.976,-7.364],[1.109,-7.252],[1.137,-7.245]]],[[[-1.036,-7.371],[-0.938,-7.399],[-0.777,-7.393],[-0.777,-7.786],[-1.036,-7.758],[-1.036,-7.371]]]]},"properties":{"abbr":"vsc","name":"ventral spinocerebellar tract","plate":60,"ap_bregma_mm":-12.85,"area_mm2":0.3803,"traced_fraction":[0.662,0.505],"n_labels":2,"no_drawn_outline":true}},{"type":"Feature","geometry":{"type":"Polygon","coordinates":[[[0.632,-6.204],[0.597,-6.295],[0.464,-6.478],[0.436,-6.499],[0.401,-6.492],[0.373,-6.401],[0.38,-6.366],[0.422,-6.352],[0.59,-6.218],[0.632,-6.204]]]},"properties":{"abbr":null,"name":"unnamed sealed face","plate":60,"ap_bregma_mm":-12.85,"index":0}},{"type":"Feature","geometry":{"type":"Polygon","coordinates":[[[0.135,-6.309],[0.156,-6.309],[0.184,-6.415],[0.156,-6.422],[0.142,-6.443],[0.106,-6.443],[0.071,-6.415],[-0.013,-6.387],[-0.104,-6.401],[-0.118,-6.33],[-0.09,-6.295],[-0.076,-6.295],[-0.076,-6.281],[-0.062,-6.281],[-0.062,-6.26],[-0.027,-6.267],[-0.02,-6.288],[0.043,-6.338],[0.078,-6.338],[0.106,-6.309],[0.135,-6.309]]]},"properties":{"abbr":null,"name":"unnamed sealed face","plate":60,"ap_bregma_mm":-12.85,"index":1}},{"type":"Feature","geometry":{"type":"Polygon","coordinates":[[[0.064,-6.633],[0.022,-6.682],[0.008,-6.682],[0.043,-6.816],[-0.076,-6.816],[-0.09,-6.809],[-0.083,-6.724],[-0.097,-6.717],[-0.097,-6.668],[-0.132,-6.647],[-0.146,-6.619],[-0.146,-6.598],[0.057,-6.598],[0.064,-6.633]]]},"properties":{"abbr":null,"name":"unnamed sealed face","plate":60,"ap_bregma_mm":-12.85,"index":2}},{"type":"Feature","geometry":{"type":"MultiPolygon","coordinates":[[[[-0.23,-7.871],[-0.342,-7.871],[-0.7,-7.786],[-1.057,-7.751],[-1.226,-7.702],[-1.338,-7.653],[-1.464,-7.575],[-1.646,-7.421],[-1.941,-7.013],[-2.004,-6.851],[-2.018,-6.675],[-1.99,-6.527],[-1.927,-6.373],[-1.843,-6.246],[-1.668,-6.07],[-1.478,-5.944],[-1.289,-5.859],[-1.142,-5.817],[-0.973,-5.803],[-0.707,-5.838],[-0.433,-5.923],[-0.272,-6.0],[-0.153,-5.965],[-0.062,-5.986],[0.092,-5.965],[0.156,-6.007],[0.24,-6.007],[0.415,-5.923],[0.73,-5.824],[0.927,-5.789],[1.095,-5.796],[1.312,-5.838],[1.516,-5.923],[1.628,-6.0],[1.74,-6.112],[1.831,-6.246],[1.894,-6.422],[1.908,-6.619],[1.88,-6.802],[1.817,-6.985],[1.733,-7.125],[1.341,-7.533],[1.186,-7.674],[1.046,-7.758],[0.829,-7.829],[0.625,-7.85],[0.331,-7.843],[0.226,-7.857],[0.036,-7.857],[-0.048,-7.807],[-0.125,-7.807],[-0.209,-7.864],[-0.23,-7.871]]]]},"properties":{"abbr":"brain_outline","name":"outline of the section","plate":60,"ap_bregma_mm":-12.85}}]}
