{"type":"FeatureCollection","name":"GerbilAtlas plate 43","note":"Region extents cut from the atlas drawing (METHODS.md, Region extents). Coordinates are [ML, DV] in mm, ML positive to the right of the plate as printed, DV negative below the dorsal surface; AP is the plate bregma. traced_fraction is the share of each polygon boundary the atlas actually draws; below 0.5 the boundary is an estimate. no_drawn_outline marks a feature that lies only inside boundaries the atlas draws round more than one name and prints nothing within, so the whole of its outline is where the extraction cut it. Not a segmentation.","plate":43,"ap_bregma_mm":-6.9,"features":[{"type":"Feature","geometry":{"type":"MultiPolygon","coordinates":[[[[0.736,-3.592],[0.905,-3.606],[1.003,-3.656],[1.031,-3.656],[1.024,-3.677],[1.045,-3.691],[1.094,-3.775],[1.129,-3.803],[1.129,-3.86],[1.164,-3.965],[1.171,-4.035],[1.164,-4.169],[1.129,-4.274],[1.073,-4.359],[1.038,-4.387],[1.024,-4.422],[1.01,-4.422],[0.897,-4.457],[0.512,-4.443],[0.414,-4.45],[0.393,-4.472],[0.365,-4.478],[0.189,-4.478],[0.112,-4.507],[0.007,-4.514],[-0.168,-4.514],[-0.238,-4.514],[-0.596,-4.485],[-0.813,-4.485],[-0.848,-4.472],[-0.932,-4.436],[-1.003,-4.436],[-1.213,-4.331],[-1.318,-4.232],[-1.36,-4.155],[-1.381,-4.071],[-1.374,-3.909],[-1.325,-3.796],[-1.185,-3.691],[-1.024,-3.642],[-0.813,-3.62],[-0.792,-3.599],[-0.708,-3.613],[-0.673,-3.599],[-0.477,-3.585],[-0.393,-3.592],[-0.168,-3.578],[0.407,-3.578],[0.645,-3.599],[0.736,-3.592]]]]},"properties":{"abbr":"2Cb","name":"2nd cerebellar lobule","plate":43,"ap_bregma_mm":-6.9,"area_mm2":2.089,"traced_fraction":[1.0],"n_labels":1,"no_drawn_outline":false}},{"type":"Feature","geometry":{"type":"MultiPolygon","coordinates":[[[[0.337,-2.143],[0.358,-2.193],[0.372,-2.193],[0.4,-2.242],[0.414,-2.242],[0.47,-2.333],[0.477,-2.467],[0.463,-2.516],[0.372,-2.678],[0.358,-2.734],[0.329,-2.741],[0.238,-2.847],[0.077,-2.917],[0.077,-2.938],[0.182,-2.952],[0.337,-3.002],[0.428,-3.065],[0.47,-3.086],[0.505,-3.086],[0.596,-3.156],[0.813,-3.381],[0.806,-3.501],[0.75,-3.564],[0.736,-3.564],[0.736,-3.592],[0.645,-3.599],[0.407,-3.578],[-0.168,-3.578],[-0.393,-3.592],[-0.477,-3.585],[-0.673,-3.599],[-0.708,-3.613],[-0.792,-3.599],[-0.911,-3.501],[-0.911,-3.409],[-0.841,-3.318],[-0.694,-3.205],[-0.631,-3.177],[-0.617,-3.156],[-0.589,-3.135],[-0.554,-3.128],[-0.379,-3.03],[-0.161,-2.966],[-0.133,-2.945],[-0.175,-2.917],[-0.224,-2.917],[-0.323,-2.889],[-0.456,-2.805],[-0.505,-2.79],[-0.519,-2.734],[-0.561,-2.671],[-0.61,-2.551],[-0.603,-2.502],[-0.617,-2.474],[-0.624,-2.376],[-0.589,-2.284],[-0.596,-2.263],[-0.589,-2.242],[-0.526,-2.214],[-0.407,-2.122],[-0.224,-2.052],[0.056,-2.045],[0.245,-2.094],[0.337,-2.143]]]]},"properties":{"abbr":"3Cb","name":"3rd cerebellar lobule","plate":43,"ap_bregma_mm":-6.9,"area_mm2":1.6183,"traced_fraction":[1.0],"n_labels":2,"no_drawn_outline":false}},{"type":"Feature","geometry":{"type":"MultiPolygon","coordinates":[[[[1.178,-1.961],[1.066,-2.073],[1.045,-2.073],[0.996,-2.108],[0.884,-2.136],[0.855,-2.15],[0.841,-2.179],[0.827,-2.179],[0.771,-2.179],[0.666,-2.214],[0.533,-2.214],[0.463,-2.193],[0.4,-2.15],[0.337,-2.143],[0.245,-2.094],[0.056,-2.045],[-0.224,-2.052],[-0.407,-2.122],[-0.526,-2.214],[-0.589,-2.242],[-0.596,-2.263],[-0.659,-2.284],[-0.855,-2.277],[-0.862,-2.263],[-1.129,-2.136],[-1.192,-2.024],[-1.178,-1.89],[-1.08,-1.785],[-1.066,-1.785],[-0.961,-1.686],[-0.855,-1.623],[-0.666,-1.546],[-0.477,-1.489],[-0.21,-1.447],[-0.203,-1.433],[0.175,-1.426],[0.484,-1.475],[0.75,-1.56],[0.89,-1.623],[1.017,-1.707],[1.129,-1.82],[1.164,-1.883],[1.178,-1.961]]]]},"properties":{"abbr":"4Cb","name":"4th cerebellar lobule","plate":43,"ap_bregma_mm":-6.9,"area_mm2":1.3918,"traced_fraction":[1.0],"n_labels":1,"no_drawn_outline":false}},{"type":"Feature","geometry":{"type":"MultiPolygon","coordinates":[[[[-0.848,-4.472],[-0.813,-4.485],[-0.596,-4.485],[-0.238,-4.514],[-0.224,-4.549],[-0.168,-4.549],[-0.063,-4.556],[-0.021,-4.542],[0.007,-4.514],[0.112,-4.507],[0.189,-4.478],[0.365,-4.478],[0.365,-4.739],[0.147,-4.795],[-0.056,-4.915],[-0.175,-4.915],[-0.449,-4.76],[-0.743,-4.689],[-0.968,-4.619],[-1.01,-4.57],[-1.003,-4.535],[-0.975,-4.514],[-0.855,-4.493],[-0.848,-4.472]]]]},"properties":{"abbr":"4V","name":"4th ventricle","plate":43,"ap_bregma_mm":-6.9,"area_mm2":0.371,"traced_fraction":[0.939],"n_labels":1,"no_drawn_outline":false}},{"type":"Feature","geometry":{"type":"MultiPolygon","coordinates":[[[[2.174,-4.099],[2.237,-4.12],[2.279,-4.155],[2.321,-4.162],[2.377,-4.225],[2.412,-4.317],[2.342,-4.352],[2.216,-4.366],[2.16,-4.387],[2.145,-4.239],[2.174,-4.099]]],[[[0.393,-4.472],[0.4,-4.493],[0.442,-4.507],[0.722,-4.528],[0.75,-4.549],[0.75,-4.577],[0.722,-4.605],[0.533,-4.697],[0.365,-4.739],[0.365,-4.478],[0.393,-4.472]]]]},"properties":{"abbr":"4n","name":"trochlear nerve","plate":43,"ap_bregma_mm":-6.9,"area_mm2":0.1125,"traced_fraction":[1.0,0.828],"n_labels":2,"no_drawn_outline":false}},{"type":"Feature","geometry":{"type":"MultiPolygon","coordinates":[[[[1.36,-1.314],[1.465,-1.51],[1.479,-1.51],[1.479,-1.539],[1.522,-1.623],[1.564,-1.637],[1.606,-1.743],[1.655,-1.813],[1.634,-1.813],[1.641,-1.876],[1.697,-2.017],[1.697,-2.108],[1.662,-2.165],[1.451,-2.115],[1.409,-2.108],[1.374,-2.066],[1.318,-2.038],[1.304,-2.017],[1.178,-1.961],[1.164,-1.883],[1.129,-1.82],[1.017,-1.707],[0.89,-1.623],[0.75,-1.56],[0.484,-1.475],[0.175,-1.426],[-0.203,-1.433],[-0.21,-1.447],[-0.477,-1.489],[-0.666,-1.546],[-0.855,-1.623],[-0.961,-1.686],[-1.066,-1.785],[-1.08,-1.785],[-1.178,-1.89],[-1.248,-1.911],[-1.283,-1.954],[-1.444,-2.045],[-1.458,-2.066],[-1.493,-2.08],[-1.508,-2.108],[-1.55,-2.129],[-1.648,-2.143],[-1.949,-2.228],[-2.019,-2.214],[-2.061,-2.143],[-2.075,-2.115],[-2.047,-2.094],[-1.991,-1.975],[-1.683,-1.56],[-1.634,-1.482],[-1.613,-1.405],[-1.585,-1.398],[-1.563,-1.363],[-1.536,-1.349],[-1.536,-1.335],[-1.353,-1.124],[-1.311,-1.103],[-1.073,-0.899],[-0.989,-0.863],[-0.975,-0.842],[-0.876,-0.793],[-0.512,-0.667],[-0.224,-0.624],[0.028,-0.617],[0.295,-0.617],[0.498,-0.638],[0.68,-0.681],[0.918,-0.779],[1.115,-0.927],[1.157,-0.997],[1.178,-1.004],[1.192,-1.039],[1.255,-1.11],[1.36,-1.314]]],[[[-2.741,-3.494],[-2.664,-3.494],[-2.622,-3.522],[-2.58,-3.627],[-2.594,-3.958],[-2.629,-4.134],[-2.671,-4.239],[-2.72,-4.303],[-2.812,-4.38],[-2.917,-4.535],[-3.078,-4.654],[-3.106,-4.689],[-3.183,-4.647],[-3.26,-4.57],[-3.373,-4.394],[-3.415,-4.359],[-3.415,-4.331],[-3.394,-4.296],[-3.358,-4.127],[-3.267,-4.0],[-3.134,-3.909],[-2.987,-3.838],[-2.959,-3.789],[-2.959,-3.761],[-2.833,-3.634],[-2.741,-3.494]]],[[[2.503,-3.782],[2.594,-3.902],[2.72,-4.028],[2.804,-4.092],[2.798,-4.106],[2.819,-4.134],[2.938,-4.211],[2.966,-4.211],[2.966,-4.225],[3.064,-4.274],[3.12,-4.303],[3.085,-4.338],[3.043,-4.584],[3.029,-4.584],[3.001,-4.619],[2.959,-4.697],[2.875,-4.767],[2.833,-4.781],[2.734,-4.781],[2.678,-4.732],[2.433,-4.331],[2.412,-4.317],[2.377,-4.225],[2.321,-4.162],[2.3,-4.085],[2.3,-3.993],[2.335,-3.86],[2.377,-3.789],[2.405,-3.768],[2.503,-3.782]]]]},"properties":{"abbr":"5Cb","name":"5th cerebellar lobule","plate":43,"ap_bregma_mm":-6.9,"area_mm2":3.8393,"traced_fraction":[1.0,1.0,1.0],"n_labels":3,"no_drawn_outline":false}},{"type":"Feature","geometry":{"type":"MultiPolygon","coordinates":[[[[2.082,-6.18],[2.061,-6.286],[1.949,-6.567],[1.935,-6.567],[1.9,-6.518],[1.83,-6.356],[1.837,-6.3],[1.872,-6.237],[1.97,-6.188],[2.082,-6.18]]]]},"properties":{"abbr":"5TT","name":"motor trigeminal nucleus, tensor tympani part","plate":43,"ap_bregma_mm":-6.9,"area_mm2":0.0572,"traced_fraction":[1.0],"n_labels":1,"no_drawn_outline":false}},{"type":"Feature","geometry":{"type":"MultiPolygon","coordinates":[[[[1.451,-7.489],[1.416,-7.615],[1.423,-7.693],[1.451,-7.7],[1.5,-7.742],[1.543,-7.742],[1.669,-7.693],[1.774,-7.622],[1.802,-7.622],[1.767,-7.749],[1.746,-7.749],[1.725,-7.777],[1.571,-7.854],[1.381,-7.897],[1.213,-7.89],[1.129,-7.854],[1.101,-7.819],[1.15,-7.749],[1.115,-7.693],[1.227,-7.573],[1.374,-7.496],[1.451,-7.489]]],[[[-1.578,-7.735],[-1.563,-7.735],[-1.437,-7.812],[-1.388,-7.854],[-1.388,-7.869],[-1.325,-7.883],[-1.276,-7.904],[-1.269,-7.932],[-1.304,-7.96],[-1.318,-8.058],[-1.346,-8.087],[-1.381,-8.094],[-1.472,-8.094],[-1.592,-8.065],[-1.676,-8.016],[-1.739,-7.96],[-1.795,-7.932],[-1.83,-7.932],[-1.914,-7.897],[-1.998,-7.826],[-1.998,-7.812],[-1.977,-7.791],[-1.949,-7.791],[-1.921,-7.826],[-1.844,-7.869],[-1.746,-7.876],[-1.641,-7.826],[-1.627,-7.798],[-1.599,-7.784],[-1.578,-7.735]]]]},"properties":{"abbr":"CAT","name":"nucleus of the central acoustic tract","plate":43,"ap_bregma_mm":-6.9,"area_mm2":0.2681,"traced_fraction":[0.979,0.989],"n_labels":2,"no_drawn_outline":false}},{"type":"Feature","geometry":{"type":"MultiPolygon","coordinates":[[[[0.421,-5.161],[0.603,-5.301],[0.694,-5.4],[0.631,-5.442],[0.505,-5.491],[0.365,-5.512],[0.344,-5.491],[0.308,-5.484],[0.161,-5.477],[0.049,-5.512],[0.0,-5.576],[-0.028,-5.576],[-0.056,-5.351],[-0.056,-5.301],[-0.042,-5.301],[0.014,-5.344],[0.098,-5.372],[0.196,-5.372],[0.245,-5.308],[0.287,-5.344],[0.323,-5.344],[0.358,-5.323],[0.393,-5.273],[0.421,-5.161]]]]},"properties":{"abbr":"CG","name":"central gray","plate":43,"ap_bregma_mm":-6.9,"area_mm2":0.132,"traced_fraction":[1.0],"n_labels":1,"no_drawn_outline":false}},{"type":"Feature","geometry":{"type":"MultiPolygon","coordinates":[[[[-2.328,-3.522],[-2.293,-3.522],[-2.18,-3.649],[-2.068,-3.733],[-1.942,-3.796],[-1.851,-3.817],[-1.753,-3.845],[-1.648,-3.845],[-1.536,-3.831],[-1.388,-3.775],[-1.346,-3.775],[-1.325,-3.796],[-1.374,-3.909],[-1.395,-3.909],[-1.423,-3.937],[-1.465,-4.064],[-1.458,-4.169],[-1.43,-4.246],[-1.409,-4.26],[-1.388,-4.31],[-1.276,-4.401],[-1.157,-4.45],[-1.01,-4.457],[-1.003,-4.436],[-0.932,-4.436],[-0.848,-4.472],[-0.855,-4.493],[-0.975,-4.514],[-1.003,-4.535],[-1.01,-4.57],[-0.968,-4.619],[-0.743,-4.689],[-0.449,-4.76],[-0.175,-4.915],[-0.056,-4.915],[0.147,-4.795],[0.365,-4.739],[0.533,-4.697],[0.722,-4.605],[0.75,-4.577],[0.75,-4.549],[0.722,-4.528],[0.442,-4.507],[0.4,-4.493],[0.393,-4.472],[0.414,-4.45],[0.512,-4.443],[0.897,-4.457],[1.01,-4.422],[1.01,-4.436],[1.003,-4.443],[1.017,-4.443],[0.996,-4.457],[0.996,-4.507],[0.933,-4.514],[0.862,-4.57],[0.841,-4.619],[0.841,-4.682],[0.918,-4.865],[0.939,-4.879],[0.982,-4.957],[1.031,-4.999],[1.052,-4.999],[1.052,-5.02],[1.066,-5.02],[1.052,-5.041],[1.052,-5.09],[1.038,-5.09],[1.031,-5.119],[0.968,-5.203],[0.961,-5.203],[0.855,-5.069],[0.771,-4.879],[0.736,-4.844],[0.666,-4.823],[0.596,-4.823],[0.393,-4.851],[0.259,-4.9],[0.217,-4.943],[0.168,-4.922],[0.084,-4.922],[-0.049,-4.964],[-0.175,-4.964],[-0.358,-4.915],[-0.442,-4.922],[-0.456,-4.943],[-0.554,-4.879],[-0.673,-4.844],[-0.834,-4.823],[-0.919,-4.83],[-0.996,-4.879],[-1.052,-5.013],[-1.171,-5.175],[-1.262,-5.083],[-1.248,-5.02],[-1.213,-4.999],[-1.15,-4.858],[-1.101,-4.711],[-1.094,-4.626],[-1.115,-4.563],[-1.15,-4.528],[-1.227,-4.493],[-1.262,-4.493],[-1.367,-4.394],[-1.472,-4.345],[-1.521,-4.338],[-1.563,-4.282],[-1.648,-4.239],[-1.711,-4.225],[-1.83,-4.232],[-1.942,-4.274],[-2.033,-4.331],[-2.138,-4.464],[-2.454,-4.45],[-2.307,-4.197],[-2.244,-3.972],[-2.237,-3.817],[-2.279,-3.677],[-2.321,-3.592],[-2.328,-3.522]]],[[[1.213,-3.853],[1.409,-3.944],[1.507,-3.965],[1.627,-3.965],[1.627,-4.289],[1.535,-4.253],[1.416,-4.246],[1.311,-4.296],[1.262,-4.345],[1.206,-4.366],[1.15,-4.366],[1.15,-4.345],[1.22,-4.246],[1.276,-4.078],[1.276,-4.007],[1.262,-3.972],[1.192,-3.874],[1.192,-3.86],[1.213,-3.853]]]]},"properties":{"abbr":"CnF","name":"cuneiform nucleus","plate":43,"ap_bregma_mm":-6.9,"area_mm2":1.12,"traced_fraction":[0.98,0.857],"n_labels":2,"no_drawn_outline":false}},{"type":"Feature","geometry":{"type":"MultiPolygon","coordinates":[[[[3.113,-2.115],[2.896,-1.806],[2.91,-1.785],[2.938,-1.778],[2.952,-1.707],[3.008,-1.672],[3.148,-1.672],[3.204,-1.686],[3.351,-1.757],[3.422,-1.806],[3.527,-1.904],[3.548,-1.947],[3.597,-1.996],[3.681,-2.172],[3.688,-2.249],[3.688,-2.333],[3.639,-2.502],[3.618,-2.53],[3.541,-2.53],[3.457,-2.481],[3.443,-2.453],[3.393,-2.418],[3.169,-2.101],[3.155,-2.094],[3.113,-2.115]]],[[[-2.994,-1.757],[-3.001,-1.785],[-2.987,-1.806],[-3.001,-1.806],[-3.022,-1.862],[-3.155,-2.024],[-3.169,-2.073],[-3.225,-2.136],[-3.267,-2.2],[-3.295,-2.277],[-3.323,-2.298],[-3.379,-2.39],[-3.513,-2.664],[-3.604,-2.917],[-3.646,-2.924],[-3.772,-2.861],[-3.828,-2.762],[-3.821,-2.601],[-3.772,-2.467],[-3.681,-2.291],[-3.513,-2.052],[-3.351,-1.876],[-3.302,-1.855],[-3.281,-1.827],[-3.085,-1.736],[-3.036,-1.736],[-3.029,-1.75],[-2.994,-1.757]]]]},"properties":{"abbr":"Crus1","name":"crus 1 of the ansiform lobule","plate":43,"ap_bregma_mm":-6.9,"area_mm2":0.7201,"traced_fraction":[0.895,1.0],"n_labels":1,"no_drawn_outline":false}},{"type":"Feature","geometry":{"type":"MultiPolygon","coordinates":[[[[1.409,-2.108],[1.451,-2.115],[1.451,-2.158],[1.507,-2.214],[1.556,-2.298],[1.585,-2.404],[1.585,-2.516],[1.402,-2.558],[1.234,-2.65],[1.059,-2.833],[0.975,-2.959],[0.961,-3.002],[0.491,-3.002],[0.477,-3.023],[0.456,-3.023],[0.442,-3.002],[0.407,-2.987],[0.407,-2.973],[0.393,-2.973],[0.344,-2.917],[0.337,-2.861],[0.358,-2.734],[0.372,-2.678],[0.456,-2.53],[0.477,-2.467],[0.498,-2.467],[0.533,-2.439],[0.568,-2.383],[0.638,-2.326],[0.645,-2.305],[0.729,-2.249],[0.778,-2.235],[0.827,-2.179],[0.841,-2.179],[0.884,-2.186],[0.975,-2.15],[1.213,-2.108],[1.409,-2.108]]],[[[-1.129,-2.136],[-0.862,-2.263],[-0.855,-2.277],[-0.855,-2.298],[-0.813,-2.354],[-0.757,-2.39],[-0.631,-2.551],[-0.61,-2.551],[-0.61,-2.572],[-0.519,-2.734],[-0.505,-2.79],[-0.498,-2.959],[-0.519,-2.994],[-1.136,-2.994],[-1.15,-2.994],[-1.206,-2.84],[-1.276,-2.713],[-1.339,-2.65],[-1.444,-2.587],[-1.5,-2.418],[-1.514,-2.333],[-1.521,-2.214],[-1.508,-2.122],[-1.276,-2.122],[-1.206,-2.143],[-1.129,-2.136]]]]},"properties":{"abbr":"DCIC","name":"dorsal cortex of the inferior colliculus","plate":43,"ap_bregma_mm":-6.9,"area_mm2":1.3341,"traced_fraction":[0.877,0.826],"n_labels":2,"no_drawn_outline":false}},{"type":"Feature","geometry":{"type":"MultiPolygon","coordinates":[[[[-1.136,-2.994],[-0.519,-2.994],[-0.519,-3.016],[-0.589,-3.1],[-0.589,-3.135],[-0.617,-3.156],[-0.61,-3.135],[-0.638,-3.135],[-0.771,-3.191],[-0.982,-3.346],[-1.01,-3.311],[-1.08,-3.093],[-1.108,-3.037],[-1.136,-3.016],[-1.136,-2.994]]],[[[0.961,-3.002],[0.947,-3.03],[0.939,-3.156],[0.918,-3.163],[0.912,-3.191],[0.912,-3.339],[0.905,-3.417],[0.89,-3.43],[0.813,-3.381],[0.596,-3.156],[0.505,-3.086],[0.477,-3.023],[0.491,-3.002],[0.961,-3.002]]]]},"properties":{"abbr":"DMIC","name":"dorsomedial nucleus of the inferior colliculus","plate":43,"ap_bregma_mm":-6.9,"area_mm2":0.234,"traced_fraction":[0.665,0.711],"n_labels":2,"no_drawn_outline":true}},{"type":"Feature","geometry":{"type":"MultiPolygon","coordinates":[[[[-0.687,-5.168],[-0.673,-5.266],[-0.624,-5.329],[-0.491,-5.379],[-0.4,-5.372],[-0.302,-5.344],[-0.238,-5.308],[-0.21,-5.273],[-0.182,-5.266],[-0.175,-5.344],[-0.217,-5.667],[-0.21,-5.801],[-0.182,-5.906],[-0.154,-5.948],[-0.119,-5.963],[-0.063,-5.941],[-0.042,-5.892],[-0.028,-5.702],[0.0,-5.716],[0.063,-5.716],[0.182,-5.604],[0.365,-5.512],[0.505,-5.491],[0.631,-5.442],[0.694,-5.4],[0.701,-5.4],[0.771,-5.505],[0.771,-5.527],[0.862,-5.611],[0.926,-5.625],[0.926,-5.695],[0.939,-5.702],[0.968,-5.794],[1.01,-5.85],[1.01,-5.871],[1.045,-5.913],[1.108,-6.061],[1.136,-6.096],[1.143,-6.131],[1.087,-6.131],[0.841,-6.061],[0.659,-6.061],[0.498,-6.117],[0.442,-6.124],[0.112,-6.174],[0.042,-6.174],[0.014,-6.167],[-0.014,-6.138],[-0.049,-6.138],[-0.084,-6.174],[-0.091,-6.265],[-0.105,-6.286],[-0.126,-6.279],[-0.133,-6.188],[-0.161,-6.138],[-0.196,-6.138],[-0.231,-6.167],[-0.407,-6.174],[-0.533,-6.152],[-0.582,-6.131],[-0.638,-6.131],[-0.827,-6.033],[-0.968,-5.984],[-1.101,-5.977],[-1.325,-6.012],[-1.318,-5.963],[-1.283,-5.913],[-1.262,-5.843],[-1.227,-5.794],[-1.206,-5.73],[-1.171,-5.688],[-1.171,-5.639],[-1.129,-5.625],[-1.08,-5.583],[-1.08,-5.569],[-1.003,-5.491],[-0.94,-5.386],[-0.919,-5.351],[-0.848,-5.294],[-0.848,-5.28],[-0.785,-5.238],[-0.785,-5.224],[-0.687,-5.168]]],[[[-0.68,-5.463],[-0.694,-5.47],[-0.68,-5.505],[-0.568,-5.548],[-0.463,-5.611],[-0.344,-5.752],[-0.287,-5.752],[-0.26,-5.723],[-0.252,-5.66],[-0.266,-5.632],[-0.379,-5.533],[-0.533,-5.47],[-0.68,-5.463]]]]},"properties":{"abbr":"DMTg","name":"dorsomedial tegmental area","plate":43,"ap_bregma_mm":-6.9,"area_mm2":1.3024,"traced_fraction":[0.991,1.0],"n_labels":2,"no_drawn_outline":false}},{"type":"Feature","geometry":{"type":"MultiPolygon","coordinates":[[[[0.245,-5.308],[0.196,-5.372],[0.098,-5.372],[0.028,-5.351],[-0.042,-5.301],[-0.049,-5.238],[-0.028,-5.238],[0.035,-5.189],[0.224,-5.182],[0.266,-5.224],[0.245,-5.308]]]]},"properties":{"abbr":"DTgC","name":"dorsal tegmental nucleus, central part","plate":43,"ap_bregma_mm":-6.9,"area_mm2":0.0467,"traced_fraction":[1.0],"n_labels":1,"no_drawn_outline":false}},{"type":"Feature","geometry":{"type":"MultiPolygon","coordinates":[[[[-0.449,-4.985],[-0.372,-4.992],[-0.26,-5.027],[-0.196,-5.09],[-0.175,-5.14],[-0.175,-5.189],[-0.33,-5.175],[-0.386,-5.196],[-0.428,-5.259],[-0.428,-5.315],[-0.4,-5.372],[-0.491,-5.379],[-0.624,-5.329],[-0.673,-5.266],[-0.687,-5.168],[-0.666,-5.097],[-0.596,-5.027],[-0.449,-4.985]]],[[[0.21,-4.992],[0.337,-5.048],[0.421,-5.147],[0.421,-5.161],[0.393,-5.273],[0.358,-5.323],[0.323,-5.344],[0.287,-5.344],[0.245,-5.308],[0.266,-5.224],[0.224,-5.182],[0.035,-5.189],[-0.028,-5.238],[-0.049,-5.238],[-0.049,-5.112],[-0.028,-5.062],[0.014,-5.02],[0.126,-4.992],[0.21,-4.992]]]]},"properties":{"abbr":"DTgP","name":"dorsal tegmental nucleus, pericentral part","plate":43,"ap_bregma_mm":-6.9,"area_mm2":0.2193,"traced_fraction":[0.986,0.986],"n_labels":2,"no_drawn_outline":false}},{"type":"Feature","geometry":{"type":"MultiPolygon","coordinates":[[[[-1.178,-1.89],[-1.192,-2.024],[-1.129,-2.136],[-1.206,-2.143],[-1.276,-2.122],[-1.508,-2.122],[-1.521,-2.214],[-1.514,-2.333],[-1.5,-2.418],[-1.444,-2.587],[-1.585,-2.601],[-1.718,-2.727],[-1.823,-2.889],[-1.9,-3.058],[-1.949,-3.22],[-1.97,-3.395],[-1.935,-3.55],[-1.886,-3.613],[-1.837,-3.642],[-1.851,-3.817],[-1.942,-3.796],[-2.068,-3.733],[-2.18,-3.649],[-2.293,-3.522],[-2.328,-3.522],[-2.37,-3.417],[-2.398,-3.234],[-2.398,-2.966],[-2.356,-2.748],[-2.286,-2.579],[-2.209,-2.46],[-2.124,-2.369],[-2.11,-2.369],[-2.11,-2.354],[-2.019,-2.298],[-2.019,-2.284],[-1.977,-2.263],[-1.949,-2.228],[-1.648,-2.143],[-1.55,-2.129],[-1.508,-2.108],[-1.5,-2.087],[-1.444,-2.045],[-1.283,-1.954],[-1.248,-1.911],[-1.178,-1.89]]],[[[1.451,-2.115],[1.662,-2.165],[1.816,-2.263],[1.823,-2.284],[1.844,-2.291],[1.928,-2.383],[1.935,-2.411],[1.977,-2.453],[1.984,-2.481],[2.166,-2.755],[2.237,-2.903],[2.293,-3.065],[2.321,-3.065],[2.342,-3.234],[2.314,-3.234],[2.307,-3.262],[2.279,-3.522],[2.237,-3.677],[2.202,-3.684],[2.16,-3.747],[2.054,-3.831],[1.893,-3.902],[1.886,-3.831],[1.872,-3.824],[1.872,-3.747],[1.914,-3.663],[1.921,-3.522],[1.9,-3.346],[1.844,-3.086],[1.732,-2.762],[1.655,-2.615],[1.634,-2.601],[1.585,-2.516],[1.585,-2.404],[1.556,-2.298],[1.528,-2.242],[1.451,-2.158],[1.451,-2.115]]]]},"properties":{"abbr":"ECIC","name":"external cortex of the inferior colliculus","plate":43,"ap_bregma_mm":-6.9,"area_mm2":1.518,"traced_fraction":[0.979,0.974],"n_labels":2,"no_drawn_outline":false}},{"type":"Feature","geometry":{"type":"MultiPolygon","coordinates":[[[[4.179,-4.816],[4.389,-5.034],[4.431,-5.104],[4.431,-5.252],[4.333,-5.449],[4.235,-5.548],[4.151,-5.597],[4.003,-5.632],[3.856,-5.625],[3.793,-5.576],[3.751,-5.512],[3.737,-5.512],[3.653,-5.414],[3.611,-5.4],[3.639,-5.477],[3.716,-5.597],[3.695,-5.681],[3.646,-5.716],[3.436,-5.759],[3.309,-5.766],[3.26,-5.759],[3.239,-5.737],[3.204,-5.737],[3.134,-5.702],[3.092,-5.66],[3.078,-5.618],[3.043,-5.576],[3.078,-5.344],[3.148,-5.062],[3.197,-4.922],[3.19,-4.865],[3.12,-4.816],[3.078,-4.746],[3.057,-4.605],[3.043,-4.584],[3.085,-4.338],[3.12,-4.303],[3.183,-4.338],[3.267,-4.352],[3.344,-4.359],[3.372,-4.345],[3.478,-4.218],[3.555,-4.176],[3.723,-4.162],[3.842,-4.204],[3.891,-4.239],[3.919,-4.289],[3.933,-4.289],[3.982,-4.352],[4.018,-4.464],[4.018,-4.598],[4.032,-4.633],[4.053,-4.675],[4.067,-4.675],[4.081,-4.718],[4.179,-4.816]]],[[[-3.429,-4.352],[-3.415,-4.359],[-3.373,-4.394],[-3.26,-4.57],[-3.183,-4.647],[-3.106,-4.689],[-3.099,-4.725],[-3.225,-4.718],[-3.288,-4.739],[-3.323,-4.781],[-3.33,-4.9],[-3.345,-4.915],[-3.337,-5.027],[-3.33,-5.048],[-3.316,-5.048],[-3.281,-5.175],[-3.211,-5.301],[-3.176,-5.414],[-3.162,-5.519],[-3.183,-5.527],[-3.253,-5.639],[-3.33,-5.667],[-3.415,-5.667],[-3.457,-5.674],[-3.548,-5.653],[-3.709,-5.667],[-4.137,-5.808],[-4.508,-5.794],[-4.635,-5.759],[-4.726,-5.709],[-4.824,-5.611],[-4.887,-5.484],[-4.908,-5.273],[-4.859,-5.203],[-4.887,-5.14],[-4.838,-5.097],[-4.81,-5.09],[-4.789,-5.062],[-4.768,-5.062],[-4.712,-5.013],[-4.642,-4.978],[-4.614,-4.943],[-4.564,-4.922],[-4.438,-4.816],[-4.305,-4.612],[-4.305,-4.591],[-4.27,-4.549],[-4.256,-4.507],[-4.207,-4.464],[-4.186,-4.415],[-4.13,-4.394],[-4.102,-4.352],[-4.081,-4.352],[-4.004,-4.303],[-3.933,-4.296],[-3.856,-4.296],[-3.541,-4.394],[-3.471,-4.387],[-3.429,-4.352]]]]},"properties":{"abbr":"Fl","name":"flocculus","plate":43,"ap_bregma_mm":-6.9,"area_mm2":3.4553,"traced_fraction":[1.0,0.875],"n_labels":2,"no_drawn_outline":false}},{"type":"Feature","geometry":{"type":"MultiPolygon","coordinates":[[[[-2.321,-4.76],[-2.279,-4.767],[-2.293,-4.823],[-2.272,-4.872],[-2.272,-4.943],[-2.384,-5.245],[-2.398,-5.386],[-2.419,-5.414],[-2.433,-5.512],[-2.412,-5.639],[-2.391,-5.674],[-2.454,-5.681],[-2.475,-5.66],[-2.517,-5.54],[-2.524,-5.47],[-2.559,-5.372],[-2.594,-5.386],[-2.608,-5.379],[-2.664,-5.252],[-2.735,-5.168],[-2.735,-5.147],[-2.692,-5.119],[-2.65,-5.112],[-2.608,-5.112],[-2.566,-5.147],[-2.538,-5.147],[-2.321,-4.76]]],[[[2.734,-5.119],[2.678,-5.175],[2.678,-5.386],[2.503,-5.386],[2.503,-5.365],[2.524,-5.351],[2.545,-5.294],[2.545,-5.266],[2.517,-5.231],[2.517,-5.196],[2.482,-5.119],[2.734,-5.119]]],[[[-3.162,-5.519],[-3.127,-5.555],[-3.092,-5.646],[-3.036,-5.723],[-3.036,-5.744],[-3.113,-5.737],[-3.218,-5.681],[-3.253,-5.639],[-3.183,-5.527],[-3.162,-5.519]]],[[[3.043,-5.576],[3.078,-5.618],[3.092,-5.66],[3.134,-5.702],[3.183,-5.73],[3.239,-5.737],[3.26,-5.759],[3.26,-5.808],[3.253,-5.815],[3.204,-5.822],[3.127,-5.801],[3.029,-5.801],[3.008,-5.815],[2.861,-5.85],[2.861,-5.829],[2.959,-5.653],[3.029,-5.576],[3.043,-5.576]]]]},"properties":{"abbr":"GrC","name":"granule cell layer of cochlear nuclei","plate":43,"ap_bregma_mm":-6.9,"area_mm2":0.2722,"traced_fraction":[0.997,0.523,1.0,1.0],"n_labels":4,"no_drawn_outline":false}},{"type":"Feature","geometry":{"type":"MultiPolygon","coordinates":[[[[-2.398,-5.386],[-2.356,-5.435],[-2.342,-5.435],[-2.342,-5.456],[-2.3,-5.498],[-2.237,-5.533],[-2.146,-5.562],[-2.033,-5.569],[-2.033,-5.604],[-2.061,-5.639],[-2.061,-5.66],[-2.075,-5.66],[-2.159,-5.744],[-2.216,-5.766],[-2.279,-5.766],[-2.328,-5.744],[-2.391,-5.674],[-2.412,-5.639],[-2.433,-5.512],[-2.419,-5.414],[-2.398,-5.386]]],[[[2.124,-5.505],[2.16,-5.604],[2.16,-5.702],[2.145,-5.759],[2.103,-5.822],[2.047,-5.843],[1.977,-5.836],[1.9,-5.794],[1.844,-5.744],[1.788,-5.653],[1.788,-5.625],[1.879,-5.625],[1.97,-5.604],[2.068,-5.555],[2.124,-5.505]]]]},"properties":{"abbr":"KF","name":"Kölliker–Fuse nucleus","plate":43,"ap_bregma_mm":-6.9,"area_mm2":0.1552,"traced_fraction":[1.0,1.0],"n_labels":2,"no_drawn_outline":false}},{"type":"Feature","geometry":{"type":"MultiPolygon","coordinates":[[[[-1.171,-5.189],[-1.073,-5.287],[-1.031,-5.308],[-1.017,-5.337],[-0.94,-5.386],[-1.003,-5.491],[-1.08,-5.569],[-1.08,-5.583],[-1.129,-5.625],[-1.171,-5.639],[-1.234,-5.646],[-1.283,-5.632],[-1.332,-5.583],[-1.346,-5.533],[-1.346,-5.449],[-1.332,-5.435],[-1.325,-5.386],[-1.269,-5.323],[-1.213,-5.224],[-1.185,-5.189],[-1.171,-5.189]]],[[[0.961,-5.203],[0.968,-5.203],[1.017,-5.252],[1.171,-5.358],[1.185,-5.428],[1.157,-5.505],[1.108,-5.555],[1.01,-5.611],[0.926,-5.625],[0.876,-5.618],[0.841,-5.597],[0.771,-5.527],[0.771,-5.505],[0.701,-5.4],[0.82,-5.337],[0.961,-5.203]]]]},"properties":{"abbr":"LDTgV","name":"laterodorsal tegmental nucleus, ventral part","plate":43,"ap_bregma_mm":-6.9,"area_mm2":0.2377,"traced_fraction":[0.972,0.983],"n_labels":2,"no_drawn_outline":false}},{"type":"Feature","geometry":{"type":"MultiPolygon","coordinates":[[[[-2.033,-4.577],[-1.977,-4.626],[-1.977,-4.774],[-1.844,-4.781],[-1.837,-4.929],[-1.956,-5.006],[-2.089,-5.14],[-2.131,-5.224],[-2.124,-5.273],[-2.138,-5.315],[-2.209,-5.386],[-2.342,-5.435],[-2.356,-5.435],[-2.398,-5.386],[-2.384,-5.245],[-2.272,-4.943],[-2.272,-4.872],[-2.293,-4.823],[-2.279,-4.767],[-2.201,-4.682],[-2.103,-4.626],[-2.061,-4.584],[-2.033,-4.577]]],[[[1.718,-4.598],[1.935,-4.739],[2.005,-4.809],[2.033,-4.865],[2.033,-5.013],[2.153,-5.358],[2.145,-5.442],[2.124,-5.484],[1.991,-5.435],[1.893,-5.379],[1.886,-5.323],[1.823,-5.231],[1.669,-5.069],[1.627,-5.048],[1.606,-5.013],[1.613,-4.872],[1.697,-4.872],[1.697,-4.844],[1.711,-4.837],[1.718,-4.598]]]]},"properties":{"abbr":"LPBC","name":"lateral parabrachial nucleus, central part","plate":43,"ap_bregma_mm":-6.9,"area_mm2":0.4854,"traced_fraction":[0.793,0.785],"n_labels":2,"no_drawn_outline":false}},{"type":"Feature","geometry":{"type":"MultiPolygon","coordinates":[[[[-1.521,-4.338],[-1.472,-4.345],[-1.367,-4.394],[-1.262,-4.493],[-1.262,-4.549],[-1.283,-4.549],[-1.29,-4.591],[-1.255,-4.591],[-1.269,-4.704],[-1.304,-4.718],[-1.304,-4.788],[-1.332,-4.788],[-1.416,-4.844],[-1.465,-4.83],[-1.557,-4.83],[-1.711,-4.872],[-1.837,-4.929],[-1.844,-4.781],[-1.977,-4.774],[-1.977,-4.626],[-2.033,-4.577],[-2.019,-4.549],[-1.942,-4.493],[-1.732,-4.373],[-1.599,-4.338],[-1.521,-4.338]]],[[[1.262,-4.345],[1.458,-4.415],[1.514,-4.464],[1.704,-4.577],[1.718,-4.598],[1.711,-4.837],[1.697,-4.844],[1.697,-4.872],[1.613,-4.872],[1.606,-5.013],[1.585,-5.013],[1.571,-4.992],[1.416,-4.922],[1.213,-4.922],[1.171,-4.936],[1.143,-4.893],[1.122,-4.767],[1.115,-4.682],[1.066,-4.528],[1.059,-4.457],[1.045,-4.443],[1.017,-4.443],[1.01,-4.436],[1.01,-4.422],[1.024,-4.422],[1.059,-4.429],[1.15,-4.366],[1.206,-4.366],[1.262,-4.345]]]]},"properties":{"abbr":"LPBI","name":"lateral parabrachial nucleus, internal part","plate":43,"ap_bregma_mm":-6.9,"area_mm2":0.6156,"traced_fraction":[0.806,0.789],"n_labels":2,"no_drawn_outline":false}},{"type":"Feature","geometry":{"type":"MultiPolygon","coordinates":[[[[1.115,-7.693],[1.15,-7.749],[1.101,-7.819],[0.975,-7.869],[0.905,-7.869],[0.884,-7.833],[0.897,-7.805],[0.989,-7.728],[1.031,-7.707],[1.115,-7.693]]],[[[-1.241,-7.728],[-1.073,-7.826],[-1.017,-7.883],[-0.989,-7.939],[-1.038,-7.967],[-1.101,-7.967],[-1.22,-7.932],[-1.269,-7.932],[-1.276,-7.904],[-1.325,-7.883],[-1.36,-7.826],[-1.36,-7.763],[-1.325,-7.728],[-1.241,-7.728]]]]},"properties":{"abbr":"MNTB","name":"medial nucleus of the trapezoid body","plate":43,"ap_bregma_mm":-6.9,"area_mm2":0.0834,"traced_fraction":[1.0,1.0],"n_labels":2,"no_drawn_outline":false}},{"type":"Feature","geometry":{"type":"MultiPolygon","coordinates":[[[[-1.304,-4.788],[-1.297,-4.943],[-1.276,-4.957],[-1.276,-4.985],[-1.248,-5.02],[-1.262,-5.083],[-1.283,-5.119],[-1.458,-5.28],[-1.585,-5.372],[-1.774,-5.47],[-1.788,-5.498],[-1.879,-5.512],[-2.033,-5.569],[-2.146,-5.562],[-2.237,-5.533],[-2.3,-5.498],[-2.342,-5.456],[-2.342,-5.435],[-2.209,-5.386],[-2.138,-5.315],[-2.124,-5.273],[-2.04,-5.273],[-1.921,-5.238],[-1.795,-5.168],[-1.711,-5.097],[-1.69,-5.097],[-1.627,-5.048],[-1.479,-4.978],[-1.416,-4.915],[-1.416,-4.844],[-1.346,-4.795],[-1.304,-4.788]]],[[[1.143,-4.893],[1.171,-4.936],[1.15,-4.95],[1.15,-4.971],[1.178,-4.999],[1.423,-5.154],[1.585,-5.294],[1.795,-5.379],[1.893,-5.379],[1.991,-5.435],[2.124,-5.484],[2.124,-5.505],[2.068,-5.555],[1.97,-5.604],[1.879,-5.625],[1.788,-5.625],[1.585,-5.569],[1.528,-5.54],[1.5,-5.505],[1.374,-5.435],[1.346,-5.4],[1.227,-5.315],[1.115,-5.189],[1.052,-5.09],[1.052,-5.041],[1.066,-5.02],[1.094,-5.006],[1.122,-4.915],[1.122,-4.9],[1.143,-4.893]]]]},"properties":{"abbr":"MPB","name":"medial parabrachial nucleus","plate":43,"ap_bregma_mm":-6.9,"area_mm2":0.5629,"traced_fraction":[0.982,1.0],"n_labels":2,"no_drawn_outline":false}},{"type":"Feature","geometry":{"type":"MultiPolygon","coordinates":[[[[0.996,-4.507],[1.038,-4.633],[1.045,-4.774],[1.066,-4.781],[1.122,-4.767],[1.143,-4.893],[1.129,-4.893],[1.122,-4.915],[1.073,-4.9],[1.052,-4.908],[1.052,-4.999],[1.01,-4.985],[0.961,-4.929],[0.862,-4.753],[0.841,-4.682],[0.841,-4.619],[0.862,-4.57],[0.933,-4.514],[0.996,-4.507]]]]},"properties":{"abbr":"Me5","name":"mesencephalic trigeminal nucleus","plate":43,"ap_bregma_mm":-6.9,"area_mm2":0.0799,"traced_fraction":[0.949],"n_labels":1,"no_drawn_outline":false}},{"type":"Feature","geometry":{"type":"MultiPolygon","coordinates":[[[[-0.112,-6.926],[-0.014,-6.926],[0.021,-7.081],[0.14,-7.32],[0.203,-7.411],[0.274,-7.587],[0.329,-7.686],[0.28,-7.686],[0.14,-7.65],[0.049,-7.658],[-0.028,-7.679],[-0.091,-7.735],[-0.14,-7.735],[-0.203,-7.7],[-0.26,-7.665],[-0.393,-7.665],[-0.365,-7.433],[-0.196,-7.193],[-0.126,-7.025],[-0.112,-6.926]]]]},"properties":{"abbr":"MnR","name":"median raphe nucleus","plate":43,"ap_bregma_mm":-6.9,"area_mm2":0.3053,"traced_fraction":[0.98],"n_labels":1,"no_drawn_outline":false}},{"type":"Feature","geometry":{"type":"MultiPolygon","coordinates":[[[[-1.984,-5.829],[-1.886,-5.85],[-1.648,-5.85],[-1.55,-5.829],[-1.479,-5.941],[-1.479,-6.019],[-1.521,-6.103],[-1.606,-6.202],[-1.676,-6.251],[-1.76,-6.286],[-1.872,-6.286],[-1.97,-6.251],[-2.04,-6.18],[-2.075,-6.068],[-2.047,-5.927],[-2.019,-5.864],[-1.984,-5.829]]],[[[1.325,-5.836],[1.451,-5.85],[1.76,-5.836],[1.767,-5.836],[1.809,-5.934],[1.83,-6.04],[1.823,-6.145],[1.795,-6.209],[1.676,-6.272],[1.535,-6.279],[1.402,-6.223],[1.283,-6.089],[1.241,-6.012],[1.241,-5.927],[1.276,-5.871],[1.325,-5.836]]]]},"properties":{"abbr":"P5","name":"peritrigeminal zone","plate":43,"ap_bregma_mm":-6.9,"area_mm2":0.4277,"traced_fraction":[0.984,1.0],"n_labels":2,"no_drawn_outline":false}},{"type":"Feature","geometry":{"type":"MultiPolygon","coordinates":[[[[-4.158,-4.324],[-4.186,-4.415],[-4.207,-4.464],[-4.256,-4.507],[-4.27,-4.549],[-4.305,-4.591],[-4.305,-4.612],[-4.438,-4.816],[-4.564,-4.922],[-4.614,-4.943],[-4.642,-4.978],[-4.67,-4.985],[-4.768,-5.062],[-4.789,-5.062],[-4.81,-5.09],[-4.838,-5.097],[-4.887,-5.14],[-4.929,-5.069],[-5.111,-5.076],[-5.21,-5.027],[-5.244,-4.985],[-5.259,-4.985],[-5.385,-4.865],[-5.413,-4.816],[-5.427,-4.816],[-5.483,-4.746],[-5.567,-4.591],[-5.588,-4.521],[-5.595,-4.366],[-5.539,-4.218],[-5.399,-4.078],[-5.118,-3.951],[-5.083,-3.937],[-5.069,-3.93],[-5.006,-3.902],[-4.929,-3.867],[-4.782,-3.74],[-4.649,-3.684],[-4.501,-3.684],[-4.326,-3.719],[-4.284,-3.754],[-4.249,-3.824],[-4.179,-4.106],[-4.172,-4.274],[-4.158,-4.324]]],[[[4.438,-4.971],[4.389,-4.929],[4.305,-4.802],[4.291,-4.76],[4.277,-4.76],[4.193,-4.591],[4.137,-4.436],[4.116,-4.324],[4.13,-4.162],[4.172,-4.085],[4.263,-4.014],[4.41,-3.979],[4.438,-3.979],[4.473,-4.007],[4.48,-4.296],[4.508,-4.401],[4.571,-4.514],[4.571,-4.563],[4.529,-4.626],[4.55,-4.76],[4.55,-4.915],[4.501,-4.971],[4.438,-4.971]]]]},"properties":{"abbr":"PFl","name":"paraflocculus","plate":43,"ap_bregma_mm":-6.9,"area_mm2":1.7266,"traced_fraction":[0.836,1.0],"n_labels":2,"no_drawn_outline":false}},{"type":"Feature","geometry":{"type":"MultiPolygon","coordinates":[[[[1.62,-7.193],[1.599,-7.264],[1.514,-7.376],[1.493,-7.433],[1.451,-7.489],[1.374,-7.496],[1.227,-7.573],[1.213,-7.552],[1.206,-7.468],[1.255,-7.369],[1.36,-7.271],[1.528,-7.2],[1.62,-7.193]]]]},"properties":{"abbr":"PLV","name":"perilemniscal nucleus, ventral part","plate":43,"ap_bregma_mm":-6.9,"area_mm2":0.076,"traced_fraction":[1.0],"n_labels":1,"no_drawn_outline":false}},{"type":"Feature","geometry":{"type":"MultiPolygon","coordinates":[[[[-0.638,-6.131],[-0.638,-6.152],[-0.568,-6.216],[-0.498,-6.314],[-0.456,-6.455],[-0.449,-6.631],[-0.47,-6.722],[-0.463,-6.821],[-0.624,-6.975],[-0.68,-7.06],[-0.722,-7.172],[-0.785,-7.517],[-0.785,-7.643],[-0.757,-7.756],[-0.841,-7.749],[-0.961,-7.679],[-1.08,-7.636],[-1.262,-7.636],[-1.346,-7.489],[-1.437,-7.411],[-1.592,-7.362],[-1.683,-7.362],[-1.697,-7.376],[-1.795,-7.264],[-1.823,-7.193],[-1.816,-7.186],[-1.809,-7.179],[-1.753,-6.961],[-1.669,-6.722],[-1.388,-6.11],[-1.325,-6.012],[-1.101,-5.977],[-0.968,-5.984],[-0.827,-6.033],[-0.638,-6.131]]],[[[1.143,-6.131],[1.192,-6.195],[1.276,-6.384],[1.346,-6.49],[1.55,-6.891],[1.606,-7.046],[1.62,-7.123],[1.641,-7.144],[1.62,-7.193],[1.528,-7.2],[1.36,-7.271],[1.255,-7.369],[1.206,-7.468],[1.08,-7.503],[0.799,-7.658],[0.75,-7.672],[0.645,-7.672],[0.666,-7.496],[0.645,-7.341],[0.603,-7.207],[0.512,-7.06],[0.407,-6.954],[0.245,-6.835],[0.231,-6.666],[0.259,-6.448],[0.301,-6.335],[0.358,-6.251],[0.435,-6.174],[0.442,-6.124],[0.498,-6.117],[0.659,-6.061],[0.841,-6.061],[1.087,-6.131],[1.143,-6.131]]]]},"properties":{"abbr":"PnO","name":"pontine reticular nucleus, oral part","plate":43,"ap_bregma_mm":-6.9,"area_mm2":3.0214,"traced_fraction":[0.994,0.991],"n_labels":2,"no_drawn_outline":false}},{"type":"Feature","geometry":{"type":"MultiPolygon","coordinates":[[[[0.442,-6.124],[0.435,-6.174],[0.358,-6.251],[0.301,-6.335],[0.259,-6.448],[0.035,-6.448],[0.035,-6.532],[0.014,-6.61],[-0.007,-6.631],[-0.049,-6.631],[-0.084,-6.595],[-0.105,-6.546],[-0.105,-6.476],[-0.119,-6.448],[-0.105,-6.286],[-0.091,-6.265],[-0.084,-6.174],[-0.049,-6.138],[-0.014,-6.138],[0.014,-6.167],[0.042,-6.174],[0.112,-6.174],[0.442,-6.124]]],[[[-0.638,-6.131],[-0.582,-6.131],[-0.533,-6.152],[-0.407,-6.174],[-0.231,-6.167],[-0.245,-6.349],[-0.238,-6.448],[-0.456,-6.455],[-0.498,-6.314],[-0.568,-6.216],[-0.638,-6.152],[-0.638,-6.131]]]]},"properties":{"abbr":"PnR","name":"pontine raphe nucleus","plate":43,"ap_bregma_mm":-6.9,"area_mm2":0.2331,"traced_fraction":[0.908,0.866],"n_labels":2,"no_drawn_outline":false}},{"type":"Feature","geometry":{"type":"MultiPolygon","coordinates":[[[[-2.552,-5.527],[-2.517,-5.54],[-2.475,-5.66],[-2.489,-5.66],[-2.489,-5.709],[-2.454,-5.836],[-2.44,-6.033],[-2.454,-6.363],[-2.468,-6.406],[-2.482,-6.406],[-2.51,-6.342],[-2.587,-5.998],[-2.58,-5.857],[-2.552,-5.737],[-2.552,-5.527]]],[[[2.307,-5.815],[2.3,-6.103],[2.314,-6.18],[2.335,-6.216],[2.384,-6.216],[2.461,-6.159],[2.468,-6.209],[2.447,-6.293],[2.363,-6.427],[2.342,-6.448],[2.174,-6.448],[2.166,-6.399],[2.124,-6.384],[2.124,-6.356],[2.145,-6.335],[2.138,-6.272],[2.153,-6.251],[2.145,-6.089],[2.202,-5.913],[2.286,-5.815],[2.307,-5.815]]]]},"properties":{"abbr":"Pr5VL","name":"principal sensory trigeminal nucleus, ventrolateral part","plate":43,"ap_bregma_mm":-6.9,"area_mm2":0.1954,"traced_fraction":[0.996,0.946],"n_labels":2,"no_drawn_outline":false}},{"type":"Feature","geometry":{"type":"MultiPolygon","coordinates":[[[[-1.136,-3.016],[-1.108,-3.037],[-1.08,-3.093],[-1.01,-3.311],[-0.982,-3.346],[-1.122,-3.522],[-1.192,-3.67],[-1.185,-3.691],[-1.325,-3.796],[-1.346,-3.775],[-1.388,-3.775],[-1.536,-3.831],[-1.648,-3.845],[-1.753,-3.845],[-1.851,-3.817],[-1.837,-3.642],[-1.739,-3.67],[-1.585,-3.663],[-1.479,-3.634],[-1.388,-3.571],[-1.311,-3.487],[-1.199,-3.29],[-1.143,-3.107],[-1.15,-3.03],[-1.136,-3.016]]],[[[0.939,-3.156],[0.954,-3.163],[1.031,-3.36],[1.101,-3.466],[1.276,-3.656],[1.381,-3.733],[1.493,-3.782],[1.564,-3.796],[1.767,-3.782],[1.872,-3.747],[1.872,-3.824],[1.886,-3.831],[1.893,-3.902],[1.774,-3.951],[1.627,-3.965],[1.507,-3.965],[1.409,-3.944],[1.213,-3.853],[1.129,-3.803],[1.094,-3.775],[1.045,-3.691],[1.024,-3.677],[1.031,-3.656],[1.017,-3.606],[0.926,-3.508],[0.89,-3.43],[0.905,-3.417],[0.912,-3.339],[0.912,-3.191],[0.918,-3.163],[0.939,-3.156]]]]},"properties":{"abbr":"Pta","name":"pericollicular tegmental area","plate":43,"ap_bregma_mm":-6.9,"area_mm2":0.4333,"traced_fraction":[0.958,0.961],"n_labels":2,"no_drawn_outline":false}},{"type":"Feature","geometry":{"type":"MultiPolygon","coordinates":[[[[0.105,-8.382],[0.056,-8.438],[0.056,-8.53],[-0.035,-8.509],[-0.133,-8.509],[-0.231,-8.537],[-0.245,-8.41],[-0.281,-8.347],[-0.217,-8.29],[-0.21,-8.269],[0.07,-8.269],[0.07,-8.34],[0.091,-8.382],[0.105,-8.382]]]]},"properties":{"abbr":"RPa","name":"raphe pallidus nucleus","plate":43,"ap_bregma_mm":-6.9,"area_mm2":0.078,"traced_fraction":[0.616],"n_labels":1,"no_drawn_outline":true}},{"type":"Feature","geometry":{"type":"MultiPolygon","coordinates":[[[[-0.112,-6.926],[-0.119,-6.996],[-0.161,-7.123],[-0.217,-7.229],[-0.365,-7.433],[-0.393,-7.665],[-0.428,-7.721],[-0.498,-7.77],[-0.575,-7.798],[-0.673,-7.798],[-0.757,-7.756],[-0.785,-7.643],[-0.785,-7.517],[-0.722,-7.172],[-0.694,-7.088],[-0.624,-6.975],[-0.463,-6.821],[-0.33,-6.764],[-0.217,-6.764],[-0.175,-6.785],[-0.126,-6.842],[-0.112,-6.926]]],[[[0.245,-6.835],[0.407,-6.954],[0.512,-7.06],[0.603,-7.207],[0.659,-7.418],[0.666,-7.566],[0.645,-7.672],[0.624,-7.721],[0.568,-7.777],[0.54,-7.784],[0.421,-7.777],[0.329,-7.686],[0.274,-7.587],[0.203,-7.411],[0.14,-7.32],[0.021,-7.081],[-0.014,-6.926],[-0.021,-6.891],[-0.007,-6.842],[0.035,-6.799],[0.133,-6.799],[0.21,-6.835],[0.245,-6.835]]]]},"properties":{"abbr":"RtTg","name":"reticulotegmental nucleus of the pons","plate":43,"ap_bregma_mm":-6.9,"area_mm2":0.8403,"traced_fraction":[1.0,1.0],"n_labels":2,"no_drawn_outline":false}},{"type":"Feature","geometry":{"type":"MultiPolygon","coordinates":[[[[2.237,-3.677],[2.188,-3.909],[2.174,-4.099],[2.145,-4.239],[2.16,-4.387],[2.181,-4.493],[2.251,-4.661],[2.181,-4.661],[2.181,-4.725],[2.075,-4.725],[1.914,-4.514],[1.795,-4.394],[1.781,-4.394],[1.718,-4.331],[1.697,-4.331],[1.627,-4.289],[1.627,-3.965],[1.774,-3.951],[1.893,-3.902],[2.054,-3.831],[2.124,-3.782],[2.202,-3.684],[2.237,-3.677]]]]},"properties":{"abbr":"Sag","name":"sagulum nucleus","plate":43,"ap_bregma_mm":-6.9,"area_mm2":0.3559,"traced_fraction":[0.839],"n_labels":1,"no_drawn_outline":false}},{"type":"Feature","geometry":{"type":"MultiPolygon","coordinates":[[[[-3.485,-5.92],[-3.225,-5.92],[-3.295,-6.089],[-3.309,-6.159],[-3.309,-6.216],[-3.295,-6.23],[-3.316,-6.314],[-3.323,-6.314],[-3.345,-6.279],[-3.358,-6.286],[-3.373,-6.265],[-3.443,-6.18],[-3.492,-6.082],[-3.485,-5.92]]],[[[3.071,-6.019],[3.302,-6.019],[3.302,-6.11],[3.26,-6.307],[3.239,-6.342],[3.197,-6.314],[3.19,-6.286],[3.162,-6.258],[3.071,-6.019]]]]},"properties":{"abbr":"Sca","name":"spherical cell area, ventral cochlear nucleus","plate":43,"ap_bregma_mm":-6.9,"area_mm2":0.1111,"traced_fraction":[0.837,0.815],"n_labels":2,"no_drawn_outline":false}},{"type":"Feature","geometry":{"type":"MultiPolygon","coordinates":[[[[-1.613,-1.342],[-1.613,-1.405],[-1.634,-1.482],[-1.662,-1.51],[-1.669,-1.539],[-1.802,-1.707],[-1.907,-1.876],[-1.942,-1.897],[-1.949,-1.925],[-1.991,-1.975],[-2.026,-2.059],[-2.075,-2.115],[-2.061,-2.143],[-2.082,-2.143],[-2.089,-2.165],[-2.103,-2.165],[-2.188,-2.291],[-2.545,-2.917],[-2.65,-3.156],[-2.699,-3.332],[-2.72,-3.367],[-2.741,-3.494],[-2.833,-3.634],[-2.959,-3.761],[-3.029,-3.782],[-3.162,-3.867],[-3.281,-3.902],[-3.288,-3.888],[-3.316,-3.888],[-3.366,-3.86],[-3.478,-3.642],[-3.597,-3.198],[-3.618,-2.959],[-3.604,-2.917],[-3.513,-2.664],[-3.379,-2.39],[-3.323,-2.298],[-3.295,-2.277],[-3.267,-2.2],[-3.169,-2.073],[-3.155,-2.024],[-3.022,-1.862],[-3.001,-1.806],[-2.987,-1.806],[-2.917,-1.75],[-2.924,-1.736],[-2.896,-1.721],[-2.896,-1.707],[-2.79,-1.595],[-2.741,-1.574],[-2.664,-1.51],[-2.342,-1.349],[-2.286,-1.335],[-2.159,-1.271],[-2.04,-1.243],[-1.935,-1.201],[-1.837,-1.187],[-1.739,-1.194],[-1.662,-1.25],[-1.613,-1.342]]],[[[2.896,-1.806],[3.113,-2.115],[3.064,-2.15],[3.176,-2.319],[3.288,-2.481],[3.33,-2.579],[3.351,-2.594],[3.408,-2.706],[3.45,-2.84],[3.45,-3.016],[3.365,-3.381],[3.316,-3.761],[3.26,-3.944],[3.218,-4.021],[3.183,-4.049],[3.148,-4.106],[3.085,-4.141],[2.987,-4.148],[2.84,-4.092],[2.804,-4.092],[2.72,-4.028],[2.594,-3.902],[2.503,-3.782],[2.398,-3.536],[2.342,-3.234],[2.321,-3.065],[2.321,-3.009],[2.293,-2.903],[2.145,-2.579],[1.949,-2.242],[1.921,-2.221],[1.914,-2.193],[1.858,-2.122],[1.83,-2.052],[1.655,-1.813],[1.606,-1.743],[1.564,-1.637],[1.535,-1.489],[1.535,-1.44],[1.577,-1.342],[1.641,-1.292],[1.914,-1.243],[2.124,-1.257],[2.293,-1.307],[2.482,-1.419],[2.72,-1.644],[2.854,-1.827],[2.896,-1.806]]]]},"properties":{"abbr":"Sim","name":"simple lobule","plate":43,"ap_bregma_mm":-6.9,"area_mm2":5.4726,"traced_fraction":[1.0,0.965],"n_labels":2,"no_drawn_outline":false}},{"type":"Feature","geometry":{"type":"MultiPolygon","coordinates":[[[[-1.788,-5.498],[-1.613,-5.548],[-1.557,-5.576],[-1.521,-5.611],[-1.5,-5.66],[-1.5,-5.759],[-1.55,-5.829],[-1.648,-5.85],[-1.886,-5.85],[-1.984,-5.829],[-2.047,-5.759],[-2.061,-5.66],[-2.061,-5.639],[-2.033,-5.604],[-2.033,-5.569],[-1.879,-5.512],[-1.788,-5.498]]],[[[1.528,-5.54],[1.585,-5.569],[1.788,-5.625],[1.788,-5.653],[1.844,-5.744],[1.816,-5.78],[1.809,-5.787],[1.767,-5.829],[1.76,-5.836],[1.599,-5.85],[1.325,-5.836],[1.318,-5.808],[1.255,-5.744],[1.255,-5.681],[1.29,-5.611],[1.318,-5.583],[1.381,-5.555],[1.528,-5.54]]]]},"properties":{"abbr":"Su5","name":"supratrigeminal nucleus","plate":43,"ap_bregma_mm":-6.9,"area_mm2":0.3025,"traced_fraction":[1.0,1.0],"n_labels":2,"no_drawn_outline":false}},{"type":"Feature","geometry":{"type":"MultiPolygon","coordinates":[[[[-1.262,-5.083],[-1.171,-5.175],[-1.171,-5.189],[-1.185,-5.189],[-1.213,-5.224],[-1.269,-5.323],[-1.325,-5.386],[-1.332,-5.435],[-1.346,-5.449],[-1.346,-5.533],[-1.332,-5.583],[-1.283,-5.632],[-1.234,-5.646],[-1.171,-5.639],[-1.171,-5.688],[-1.206,-5.73],[-1.213,-5.766],[-1.262,-5.843],[-1.283,-5.913],[-1.318,-5.963],[-1.325,-6.012],[-1.388,-6.11],[-1.521,-6.103],[-1.479,-6.019],[-1.479,-5.941],[-1.55,-5.829],[-1.5,-5.759],[-1.5,-5.66],[-1.521,-5.611],[-1.557,-5.576],[-1.613,-5.548],[-1.788,-5.498],[-1.774,-5.47],[-1.585,-5.372],[-1.458,-5.28],[-1.374,-5.196],[-1.36,-5.196],[-1.262,-5.083]]],[[[1.052,-5.09],[1.115,-5.189],[1.227,-5.315],[1.346,-5.4],[1.374,-5.435],[1.5,-5.505],[1.528,-5.54],[1.381,-5.555],[1.318,-5.583],[1.29,-5.611],[1.255,-5.681],[1.255,-5.744],[1.318,-5.808],[1.325,-5.836],[1.276,-5.871],[1.241,-5.927],[1.241,-6.012],[1.283,-6.089],[1.136,-6.096],[1.122,-6.089],[1.045,-5.913],[1.01,-5.871],[1.01,-5.85],[0.968,-5.794],[0.939,-5.702],[0.926,-5.695],[0.926,-5.625],[1.01,-5.611],[1.108,-5.555],[1.157,-5.505],[1.185,-5.428],[1.171,-5.358],[1.017,-5.252],[0.968,-5.203],[1.031,-5.119],[1.038,-5.09],[1.052,-5.09]]]]},"properties":{"abbr":"SubCD","name":"subcoeruleus nucleus, dorsal part","plate":43,"ap_bregma_mm":-6.9,"area_mm2":0.4636,"traced_fraction":[0.956,0.958],"n_labels":2,"no_drawn_outline":false}},{"type":"Feature","geometry":{"type":"MultiPolygon","coordinates":[[[[-2.061,-5.66],[-2.047,-5.759],[-1.984,-5.829],[-2.019,-5.864],[-2.047,-5.927],[-2.075,-6.068],[-2.04,-6.18],[-1.97,-6.251],[-1.872,-6.286],[-1.76,-6.286],[-1.676,-6.251],[-1.606,-6.202],[-1.521,-6.103],[-1.388,-6.11],[-1.669,-6.722],[-1.753,-6.961],[-1.809,-7.179],[-1.816,-7.186],[-1.823,-7.193],[-1.858,-7.165],[-1.928,-7.06],[-1.963,-7.032],[-1.998,-7.032],[-2.005,-6.912],[-2.033,-6.842],[-2.082,-6.778],[-2.082,-6.75],[-1.977,-6.764],[-1.921,-6.722],[-1.872,-6.603],[-1.872,-6.476],[-1.949,-6.356],[-1.998,-6.321],[-2.068,-6.321],[-2.131,-6.356],[-2.152,-6.342],[-2.195,-6.195],[-2.216,-6.152],[-2.244,-6.131],[-2.314,-6.026],[-2.398,-5.864],[-2.454,-5.681],[-2.391,-5.674],[-2.328,-5.744],[-2.279,-5.766],[-2.216,-5.766],[-2.159,-5.744],[-2.075,-5.66],[-2.061,-5.66]]],[[[1.283,-6.089],[1.402,-6.223],[1.535,-6.279],[1.676,-6.272],[1.795,-6.209],[1.823,-6.237],[1.872,-6.237],[1.837,-6.3],[1.83,-6.356],[1.718,-6.363],[1.62,-6.399],[1.577,-6.448],[1.564,-6.525],[1.599,-6.687],[1.641,-6.778],[1.725,-6.849],[1.774,-6.863],[1.844,-6.856],[1.809,-6.968],[1.774,-7.025],[1.718,-7.046],[1.641,-7.144],[1.62,-7.123],[1.606,-7.046],[1.55,-6.891],[1.346,-6.49],[1.276,-6.384],[1.192,-6.195],[1.143,-6.131],[1.136,-6.096],[1.283,-6.089]]]]},"properties":{"abbr":"SubCV","name":"subcoeruleus nucleus, ventral part","plate":43,"ap_bregma_mm":-6.9,"area_mm2":0.7026,"traced_fraction":[0.983,0.965],"n_labels":2,"no_drawn_outline":false}},{"type":"Feature","geometry":{"type":"MultiPolygon","coordinates":[[[[-3.253,-5.639],[-3.218,-5.681],[-3.113,-5.737],[-3.169,-5.808],[-3.169,-5.829],[-3.225,-5.92],[-3.485,-5.92],[-3.436,-5.723],[-3.415,-5.667],[-3.33,-5.667],[-3.253,-5.639]]],[[[3.253,-5.815],[3.302,-5.97],[3.302,-6.019],[3.071,-6.019],[3.043,-5.998],[3.001,-5.92],[3.008,-5.815],[3.029,-5.801],[3.127,-5.801],[3.204,-5.822],[3.253,-5.815]]]]},"properties":{"abbr":"VCA","name":"ventral cochlear nucleus, anterior part","plate":43,"ap_bregma_mm":-6.9,"area_mm2":0.1281,"traced_fraction":[0.824,0.818],"n_labels":2,"no_drawn_outline":false}},{"type":"Feature","geometry":{"type":"MultiPolygon","coordinates":[[[[1.781,-7.791],[1.788,-7.862],[1.767,-7.911],[1.774,-7.946],[1.725,-8.044],[1.634,-8.164],[1.5,-8.29],[1.353,-8.368],[1.325,-8.396],[1.318,-8.424],[1.269,-8.431],[1.255,-8.403],[1.206,-8.382],[1.136,-8.326],[1.052,-8.213],[1.052,-8.178],[1.115,-8.136],[1.346,-8.058],[1.535,-7.967],[1.669,-7.89],[1.781,-7.791]]],[[[-1.998,-7.826],[-1.914,-7.897],[-1.83,-7.932],[-1.823,-7.96],[-1.781,-8.002],[-1.641,-8.087],[-1.606,-8.122],[-1.318,-8.269],[-1.311,-8.333],[-1.325,-8.396],[-1.36,-8.488],[-1.395,-8.537],[-1.536,-8.473],[-1.648,-8.382],[-1.676,-8.389],[-1.683,-8.431],[-1.76,-8.389],[-1.774,-8.368],[-1.774,-8.354],[-1.725,-8.312],[-1.942,-8.08],[-1.942,-8.065],[-1.942,-8.044],[-2.026,-7.897],[-2.026,-7.84],[-1.998,-7.826]]]]},"properties":{"abbr":"VNTB","name":"ventral nucleus of the trapezoid body","plate":43,"ap_bregma_mm":-6.9,"area_mm2":0.3753,"traced_fraction":[1.0,0.993],"n_labels":2,"no_drawn_outline":false}},{"type":"Feature","geometry":{"type":"MultiPolygon","coordinates":[[[[1.585,-2.516],[1.599,-2.551],[1.655,-2.615],[1.732,-2.762],[1.844,-3.086],[1.9,-3.346],[1.921,-3.522],[1.914,-3.663],[1.872,-3.747],[1.767,-3.782],[1.564,-3.796],[1.493,-3.782],[1.381,-3.733],[1.276,-3.656],[1.101,-3.466],[1.031,-3.36],[0.954,-3.163],[0.939,-3.156],[0.947,-3.03],[0.961,-3.002],[0.975,-2.959],[1.059,-2.833],[1.234,-2.65],[1.402,-2.558],[1.585,-2.516]]],[[[-1.444,-2.587],[-1.339,-2.65],[-1.276,-2.713],[-1.206,-2.84],[-1.157,-2.98],[-1.136,-2.994],[-1.136,-3.016],[-1.15,-3.03],[-1.143,-3.107],[-1.199,-3.29],[-1.311,-3.487],[-1.388,-3.571],[-1.479,-3.634],[-1.585,-3.663],[-1.739,-3.67],[-1.837,-3.642],[-1.886,-3.613],[-1.935,-3.55],[-1.97,-3.395],[-1.949,-3.22],[-1.9,-3.058],[-1.823,-2.889],[-1.718,-2.727],[-1.585,-2.601],[-1.444,-2.587]]]]},"properties":{"abbr":"cic","name":"commissure of the inferior colliculus","plate":43,"ap_bregma_mm":-6.9,"area_mm2":1.5362,"traced_fraction":[1.0,1.0],"n_labels":2,"no_drawn_outline":false}},{"type":"Feature","geometry":{"type":"MultiPolygon","coordinates":[[[[0.484,-8.663],[0.477,-8.241],[0.589,-8.227],[0.785,-8.241],[0.869,-8.262],[0.939,-8.298],[0.982,-8.34],[0.982,-8.403],[0.968,-8.438],[0.918,-8.502],[0.834,-8.565],[0.68,-8.628],[0.484,-8.663]]],[[[-0.589,-8.248],[-0.428,-8.276],[-0.281,-8.347],[-0.245,-8.41],[-0.231,-8.537],[-0.231,-8.544],[-0.266,-8.558],[-0.323,-8.614],[-0.407,-8.656],[-0.589,-8.705],[-0.589,-8.248]]]]},"properties":{"abbr":"lfp","name":"longitudinal fasciculus of the pons","plate":43,"ap_bregma_mm":-6.9,"area_mm2":0.2909,"traced_fraction":[0.773,0.712],"n_labels":2,"no_drawn_outline":true}},{"type":"Feature","geometry":{"type":"MultiPolygon","coordinates":[[[[2.412,-4.317],[2.433,-4.331],[2.678,-4.732],[2.734,-4.781],[2.833,-4.781],[2.875,-4.767],[2.959,-4.697],[3.001,-4.619],[3.029,-4.584],[3.043,-4.584],[3.057,-4.605],[3.071,-4.725],[3.12,-4.816],[3.043,-4.886],[2.896,-4.978],[2.734,-5.119],[2.482,-5.119],[2.517,-5.196],[2.517,-5.231],[2.489,-5.224],[2.433,-5.175],[2.391,-5.168],[2.356,-5.217],[2.349,-5.273],[2.335,-5.273],[2.307,-5.238],[2.195,-4.95],[2.075,-4.725],[2.181,-4.725],[2.181,-4.661],[2.251,-4.661],[2.188,-4.514],[2.16,-4.387],[2.216,-4.366],[2.342,-4.352],[2.412,-4.317]]],[[[-2.454,-4.45],[-2.138,-4.464],[-2.265,-4.647],[-2.321,-4.76],[-2.538,-5.147],[-2.566,-5.147],[-2.608,-5.112],[-2.692,-5.119],[-2.735,-5.147],[-2.882,-4.971],[-2.903,-4.908],[-2.882,-4.908],[-2.882,-4.893],[-2.847,-4.879],[-2.847,-4.865],[-2.833,-4.865],[-2.692,-4.725],[-2.692,-4.711],[-2.629,-4.661],[-2.545,-4.549],[-2.524,-4.542],[-2.468,-4.45],[-2.454,-4.45]]],[[[2.145,-6.089],[2.153,-6.251],[2.138,-6.272],[2.145,-6.335],[2.124,-6.356],[2.124,-6.384],[2.068,-6.603],[2.019,-6.722],[2.019,-6.757],[2.047,-6.75],[2.103,-6.666],[2.166,-6.603],[2.181,-6.603],[2.223,-6.652],[2.223,-6.694],[2.384,-6.694],[2.363,-6.933],[2.328,-7.088],[2.265,-7.2],[2.181,-7.285],[2.145,-7.299],[2.111,-7.348],[2.068,-7.341],[2.005,-7.214],[1.977,-7.102],[1.977,-6.926],[1.949,-6.926],[1.907,-7.053],[1.879,-7.102],[1.858,-7.109],[1.858,-7.13],[1.844,-7.13],[1.837,-7.095],[1.774,-7.025],[1.809,-6.968],[1.844,-6.856],[1.865,-6.835],[1.914,-6.722],[1.949,-6.567],[2.061,-6.286],[2.082,-6.18],[2.117,-6.103],[2.145,-6.089]]],[[[-2.244,-6.131],[-2.216,-6.152],[-2.18,-6.23],[-2.152,-6.342],[-2.131,-6.356],[-2.146,-6.399],[-2.138,-6.539],[-2.117,-6.673],[-2.082,-6.75],[-2.082,-6.778],[-2.033,-6.842],[-2.005,-6.912],[-1.998,-7.032],[-2.054,-7.207],[-2.082,-7.39],[-2.082,-7.538],[-2.04,-7.679],[-2.019,-7.693],[-2.047,-7.721],[-2.047,-7.77],[-2.012,-7.812],[-1.998,-7.812],[-1.998,-7.826],[-2.026,-7.84],[-2.026,-7.897],[-1.956,-8.016],[-1.942,-8.065],[-1.97,-8.065],[-2.082,-7.932],[-2.188,-7.735],[-2.265,-7.489],[-2.377,-7.376],[-2.377,-7.362],[-2.314,-7.299],[-2.279,-7.292],[-2.209,-7.214],[-2.167,-7.053],[-2.167,-6.947],[-2.237,-6.743],[-2.265,-6.567],[-2.265,-6.399],[-2.251,-6.349],[-2.258,-6.131],[-2.244,-6.131]]]]},"properties":{"abbr":"ll","name":"lateral lemniscus","plate":43,"ap_bregma_mm":-6.9,"area_mm2":1.3174,"traced_fraction":[0.901,0.882,0.942,0.998],"n_labels":4,"no_drawn_outline":false}},{"type":"Feature","geometry":{"type":"MultiPolygon","coordinates":[[[[2.84,-5.885],[2.868,-5.991],[2.868,-6.131],[2.819,-6.279],[2.762,-6.363],[2.65,-6.476],[2.51,-6.546],[2.433,-6.603],[2.405,-6.631],[2.384,-6.694],[2.223,-6.694],[2.223,-6.652],[2.181,-6.603],[2.195,-6.574],[2.174,-6.546],[2.174,-6.448],[2.342,-6.448],[2.433,-6.328],[2.461,-6.251],[2.461,-6.159],[2.608,-5.963],[2.657,-5.92],[2.755,-5.885],[2.84,-5.885]]],[[[-2.314,-6.026],[-2.244,-6.131],[-2.258,-6.131],[-2.251,-6.349],[-2.265,-6.399],[-2.265,-6.567],[-2.237,-6.743],[-2.167,-6.947],[-2.167,-7.053],[-2.209,-7.214],[-2.279,-7.292],[-2.314,-7.299],[-2.356,-7.025],[-2.44,-6.778],[-2.496,-6.68],[-2.496,-6.652],[-2.496,-6.574],[-2.475,-6.532],[-2.468,-6.406],[-2.454,-6.363],[-2.44,-6.033],[-2.433,-6.019],[-2.391,-6.012],[-2.314,-6.026]]]]},"properties":{"abbr":"m5","name":"motor root of the trigeminal nerve","plate":43,"ap_bregma_mm":-6.9,"area_mm2":0.5037,"traced_fraction":[0.869,0.998],"n_labels":2,"no_drawn_outline":false}},{"type":"Feature","geometry":{"type":"MultiPolygon","coordinates":[[[[-3.099,-4.725],[-3.001,-4.816],[-2.987,-4.816],[-2.917,-4.908],[-2.903,-4.908],[-2.882,-4.971],[-2.735,-5.147],[-2.735,-5.168],[-2.664,-5.252],[-2.608,-5.379],[-2.594,-5.386],[-2.594,-5.442],[-2.552,-5.527],[-2.552,-5.737],[-2.58,-5.857],[-2.587,-5.998],[-2.51,-6.342],[-2.496,-6.384],[-2.468,-6.406],[-2.475,-6.532],[-2.496,-6.574],[-2.524,-6.56],[-2.559,-6.483],[-2.636,-6.237],[-2.727,-6.026],[-2.889,-5.829],[-3.036,-5.744],[-3.036,-5.723],[-3.092,-5.646],[-3.127,-5.555],[-3.162,-5.519],[-3.176,-5.414],[-3.211,-5.301],[-3.281,-5.175],[-3.316,-5.048],[-3.33,-5.048],[-3.337,-5.027],[-3.345,-4.915],[-3.33,-4.9],[-3.323,-4.781],[-3.288,-4.739],[-3.225,-4.718],[-3.099,-4.725]]],[[[3.12,-4.816],[3.19,-4.865],[3.197,-4.922],[3.148,-5.062],[3.078,-5.344],[3.043,-5.576],[3.029,-5.576],[2.959,-5.653],[2.903,-5.744],[2.861,-5.85],[2.84,-5.885],[2.755,-5.885],[2.657,-5.92],[2.608,-5.963],[2.461,-6.159],[2.384,-6.216],[2.335,-6.216],[2.314,-6.18],[2.3,-6.103],[2.307,-5.815],[2.349,-5.611],[2.37,-5.583],[2.391,-5.505],[2.426,-5.484],[2.447,-5.435],[2.489,-5.386],[2.503,-5.386],[2.678,-5.386],[2.678,-5.175],[2.734,-5.119],[2.896,-4.978],[3.043,-4.886],[3.12,-4.816]]]]},"properties":{"abbr":"mcp","name":"middle cerebellar peduncle","plate":43,"ap_bregma_mm":-6.9,"area_mm2":1.2159,"traced_fraction":[0.998,0.909],"n_labels":2,"no_drawn_outline":false}},{"type":"Feature","geometry":{"type":"MultiPolygon","coordinates":[[[[1.206,-7.468],[1.206,-7.517],[1.227,-7.573],[1.115,-7.693],[1.031,-7.707],[0.989,-7.728],[0.947,-7.756],[0.884,-7.833],[0.905,-7.869],[0.975,-7.869],[1.101,-7.819],[1.129,-7.854],[1.213,-7.89],[1.381,-7.897],[1.571,-7.854],[1.69,-7.798],[1.746,-7.749],[1.767,-7.749],[1.781,-7.791],[1.669,-7.89],[1.535,-7.967],[1.346,-8.058],[1.115,-8.136],[1.052,-8.178],[1.052,-8.213],[1.136,-8.326],[1.206,-8.382],[1.255,-8.403],[1.269,-8.431],[1.129,-8.494],[0.813,-8.72],[0.582,-8.811],[0.372,-8.804],[0.21,-8.72],[0.189,-8.705],[0.168,-8.691],[0.147,-8.677],[0.084,-8.642],[0.007,-8.621],[0.035,-8.614],[0.056,-8.537],[0.133,-8.593],[0.21,-8.628],[0.393,-8.663],[0.484,-8.663],[0.68,-8.628],[0.834,-8.565],[0.918,-8.502],[0.968,-8.438],[0.982,-8.403],[0.982,-8.34],[0.939,-8.298],[0.869,-8.262],[0.785,-8.241],[0.666,-8.227],[0.477,-8.241],[0.259,-8.29],[0.182,-8.326],[0.105,-8.382],[0.091,-8.382],[0.07,-8.34],[0.07,-8.269],[-0.21,-8.269],[-0.217,-8.29],[-0.281,-8.347],[-0.428,-8.276],[-0.589,-8.248],[-0.694,-8.234],[-0.968,-8.248],[-1.129,-8.305],[-1.199,-8.382],[-1.199,-8.452],[-1.185,-8.488],[-1.143,-8.551],[-1.031,-8.649],[-0.947,-8.684],[-0.806,-8.713],[-0.715,-8.72],[-0.589,-8.705],[-0.407,-8.656],[-0.323,-8.614],[-0.266,-8.558],[-0.231,-8.544],[-0.21,-8.628],[-0.175,-8.635],[-0.252,-8.656],[-0.435,-8.769],[-0.617,-8.846],[-0.799,-8.846],[-0.968,-8.811],[-1.206,-8.727],[-1.381,-8.635],[-1.395,-8.537],[-1.367,-8.502],[-1.325,-8.396],[-1.311,-8.333],[-1.318,-8.269],[-1.606,-8.122],[-1.641,-8.087],[-1.781,-8.002],[-1.823,-7.96],[-1.83,-7.932],[-1.795,-7.932],[-1.739,-7.96],[-1.676,-8.016],[-1.592,-8.065],[-1.472,-8.094],[-1.346,-8.087],[-1.311,-8.044],[-1.304,-7.96],[-1.269,-7.932],[-1.22,-7.932],[-1.101,-7.967],[-1.038,-7.967],[-0.989,-7.939],[-1.017,-7.883],[-1.073,-7.826],[-1.241,-7.728],[-1.262,-7.636],[-1.08,-7.636],[-0.961,-7.679],[-0.841,-7.749],[-0.757,-7.756],[-0.673,-7.798],[-0.575,-7.798],[-0.498,-7.77],[-0.428,-7.721],[-0.428,-7.742],[-0.379,-7.826],[-0.379,-7.876],[-0.203,-7.876],[-0.203,-7.7],[-0.14,-7.735],[-0.091,-7.735],[-0.028,-7.679],[0.049,-7.658],[0.049,-7.847],[0.063,-7.876],[0.28,-7.876],[0.28,-7.686],[0.329,-7.686],[0.421,-7.777],[0.54,-7.784],[0.568,-7.777],[0.624,-7.721],[0.645,-7.672],[0.75,-7.672],[0.799,-7.658],[1.08,-7.503],[1.206,-7.468]]],[[[-0.091,-8.614],[-0.147,-8.628],[-0.147,-8.614],[-0.091,-8.614]]],[[[0.0,-8.621],[-0.021,-8.614],[-0.007,-8.607],[0.0,-8.621]]]]},"properties":{"abbr":"ml","name":"medial lemniscus","plate":43,"ap_bregma_mm":-6.9,"area_mm2":1.7663,"traced_fraction":[0.901,1.0,1.0],"n_labels":2,"no_drawn_outline":false}},{"type":"Feature","geometry":{"type":"MultiPolygon","coordinates":[[[[-0.68,-5.463],[-0.533,-5.47],[-0.379,-5.533],[-0.266,-5.632],[-0.252,-5.66],[-0.26,-5.723],[-0.287,-5.752],[-0.344,-5.752],[-0.463,-5.611],[-0.568,-5.548],[-0.68,-5.505],[-0.694,-5.491],[-0.694,-5.47],[-0.68,-5.463]]],[[[0.365,-5.512],[0.182,-5.604],[0.063,-5.716],[0.0,-5.716],[-0.028,-5.702],[-0.028,-5.576],[0.0,-5.576],[0.049,-5.512],[0.161,-5.477],[0.308,-5.484],[0.344,-5.491],[0.365,-5.512]]]]},"properties":{"abbr":"mlf","name":"medial longitudinal fasciculus","plate":43,"ap_bregma_mm":-6.9,"area_mm2":0.0975,"traced_fraction":[1.0,1.0],"n_labels":2,"no_drawn_outline":false}},{"type":"Feature","geometry":{"type":"MultiPolygon","coordinates":[[[[-0.589,-8.248],[-0.589,-8.705],[-0.75,-8.72],[-0.89,-8.698],[-1.003,-8.663],[-1.073,-8.621],[-1.143,-8.551],[-1.199,-8.452],[-1.199,-8.382],[-1.185,-8.354],[-1.129,-8.305],[-1.08,-8.284],[-0.968,-8.248],[-0.862,-8.234],[-0.589,-8.248]]],[[[0.477,-8.241],[0.484,-8.663],[0.393,-8.663],[0.21,-8.628],[0.133,-8.593],[0.056,-8.537],[0.056,-8.53],[0.056,-8.438],[0.105,-8.382],[0.182,-8.326],[0.259,-8.29],[0.477,-8.241]]]]},"properties":{"abbr":"py","name":"pyramidal tract","plate":43,"ap_bregma_mm":-6.9,"area_mm2":0.3824,"traced_fraction":[0.79,0.749],"n_labels":2,"no_drawn_outline":false}},{"type":"Feature","geometry":{"type":"MultiPolygon","coordinates":[[[[-2.082,-6.75],[-2.117,-6.673],[-2.131,-6.595],[-2.146,-6.413],[-2.131,-6.356],[-2.068,-6.321],[-1.998,-6.321],[-1.949,-6.356],[-1.872,-6.476],[-1.872,-6.603],[-1.921,-6.722],[-1.977,-6.764],[-2.082,-6.75]]]]},"properties":{"abbr":"rs","name":"rubrospinal tract","plate":43,"ap_bregma_mm":-6.9,"area_mm2":0.0967,"traced_fraction":[1.0],"n_labels":1,"no_drawn_outline":false}},{"type":"Feature","geometry":{"type":"MultiPolygon","coordinates":[[[[3.008,-5.815],[3.001,-5.92],[3.043,-5.998],[3.071,-6.019],[3.162,-6.258],[3.148,-6.258],[3.141,-6.427],[3.106,-6.525],[3.05,-6.603],[2.91,-6.905],[2.826,-7.018],[2.783,-7.046],[2.636,-7.2],[2.531,-7.278],[2.405,-7.341],[2.209,-7.39],[2.124,-7.425],[2.111,-7.404],[2.111,-7.348],[2.145,-7.299],[2.181,-7.285],[2.265,-7.2],[2.328,-7.088],[2.363,-6.933],[2.384,-6.694],[2.405,-6.631],[2.433,-6.603],[2.51,-6.546],[2.65,-6.476],[2.762,-6.363],[2.819,-6.279],[2.868,-6.131],[2.868,-5.991],[2.84,-5.885],[2.861,-5.85],[3.008,-5.815]]],[[[-2.496,-6.652],[-2.496,-6.68],[-2.44,-6.778],[-2.356,-7.025],[-2.314,-7.299],[-2.377,-7.362],[-2.531,-7.299],[-2.65,-7.207],[-2.727,-7.123],[-2.741,-7.123],[-2.741,-7.109],[-2.903,-6.933],[-2.917,-6.898],[-2.966,-6.849],[-2.973,-6.821],[-3.085,-6.687],[-3.316,-6.314],[-3.295,-6.23],[-3.246,-6.152],[-3.162,-5.92],[-3.127,-5.85],[-3.092,-5.822],[-3.071,-5.85],[-3.057,-5.934],[-2.987,-6.152],[-2.882,-6.342],[-2.868,-6.342],[-2.819,-6.413],[-2.657,-6.49],[-2.601,-6.539],[-2.531,-6.638],[-2.496,-6.652]]]]},"properties":{"abbr":"s5","name":"sensory root of the trigeminal nerve","plate":43,"ap_bregma_mm":-6.9,"area_mm2":1.2058,"traced_fraction":[1.0,1.0],"n_labels":3,"no_drawn_outline":false}},{"type":"Feature","geometry":{"type":"MultiPolygon","coordinates":[[[[-1.416,-4.844],[-1.416,-4.915],[-1.479,-4.978],[-1.627,-5.048],[-1.69,-5.097],[-1.711,-5.097],[-1.774,-5.154],[-1.921,-5.238],[-2.04,-5.273],[-2.124,-5.273],[-2.131,-5.224],[-2.089,-5.14],[-1.998,-5.041],[-1.837,-4.929],[-1.592,-4.837],[-1.465,-4.83],[-1.416,-4.844]]],[[[1.606,-5.013],[1.606,-5.027],[1.669,-5.069],[1.823,-5.231],[1.886,-5.323],[1.893,-5.379],[1.795,-5.379],[1.585,-5.294],[1.423,-5.154],[1.178,-4.999],[1.15,-4.971],[1.15,-4.95],[1.171,-4.936],[1.213,-4.922],[1.416,-4.922],[1.571,-4.992],[1.585,-5.013],[1.606,-5.013]]]]},"properties":{"abbr":"scp","name":"superior cerebellar peduncle","plate":43,"ap_bregma_mm":-6.9,"area_mm2":0.2842,"traced_fraction":[0.971,1.0],"n_labels":2,"no_drawn_outline":false}},{"type":"Feature","geometry":{"type":"MultiPolygon","coordinates":[[[[-0.105,-6.286],[-0.119,-6.399],[-0.105,-6.546],[-0.098,-6.574],[-0.049,-6.631],[-0.007,-6.631],[0.014,-6.61],[0.035,-6.532],[0.035,-6.448],[0.259,-6.448],[0.231,-6.666],[0.245,-6.835],[0.21,-6.835],[0.133,-6.799],[0.035,-6.799],[-0.007,-6.842],[-0.021,-6.891],[-0.014,-6.926],[-0.112,-6.926],[-0.126,-6.842],[-0.175,-6.785],[-0.217,-6.764],[-0.33,-6.764],[-0.463,-6.821],[-0.47,-6.722],[-0.449,-6.631],[-0.456,-6.455],[-0.238,-6.448],[-0.245,-6.349],[-0.231,-6.167],[-0.196,-6.138],[-0.161,-6.138],[-0.133,-6.188],[-0.126,-6.279],[-0.105,-6.286]]],[[[1.83,-6.356],[1.9,-6.518],[1.921,-6.553],[1.949,-6.567],[1.914,-6.722],[1.865,-6.835],[1.844,-6.856],[1.774,-6.863],[1.725,-6.849],[1.641,-6.778],[1.599,-6.687],[1.564,-6.525],[1.577,-6.448],[1.62,-6.399],[1.683,-6.37],[1.83,-6.356]]],[[[-0.26,-6.497],[-0.26,-6.603],[-0.323,-6.603],[-0.323,-6.617],[-0.21,-6.617],[-0.231,-6.574],[-0.238,-6.497],[-0.26,-6.497]]]]},"properties":{"abbr":"ts","name":"tectospinal tract","plate":43,"ap_bregma_mm":-6.9,"area_mm2":0.4065,"traced_fraction":[0.886,1.0,0.594],"n_labels":3,"no_drawn_outline":false}},{"type":"Feature","geometry":{"type":"MultiPolygon","coordinates":[[[[0.28,-7.686],[0.28,-7.876],[0.063,-7.876],[0.049,-7.847],[0.049,-7.658],[0.14,-7.65],[0.28,-7.686]]],[[[-0.393,-7.665],[-0.26,-7.665],[-0.203,-7.7],[-0.203,-7.876],[-0.379,-7.876],[-0.379,-7.826],[-0.428,-7.742],[-0.428,-7.721],[-0.393,-7.665]]]]},"properties":{"abbr":"tth","name":"trigeminothalamic tract","plate":43,"ap_bregma_mm":-6.9,"area_mm2":0.09,"traced_fraction":[0.344,0.426],"n_labels":2,"no_drawn_outline":true}},{"type":"Feature","geometry":{"type":"MultiPolygon","coordinates":[[[[3.162,-6.258],[3.19,-6.286],[3.197,-6.314],[3.239,-6.342],[3.001,-6.835],[2.938,-6.975],[2.861,-7.081],[2.84,-7.088],[2.776,-7.186],[2.65,-7.292],[2.44,-7.404],[2.209,-7.468],[2.117,-7.517],[2.089,-7.559],[2.068,-7.587],[1.984,-7.721],[1.837,-8.065],[1.788,-8.115],[1.774,-8.15],[1.606,-8.312],[1.543,-8.34],[1.522,-8.368],[1.444,-8.41],[1.318,-8.424],[1.325,-8.396],[1.353,-8.368],[1.5,-8.29],[1.634,-8.164],[1.725,-8.044],[1.774,-7.946],[1.816,-7.918],[1.928,-7.693],[1.984,-7.545],[2.061,-7.461],[2.075,-7.461],[2.075,-7.447],[2.124,-7.425],[2.209,-7.39],[2.405,-7.341],[2.531,-7.278],[2.636,-7.2],[2.783,-7.046],[2.826,-7.018],[2.91,-6.905],[3.05,-6.603],[3.106,-6.525],[3.141,-6.427],[3.148,-6.258],[3.162,-6.258]]],[[[-3.323,-6.314],[-3.316,-6.314],[-3.085,-6.687],[-2.973,-6.821],[-2.966,-6.849],[-2.938,-6.87],[-2.903,-6.933],[-2.741,-7.109],[-2.741,-7.123],[-2.727,-7.123],[-2.65,-7.207],[-2.531,-7.299],[-2.377,-7.362],[-2.377,-7.376],[-2.265,-7.489],[-2.188,-7.735],[-2.082,-7.932],[-1.97,-8.065],[-1.942,-8.065],[-1.942,-8.08],[-1.725,-8.312],[-1.774,-8.354],[-1.774,-8.368],[-1.942,-8.206],[-1.956,-8.206],[-2.117,-8.023],[-2.244,-7.812],[-2.293,-7.693],[-2.321,-7.573],[-2.335,-7.531],[-2.377,-7.489],[-2.601,-7.362],[-2.699,-7.264],[-2.756,-7.229],[-2.868,-7.102],[-3.071,-6.884],[-3.225,-6.659],[-3.288,-6.588],[-3.323,-6.483],[-3.33,-6.321],[-3.323,-6.314]]]]},"properties":{"abbr":"tz","name":"trapezoid body","plate":43,"ap_bregma_mm":-6.9,"area_mm2":0.4503,"traced_fraction":[1.0,0.997],"n_labels":2,"no_drawn_outline":false}},{"type":"Feature","geometry":{"type":"MultiPolygon","coordinates":[[[[-1.998,-7.032],[-1.963,-7.032],[-1.928,-7.06],[-1.858,-7.165],[-1.823,-7.193],[-1.795,-7.264],[-1.697,-7.376],[-1.578,-7.566],[-1.557,-7.629],[-1.563,-7.735],[-1.578,-7.735],[-1.69,-7.679],[-1.837,-7.643],[-1.928,-7.65],[-2.019,-7.693],[-2.04,-7.679],[-2.082,-7.538],[-2.082,-7.39],[-2.054,-7.207],[-1.998,-7.032]]]]},"properties":{"abbr":"vVNLL","name":"ventral nucleus of the lateral lemniscus, ventral part","plate":43,"ap_bregma_mm":-6.9,"area_mm2":0.2134,"traced_fraction":[1.0],"n_labels":1,"no_drawn_outline":false}},{"type":"Feature","geometry":{"type":"MultiPolygon","coordinates":[[[[-1.521,-4.338],[-1.599,-4.338],[-1.732,-4.373],[-1.942,-4.493],[-2.019,-4.549],[-2.033,-4.577],[-2.061,-4.584],[-2.103,-4.626],[-2.201,-4.682],[-2.279,-4.767],[-2.321,-4.76],[-2.265,-4.647],[-2.138,-4.464],[-2.033,-4.331],[-1.942,-4.274],[-1.83,-4.232],[-1.711,-4.225],[-1.648,-4.239],[-1.563,-4.282],[-1.521,-4.338]]],[[[1.627,-4.289],[1.697,-4.331],[1.718,-4.331],[1.781,-4.394],[1.795,-4.394],[1.914,-4.514],[2.075,-4.725],[2.195,-4.95],[2.3,-5.224],[2.321,-5.259],[2.349,-5.273],[2.37,-5.477],[2.377,-5.505],[2.391,-5.505],[2.37,-5.583],[2.349,-5.611],[2.307,-5.815],[2.286,-5.815],[2.202,-5.913],[2.145,-6.089],[2.117,-6.103],[2.082,-6.18],[1.97,-6.188],[1.872,-6.237],[1.823,-6.237],[1.795,-6.209],[1.823,-6.145],[1.83,-6.04],[1.809,-5.934],[1.767,-5.836],[1.767,-5.829],[1.809,-5.787],[1.816,-5.78],[1.844,-5.744],[1.9,-5.794],[1.977,-5.836],[2.047,-5.843],[2.103,-5.822],[2.145,-5.759],[2.16,-5.702],[2.16,-5.604],[2.124,-5.505],[2.124,-5.484],[2.145,-5.442],[2.153,-5.358],[2.033,-5.013],[2.033,-4.865],[2.005,-4.809],[1.935,-4.739],[1.718,-4.598],[1.704,-4.577],[1.514,-4.464],[1.458,-4.415],[1.262,-4.345],[1.311,-4.296],[1.416,-4.246],[1.5,-4.246],[1.627,-4.289]]]]},"properties":{"abbr":"vsc","name":"ventral spinocerebellar tract","plate":43,"ap_bregma_mm":-6.9,"area_mm2":0.6109,"traced_fraction":[1.0,0.995],"n_labels":2,"no_drawn_outline":false}},{"type":"Feature","geometry":{"type":"Polygon","coordinates":[[[1.655,-1.813],[1.83,-2.052],[1.858,-2.122],[1.914,-2.193],[1.921,-2.221],[1.949,-2.242],[2.145,-2.579],[2.293,-2.903],[2.321,-3.009],[2.321,-3.065],[2.293,-3.065],[2.237,-2.903],[2.166,-2.755],[1.984,-2.481],[1.977,-2.453],[1.935,-2.411],[1.928,-2.383],[1.844,-2.291],[1.823,-2.284],[1.816,-2.263],[1.662,-2.165],[1.697,-2.108],[1.697,-2.017],[1.641,-1.876],[1.634,-1.813],[1.655,-1.813]]]},"properties":{"abbr":null,"name":"unnamed sealed face","plate":43,"ap_bregma_mm":-6.9,"index":0}},{"type":"Feature","geometry":{"type":"Polygon","coordinates":[[[1.178,-1.961],[1.304,-2.017],[1.318,-2.038],[1.374,-2.066],[1.409,-2.108],[1.213,-2.108],[0.975,-2.15],[0.884,-2.186],[0.841,-2.179],[0.848,-2.158],[0.884,-2.136],[0.996,-2.108],[1.045,-2.073],[1.066,-2.073],[1.178,-1.961]]]},"properties":{"abbr":null,"name":"unnamed sealed face","plate":43,"ap_bregma_mm":-6.9,"index":1}},{"type":"Feature","geometry":{"type":"Polygon","coordinates":[[[-2.061,-2.143],[-2.019,-2.214],[-1.949,-2.228],[-1.977,-2.263],[-2.019,-2.284],[-2.019,-2.298],[-2.11,-2.354],[-2.11,-2.369],[-2.124,-2.369],[-2.209,-2.46],[-2.286,-2.579],[-2.356,-2.748],[-2.398,-2.966],[-2.398,-3.234],[-2.37,-3.417],[-2.328,-3.522],[-2.321,-3.592],[-2.279,-3.677],[-2.237,-3.817],[-2.244,-3.972],[-2.307,-4.197],[-2.454,-4.45],[-2.468,-4.45],[-2.524,-4.542],[-2.545,-4.549],[-2.629,-4.661],[-2.65,-4.668],[-2.65,-4.682],[-2.671,-4.689],[-2.671,-4.704],[-2.692,-4.711],[-2.692,-4.725],[-2.833,-4.865],[-2.847,-4.865],[-2.847,-4.879],[-2.882,-4.893],[-2.882,-4.908],[-2.903,-4.908],[-2.917,-4.908],[-2.966,-4.837],[-2.98,-4.837],[-2.987,-4.816],[-3.001,-4.816],[-3.099,-4.725],[-3.106,-4.689],[-3.078,-4.654],[-2.917,-4.535],[-2.812,-4.38],[-2.741,-4.31],[-2.727,-4.31],[-2.671,-4.239],[-2.629,-4.134],[-2.594,-3.958],[-2.58,-3.627],[-2.622,-3.522],[-2.664,-3.494],[-2.741,-3.494],[-2.72,-3.367],[-2.706,-3.353],[-2.65,-3.156],[-2.545,-2.917],[-2.188,-2.291],[-2.103,-2.165],[-2.089,-2.165],[-2.082,-2.143],[-2.061,-2.143]]]},"properties":{"abbr":null,"name":"unnamed sealed face","plate":43,"ap_bregma_mm":-6.9,"index":2}},{"type":"Feature","geometry":{"type":"Polygon","coordinates":[[[0.337,-2.143],[0.4,-2.15],[0.463,-2.193],[0.533,-2.214],[0.666,-2.214],[0.771,-2.179],[0.827,-2.179],[0.778,-2.235],[0.729,-2.249],[0.645,-2.305],[0.645,-2.319],[0.568,-2.383],[0.533,-2.439],[0.498,-2.467],[0.477,-2.467],[0.47,-2.333],[0.414,-2.242],[0.4,-2.242],[0.372,-2.193],[0.358,-2.193],[0.337,-2.143]]]},"properties":{"abbr":null,"name":"unnamed sealed face","plate":43,"ap_bregma_mm":-6.9,"index":3}},{"type":"Feature","geometry":{"type":"Polygon","coordinates":[[[-0.596,-2.263],[-0.589,-2.284],[-0.624,-2.376],[-0.624,-2.432],[-0.603,-2.502],[-0.61,-2.551],[-0.631,-2.551],[-0.757,-2.39],[-0.813,-2.354],[-0.855,-2.298],[-0.855,-2.277],[-0.659,-2.284],[-0.596,-2.263]]]},"properties":{"abbr":null,"name":"unnamed sealed face","plate":43,"ap_bregma_mm":-6.9,"index":4}},{"type":"Feature","geometry":{"type":"Polygon","coordinates":[[[0.358,-2.734],[0.337,-2.861],[0.344,-2.917],[0.393,-2.973],[0.407,-2.973],[0.407,-2.987],[0.442,-3.002],[0.456,-3.023],[0.477,-3.023],[0.505,-3.086],[0.47,-3.086],[0.337,-3.002],[0.182,-2.952],[0.077,-2.938],[0.077,-2.917],[0.238,-2.847],[0.329,-2.741],[0.358,-2.734]]]},"properties":{"abbr":null,"name":"unnamed sealed face","plate":43,"ap_bregma_mm":-6.9,"index":5}},{"type":"Feature","geometry":{"type":"Polygon","coordinates":[[[-0.505,-2.79],[-0.456,-2.805],[-0.323,-2.889],[-0.224,-2.917],[-0.175,-2.917],[-0.133,-2.945],[-0.161,-2.966],[-0.379,-3.03],[-0.512,-3.107],[-0.589,-3.135],[-0.596,-3.114],[-0.519,-3.016],[-0.519,-2.994],[-0.498,-2.959],[-0.505,-2.79]]]},"properties":{"abbr":null,"name":"unnamed sealed face","plate":43,"ap_bregma_mm":-6.9,"index":6}},{"type":"Feature","geometry":{"type":"Polygon","coordinates":[[[-0.617,-3.156],[-0.631,-3.177],[-0.694,-3.205],[-0.708,-3.227],[-0.792,-3.276],[-0.792,-3.29],[-0.869,-3.346],[-0.911,-3.409],[-0.911,-3.501],[-0.792,-3.599],[-0.813,-3.62],[-1.024,-3.642],[-1.185,-3.691],[-1.192,-3.67],[-1.122,-3.522],[-0.982,-3.346],[-0.771,-3.191],[-0.638,-3.135],[-0.61,-3.135],[-0.617,-3.156]]]},"properties":{"abbr":null,"name":"unnamed sealed face","plate":43,"ap_bregma_mm":-6.9,"index":7}},{"type":"Feature","geometry":{"type":"Polygon","coordinates":[[[2.342,-3.234],[2.398,-3.536],[2.503,-3.782],[2.405,-3.768],[2.377,-3.789],[2.335,-3.86],[2.3,-3.993],[2.3,-4.085],[2.321,-4.162],[2.279,-4.155],[2.237,-4.12],[2.174,-4.099],[2.188,-3.909],[2.237,-3.677],[2.279,-3.522],[2.307,-3.262],[2.314,-3.234],[2.342,-3.234]]]},"properties":{"abbr":null,"name":"unnamed sealed face","plate":43,"ap_bregma_mm":-6.9,"index":8}},{"type":"Feature","geometry":{"type":"Polygon","coordinates":[[[0.813,-3.381],[0.89,-3.43],[0.926,-3.508],[1.017,-3.606],[1.031,-3.656],[1.003,-3.656],[0.905,-3.606],[0.736,-3.592],[0.736,-3.564],[0.75,-3.564],[0.806,-3.501],[0.813,-3.381]]]},"properties":{"abbr":null,"name":"unnamed sealed face","plate":43,"ap_bregma_mm":-6.9,"index":9}},{"type":"Feature","geometry":{"type":"Polygon","coordinates":[[[-2.959,-3.761],[-2.959,-3.789],[-2.987,-3.838],[-3.134,-3.909],[-3.267,-4.0],[-3.281,-3.902],[-3.162,-3.867],[-3.029,-3.782],[-2.959,-3.761]]]},"properties":{"abbr":null,"name":"unnamed sealed face","plate":43,"ap_bregma_mm":-6.9,"index":10}},{"type":"Feature","geometry":{"type":"Polygon","coordinates":[[[1.129,-3.803],[1.213,-3.853],[1.192,-3.86],[1.192,-3.874],[1.262,-3.972],[1.276,-4.007],[1.276,-4.078],[1.22,-4.246],[1.15,-4.345],[1.15,-4.366],[1.059,-4.429],[1.024,-4.422],[1.038,-4.387],[1.073,-4.359],[1.129,-4.274],[1.164,-4.169],[1.171,-4.035],[1.164,-3.965],[1.129,-3.86],[1.129,-3.803]]]},"properties":{"abbr":null,"name":"unnamed sealed face","plate":43,"ap_bregma_mm":-6.9,"index":11}},{"type":"Feature","geometry":{"type":"Polygon","coordinates":[[[-1.374,-3.909],[-1.381,-4.071],[-1.36,-4.155],[-1.318,-4.232],[-1.213,-4.331],[-1.003,-4.436],[-1.01,-4.457],[-1.157,-4.45],[-1.276,-4.401],[-1.388,-4.31],[-1.409,-4.26],[-1.43,-4.246],[-1.458,-4.169],[-1.465,-4.064],[-1.423,-3.937],[-1.395,-3.909],[-1.374,-3.909]]]},"properties":{"abbr":null,"name":"unnamed sealed face","plate":43,"ap_bregma_mm":-6.9,"index":12}},{"type":"Feature","geometry":{"type":"Polygon","coordinates":[[[1.017,-4.443],[1.045,-4.443],[1.059,-4.457],[1.066,-4.528],[1.115,-4.682],[1.122,-4.767],[1.066,-4.781],[1.045,-4.774],[1.038,-4.633],[0.996,-4.507],[0.996,-4.457],[1.017,-4.443]]]},"properties":{"abbr":null,"name":"unnamed sealed face","plate":43,"ap_bregma_mm":-6.9,"index":13}},{"type":"Feature","geometry":{"type":"Polygon","coordinates":[[[-1.262,-4.493],[-1.227,-4.493],[-1.15,-4.528],[-1.115,-4.563],[-1.094,-4.626],[-1.101,-4.711],[-1.15,-4.858],[-1.213,-4.999],[-1.248,-5.02],[-1.276,-4.985],[-1.276,-4.957],[-1.297,-4.943],[-1.304,-4.788],[-1.304,-4.718],[-1.269,-4.704],[-1.255,-4.591],[-1.262,-4.549],[-1.262,-4.493]]]},"properties":{"abbr":null,"name":"unnamed sealed face","plate":43,"ap_bregma_mm":-6.9,"index":14}},{"type":"Feature","geometry":{"type":"Polygon","coordinates":[[[4.277,-4.76],[4.291,-4.76],[4.305,-4.802],[4.389,-4.929],[4.438,-4.971],[4.389,-5.034],[4.179,-4.816],[4.277,-4.76]]]},"properties":{"abbr":null,"name":"unnamed sealed face","plate":43,"ap_bregma_mm":-6.9,"index":15}},{"type":"Feature","geometry":{"type":"Polygon","coordinates":[[[-0.456,-4.943],[-0.449,-4.985],[-0.596,-5.027],[-0.666,-5.097],[-0.687,-5.168],[-0.785,-5.224],[-0.785,-5.238],[-0.848,-5.28],[-0.848,-5.294],[-0.869,-5.301],[-0.94,-5.386],[-1.017,-5.337],[-1.031,-5.308],[-1.073,-5.287],[-1.171,-5.189],[-1.171,-5.175],[-1.052,-5.013],[-0.996,-4.879],[-0.919,-4.83],[-0.834,-4.823],[-0.673,-4.844],[-0.554,-4.879],[-0.456,-4.943]]]},"properties":{"abbr":null,"name":"unnamed sealed face","plate":43,"ap_bregma_mm":-6.9,"index":16}},{"type":"Feature","geometry":{"type":"Polygon","coordinates":[[[0.961,-5.203],[0.82,-5.337],[0.701,-5.4],[0.694,-5.4],[0.603,-5.301],[0.421,-5.161],[0.421,-5.147],[0.337,-5.048],[0.21,-4.992],[0.217,-4.943],[0.259,-4.9],[0.393,-4.851],[0.596,-4.823],[0.666,-4.823],[0.736,-4.844],[0.771,-4.879],[0.855,-5.069],[0.961,-5.203]]]},"properties":{"abbr":null,"name":"unnamed sealed face","plate":43,"ap_bregma_mm":-6.9,"index":17}},{"type":"Feature","geometry":{"type":"Polygon","coordinates":[[[0.217,-4.943],[0.21,-4.992],[0.126,-4.992],[0.014,-5.02],[-0.028,-5.062],[-0.049,-5.112],[-0.049,-5.238],[-0.042,-5.301],[-0.056,-5.301],[-0.056,-5.351],[-0.028,-5.576],[-0.028,-5.702],[-0.042,-5.892],[-0.063,-5.941],[-0.119,-5.963],[-0.154,-5.948],[-0.182,-5.906],[-0.21,-5.801],[-0.217,-5.709],[-0.203,-5.505],[-0.175,-5.344],[-0.182,-5.266],[-0.175,-5.189],[-0.175,-5.14],[-0.196,-5.09],[-0.26,-5.027],[-0.372,-4.992],[-0.449,-4.985],[-0.456,-4.943],[-0.442,-4.922],[-0.414,-4.915],[-0.323,-4.922],[-0.175,-4.964],[-0.049,-4.964],[0.084,-4.922],[0.168,-4.922],[0.217,-4.943]]]},"properties":{"abbr":null,"name":"unnamed sealed face","plate":43,"ap_bregma_mm":-6.9,"index":18}},{"type":"Feature","geometry":{"type":"Polygon","coordinates":[[[2.517,-5.231],[2.545,-5.266],[2.545,-5.294],[2.524,-5.351],[2.503,-5.365],[2.503,-5.386],[2.489,-5.386],[2.447,-5.435],[2.426,-5.484],[2.391,-5.505],[2.377,-5.505],[2.37,-5.477],[2.349,-5.273],[2.356,-5.217],[2.391,-5.168],[2.433,-5.175],[2.468,-5.21],[2.517,-5.231]]]},"properties":{"abbr":null,"name":"unnamed sealed face","plate":43,"ap_bregma_mm":-6.9,"index":19}},{"type":"Feature","geometry":{"type":"Polygon","coordinates":[[[-0.175,-5.189],[-0.182,-5.266],[-0.21,-5.273],[-0.238,-5.308],[-0.302,-5.344],[-0.4,-5.372],[-0.428,-5.315],[-0.428,-5.259],[-0.386,-5.196],[-0.33,-5.175],[-0.175,-5.189]]]},"properties":{"abbr":null,"name":"unnamed sealed face","plate":43,"ap_bregma_mm":-6.9,"index":20}},{"type":"Feature","geometry":{"type":"Polygon","coordinates":[[[-2.475,-5.66],[-2.454,-5.681],[-2.398,-5.864],[-2.314,-6.026],[-2.391,-6.012],[-2.433,-6.019],[-2.44,-6.033],[-2.454,-5.836],[-2.489,-5.709],[-2.489,-5.66],[-2.475,-5.66]]]},"properties":{"abbr":null,"name":"unnamed sealed face","plate":43,"ap_bregma_mm":-6.9,"index":21}},{"type":"Feature","geometry":{"type":"Polygon","coordinates":[[[-3.113,-5.737],[-3.036,-5.744],[-2.889,-5.829],[-2.727,-6.026],[-2.636,-6.237],[-2.559,-6.483],[-2.524,-6.56],[-2.496,-6.574],[-2.496,-6.652],[-2.517,-6.652],[-2.601,-6.539],[-2.657,-6.49],[-2.819,-6.413],[-2.868,-6.342],[-2.882,-6.342],[-2.987,-6.152],[-3.057,-5.934],[-3.071,-5.85],[-3.092,-5.822],[-3.127,-5.85],[-3.246,-6.152],[-3.295,-6.23],[-3.309,-6.216],[-3.295,-6.089],[-3.225,-5.92],[-3.169,-5.829],[-3.169,-5.808],[-3.113,-5.737]]]},"properties":{"abbr":null,"name":"unnamed sealed face","plate":43,"ap_bregma_mm":-6.9,"index":22}},{"type":"Feature","geometry":{"type":"Polygon","coordinates":[[[2.124,-6.384],[2.166,-6.399],[2.174,-6.448],[2.174,-6.546],[2.195,-6.574],[2.181,-6.603],[2.166,-6.603],[2.103,-6.666],[2.047,-6.75],[2.019,-6.757],[2.019,-6.722],[2.068,-6.603],[2.124,-6.384]]]},"properties":{"abbr":null,"name":"unnamed sealed face","plate":43,"ap_bregma_mm":-6.9,"index":23}},{"type":"Feature","geometry":{"type":"Polygon","coordinates":[[[2.111,-7.348],[2.111,-7.404],[2.124,-7.425],[2.075,-7.447],[2.075,-7.461],[2.061,-7.461],[1.984,-7.545],[1.928,-7.693],[1.816,-7.918],[1.774,-7.946],[1.767,-7.911],[1.788,-7.862],[1.781,-7.791],[1.767,-7.749],[1.802,-7.622],[1.774,-7.622],[1.669,-7.693],[1.543,-7.742],[1.5,-7.742],[1.451,-7.7],[1.423,-7.693],[1.416,-7.615],[1.451,-7.489],[1.493,-7.433],[1.514,-7.376],[1.599,-7.264],[1.62,-7.193],[1.641,-7.144],[1.718,-7.046],[1.774,-7.025],[1.823,-7.074],[1.844,-7.13],[1.858,-7.13],[1.858,-7.109],[1.879,-7.102],[1.907,-7.053],[1.949,-6.926],[1.977,-6.926],[1.977,-7.102],[2.005,-7.214],[2.068,-7.341],[2.111,-7.348]]]},"properties":{"abbr":null,"name":"unnamed sealed face","plate":43,"ap_bregma_mm":-6.9,"index":24}},{"type":"Feature","geometry":{"type":"Polygon","coordinates":[[[-1.262,-7.636],[-1.241,-7.728],[-1.325,-7.728],[-1.36,-7.763],[-1.36,-7.826],[-1.325,-7.883],[-1.388,-7.869],[-1.388,-7.854],[-1.437,-7.812],[-1.563,-7.735],[-1.557,-7.629],[-1.578,-7.566],[-1.697,-7.376],[-1.683,-7.362],[-1.592,-7.362],[-1.437,-7.411],[-1.346,-7.489],[-1.262,-7.636]]]},"properties":{"abbr":null,"name":"unnamed sealed face","plate":43,"ap_bregma_mm":-6.9,"index":25}},{"type":"Feature","geometry":{"type":"Polygon","coordinates":[[[-1.578,-7.735],[-1.599,-7.784],[-1.613,-7.784],[-1.641,-7.826],[-1.746,-7.876],[-1.844,-7.869],[-1.921,-7.826],[-1.949,-7.791],[-1.977,-7.791],[-1.998,-7.812],[-2.012,-7.812],[-2.047,-7.77],[-2.047,-7.721],[-2.019,-7.693],[-1.928,-7.65],[-1.837,-7.643],[-1.69,-7.679],[-1.578,-7.735]]]},"properties":{"abbr":null,"name":"unnamed sealed face","plate":43,"ap_bregma_mm":-6.9,"index":26}},{"type":"Feature","geometry":{"type":"Polygon","coordinates":[[[-1.395,-8.537],[-1.381,-8.635],[-1.578,-8.516],[-1.683,-8.431],[-1.676,-8.389],[-1.648,-8.382],[-1.536,-8.473],[-1.395,-8.537]]]},"properties":{"abbr":null,"name":"unnamed sealed face","plate":43,"ap_bregma_mm":-6.9,"index":27}},{"type":"Feature","geometry":{"type":"Polygon","coordinates":[[[0.056,-8.53],[0.056,-8.537],[0.035,-8.614],[0.007,-8.621],[0.0,-8.621],[-0.007,-8.607],[-0.021,-8.614],[-0.091,-8.614],[-0.119,-8.607],[-0.147,-8.614],[-0.147,-8.628],[-0.175,-8.635],[-0.21,-8.628],[-0.231,-8.544],[-0.231,-8.537],[-0.133,-8.509],[-0.035,-8.509],[0.056,-8.53]]]},"properties":{"abbr":null,"name":"unnamed sealed face","plate":43,"ap_bregma_mm":-6.9,"index":28}},{"type":"Feature","geometry":{"type":"MultiPolygon","coordinates":[[[[-0.638,-8.839],[-0.785,-8.839],[-0.961,-8.804],[-1.199,-8.72],[-1.416,-8.614],[-1.767,-8.375],[-2.012,-8.143],[-2.11,-8.023],[-2.23,-7.833],[-2.286,-7.7],[-2.335,-7.531],[-2.377,-7.489],[-2.58,-7.369],[-2.769,-7.207],[-3.064,-6.884],[-3.295,-6.567],[-3.323,-6.469],[-3.33,-6.321],[-3.443,-6.174],[-3.492,-6.068],[-3.492,-5.927],[-3.436,-5.73],[-3.464,-5.66],[-3.576,-5.646],[-3.737,-5.667],[-4.151,-5.801],[-4.501,-5.787],[-4.627,-5.752],[-4.726,-5.702],[-4.824,-5.604],[-4.887,-5.47],[-4.908,-5.273],[-4.859,-5.196],[-4.929,-5.062],[-5.097,-5.069],[-5.146,-5.055],[-5.216,-5.013],[-5.371,-4.872],[-5.476,-4.746],[-5.56,-4.598],[-5.588,-4.507],[-5.595,-4.387],[-5.588,-4.338],[-5.539,-4.218],[-5.406,-4.085],[-5.322,-4.035],[-4.95,-3.874],[-4.768,-3.733],[-4.642,-3.684],[-4.529,-3.684],[-4.389,-3.705],[-4.319,-3.726],[-4.291,-3.754],[-4.256,-3.831],[-4.186,-4.12],[-4.172,-4.317],[-4.095,-4.352],[-3.996,-4.303],[-3.87,-4.296],[-3.576,-4.387],[-3.506,-4.394],[-3.45,-4.373],[-3.4,-4.303],[-3.351,-4.113],[-3.267,-4.0],[-3.281,-3.888],[-3.345,-3.867],[-3.379,-3.831],[-3.478,-3.627],[-3.597,-3.184],[-3.611,-2.973],[-3.653,-2.91],[-3.772,-2.854],[-3.828,-2.755],[-3.821,-2.608],[-3.765,-2.453],[-3.674,-2.284],[-3.506,-2.045],[-3.358,-1.883],[-3.253,-1.813],[-3.078,-1.736],[-3.043,-1.736],[-3.015,-1.757],[-2.917,-1.736],[-2.798,-1.602],[-2.65,-1.503],[-2.433,-1.391],[-2.152,-1.271],[-1.9,-1.194],[-1.774,-1.187],[-1.732,-1.201],[-1.669,-1.25],[-1.627,-1.335],[-1.557,-1.363],[-1.367,-1.138],[-1.08,-0.906],[-0.89,-0.8],[-0.54,-0.673],[-0.203,-0.624],[0.252,-0.617],[0.477,-0.638],[0.666,-0.681],[0.897,-0.772],[1.094,-0.913],[1.241,-1.103],[1.465,-1.51],[1.535,-1.489],[1.535,-1.447],[1.564,-1.37],[1.599,-1.321],[1.648,-1.292],[1.928,-1.243],[2.111,-1.257],[2.3,-1.314],[2.482,-1.426],[2.699,-1.63],[2.854,-1.827],[2.938,-1.771],[2.952,-1.707],[3.008,-1.672],[3.127,-1.672],[3.19,-1.686],[3.316,-1.743],[3.422,-1.813],[3.513,-1.897],[3.611,-2.031],[3.674,-2.179],[3.681,-2.319],[3.625,-2.509],[3.604,-2.523],[3.548,-2.523],[3.485,-2.495],[3.401,-2.418],[3.141,-2.066],[3.155,-2.087],[3.057,-2.143],[3.274,-2.474],[3.393,-2.692],[3.443,-2.847],[3.443,-2.994],[3.359,-3.395],[3.309,-3.747],[3.253,-3.93],[3.218,-4.0],[3.148,-4.092],[3.078,-4.134],[2.98,-4.141],[2.959,-4.218],[3.19,-4.338],[3.33,-4.359],[3.365,-4.345],[3.478,-4.218],[3.555,-4.176],[3.702,-4.162],[3.807,-4.19],[3.87,-4.225],[3.975,-4.352],[4.011,-4.472],[4.011,-4.584],[4.032,-4.64],[4.081,-4.718],[4.172,-4.816],[4.277,-4.753],[4.2,-4.598],[4.137,-4.422],[4.116,-4.296],[4.13,-4.162],[4.179,-4.078],[4.249,-4.021],[4.326,-3.993],[4.431,-3.979],[4.466,-4.007],[4.473,-4.274],[4.501,-4.387],[4.564,-4.521],[4.564,-4.549],[4.522,-4.633],[4.543,-4.781],[4.543,-4.9],[4.515,-4.95],[4.494,-4.964],[4.438,-4.964],[4.382,-5.034],[4.424,-5.104],[4.431,-5.21],[4.403,-5.301],[4.319,-5.449],[4.235,-5.533],[4.144,-5.59],[3.982,-5.625],[3.856,-5.618],[3.8,-5.569],[3.702,-5.59],[3.695,-5.66],[3.674,-5.688],[3.632,-5.709],[3.414,-5.752],[3.309,-5.759],[3.246,-5.808],[3.295,-5.977],[3.295,-6.089],[3.253,-6.293],[2.931,-6.968],[2.762,-7.186],[2.622,-7.299],[2.447,-7.39],[2.216,-7.461],[2.117,-7.51],[2.005,-7.665],[1.837,-8.044],[1.76,-8.15],[1.606,-8.298],[1.451,-8.396],[1.374,-8.417],[1.29,-8.417],[1.143,-8.48],[0.792,-8.72],[0.568,-8.804],[0.379,-8.797],[0.274,-8.755],[0.091,-8.642],[-0.035,-8.607],[-0.091,-8.607],[-0.266,-8.656],[-0.484,-8.783],[-0.61,-8.832],[-0.638,-8.839]]]]},"properties":{"abbr":"brain_outline","name":"outline of the section","plate":43,"ap_bregma_mm":-6.9}}]}
