{"type":"FeatureCollection","name":"GerbilAtlas plate 57","note":"Region extents cut from the atlas drawing (METHODS.md, Region extents). Coordinates are [ML, DV] in mm, ML positive to the right of the plate as printed, DV negative below the dorsal surface; AP is the plate bregma. traced_fraction is the share of each polygon boundary the atlas actually draws; below 0.5 the boundary is an estimate. no_drawn_outline marks a feature that lies only inside boundaries the atlas draws round more than one name and prints nothing within, so the whole of its outline is where the extraction cut it. Not a segmentation.","plate":57,"ap_bregma_mm":-11.8,"features":[{"type":"Feature","geometry":{"type":"MultiPolygon","coordinates":[[[[0.491,-6.197],[0.47,-6.281],[0.428,-6.317],[0.365,-6.338],[0.161,-6.338],[0.161,-6.246],[0.259,-6.183],[0.379,-6.148],[0.442,-6.148],[0.491,-6.197]]],[[[0.021,-6.253],[0.021,-6.295],[-0.014,-6.324],[-0.014,-6.338],[-0.224,-6.345],[-0.224,-6.359],[-0.238,-6.359],[-0.301,-6.422],[-0.337,-6.499],[-0.364,-6.492],[-0.442,-6.408],[-0.491,-6.33],[-0.512,-6.281],[-0.568,-6.218],[-0.589,-6.169],[-0.519,-6.155],[-0.407,-6.211],[-0.343,-6.218],[-0.315,-6.176],[-0.28,-6.162],[-0.161,-6.162],[-0.063,-6.19],[-0.007,-6.246],[0.021,-6.253]]]]},"properties":{"abbr":"10N","name":"dorsal motor nucleus of vagus","plate":57,"ap_bregma_mm":-11.8,"area_mm2":0.1554,"traced_fraction":[0.96,1.0],"n_labels":2,"no_drawn_outline":false}},{"type":"Feature","geometry":{"type":"MultiPolygon","coordinates":[[[[0.645,-6.317],[0.652,-6.324],[0.659,-6.359],[0.792,-6.45],[0.918,-6.57],[0.939,-6.605],[0.4,-6.605],[0.4,-6.577],[0.421,-6.556],[0.491,-6.591],[0.519,-6.591],[0.547,-6.57],[0.533,-6.499],[0.512,-6.492],[0.477,-6.443],[0.512,-6.429],[0.617,-6.345],[0.631,-6.317],[0.645,-6.317]]]]},"properties":{"abbr":"12GH","name":"hypoglossal nucleus, geniohyoid part","plate":57,"ap_bregma_mm":-11.8,"area_mm2":0.0757,"traced_fraction":[0.738],"n_labels":1,"no_drawn_outline":true}},{"type":"Feature","geometry":{"type":"MultiPolygon","coordinates":[[[[-0.014,-6.338],[0.042,-6.387],[0.042,-6.401],[0.161,-6.338],[0.365,-6.338],[0.435,-6.464],[0.421,-6.556],[0.4,-6.577],[0.4,-6.605],[0.351,-6.668],[0.231,-6.703],[0.14,-6.689],[0.063,-6.626],[0.035,-6.626],[0.014,-6.654],[-0.042,-6.675],[-0.049,-6.696],[-0.147,-6.696],[-0.252,-6.661],[-0.294,-6.619],[-0.322,-6.57],[-0.337,-6.499],[-0.301,-6.422],[-0.238,-6.359],[-0.224,-6.359],[-0.224,-6.345],[-0.014,-6.338]]]]},"properties":{"abbr":"12N","name":"hypoglossal nucleus","plate":57,"ap_bregma_mm":-11.8,"area_mm2":0.2315,"traced_fraction":[1.0],"n_labels":2,"no_drawn_outline":false}},{"type":"Feature","geometry":{"type":"MultiPolygon","coordinates":[[[[-0.442,-6.408],[-0.364,-6.492],[-0.337,-6.499],[-0.322,-6.57],[-0.294,-6.619],[-0.252,-6.661],[-0.147,-6.696],[-0.168,-6.738],[-0.259,-6.83],[-0.294,-6.893],[-0.33,-7.013],[-0.351,-7.16],[-0.372,-7.175],[-0.4,-7.287],[-0.456,-7.4],[-0.568,-7.526],[-0.876,-7.737],[-0.975,-7.787],[-1.038,-7.8],[-1.045,-7.737],[-1.101,-7.688],[-1.248,-7.604],[-1.311,-7.54],[-1.339,-7.491],[-1.409,-7.421],[-1.423,-7.421],[-1.423,-7.407],[-1.276,-7.266],[-1.269,-7.245],[-1.199,-7.196],[-1.15,-7.125],[-1.08,-7.069],[-0.792,-6.774],[-0.708,-6.668],[-0.68,-6.654],[-0.624,-6.577],[-0.456,-6.408],[-0.442,-6.408]]],[[[-0.47,-6.612],[-0.491,-6.64],[-0.491,-6.696],[-0.47,-6.724],[-0.421,-6.732],[-0.4,-6.696],[-0.407,-6.626],[-0.421,-6.612],[-0.47,-6.612]]],[[[0.407,-7.013],[0.708,-7.013],[0.708,-7.168],[0.47,-7.168],[0.449,-7.146],[0.407,-7.013]]]]},"properties":{"abbr":"12n","name":"hypoglossal nerve","plate":57,"ap_bregma_mm":-11.8,"area_mm2":0.8459,"traced_fraction":[0.996,1.0,0.27],"n_labels":2,"no_drawn_outline":false}},{"type":"Feature","geometry":{"type":"MultiPolygon","coordinates":[[[[1.556,-3.243],[1.571,-3.278],[1.62,-3.419],[1.094,-3.426],[0.855,-3.236],[0.708,-3.173],[0.575,-3.137],[0.301,-3.102],[0.287,-3.088],[0.231,-3.081],[-0.049,-3.081],[-0.364,-3.116],[-0.582,-3.18],[-0.771,-3.278],[-0.806,-3.327],[-0.883,-3.377],[-0.961,-3.454],[-0.982,-3.426],[-1.648,-3.426],[-1.606,-3.264],[-1.493,-3.032],[-1.458,-2.997],[-1.437,-2.948],[-1.409,-2.905],[-1.15,-2.526],[-0.982,-2.343],[-0.898,-2.293],[-0.89,-2.272],[-0.834,-2.244],[-0.82,-2.223],[-0.631,-2.146],[-0.358,-2.104],[0.126,-2.125],[0.533,-2.195],[0.722,-2.251],[0.897,-2.336],[0.954,-2.385],[1.031,-2.427],[1.136,-2.526],[1.297,-2.729],[1.36,-2.856],[1.381,-2.87],[1.444,-2.976],[1.556,-3.243]]]]},"properties":{"abbr":"8Cb","name":"8th cerebellar lobule","plate":57,"ap_bregma_mm":-11.8,"area_mm2":2.757,"traced_fraction":[0.862],"n_labels":1,"no_drawn_outline":false}},{"type":"Feature","geometry":{"type":"MultiPolygon","coordinates":[[[[1.094,-3.426],[1.192,-3.559],[1.241,-3.658],[1.325,-3.967],[1.332,-4.066],[1.353,-4.094],[1.402,-4.277],[1.353,-4.277],[1.325,-4.291],[1.234,-4.263],[1.115,-4.263],[0.028,-4.312],[-0.694,-4.27],[-0.953,-4.221],[-1.199,-4.199],[-1.43,-4.235],[-1.437,-4.207],[-1.423,-4.178],[-1.409,-4.171],[-1.29,-3.946],[-1.283,-3.911],[-1.164,-3.707],[-1.122,-3.665],[-1.052,-3.552],[-0.961,-3.454],[-0.883,-3.377],[-0.806,-3.327],[-0.771,-3.278],[-0.582,-3.18],[-0.364,-3.116],[-0.049,-3.081],[0.231,-3.081],[0.287,-3.088],[0.301,-3.102],[0.575,-3.137],[0.708,-3.173],[0.855,-3.236],[1.094,-3.426]]]]},"properties":{"abbr":"9aCb","name":"9th cerebellar lobule, a","plate":57,"ap_bregma_mm":-11.8,"area_mm2":2.625,"traced_fraction":[0.987],"n_labels":2,"no_drawn_outline":false}},{"type":"Feature","geometry":{"type":"MultiPolygon","coordinates":[[[[1.402,-4.277],[1.416,-4.291],[1.36,-4.312],[1.367,-4.516],[1.318,-4.643],[1.15,-4.854],[1.08,-4.889],[0.897,-5.022],[0.736,-5.1],[0.533,-5.163],[0.175,-5.233],[-0.224,-5.24],[-0.393,-5.226],[-0.582,-5.191],[-0.932,-5.079],[-1.143,-4.973],[-1.388,-4.811],[-1.521,-4.657],[-1.542,-4.593],[-1.549,-4.481],[-1.536,-4.368],[-1.486,-4.284],[-1.458,-4.249],[-1.444,-4.249],[-1.444,-4.235],[-1.43,-4.235],[-1.199,-4.199],[-0.953,-4.221],[-0.694,-4.27],[0.028,-4.312],[1.115,-4.263],[1.234,-4.263],[1.325,-4.291],[1.353,-4.277],[1.402,-4.277]]]]},"properties":{"abbr":"9cCb","name":"9th cerebellar lobule, c","plate":57,"ap_bregma_mm":-11.8,"area_mm2":2.3051,"traced_fraction":[1.0],"n_labels":1,"no_drawn_outline":false}},{"type":"Feature","geometry":{"type":"MultiPolygon","coordinates":[[[[1.62,-3.419],[1.704,-3.728],[1.746,-3.974],[1.746,-4.242],[1.711,-4.319],[1.676,-4.347],[1.627,-4.361],[1.55,-4.347],[1.479,-4.277],[1.416,-4.291],[1.402,-4.277],[1.374,-4.157],[1.332,-4.066],[1.325,-3.967],[1.241,-3.658],[1.192,-3.559],[1.094,-3.426],[1.62,-3.419]]],[[[-1.648,-3.426],[-0.982,-3.426],[-0.961,-3.454],[-1.052,-3.552],[-1.122,-3.665],[-1.164,-3.707],[-1.283,-3.911],[-1.29,-3.946],[-1.409,-4.171],[-1.423,-4.178],[-1.437,-4.207],[-1.43,-4.235],[-1.444,-4.235],[-1.444,-4.249],[-1.458,-4.249],[-1.486,-4.284],[-1.536,-4.368],[-1.557,-4.368],[-1.634,-4.418],[-1.69,-4.453],[-1.774,-4.474],[-1.83,-4.41],[-1.837,-4.333],[-1.837,-4.228],[-1.809,-4.017],[-1.746,-3.728],[-1.648,-3.426]]]]},"properties":{"abbr":"Cop","name":"copula of the pyramis","plate":57,"ap_bregma_mm":-11.8,"area_mm2":0.8829,"traced_fraction":[0.795,0.799],"n_labels":2,"no_drawn_outline":false}},{"type":"Feature","geometry":{"type":"MultiPolygon","coordinates":[[[[1.052,-5.508],[1.059,-5.599],[1.045,-5.669],[1.024,-5.726],[0.954,-5.824],[0.841,-5.859],[0.785,-5.852],[0.68,-5.803],[0.61,-5.74],[0.561,-5.655],[0.568,-5.606],[0.568,-5.592],[0.666,-5.536],[0.799,-5.487],[0.947,-5.473],[0.996,-5.479],[1.052,-5.508]]],[[[-0.449,-5.627],[-0.484,-5.747],[-0.526,-5.803],[-0.568,-5.824],[-0.596,-5.859],[-0.624,-5.859],[-0.687,-5.894],[-0.785,-5.902],[-0.799,-5.902],[-0.925,-5.782],[-0.989,-5.669],[-0.989,-5.648],[-1.003,-5.641],[-0.996,-5.62],[-0.82,-5.536],[-0.673,-5.522],[-0.547,-5.557],[-0.449,-5.627]]]]},"properties":{"abbr":"Cu","name":"cuneate nucleus","plate":57,"ap_bregma_mm":-11.8,"area_mm2":0.2883,"traced_fraction":[1.0,1.0],"n_labels":2,"no_drawn_outline":false}},{"type":"Feature","geometry":{"type":"MultiPolygon","coordinates":[[[[2.237,-6.084],[2.265,-6.155],[2.272,-6.246],[1.984,-6.246],[1.984,-6.084],[2.237,-6.084]]],[[[-2.117,-6.127],[-1.879,-6.127],[-1.879,-6.211],[-1.823,-6.218],[-1.669,-6.373],[-1.732,-6.457],[-1.774,-6.556],[-1.802,-6.732],[-1.809,-6.992],[-1.823,-7.048],[-1.865,-7.118],[-1.921,-7.146],[-2.026,-7.146],[-2.117,-7.027],[-2.174,-6.9],[-2.201,-6.802],[-2.223,-6.626],[-2.201,-6.338],[-2.159,-6.183],[-2.131,-6.127],[-2.117,-6.127]]]]},"properties":{"abbr":"Ge5","name":"gelatinous layer of the caudal spinal trigeminal nucleus","plate":57,"ap_bregma_mm":-11.8,"area_mm2":0.4372,"traced_fraction":[0.266,0.79],"n_labels":2,"no_drawn_outline":true}},{"type":"Feature","geometry":{"type":"MultiPolygon","coordinates":[[[[0.477,-5.388],[0.491,-5.508],[0.47,-5.627],[0.414,-5.69],[0.4,-5.69],[0.358,-5.662],[0.351,-5.634],[0.077,-5.634],[0.084,-5.585],[0.119,-5.529],[0.119,-5.479],[0.14,-5.473],[0.175,-5.444],[0.295,-5.395],[0.477,-5.388]]],[[[-0.189,-5.416],[-0.196,-5.578],[-0.21,-5.578],[-0.21,-5.761],[-0.322,-5.733],[-0.33,-5.705],[-0.393,-5.662],[-0.4,-5.634],[-0.414,-5.634],[-0.421,-5.536],[-0.407,-5.444],[-0.294,-5.409],[-0.189,-5.416]]]]},"properties":{"abbr":"Gr","name":"gracile nucleus","plate":57,"ap_bregma_mm":-11.8,"area_mm2":0.1504,"traced_fraction":[0.757,0.718],"n_labels":2,"no_drawn_outline":true}},{"type":"Feature","geometry":{"type":"MultiPolygon","coordinates":[[[[-0.68,-7.765],[-0.666,-8.019],[-0.701,-8.054],[-0.708,-8.04],[-0.827,-8.061],[-0.925,-8.054],[-0.982,-8.012],[-0.982,-7.976],[-0.911,-7.899],[-0.827,-7.857],[-0.701,-7.765],[-0.68,-7.765]]]]},"properties":{"abbr":"IOA","name":"inferior olive, subnucleus A of medial nucleus","plate":57,"ap_bregma_mm":-11.8,"area_mm2":0.06,"traced_fraction":[0.81],"n_labels":1,"no_drawn_outline":false}},{"type":"Feature","geometry":{"type":"MultiPolygon","coordinates":[[[[0.435,-7.632],[0.505,-7.646],[0.666,-7.73],[0.834,-7.779],[1.003,-7.808],[1.129,-7.864],[1.115,-7.899],[1.066,-7.92],[0.792,-7.962],[0.757,-7.983],[0.694,-7.969],[0.568,-7.906],[0.428,-7.871],[0.435,-7.695],[0.435,-7.632]]],[[[-0.428,-7.639],[-0.421,-7.899],[-0.491,-7.92],[-0.666,-8.019],[-0.68,-7.765],[-0.659,-7.737],[-0.428,-7.639]]]]},"properties":{"abbr":"IOB","name":"inferior olive, subnucleus B of medial nucleus","plate":57,"ap_bregma_mm":-11.8,"area_mm2":0.1916,"traced_fraction":[0.888,0.629],"n_labels":2,"no_drawn_outline":false}},{"type":"Feature","geometry":{"type":"MultiPolygon","coordinates":[[[[0.042,-7.118],[0.049,-7.139],[0.056,-7.238],[0.014,-7.287],[0.014,-7.695],[-0.33,-7.695],[-0.337,-7.589],[-0.238,-7.498],[-0.154,-7.343],[-0.14,-7.287],[-0.098,-7.238],[-0.077,-7.224],[-0.014,-7.224],[0.0,-7.196],[-0.007,-7.111],[0.042,-7.118]]],[[[0.07,-7.505],[0.323,-7.505],[0.351,-7.575],[0.435,-7.632],[0.435,-7.695],[0.07,-7.695],[0.07,-7.505]]]]},"properties":{"abbr":"IOBe","name":"inferior olive, beta subnucleus","plate":57,"ap_bregma_mm":-11.8,"area_mm2":0.1813,"traced_fraction":[0.765,0.474],"n_labels":2,"no_drawn_outline":true}},{"type":"Feature","geometry":{"type":"MultiPolygon","coordinates":[[[[-0.337,-7.589],[-0.33,-7.695],[0.014,-7.695],[0.007,-7.793],[-0.028,-7.906],[-0.021,-7.955],[-0.119,-7.969],[-0.161,-7.927],[-0.252,-7.892],[-0.421,-7.899],[-0.428,-7.639],[-0.337,-7.589]]],[[[0.07,-7.695],[0.435,-7.695],[0.428,-7.871],[0.287,-7.878],[0.105,-7.962],[0.098,-7.969],[0.098,-7.976],[0.084,-7.962],[0.07,-7.695]]],[[[0.049,-7.962],[0.007,-7.955],[0.042,-7.948],[0.049,-7.962]]]]},"properties":{"abbr":"IOC","name":"inferior olive, subnucleus C of medial nucleus","plate":57,"ap_bregma_mm":-11.8,"area_mm2":0.1772,"traced_fraction":[0.607,0.59,1.0],"n_labels":2,"no_drawn_outline":true}},{"type":"Feature","geometry":{"type":"MultiPolygon","coordinates":[[[[0.182,-7.266],[0.238,-7.336],[0.323,-7.505],[0.07,-7.505],[0.07,-7.287],[0.084,-7.259],[0.182,-7.266]]]]},"properties":{"abbr":"IOK","name":"inferior olive, cap of Kooy of the medial nucleus","plate":57,"ap_bregma_mm":-11.8,"area_mm2":0.0456,"traced_fraction":[0.72],"n_labels":1,"no_drawn_outline":true}},{"type":"Feature","geometry":{"type":"MultiPolygon","coordinates":[[[[0.757,-6.197],[0.996,-6.345],[1.08,-6.429],[1.136,-6.436],[1.192,-6.499],[1.234,-6.52],[1.269,-6.563],[1.311,-6.584],[1.437,-6.703],[1.451,-6.703],[1.767,-7.013],[1.781,-7.013],[1.781,-7.027],[1.872,-7.118],[1.872,-7.175],[1.732,-7.168],[1.655,-7.182],[1.543,-7.231],[1.486,-7.273],[1.473,-7.273],[1.402,-7.203],[1.367,-7.139],[1.458,-7.146],[1.486,-7.139],[1.515,-7.111],[1.515,-6.978],[1.43,-6.879],[1.339,-6.83],[1.304,-6.83],[1.262,-6.872],[1.241,-6.949],[1.199,-6.949],[1.073,-6.76],[0.939,-6.605],[0.918,-6.57],[0.792,-6.45],[0.659,-6.359],[0.652,-6.324],[0.652,-6.317],[0.673,-6.274],[0.757,-6.197]]],[[[-0.673,-6.309],[-0.673,-6.33],[-0.491,-6.33],[-0.442,-6.408],[-0.456,-6.408],[-0.624,-6.577],[-0.68,-6.654],[-0.708,-6.668],[-0.792,-6.774],[-1.08,-7.069],[-1.094,-7.069],[-1.122,-7.034],[-1.136,-6.978],[-1.199,-6.935],[-1.283,-6.949],[-1.367,-7.006],[-1.451,-7.118],[-1.444,-7.189],[-1.381,-7.238],[-1.269,-7.245],[-1.276,-7.266],[-1.423,-7.407],[-1.437,-7.407],[-1.508,-7.336],[-1.62,-7.273],[-1.767,-7.266],[-1.76,-7.238],[-1.655,-7.132],[-1.486,-6.999],[-1.255,-6.781],[-1.08,-6.647],[-0.75,-6.359],[-0.673,-6.309]]]]},"properties":{"abbr":"IRt","name":"intermediate reticular nucleus","plate":57,"ap_bregma_mm":-11.8,"area_mm2":0.6922,"traced_fraction":[0.932,0.96],"n_labels":2,"no_drawn_outline":false}},{"type":"Feature","geometry":{"type":"MultiPolygon","coordinates":[[[[1.872,-7.175],[1.956,-7.217],[1.991,-7.28],[1.984,-7.336],[1.942,-7.428],[1.711,-7.498],[1.536,-7.597],[1.465,-7.667],[1.409,-7.758],[1.388,-7.822],[1.395,-7.892],[1.332,-7.92],[1.283,-7.913],[1.234,-7.85],[1.22,-7.723],[1.234,-7.639],[1.276,-7.54],[1.423,-7.393],[1.486,-7.273],[1.543,-7.231],[1.655,-7.182],[1.732,-7.168],[1.872,-7.175]]],[[[-1.767,-7.266],[-1.62,-7.273],[-1.508,-7.336],[-1.479,-7.372],[-1.423,-7.407],[-1.423,-7.421],[-1.409,-7.421],[-1.339,-7.491],[-1.311,-7.54],[-1.248,-7.604],[-1.101,-7.688],[-1.045,-7.737],[-1.038,-7.8],[-1.087,-7.871],[-1.157,-7.941],[-1.199,-7.962],[-1.297,-7.948],[-1.409,-7.878],[-1.669,-7.625],[-1.802,-7.526],[-1.886,-7.491],[-1.956,-7.428],[-1.956,-7.385],[-1.949,-7.364],[-1.865,-7.294],[-1.767,-7.266]]]]},"properties":{"abbr":"LRt","name":"lateral reticular nucleus","plate":57,"ap_bregma_mm":-11.8,"area_mm2":0.5437,"traced_fraction":[1.0,0.689],"n_labels":2,"no_drawn_outline":false}},{"type":"Feature","geometry":{"type":"MultiPolygon","coordinates":[[[[1.157,-5.909],[1.465,-6.014],[1.543,-6.056],[1.62,-6.127],[1.662,-6.197],[1.725,-6.373],[1.816,-6.738],[1.83,-6.851],[1.886,-6.935],[1.781,-7.013],[1.767,-7.013],[1.451,-6.703],[1.437,-6.703],[1.311,-6.584],[1.269,-6.563],[1.234,-6.52],[1.192,-6.499],[1.136,-6.436],[1.08,-6.429],[0.996,-6.345],[0.757,-6.197],[0.799,-6.098],[0.834,-6.07],[1.136,-6.077],[1.136,-5.937],[1.143,-5.909],[1.157,-5.909]]],[[[-0.708,-6.021],[-0.617,-6.105],[-0.589,-6.169],[-0.568,-6.218],[-0.638,-6.267],[-0.673,-6.309],[-0.75,-6.359],[-0.785,-6.401],[-0.898,-6.478],[-1.08,-6.647],[-1.255,-6.781],[-1.486,-6.999],[-1.655,-7.132],[-1.76,-7.238],[-1.767,-7.266],[-1.865,-7.294],[-1.865,-7.118],[-1.823,-7.048],[-1.809,-6.992],[-1.802,-6.732],[-1.774,-6.556],[-1.732,-6.457],[-1.669,-6.373],[-1.549,-6.253],[-1.423,-6.162],[-1.332,-6.113],[-1.157,-6.07],[-1.066,-6.028],[-1.024,-6.07],[-0.757,-6.07],[-0.708,-6.021]]]]},"properties":{"abbr":"MdD","name":"medullary reticular nucleus, dorsal part","plate":57,"ap_bregma_mm":-11.8,"area_mm2":1.2492,"traced_fraction":[0.801,0.876],"n_labels":2,"no_drawn_outline":false}},{"type":"Feature","geometry":{"type":"MultiPolygon","coordinates":[[[[0.4,-6.605],[0.939,-6.605],[1.073,-6.76],[1.199,-6.949],[1.241,-6.949],[1.269,-7.041],[1.325,-7.111],[1.367,-7.139],[1.402,-7.203],[1.473,-7.273],[1.486,-7.273],[1.423,-7.393],[1.276,-7.54],[1.234,-7.639],[1.22,-7.723],[1.101,-7.702],[0.912,-7.632],[0.694,-7.519],[0.568,-7.385],[0.498,-7.252],[0.47,-7.168],[0.708,-7.168],[0.708,-7.013],[0.407,-7.013],[0.386,-6.964],[0.329,-6.83],[0.245,-6.738],[0.231,-6.703],[0.351,-6.668],[0.4,-6.605]]]]},"properties":{"abbr":"MdV","name":"medullary reticular nucleus, ventral part","plate":57,"ap_bregma_mm":-11.8,"area_mm2":0.777,"traced_fraction":[0.738],"n_labels":1,"no_drawn_outline":true}},{"type":"Feature","geometry":{"type":"MultiPolygon","coordinates":[[[[1.339,-5.529],[1.325,-5.557],[1.276,-5.606],[1.206,-5.648],[1.115,-5.754],[1.115,-5.838],[1.157,-5.909],[1.143,-5.909],[1.136,-5.937],[1.136,-6.077],[0.834,-6.07],[0.939,-5.887],[0.954,-5.824],[1.024,-5.726],[1.045,-5.669],[1.059,-5.599],[1.052,-5.508],[1.255,-5.501],[1.339,-5.529]]],[[[-1.003,-5.641],[-0.989,-5.648],[-0.989,-5.669],[-0.925,-5.782],[-0.799,-5.902],[-0.785,-5.902],[-0.708,-6.021],[-0.757,-6.07],[-1.024,-6.07],[-1.066,-6.028],[-1.038,-5.986],[-1.031,-5.824],[-1.052,-5.761],[-1.101,-5.698],[-1.003,-5.641]]]]},"properties":{"abbr":"Mx","name":"matrix region of the medulla","plate":57,"ap_bregma_mm":-11.8,"area_mm2":0.2004,"traced_fraction":[0.774,0.745],"n_labels":2,"no_drawn_outline":false}},{"type":"Feature","geometry":{"type":"MultiPolygon","coordinates":[[[[0.119,-5.479],[0.119,-5.529],[0.084,-5.585],[0.077,-5.634],[0.063,-5.677],[0.007,-5.677],[0.0,-5.62],[-0.028,-5.55],[-0.042,-5.543],[-0.049,-5.501],[-0.035,-5.494],[0.119,-5.479]]],[[[-0.049,-5.487],[-0.035,-5.494],[-0.049,-5.494],[-0.049,-5.487]]]]},"properties":{"abbr":"Obex","name":"obex","plate":57,"ap_bregma_mm":-11.8,"area_mm2":0.0212,"traced_fraction":[0.979,1.0],"n_labels":1,"no_drawn_outline":false}},{"type":"Feature","geometry":{"type":"MultiPolygon","coordinates":[[[[1.949,-5.648],[1.683,-5.648],[1.683,-5.606],[1.76,-5.634],[1.83,-5.62],[1.865,-5.613],[1.851,-5.592],[1.83,-5.592],[1.746,-5.557],[1.648,-5.55],[1.641,-5.529],[1.648,-5.508],[1.704,-5.487],[1.872,-5.494],[1.914,-5.55],[1.907,-5.599],[1.949,-5.648]]],[[[-1.514,-5.641],[-1.549,-5.677],[-1.648,-5.726],[-1.788,-5.733],[-1.795,-5.683],[-1.767,-5.655],[-1.669,-5.606],[-1.627,-5.592],[-1.542,-5.599],[-1.514,-5.641]]]]},"properties":{"abbr":"Pa5","name":"paratrigeminal nucleus","plate":57,"ap_bregma_mm":-11.8,"area_mm2":0.0542,"traced_fraction":[0.91,0.959],"n_labels":2,"no_drawn_outline":false}},{"type":"Feature","geometry":{"type":"MultiPolygon","coordinates":[[[[1.367,-7.139],[1.353,-7.139],[1.269,-7.041],[1.241,-6.949],[1.262,-6.872],[1.304,-6.83],[1.339,-6.83],[1.43,-6.879],[1.515,-6.978],[1.515,-7.111],[1.486,-7.139],[1.458,-7.146],[1.367,-7.139]]],[[[-1.08,-7.069],[-1.15,-7.125],[-1.199,-7.196],[-1.269,-7.245],[-1.381,-7.238],[-1.444,-7.189],[-1.451,-7.118],[-1.367,-7.006],[-1.283,-6.949],[-1.199,-6.935],[-1.136,-6.978],[-1.122,-7.034],[-1.094,-7.069],[-1.08,-7.069]]]]},"properties":{"abbr":"RAmb","name":"retroambiguus nucleus","plate":57,"ap_bregma_mm":-11.8,"area_mm2":0.1368,"traced_fraction":[0.923,1.0],"n_labels":2,"no_drawn_outline":false}},{"type":"Feature","geometry":{"type":"MultiPolygon","coordinates":[[[[0.091,-6.978],[0.196,-6.978],[0.196,-7.132],[0.091,-7.139],[0.049,-7.139],[0.042,-7.118],[0.049,-7.02],[0.091,-7.02],[0.091,-6.978]]]]},"properties":{"abbr":"ROb","name":"raphe obscurus nucleus","plate":57,"ap_bregma_mm":-11.8,"area_mm2":0.0221,"traced_fraction":[0.516],"n_labels":1,"no_drawn_outline":true}},{"type":"Feature","geometry":{"type":"MultiPolygon","coordinates":[[[[1.402,-5.522],[1.641,-5.529],[1.648,-5.55],[1.655,-5.585],[1.683,-5.606],[1.683,-5.648],[1.949,-5.648],[2.026,-5.712],[2.138,-5.852],[2.209,-5.986],[2.237,-6.084],[1.984,-6.084],[1.984,-6.246],[2.272,-6.246],[2.279,-6.471],[2.258,-6.584],[2.16,-6.872],[2.061,-6.999],[1.949,-6.971],[1.886,-6.935],[1.83,-6.851],[1.816,-6.738],[1.725,-6.373],[1.683,-6.246],[1.62,-6.127],[1.543,-6.056],[1.465,-6.014],[1.157,-5.909],[1.115,-5.838],[1.115,-5.754],[1.136,-5.719],[1.206,-5.648],[1.276,-5.606],[1.339,-5.529],[1.402,-5.522]]],[[[-1.101,-5.698],[-1.052,-5.761],[-1.031,-5.824],[-1.038,-5.986],[-1.066,-6.028],[-1.157,-6.07],[-1.332,-6.113],[-1.423,-6.162],[-1.549,-6.253],[-1.669,-6.373],[-1.823,-6.218],[-1.879,-6.211],[-1.879,-6.127],[-2.117,-6.127],[-2.089,-6.056],[-1.97,-5.887],[-1.893,-5.803],[-1.788,-5.733],[-1.648,-5.726],[-1.549,-5.677],[-1.514,-5.641],[-1.437,-5.613],[-1.36,-5.613],[-1.255,-5.634],[-1.192,-5.655],[-1.129,-5.698],[-1.101,-5.698]]]]},"properties":{"abbr":"Sp5C","name":"spinal trigeminal nucleus, caudal part","plate":57,"ap_bregma_mm":-11.8,"area_mm2":1.2789,"traced_fraction":[0.837,0.817],"n_labels":2,"no_drawn_outline":false}},{"type":"Feature","geometry":{"type":"MultiPolygon","coordinates":[[[[1.36,-5.374],[1.381,-5.381],[1.402,-5.388],[1.479,-5.395],[1.465,-5.444],[1.402,-5.501],[1.402,-5.522],[1.339,-5.529],[1.255,-5.501],[1.052,-5.508],[1.038,-5.494],[0.947,-5.473],[0.799,-5.487],[0.666,-5.536],[0.568,-5.592],[0.568,-5.606],[0.47,-5.627],[0.491,-5.508],[0.477,-5.388],[0.631,-5.346],[1.01,-5.304],[1.234,-5.318],[1.36,-5.374]]],[[[-0.407,-5.444],[-0.421,-5.536],[-0.414,-5.634],[-0.449,-5.627],[-0.547,-5.557],[-0.673,-5.522],[-0.82,-5.536],[-0.996,-5.62],[-1.304,-5.444],[-1.339,-5.416],[-1.339,-5.388],[-1.248,-5.339],[-1.024,-5.318],[-0.687,-5.367],[-0.407,-5.444]]]]},"properties":{"abbr":"cu","name":"cuneate fasciculus","plate":57,"ap_bregma_mm":-11.8,"area_mm2":0.3492,"traced_fraction":[1.0,1.0],"n_labels":2,"no_drawn_outline":false}},{"type":"Feature","geometry":{"type":"MultiPolygon","coordinates":[[[[-2.51,-6.626],[-2.496,-6.626],[-2.461,-6.675],[-2.412,-6.844],[-2.328,-7.006],[-2.3,-7.027],[-2.244,-7.118],[-2.11,-7.259],[-2.089,-7.336],[-2.089,-7.442],[-2.11,-7.463],[-2.124,-7.442],[-2.131,-7.449],[-2.18,-7.4],[-2.251,-7.28],[-2.293,-7.238],[-2.426,-6.992],[-2.489,-6.809],[-2.517,-6.675],[-2.51,-6.626]]],[[[-2.117,-7.463],[-2.11,-7.463],[-2.11,-7.47],[-2.117,-7.463]]]]},"properties":{"abbr":"dsc","name":"dorsal spinocerebellar tract","plate":57,"ap_bregma_mm":-11.8,"area_mm2":0.0785,"traced_fraction":[1.0,1.0],"n_labels":2,"no_drawn_outline":false}},{"type":"Feature","geometry":{"type":"MultiPolygon","coordinates":[[[[-0.189,-5.416],[-0.091,-5.479],[-0.049,-5.487],[-0.049,-5.494],[-0.063,-5.494],[-0.049,-5.501],[-0.042,-5.543],[-0.028,-5.55],[0.0,-5.62],[0.007,-5.677],[-0.014,-5.74],[-0.063,-5.782],[-0.154,-5.789],[-0.21,-5.761],[-0.21,-5.578],[-0.196,-5.578],[-0.189,-5.416]]],[[[0.077,-5.634],[0.351,-5.634],[0.358,-5.662],[0.4,-5.69],[0.393,-5.712],[0.365,-5.726],[0.252,-5.768],[0.189,-5.768],[0.112,-5.747],[0.063,-5.677],[0.077,-5.634]]]]},"properties":{"abbr":"gr","name":"gracile fasciculus","plate":57,"ap_bregma_mm":-11.8,"area_mm2":0.0941,"traced_fraction":[0.716,0.627],"n_labels":2,"no_drawn_outline":true}},{"type":"Feature","geometry":{"type":"MultiPolygon","coordinates":[[[[0.14,-6.689],[0.231,-6.703],[0.245,-6.738],[0.329,-6.83],[0.386,-6.964],[0.091,-6.964],[0.07,-6.907],[0.07,-6.767],[0.056,-6.767],[0.056,-6.753],[0.14,-6.689]]],[[[-0.147,-6.696],[-0.049,-6.696],[0.035,-6.767],[0.014,-6.781],[0.014,-6.893],[0.035,-6.907],[0.049,-6.914],[0.042,-6.935],[0.014,-6.942],[0.0,-6.985],[0.049,-6.985],[0.049,-7.02],[0.042,-7.118],[-0.007,-7.111],[0.0,-7.196],[-0.014,-7.224],[-0.077,-7.224],[-0.098,-7.238],[-0.126,-7.224],[-0.161,-7.168],[-0.351,-7.16],[-0.33,-7.013],[-0.294,-6.893],[-0.259,-6.83],[-0.168,-6.738],[-0.147,-6.696]]]]},"properties":{"abbr":"mlf","name":"medial longitudinal fasciculus","plate":57,"ap_bregma_mm":-11.8,"area_mm2":0.2143,"traced_fraction":[0.774,0.862],"n_labels":2,"no_drawn_outline":false}},{"type":"Feature","geometry":{"type":"MultiPolygon","coordinates":[[[[0.428,-7.871],[0.568,-7.906],[0.694,-7.969],[0.757,-7.983],[0.771,-8.012],[0.848,-8.061],[0.855,-8.089],[0.568,-8.145],[0.365,-8.152],[0.231,-8.103],[0.119,-7.983],[0.098,-7.976],[0.098,-7.969],[0.105,-7.962],[0.287,-7.878],[0.428,-7.871]]],[[[-0.119,-7.969],[-0.231,-8.047],[-0.4,-8.194],[-0.582,-8.223],[-0.75,-8.223],[-0.841,-8.194],[-0.841,-8.173],[-0.771,-8.11],[-0.736,-8.096],[-0.701,-8.054],[-0.666,-8.019],[-0.491,-7.92],[-0.421,-7.899],[-0.252,-7.892],[-0.161,-7.927],[-0.119,-7.969]]]]},"properties":{"abbr":"py","name":"pyramidal tract","plate":57,"ap_bregma_mm":-11.8,"area_mm2":0.2774,"traced_fraction":[1.0,1.0],"n_labels":2,"no_drawn_outline":false}},{"type":"Feature","geometry":{"type":"MultiPolygon","coordinates":[[[[1.886,-6.935],[1.949,-6.971],[2.061,-6.999],[2.047,-7.09],[2.124,-7.16],[2.103,-7.182],[2.089,-7.252],[2.124,-7.294],[2.16,-7.28],[2.138,-7.315],[2.124,-7.336],[2.054,-7.435],[1.942,-7.428],[1.97,-7.379],[1.991,-7.28],[1.956,-7.217],[1.872,-7.175],[1.872,-7.118],[1.781,-7.027],[1.781,-7.013],[1.886,-6.935]]],[[[-1.865,-7.118],[-1.865,-7.294],[-1.9,-7.315],[-1.956,-7.385],[-1.956,-7.428],[-1.886,-7.491],[-1.886,-7.505],[-1.914,-7.505],[-1.942,-7.533],[-2.04,-7.554],[-2.103,-7.477],[-2.11,-7.47],[-2.11,-7.463],[-2.089,-7.442],[-2.089,-7.336],[-2.11,-7.259],[-2.068,-7.252],[-2.033,-7.224],[-2.026,-7.146],[-1.921,-7.146],[-1.865,-7.118]]],[[[2.181,-7.252],[2.174,-7.266],[2.166,-7.252],[2.181,-7.252]]]]},"properties":{"abbr":"rs","name":"rubrospinal tract","plate":57,"ap_bregma_mm":-11.8,"area_mm2":0.1549,"traced_fraction":[0.938,0.829,1.0],"n_labels":2,"no_drawn_outline":false}},{"type":"Feature","geometry":{"type":"MultiPolygon","coordinates":[[[[0.007,-5.677],[0.063,-5.677],[0.112,-5.747],[0.189,-5.768],[0.252,-5.768],[0.365,-5.726],[0.365,-5.782],[0.54,-5.782],[0.54,-5.733],[0.61,-5.74],[0.68,-5.803],[0.785,-5.852],[0.841,-5.859],[0.954,-5.824],[0.939,-5.887],[0.834,-6.07],[0.799,-6.098],[0.575,-6.19],[0.491,-6.197],[0.442,-6.148],[0.379,-6.148],[0.259,-6.183],[0.161,-6.246],[0.161,-6.338],[0.091,-6.366],[0.056,-6.401],[0.042,-6.401],[0.042,-6.387],[-0.014,-6.338],[-0.014,-6.324],[0.021,-6.295],[0.056,-6.302],[0.091,-6.281],[0.077,-6.239],[0.035,-6.239],[0.021,-6.253],[-0.007,-6.246],[-0.063,-6.19],[-0.161,-6.162],[-0.28,-6.162],[-0.315,-6.176],[-0.343,-6.218],[-0.407,-6.211],[-0.519,-6.155],[-0.589,-6.169],[-0.617,-6.105],[-0.708,-6.021],[-0.785,-5.902],[-0.687,-5.894],[-0.624,-5.859],[-0.596,-5.859],[-0.568,-5.824],[-0.526,-5.803],[-0.484,-5.747],[-0.322,-5.733],[-0.21,-5.761],[-0.154,-5.789],[-0.063,-5.782],[-0.014,-5.74],[0.007,-5.677]]],[[[-0.61,-6.014],[-0.61,-6.0],[-0.631,-5.993],[-0.631,-6.007],[-0.61,-6.014]]]]},"properties":{"abbr":"sol","name":"solitary tract","plate":57,"ap_bregma_mm":-11.8,"area_mm2":0.6491,"traced_fraction":[0.947,1.0],"n_labels":3,"no_drawn_outline":false}},{"type":"Feature","geometry":{"type":"MultiPolygon","coordinates":[[[[-1.339,-5.388],[-1.339,-5.416],[-1.304,-5.444],[-0.996,-5.62],[-1.003,-5.641],[-1.101,-5.698],[-1.129,-5.698],[-1.136,-5.683],[-1.255,-5.634],[-1.36,-5.613],[-1.437,-5.613],[-1.514,-5.641],[-1.542,-5.599],[-1.627,-5.592],[-1.767,-5.655],[-1.795,-5.683],[-1.788,-5.733],[-1.893,-5.803],[-1.97,-5.887],[-2.089,-6.056],[-2.117,-6.127],[-2.146,-6.148],[-2.201,-6.338],[-2.223,-6.626],[-2.201,-6.802],[-2.174,-6.9],[-2.117,-7.027],[-2.026,-7.146],[-2.033,-7.224],[-2.068,-7.252],[-2.11,-7.259],[-2.244,-7.118],[-2.3,-7.027],[-2.328,-7.006],[-2.412,-6.844],[-2.461,-6.675],[-2.482,-6.64],[-2.51,-6.626],[-2.496,-6.492],[-2.412,-6.246],[-2.335,-6.091],[-2.251,-5.972],[-2.216,-5.944],[-2.167,-5.859],[-1.998,-5.683],[-1.956,-5.662],[-1.956,-5.648],[-1.9,-5.606],[-1.704,-5.501],[-1.528,-5.465],[-1.437,-5.444],[-1.339,-5.388]]],[[[1.479,-5.395],[1.669,-5.395],[1.837,-5.43],[1.921,-5.473],[1.921,-5.487],[2.005,-5.522],[2.174,-5.69],[2.272,-5.845],[2.307,-5.873],[2.405,-6.028],[2.426,-6.042],[2.482,-6.141],[2.51,-6.232],[2.51,-6.464],[2.475,-6.478],[2.447,-6.619],[2.321,-6.942],[2.293,-6.992],[2.195,-6.992],[2.195,-7.118],[2.124,-7.16],[2.047,-7.09],[2.061,-6.999],[2.16,-6.872],[2.258,-6.584],[2.279,-6.471],[2.272,-6.246],[2.265,-6.155],[2.237,-6.084],[2.209,-5.986],[2.138,-5.852],[2.026,-5.712],[1.949,-5.648],[1.907,-5.599],[1.914,-5.55],[1.872,-5.494],[1.704,-5.487],[1.648,-5.508],[1.641,-5.529],[1.402,-5.522],[1.402,-5.501],[1.465,-5.444],[1.479,-5.395]]],[[[2.51,-6.619],[2.503,-6.633],[2.496,-6.619],[2.51,-6.619]]],[[[2.503,-6.647],[2.496,-6.661],[2.489,-6.647],[2.503,-6.647]]]]},"properties":{"abbr":"sp5","name":"spinal trigeminal tract","plate":57,"ap_bregma_mm":-11.8,"area_mm2":0.8349,"traced_fraction":[0.987,0.974,1.0,1.0],"n_labels":2,"no_drawn_outline":false}},{"type":"Feature","geometry":{"type":"MultiPolygon","coordinates":[[[[0.091,-6.964],[0.386,-6.964],[0.407,-7.013],[0.449,-7.146],[0.47,-7.168],[0.498,-7.252],[0.568,-7.385],[0.694,-7.519],[0.912,-7.632],[1.101,-7.702],[1.22,-7.723],[1.227,-7.829],[1.248,-7.878],[1.283,-7.913],[1.332,-7.92],[1.395,-7.892],[1.43,-7.969],[1.283,-8.026],[1.08,-8.075],[0.855,-8.089],[0.848,-8.061],[0.771,-8.012],[0.757,-7.983],[0.792,-7.962],[1.066,-7.92],[1.115,-7.899],[1.129,-7.864],[1.003,-7.808],[0.729,-7.751],[0.596,-7.702],[0.505,-7.646],[0.435,-7.632],[0.351,-7.575],[0.323,-7.505],[0.238,-7.336],[0.182,-7.266],[0.182,-7.175],[0.091,-7.175],[0.091,-7.139],[0.196,-7.132],[0.196,-6.978],[0.091,-6.978],[0.091,-6.964]]],[[[-0.351,-7.16],[-0.161,-7.168],[-0.126,-7.224],[-0.098,-7.238],[-0.14,-7.287],[-0.154,-7.343],[-0.238,-7.498],[-0.337,-7.589],[-0.428,-7.639],[-0.603,-7.709],[-0.61,-7.723],[-0.659,-7.737],[-0.68,-7.765],[-0.701,-7.765],[-0.827,-7.857],[-0.911,-7.899],[-0.982,-7.976],[-0.982,-8.012],[-0.925,-8.054],[-0.827,-8.061],[-0.743,-8.04],[-0.708,-8.04],[-0.701,-8.054],[-0.736,-8.096],[-0.82,-8.152],[-0.841,-8.173],[-0.841,-8.194],[-1.052,-8.152],[-1.234,-8.145],[-1.311,-8.124],[-1.423,-8.061],[-1.409,-7.878],[-1.297,-7.948],[-1.199,-7.962],[-1.157,-7.941],[-1.038,-7.8],[-0.975,-7.787],[-0.876,-7.737],[-0.568,-7.526],[-0.456,-7.4],[-0.4,-7.287],[-0.372,-7.175],[-0.351,-7.16]]]]},"properties":{"abbr":"ts","name":"tectospinal tract","plate":57,"ap_bregma_mm":-11.8,"area_mm2":0.7116,"traced_fraction":[0.848,0.892],"n_labels":2,"no_drawn_outline":false}},{"type":"Feature","geometry":{"type":"MultiPolygon","coordinates":[[[[1.942,-7.428],[2.054,-7.435],[2.012,-7.505],[1.977,-7.533],[1.851,-7.702],[1.774,-7.758],[1.725,-7.815],[1.662,-7.864],[1.43,-7.969],[1.395,-7.892],[1.388,-7.822],[1.409,-7.758],[1.465,-7.667],[1.536,-7.597],[1.711,-7.498],[1.942,-7.428]]],[[[-1.886,-7.491],[-1.802,-7.526],[-1.669,-7.625],[-1.409,-7.878],[-1.423,-8.061],[-1.697,-7.885],[-1.788,-7.793],[-1.844,-7.758],[-2.04,-7.554],[-1.942,-7.533],[-1.914,-7.505],[-1.886,-7.505],[-1.886,-7.491]]]]},"properties":{"abbr":"vsc","name":"ventral spinocerebellar tract","plate":57,"ap_bregma_mm":-11.8,"area_mm2":0.2942,"traced_fraction":[0.967,0.584],"n_labels":2,"no_drawn_outline":false}},{"type":"Feature","geometry":{"type":"Polygon","coordinates":[[[0.568,-5.606],[0.561,-5.655],[0.61,-5.74],[0.54,-5.733],[0.54,-5.782],[0.365,-5.782],[0.365,-5.726],[0.386,-5.719],[0.4,-5.69],[0.414,-5.69],[0.47,-5.627],[0.568,-5.606]]]},"properties":{"abbr":null,"name":"unnamed sealed face","plate":57,"ap_bregma_mm":-11.8,"index":0}},{"type":"Feature","geometry":{"type":"Polygon","coordinates":[[[0.799,-6.098],[0.757,-6.197],[0.673,-6.274],[0.652,-6.317],[0.645,-6.317],[0.631,-6.317],[0.624,-6.338],[0.54,-6.408],[0.477,-6.443],[0.477,-6.457],[0.533,-6.499],[0.547,-6.57],[0.519,-6.591],[0.491,-6.591],[0.421,-6.556],[0.435,-6.464],[0.365,-6.338],[0.428,-6.317],[0.47,-6.281],[0.491,-6.197],[0.575,-6.19],[0.799,-6.098]]]},"properties":{"abbr":null,"name":"unnamed sealed face","plate":57,"ap_bregma_mm":-11.8,"index":1}},{"type":"Feature","geometry":{"type":"Polygon","coordinates":[[[2.51,-6.464],[2.51,-6.619],[2.496,-6.619],[2.503,-6.633],[2.503,-6.647],[2.489,-6.647],[2.496,-6.661],[2.482,-6.745],[2.37,-6.992],[2.181,-7.252],[2.166,-7.252],[2.174,-7.266],[2.16,-7.28],[2.124,-7.294],[2.089,-7.252],[2.103,-7.182],[2.124,-7.16],[2.195,-7.118],[2.195,-6.992],[2.293,-6.992],[2.321,-6.942],[2.405,-6.745],[2.475,-6.478],[2.51,-6.464]]]},"properties":{"abbr":null,"name":"unnamed sealed face","plate":57,"ap_bregma_mm":-11.8,"index":2}},{"type":"Feature","geometry":{"type":"Polygon","coordinates":[[[0.049,-7.139],[0.091,-7.139],[0.091,-7.175],[0.182,-7.175],[0.182,-7.266],[0.084,-7.259],[0.07,-7.287],[0.07,-7.505],[0.07,-7.695],[0.084,-7.962],[0.049,-7.962],[0.042,-7.948],[0.007,-7.955],[-0.021,-7.955],[-0.028,-7.906],[0.0,-7.829],[0.014,-7.695],[0.014,-7.287],[0.056,-7.238],[0.049,-7.139]]]},"properties":{"abbr":null,"name":"unnamed sealed face","plate":57,"ap_bregma_mm":-11.8,"index":3}},{"type":"Feature","geometry":{"type":"MultiPolygon","coordinates":[[[[0.154,-5.226],[-0.175,-5.233],[-0.379,-5.219],[-0.575,-5.184],[-0.925,-5.072],[-1.129,-4.973],[-1.395,-4.797],[-1.514,-4.664],[-1.542,-4.579],[-1.549,-4.481],[-1.641,-4.41],[-1.697,-4.446],[-1.774,-4.467],[-1.809,-4.439],[-1.83,-4.396],[-1.837,-4.256],[-1.816,-4.066],[-1.746,-3.735],[-1.606,-3.271],[-1.514,-3.074],[-1.437,-2.948],[-1.518,-2.873],[-1.518,-2.855],[-1.509,-2.847],[-1.409,-2.905],[-1.423,-2.926],[-1.185,-2.568],[-0.989,-2.35],[-0.806,-2.216],[-0.624,-2.146],[-0.337,-2.104],[-0.035,-2.111],[0.274,-2.146],[0.547,-2.202],[0.75,-2.265],[0.876,-2.329],[1.003,-2.413],[1.115,-2.512],[1.283,-2.722],[1.458,-3.018],[1.585,-3.32],[1.627,-3.454],[1.697,-3.742],[1.746,-4.038],[1.739,-4.228],[1.704,-4.312],[1.655,-4.347],[1.592,-4.354],[1.55,-4.34],[1.473,-4.27],[1.353,-4.305],[1.36,-4.502],[1.297,-4.664],[1.15,-4.839],[0.876,-5.022],[0.722,-5.093],[0.547,-5.149],[0.182,-5.219],[0.154,-5.226]]],[[[-0.666,-8.215],[-0.743,-8.215],[-0.862,-8.18],[-1.08,-8.145],[-1.227,-8.138],[-1.325,-8.11],[-1.465,-8.033],[-1.676,-7.892],[-1.858,-7.737],[-2.054,-7.54],[-2.195,-7.372],[-2.335,-7.16],[-2.426,-6.978],[-2.482,-6.823],[-2.517,-6.654],[-2.496,-6.499],[-2.405,-6.232],[-2.328,-6.084],[-2.159,-5.852],[-2.012,-5.698],[-1.907,-5.613],[-1.704,-5.501],[-1.451,-5.444],[-1.241,-5.339],[-1.059,-5.318],[-0.827,-5.346],[-0.701,-5.367],[-0.421,-5.444],[-0.28,-5.409],[-0.196,-5.409],[-0.077,-5.487],[0.0,-5.494],[0.105,-5.487],[0.231,-5.416],[0.329,-5.388],[0.477,-5.388],[0.645,-5.346],[1.038,-5.304],[1.22,-5.318],[1.423,-5.395],[1.648,-5.395],[1.83,-5.43],[2.005,-5.529],[2.16,-5.683],[2.426,-6.056],[2.475,-6.148],[2.503,-6.239],[2.503,-6.612],[2.475,-6.732],[2.37,-6.971],[2.019,-7.477],[1.83,-7.709],[1.662,-7.85],[1.451,-7.955],[1.269,-8.019],[1.059,-8.068],[0.862,-8.082],[0.547,-8.138],[0.386,-8.145],[0.308,-8.131],[0.231,-8.096],[0.112,-7.976],[0.07,-7.955],[-0.063,-7.948],[-0.119,-7.962],[-0.21,-8.026],[-0.393,-8.18],[-0.505,-8.208],[-0.659,-8.215],[-0.666,-8.215]]]]},"properties":{"abbr":"brain_outline","name":"outline of the section","plate":57,"ap_bregma_mm":-11.8}}]}
