{"type":"FeatureCollection","name":"GerbilAtlas plate 47","note":"Region extents cut from the atlas drawing (METHODS.md, Region extents). Coordinates are [ML, DV] in mm, ML positive to the right of the plate as printed, DV negative below the dorsal surface; AP is the plate bregma. traced_fraction is the share of each polygon boundary the atlas actually draws; below 0.5 the boundary is an estimate. no_drawn_outline marks a feature that lies only inside boundaries the atlas draws round more than one name and prints nothing within, so the whole of its outline is where the extraction cut it. Not a segmentation.","plate":47,"ap_bregma_mm":-8.3,"features":[{"type":"Feature","geometry":{"type":"MultiPolygon","coordinates":[[[[0.816,-0.829],[0.816,-0.857],[0.738,-0.998],[0.731,-1.04],[0.598,-1.286],[0.598,-1.68],[0.213,-1.624],[0.03,-1.617],[-0.299,-1.68],[-0.517,-1.744],[-0.517,-1.286],[-0.65,-1.04],[-0.65,-1.005],[-0.727,-0.864],[-0.727,-0.843],[-0.72,-0.829],[-0.643,-0.815],[-0.636,-0.794],[-0.587,-0.794],[-0.376,-0.78],[-0.243,-0.759],[0.016,-0.745],[0.339,-0.752],[0.682,-0.794],[0.816,-0.829]]]]},"properties":{"abbr":"6Cb","name":"6th cerebellar lobule","plate":47,"ap_bregma_mm":-8.3,"area_mm2":1.1166,"traced_fraction":[0.635],"n_labels":1,"no_drawn_outline":true}},{"type":"Feature","geometry":{"type":"MultiPolygon","coordinates":[[[[-0.804,-0.864],[-0.79,-0.857],[-0.776,-0.85],[-0.762,-0.843],[-0.748,-0.836],[-0.727,-0.843],[-0.727,-0.864],[-0.65,-1.005],[-0.65,-1.04],[-0.517,-1.286],[-0.517,-1.744],[-0.79,-1.856],[-0.979,-1.99],[-1.148,-2.166],[-1.281,-2.468],[-1.309,-2.503],[-1.435,-2.806],[-1.533,-2.995],[-1.568,-2.995],[-1.61,-2.974],[-2.087,-2.489],[-2.171,-2.447],[-2.206,-2.447],[-2.101,-2.109],[-2.052,-1.997],[-1.828,-1.61],[-1.772,-1.568],[-1.695,-1.455],[-1.701,-1.434],[-1.666,-1.385],[-1.624,-1.167],[-1.631,-1.005],[-1.61,-0.998],[-1.603,-0.97],[-1.589,-0.97],[-1.568,-0.935],[-1.484,-0.907],[-1.477,-0.886],[-1.204,-0.886],[-1.141,-0.836],[-1.155,-0.773],[-1.07,-0.745],[-1.07,-0.724],[-1.042,-0.752],[-1.035,-0.78],[-0.909,-0.78],[-0.853,-0.724],[-0.839,-0.886],[-0.804,-0.864]]],[[[0.816,-0.829],[1.04,-0.893],[1.236,-0.97],[1.243,-0.97],[1.25,-0.97],[1.257,-0.977],[1.278,-0.991],[1.306,-0.984],[1.306,-1.005],[1.335,-1.005],[1.475,-0.942],[1.692,-0.9],[1.923,-0.935],[1.951,-0.998],[1.937,-0.998],[1.93,-1.026],[1.916,-1.167],[1.923,-1.315],[1.937,-1.322],[2.092,-1.652],[2.12,-1.68],[2.211,-1.849],[2.267,-2.018],[2.246,-2.018],[1.622,-2.651],[1.594,-2.651],[1.482,-2.419],[1.292,-2.074],[1.166,-1.926],[0.907,-1.772],[0.598,-1.68],[0.598,-1.286],[0.731,-1.04],[0.738,-0.998],[0.816,-0.857],[0.816,-0.829]]]]},"properties":{"abbr":"Sim","name":"simple lobule","plate":47,"ap_bregma_mm":-8.3,"area_mm2":3.7279,"traced_fraction":[0.752,0.727],"n_labels":2,"no_drawn_outline":true}},{"type":"Feature","geometry":{"type":"MultiPolygon","coordinates":[[[[-2.045,-0.857],[-1.905,-0.857],[-1.891,-0.871],[-1.807,-0.879],[-1.729,-0.907],[-1.631,-1.005],[-1.624,-1.167],[-1.666,-1.385],[-1.695,-1.42],[-1.695,-1.455],[-1.723,-1.497],[-1.744,-1.511],[-1.772,-1.568],[-1.828,-1.61],[-1.835,-1.638],[-1.891,-1.708],[-1.975,-1.849],[-2.038,-1.99],[-2.052,-1.997],[-2.101,-2.109],[-2.206,-2.447],[-2.284,-2.616],[-2.305,-2.637],[-2.305,-2.658],[-2.318,-2.665],[-2.459,-2.939],[-2.543,-2.918],[-2.725,-3.017],[-2.774,-3.017],[-3.405,-3.657],[-3.44,-3.65],[-3.489,-3.523],[-3.56,-3.46],[-3.714,-3.333],[-3.959,-3.206],[-3.973,-3.185],[-4.043,-3.157],[-4.113,-3.108],[-4.113,-3.038],[-4.106,-3.01],[-4.099,-2.974],[-4.092,-2.946],[-4.092,-2.925],[-4.071,-2.918],[-4.064,-2.883],[-4.001,-2.785],[-3.987,-2.728],[-4.085,-2.763],[-4.163,-2.756],[-4.247,-2.651],[-4.282,-2.559],[-4.282,-2.524],[-4.303,-2.517],[-4.303,-2.447],[-4.31,-2.327],[-4.296,-2.32],[-4.296,-2.264],[-4.268,-2.173],[-4.268,-2.166],[-4.261,-2.151],[-4.254,-2.137],[-4.247,-2.123],[-4.24,-2.109],[-4.226,-2.074],[-4.212,-2.074],[-4.127,-1.912],[-3.98,-1.723],[-3.875,-1.645],[-3.77,-1.596],[-3.637,-1.582],[-3.595,-1.617],[-3.574,-1.617],[-3.581,-1.533],[-3.524,-1.406],[-3.517,-1.413],[-3.44,-1.364],[-3.335,-1.336],[-3.181,-1.258],[-3.153,-1.258],[-3.055,-1.216],[-2.739,-1.132],[-2.529,-1.104],[-2.375,-0.998],[-2.248,-0.942],[-2.241,-0.921],[-2.227,-0.921],[-2.206,-0.914],[-2.178,-0.9],[-2.157,-0.907],[-2.115,-0.886],[-2.052,-0.879],[-2.045,-0.857]]],[[[2.246,-0.907],[2.253,-0.928],[2.442,-0.977],[2.456,-0.977],[2.568,-0.998],[2.667,-1.005],[2.765,-1.012],[2.863,-1.019],[2.898,-1.019],[2.898,-1.04],[3.017,-1.075],[3.172,-1.16],[3.27,-1.195],[3.305,-1.202],[3.312,-1.23],[3.389,-1.265],[3.403,-1.279],[3.424,-1.315],[3.424,-1.371],[3.627,-1.364],[3.69,-1.378],[4.027,-1.533],[4.272,-1.701],[4.272,-1.715],[4.293,-1.723],[4.405,-1.849],[4.42,-1.849],[4.426,-1.856],[4.42,-1.87],[4.441,-1.877],[4.448,-1.884],[4.441,-1.898],[4.454,-1.898],[4.462,-1.905],[4.454,-1.919],[4.497,-1.969],[4.497,-1.99],[4.553,-2.088],[4.588,-2.208],[4.595,-2.292],[4.616,-2.306],[4.609,-2.588],[4.588,-2.588],[4.574,-2.665],[4.532,-2.742],[4.539,-2.756],[4.525,-2.778],[4.518,-2.77],[4.518,-2.785],[4.405,-2.918],[4.384,-2.918],[4.37,-2.946],[4.335,-2.967],[4.3,-3.059],[4.272,-3.08],[4.279,-3.108],[4.153,-3.122],[4.02,-3.164],[3.901,-3.221],[3.774,-3.305],[3.753,-3.333],[3.711,-3.347],[3.571,-3.509],[3.578,-3.797],[3.403,-3.973],[3.122,-3.973],[3.094,-4.008],[3.08,-4.008],[3.08,-4.001],[3.08,-3.671],[2.807,-3.537],[2.639,-3.537],[2.554,-3.446],[2.232,-3.284],[1.783,-3.284],[1.769,-3.171],[1.741,-3.094],[1.713,-2.96],[1.594,-2.651],[1.622,-2.651],[2.246,-2.018],[2.267,-2.018],[2.211,-1.849],[2.12,-1.68],[2.092,-1.652],[2.015,-1.504],[2.015,-1.476],[1.923,-1.315],[1.916,-1.167],[1.93,-1.026],[1.937,-0.998],[1.951,-0.998],[1.979,-0.963],[2.015,-0.949],[2.022,-0.928],[2.036,-0.928],[2.246,-0.907]]],[[[2.442,-0.97],[2.456,-0.977],[2.442,-0.977],[2.442,-0.97]]],[[[3.354,-1.202],[3.396,-1.202],[3.354,-1.216],[3.354,-1.202]]],[[[-4.268,-2.166],[-4.268,-2.173],[-4.275,-2.173],[-4.268,-2.166]]]]},"properties":{"abbr":"Crus1","name":"crus 1 of the ansiform lobule","plate":47,"ap_bregma_mm":-8.3,"area_mm2":9.8918,"traced_fraction":[0.891,0.705,1.0,1.0,1.0],"n_labels":4,"no_drawn_outline":false}},{"type":"Feature","geometry":{"type":"MultiPolygon","coordinates":[[[[0.598,-1.68],[0.907,-1.772],[1.166,-1.926],[1.292,-2.074],[1.482,-2.419],[0.241,-2.419],[0.213,-2.44],[-0.033,-2.44],[-0.075,-2.468],[-1.281,-2.468],[-1.148,-2.166],[-0.979,-1.99],[-0.79,-1.856],[-0.517,-1.744],[-0.299,-1.68],[0.03,-1.617],[0.213,-1.624],[0.598,-1.68]]]]},"properties":{"abbr":"5Cb","name":"5th cerebellar lobule","plate":47,"ap_bregma_mm":-8.3,"area_mm2":1.696,"traced_fraction":[0.545],"n_labels":1,"no_drawn_outline":true}},{"type":"Feature","geometry":{"type":"MultiPolygon","coordinates":[[[[1.482,-2.419],[1.594,-2.651],[1.692,-2.897],[1.741,-3.094],[1.72,-3.094],[1.65,-3.249],[0.767,-3.249],[0.598,-3.6],[0.549,-3.643],[0.549,-3.664],[0.325,-3.621],[0.241,-3.629],[0.1,-3.6],[-0.033,-3.6],[-0.04,-3.586],[-0.061,-3.586],[-0.222,-3.643],[-0.25,-3.664],[-0.299,-3.671],[-0.299,-3.65],[-0.39,-3.565],[-0.496,-3.34],[-1.477,-3.34],[-1.568,-3.143],[-1.589,-3.143],[-1.533,-2.995],[-1.435,-2.806],[-1.309,-2.503],[-1.281,-2.468],[-0.075,-2.468],[-0.033,-2.44],[0.213,-2.44],[0.241,-2.419],[1.482,-2.419]]]]},"properties":{"abbr":"4Cb","name":"4th cerebellar lobule","plate":47,"ap_bregma_mm":-8.3,"area_mm2":3.0049,"traced_fraction":[0.305],"n_labels":1,"no_drawn_outline":true}},{"type":"Feature","geometry":{"type":"MultiPolygon","coordinates":[[[[1.65,-3.249],[1.65,-3.811],[1.545,-4.008],[1.531,-4.072],[1.552,-4.107],[1.475,-4.156],[1.405,-4.226],[1.356,-4.325],[1.356,-4.388],[1.264,-4.409],[1.075,-4.508],[1.047,-4.508],[1.047,-4.381],[1.019,-4.346],[0.97,-4.318],[0.9,-4.318],[0.83,-4.36],[0.788,-4.43],[0.767,-4.508],[0.774,-4.55],[0.844,-4.606],[0.963,-4.599],[0.914,-4.691],[0.893,-4.782],[0.907,-4.866],[0.935,-4.895],[0.886,-4.937],[0.837,-4.845],[0.78,-4.796],[0.689,-4.761],[0.584,-4.747],[0.262,-4.74],[0.164,-4.726],[0.051,-4.726],[-0.208,-4.761],[-0.517,-4.747],[-0.629,-4.768],[-0.755,-4.824],[-0.741,-4.634],[-0.629,-4.662],[-0.601,-4.655],[-0.559,-4.613],[-0.545,-4.564],[-0.559,-4.437],[-0.594,-4.402],[-0.594,-4.381],[-0.629,-4.353],[-0.713,-4.339],[-0.755,-4.36],[-0.783,-4.395],[-0.804,-4.487],[-0.825,-4.487],[-0.902,-4.437],[-0.965,-4.423],[-1.141,-4.423],[-1.148,-4.36],[-1.176,-4.297],[-1.26,-4.219],[-1.393,-4.163],[-1.365,-4.1],[-1.477,-3.875],[-1.477,-3.34],[-0.496,-3.34],[-0.39,-3.565],[-0.299,-3.65],[-0.299,-3.671],[-0.25,-3.664],[-0.222,-3.643],[-0.061,-3.586],[-0.04,-3.586],[-0.033,-3.6],[0.1,-3.6],[0.241,-3.629],[0.325,-3.621],[0.549,-3.664],[0.549,-3.643],[0.598,-3.6],[0.767,-3.249],[1.65,-3.249]]]]},"properties":{"abbr":"3Cb","name":"3rd cerebellar lobule","plate":47,"ap_bregma_mm":-8.3,"area_mm2":3.4484,"traced_fraction":[0.58],"n_labels":1,"no_drawn_outline":true}},{"type":"Feature","geometry":{"type":"MultiPolygon","coordinates":[[[[-4.113,-3.108],[-4.043,-3.157],[-3.973,-3.185],[-3.959,-3.206],[-3.714,-3.333],[-3.56,-3.46],[-3.574,-3.474],[-3.574,-3.924],[-3.286,-4.205],[-3.216,-4.346],[-3.216,-4.529],[-3.286,-4.529],[-3.56,-4.803],[-3.56,-4.895],[-3.931,-4.965],[-3.952,-4.979],[-4.001,-4.979],[-4.022,-4.993],[-4.142,-5.007],[-4.127,-4.958],[-4.492,-5.0],[-4.555,-5.014],[-4.569,-5.007],[-4.702,-5.049],[-4.843,-5.113],[-4.92,-5.169],[-4.983,-5.169],[-5.011,-5.148],[-5.025,-5.155],[-5.032,-5.148],[-5.032,-5.127],[-5.046,-5.127],[-5.074,-5.056],[-5.088,-5.049],[-5.144,-4.916],[-5.165,-4.81],[-5.165,-4.691],[-5.249,-4.444],[-5.256,-4.198],[-5.235,-4.163],[-5.221,-4.044],[-5.172,-3.882],[-5.067,-3.706],[-5.053,-3.706],[-5.025,-3.657],[-5.011,-3.657],[-5.011,-3.643],[-4.962,-3.6],[-4.969,-3.593],[-4.899,-3.53],[-4.892,-3.537],[-4.878,-3.523],[-4.885,-3.516],[-4.843,-3.481],[-4.801,-3.446],[-4.786,-3.432],[-4.78,-3.439],[-4.78,-3.425],[-4.73,-3.382],[-4.716,-3.389],[-4.695,-3.361],[-4.625,-3.326],[-4.625,-3.312],[-4.562,-3.284],[-4.548,-3.27],[-4.555,-3.263],[-4.534,-3.256],[-4.52,-3.249],[-4.506,-3.242],[-4.471,-3.228],[-4.45,-3.221],[-4.436,-3.214],[-4.373,-3.235],[-4.352,-3.326],[-4.352,-3.53],[-4.275,-3.79],[-4.163,-3.987],[-4.142,-3.994],[-4.127,-4.022],[-4.085,-4.036],[-4.113,-3.945],[-4.219,-3.755],[-4.254,-3.607],[-4.254,-3.41],[-4.226,-3.263],[-4.184,-3.171],[-4.113,-3.108]]],[[[4.279,-3.108],[4.399,-3.192],[4.412,-3.221],[4.49,-3.291],[4.539,-3.382],[4.553,-3.382],[4.56,-3.403],[4.574,-3.425],[4.567,-3.425],[4.567,-3.432],[4.567,-3.53],[4.602,-3.53],[4.679,-3.474],[4.749,-3.474],[4.833,-3.509],[4.882,-3.509],[4.889,-3.516],[4.896,-3.537],[4.966,-3.558],[4.973,-3.572],[4.994,-3.572],[5.079,-3.621],[5.142,-3.671],[5.177,-3.72],[5.191,-3.72],[5.226,-3.783],[5.247,-3.783],[5.31,-4.015],[5.317,-4.036],[5.324,-4.247],[5.422,-4.472],[5.443,-4.55],[5.443,-4.634],[5.422,-4.705],[5.31,-4.88],[5.296,-4.88],[5.296,-4.895],[5.156,-5.028],[5.029,-5.12],[4.959,-5.141],[4.903,-5.141],[4.903,-5.155],[4.896,-5.155],[4.882,-5.134],[4.819,-5.127],[4.763,-5.091],[4.679,-5.0],[4.665,-4.944],[4.567,-4.873],[4.314,-4.866],[4.076,-4.803],[4.02,-4.81],[3.95,-4.81],[3.655,-4.761],[3.655,-4.789],[3.445,-4.993],[3.431,-5.035],[3.41,-5.035],[3.368,-4.972],[3.354,-4.972],[3.319,-4.916],[3.305,-4.916],[3.277,-4.88],[3.2,-4.831],[3.059,-4.81],[3.059,-4.796],[3.031,-4.782],[3.031,-4.754],[3.178,-4.634],[3.235,-4.529],[3.277,-4.437],[3.277,-4.388],[3.235,-4.29],[3.08,-4.036],[3.08,-4.008],[3.094,-4.008],[3.122,-3.973],[3.403,-3.973],[3.578,-3.797],[3.571,-3.509],[3.711,-3.347],[3.732,-3.347],[3.901,-3.221],[4.02,-3.164],[4.153,-3.122],[4.279,-3.108]]]]},"properties":{"abbr":"PFl","name":"paraflocculus","plate":47,"ap_bregma_mm":-8.3,"area_mm2":5.9113,"traced_fraction":[0.751,0.87],"n_labels":2,"no_drawn_outline":false}},{"type":"Feature","geometry":{"type":"MultiPolygon","coordinates":[[[[3.08,-4.001],[3.08,-4.008],[3.08,-4.036],[3.235,-4.29],[3.277,-4.388],[3.277,-4.437],[3.235,-4.529],[3.193,-4.522],[3.164,-4.55],[3.087,-4.585],[2.933,-4.585],[2.828,-4.543],[2.779,-4.543],[2.695,-4.325],[2.653,-4.17],[2.611,-4.065],[2.589,-4.05],[2.575,-3.994],[2.575,-3.903],[2.611,-3.818],[2.695,-3.734],[2.758,-3.699],[2.842,-3.692],[2.891,-3.706],[2.947,-3.748],[3.052,-3.987],[3.08,-4.001]]],[[[-2.634,-4.648],[-2.725,-4.648],[-2.795,-4.684],[-2.956,-4.684],[-3.006,-4.719],[-3.041,-4.691],[-3.055,-4.662],[-3.048,-4.641],[-3.02,-4.627],[-3.041,-4.613],[-3.055,-4.62],[-3.083,-4.599],[-3.125,-4.529],[-3.132,-4.451],[-3.055,-4.247],[-3.02,-4.177],[-2.999,-4.163],[-2.837,-3.84],[-2.76,-3.762],[-2.725,-3.748],[-2.662,-3.748],[-2.599,-3.776],[-2.536,-3.84],[-2.487,-3.952],[-2.466,-4.086],[-2.466,-4.163],[-2.48,-4.163],[-2.501,-4.353],[-2.529,-4.416],[-2.62,-4.536],[-2.634,-4.648]]]]},"properties":{"abbr":"Lat","name":"lateral (dentate) cerebellar nucleus","plate":47,"ap_bregma_mm":-8.3,"area_mm2":0.8347,"traced_fraction":[1.0,0.979],"n_labels":2,"no_drawn_outline":false}},{"type":"Feature","geometry":{"type":"MultiPolygon","coordinates":[[[[-2.206,-2.447],[-2.171,-2.447],[-2.087,-2.489],[-1.61,-2.974],[-1.568,-2.995],[-1.533,-2.995],[-1.589,-3.143],[-1.568,-3.143],[-1.477,-3.34],[-1.477,-3.875],[-1.365,-4.1],[-1.393,-4.163],[-1.589,-4.121],[-1.8,-4.121],[-1.912,-4.142],[-2.052,-4.205],[-2.157,-4.353],[-2.157,-4.444],[-2.094,-4.508],[-1.961,-4.557],[-2.01,-4.634],[-2.024,-4.733],[-2.094,-4.719],[-2.15,-4.676],[-2.262,-4.634],[-2.375,-4.634],[-2.459,-4.669],[-2.564,-4.775],[-2.613,-4.873],[-2.669,-5.077],[-2.697,-5.07],[-2.718,-5.042],[-2.746,-4.972],[-2.676,-4.916],[-2.655,-4.873],[-2.634,-4.775],[-2.634,-4.648],[-2.62,-4.536],[-2.529,-4.416],[-2.501,-4.353],[-2.48,-4.163],[-2.466,-4.163],[-2.466,-4.086],[-2.487,-3.952],[-2.536,-3.84],[-2.599,-3.776],[-2.662,-3.748],[-2.725,-3.748],[-2.76,-3.762],[-2.837,-3.84],[-2.999,-4.163],[-3.02,-4.177],[-3.055,-4.247],[-3.132,-4.451],[-3.132,-4.508],[-3.083,-4.599],[-3.153,-4.599],[-3.216,-4.529],[-3.216,-4.346],[-3.286,-4.205],[-3.574,-3.924],[-3.574,-3.474],[-3.56,-3.46],[-3.489,-3.523],[-3.44,-3.65],[-3.405,-3.657],[-2.774,-3.017],[-2.725,-3.017],[-2.543,-2.918],[-2.459,-2.939],[-2.318,-2.665],[-2.305,-2.658],[-2.305,-2.637],[-2.284,-2.616],[-2.206,-2.447]]],[[[1.741,-3.094],[1.769,-3.171],[1.783,-3.284],[2.232,-3.284],[2.554,-3.446],[2.639,-3.537],[2.807,-3.537],[3.08,-3.671],[3.08,-4.001],[3.052,-3.987],[2.947,-3.748],[2.891,-3.706],[2.842,-3.692],[2.758,-3.699],[2.695,-3.734],[2.611,-3.818],[2.575,-3.903],[2.575,-3.994],[2.589,-4.05],[2.611,-4.065],[2.653,-4.17],[2.695,-4.325],[2.779,-4.543],[2.786,-4.627],[2.758,-4.705],[2.758,-4.754],[2.793,-4.852],[2.835,-4.88],[2.828,-4.916],[2.793,-4.951],[2.765,-4.93],[2.751,-4.838],[2.695,-4.705],[2.596,-4.592],[2.547,-4.564],[2.484,-4.55],[2.407,-4.557],[2.316,-4.599],[2.204,-4.676],[2.183,-4.669],[2.169,-4.62],[2.092,-4.522],[2.099,-4.508],[2.197,-4.494],[2.239,-4.423],[2.253,-4.276],[2.19,-4.163],[2.078,-4.114],[1.867,-4.079],[1.664,-4.079],[1.552,-4.107],[1.531,-4.05],[1.65,-3.811],[1.65,-3.249],[1.72,-3.094],[1.741,-3.094]]],[[[-2.276,-4.247],[-2.29,-4.304],[-2.269,-4.332],[-2.234,-4.339],[-2.227,-4.276],[-2.248,-4.247],[-2.276,-4.247]]]]},"properties":{"abbr":"IntDL","name":"interposed cerebellar nucleus, dorsolateral hump","plate":47,"ap_bregma_mm":-8.3,"area_mm2":3.6786,"traced_fraction":[0.611,0.623,1.0],"n_labels":2,"no_drawn_outline":true}},{"type":"Feature","geometry":{"type":"MultiPolygon","coordinates":[[[[2.092,-4.522],[1.979,-4.465],[1.797,-4.423],[1.671,-4.423],[1.559,-4.465],[1.461,-4.465],[1.412,-4.451],[1.356,-4.388],[1.356,-4.325],[1.405,-4.226],[1.475,-4.156],[1.552,-4.107],[1.664,-4.079],[1.867,-4.079],[2.078,-4.114],[2.19,-4.163],[2.253,-4.276],[2.239,-4.423],[2.197,-4.494],[2.099,-4.508],[2.092,-4.522]]],[[[-1.393,-4.163],[-1.26,-4.219],[-1.176,-4.297],[-1.148,-4.36],[-1.141,-4.423],[-1.253,-4.501],[-1.316,-4.515],[-1.435,-4.508],[-1.512,-4.48],[-1.673,-4.48],[-1.961,-4.557],[-2.094,-4.508],[-2.157,-4.444],[-2.157,-4.353],[-2.052,-4.205],[-1.954,-4.156],[-1.8,-4.121],[-1.589,-4.121],[-1.393,-4.163]]]]},"properties":{"abbr":"IntA","name":"interposed cerebellar nucleus, anterior part","plate":47,"ap_bregma_mm":-8.3,"area_mm2":0.6245,"traced_fraction":[1.0,1.0],"n_labels":2,"no_drawn_outline":false}},{"type":"Feature","geometry":{"type":"MultiPolygon","coordinates":[[[[1.047,-4.508],[1.04,-4.515],[1.026,-4.515],[1.033,-4.529],[0.963,-4.599],[0.844,-4.606],[0.774,-4.55],[0.767,-4.508],[0.788,-4.43],[0.83,-4.36],[0.9,-4.318],[0.97,-4.318],[1.019,-4.346],[1.047,-4.381],[1.047,-4.508]]],[[[-0.741,-4.634],[-0.804,-4.487],[-0.783,-4.395],[-0.755,-4.36],[-0.713,-4.339],[-0.629,-4.353],[-0.594,-4.381],[-0.594,-4.402],[-0.559,-4.437],[-0.545,-4.508],[-0.559,-4.613],[-0.601,-4.655],[-0.629,-4.662],[-0.741,-4.634]]]]},"properties":{"abbr":"Med","name":"medial (fastigial) cerebellar nucleus","plate":47,"ap_bregma_mm":-8.3,"area_mm2":0.127,"traced_fraction":[0.88,0.955],"n_labels":2,"no_drawn_outline":false}},{"type":"Feature","geometry":{"type":"MultiPolygon","coordinates":[[[[2.092,-4.522],[2.169,-4.62],[2.183,-4.669],[2.204,-4.676],[2.162,-4.733],[1.986,-4.775],[1.818,-4.789],[1.734,-4.768],[1.664,-4.733],[1.573,-4.634],[1.552,-4.564],[1.559,-4.465],[1.671,-4.423],[1.797,-4.423],[1.979,-4.465],[2.092,-4.522]]],[[[-1.435,-4.508],[-1.47,-4.634],[-1.498,-4.684],[-1.568,-4.754],[-1.638,-4.796],[-1.765,-4.838],[-1.884,-4.838],[-2.024,-4.733],[-2.01,-4.634],[-1.961,-4.557],[-1.673,-4.48],[-1.512,-4.48],[-1.435,-4.508]]]]},"properties":{"abbr":"scp","name":"superior cerebellar peduncle","plate":47,"ap_bregma_mm":-8.3,"area_mm2":0.3291,"traced_fraction":[1.0,1.0],"n_labels":2,"no_drawn_outline":false}},{"type":"Feature","geometry":{"type":"MultiPolygon","coordinates":[[[[1.356,-4.388],[1.412,-4.451],[1.461,-4.465],[1.559,-4.465],[1.552,-4.564],[1.573,-4.634],[1.517,-4.669],[1.412,-4.775],[1.327,-4.895],[1.292,-4.993],[1.222,-4.965],[1.075,-4.965],[1.068,-4.93],[1.04,-4.901],[1.012,-4.887],[0.935,-4.895],[0.907,-4.866],[0.893,-4.782],[0.914,-4.691],[0.963,-4.599],[1.033,-4.529],[1.04,-4.515],[1.047,-4.508],[1.075,-4.508],[1.264,-4.409],[1.356,-4.388]]],[[[-1.141,-4.423],[-0.965,-4.423],[-0.902,-4.437],[-0.839,-4.48],[-0.804,-4.487],[-0.741,-4.634],[-0.755,-4.824],[-0.783,-4.93],[-0.853,-4.951],[-0.895,-5.007],[-0.993,-4.972],[-1.141,-4.979],[-1.183,-4.88],[-1.253,-4.775],[-1.344,-4.691],[-1.47,-4.634],[-1.435,-4.508],[-1.316,-4.515],[-1.253,-4.501],[-1.141,-4.423]]]]},"properties":{"abbr":"VeCb","name":"vestibulocerebellar nucleus","plate":47,"ap_bregma_mm":-8.3,"area_mm2":0.5397,"traced_fraction":[1.0,1.0],"n_labels":2,"no_drawn_outline":false}},{"type":"Feature","geometry":{"type":"MultiPolygon","coordinates":[[[[3.235,-4.529],[3.178,-4.634],[3.122,-4.691],[3.059,-4.726],[3.031,-4.754],[3.031,-4.782],[2.989,-4.775],[2.954,-4.789],[2.891,-4.824],[2.891,-4.838],[2.835,-4.88],[2.793,-4.852],[2.758,-4.754],[2.758,-4.705],[2.786,-4.627],[2.779,-4.543],[2.828,-4.543],[2.933,-4.585],[3.087,-4.585],[3.164,-4.55],[3.193,-4.522],[3.235,-4.529]]],[[[-2.634,-4.648],[-2.634,-4.775],[-2.655,-4.873],[-2.676,-4.916],[-2.746,-4.972],[-2.837,-4.916],[-2.858,-4.887],[-2.9,-4.895],[-2.893,-4.859],[-2.985,-4.768],[-3.006,-4.719],[-2.956,-4.684],[-2.795,-4.684],[-2.725,-4.648],[-2.634,-4.648]]]]},"properties":{"abbr":"LatPC","name":"lateral cerebellar nucleus, parvicellular part","plate":47,"ap_bregma_mm":-8.3,"area_mm2":0.1654,"traced_fraction":[1.0,0.951],"n_labels":2,"no_drawn_outline":false}},{"type":"Feature","geometry":{"type":"MultiPolygon","coordinates":[[[[-1.47,-4.634],[-1.344,-4.691],[-1.253,-4.775],[-1.183,-4.88],[-1.141,-4.979],[-1.288,-5.063],[-1.4,-5.169],[-1.449,-5.246],[-1.463,-5.331],[-1.533,-5.387],[-1.533,-5.401],[-1.631,-5.506],[-1.687,-5.542],[-1.779,-5.563],[-1.919,-5.542],[-2.024,-5.443],[-2.115,-5.267],[-2.129,-5.232],[-2.129,-5.099],[-2.094,-4.719],[-2.024,-4.733],[-1.884,-4.838],[-1.765,-4.838],[-1.687,-4.817],[-1.568,-4.754],[-1.498,-4.684],[-1.47,-4.634]]],[[[1.573,-4.634],[1.664,-4.733],[1.776,-4.782],[1.874,-4.789],[1.986,-4.775],[2.162,-4.733],[2.148,-4.887],[2.155,-5.099],[2.134,-5.316],[2.12,-5.316],[2.05,-5.401],[1.986,-5.436],[1.825,-5.478],[1.664,-5.478],[1.517,-5.408],[1.51,-5.309],[1.475,-5.218],[1.412,-5.12],[1.292,-5.007],[1.292,-4.993],[1.327,-4.895],[1.412,-4.775],[1.517,-4.669],[1.573,-4.634]]]]},"properties":{"abbr":"SuVe","name":"superior vestibular nucleus","plate":47,"ap_bregma_mm":-8.3,"area_mm2":1.0799,"traced_fraction":[1.0,1.0],"n_labels":2,"no_drawn_outline":false}},{"type":"Feature","geometry":{"type":"MultiPolygon","coordinates":[[[[-2.999,-4.951],[-2.943,-5.014],[-2.943,-5.162],[-2.985,-5.232],[-3.076,-5.331],[-3.083,-5.359],[-3.132,-5.394],[-3.146,-5.429],[-3.167,-5.436],[-3.251,-5.556],[-3.251,-5.584],[-3.216,-5.619],[-3.251,-5.668],[-3.293,-5.682],[-3.3,-5.535],[-3.321,-5.499],[-3.342,-5.499],[-3.363,-5.274],[-3.335,-5.267],[-3.237,-5.204],[-3.153,-5.113],[-3.139,-5.113],[-3.048,-4.986],[-2.999,-4.951]]]]},"properties":{"abbr":"chp","name":"choroid plexus","plate":47,"ap_bregma_mm":-8.3,"area_mm2":0.1275,"traced_fraction":[0.976],"n_labels":1,"no_drawn_outline":false}},{"type":"Feature","geometry":{"type":"MultiPolygon","coordinates":[[[[2.793,-4.951],[2.765,-5.028],[2.751,-5.134],[2.779,-5.324],[2.772,-5.338],[2.758,-5.415],[2.758,-5.619],[2.793,-5.816],[2.744,-5.802],[2.575,-5.696],[2.519,-5.689],[2.484,-5.647],[2.281,-5.57],[2.197,-5.506],[2.169,-5.45],[2.134,-5.316],[2.155,-5.099],[2.148,-4.887],[2.162,-4.733],[2.204,-4.676],[2.316,-4.599],[2.407,-4.557],[2.484,-4.55],[2.547,-4.564],[2.596,-4.592],[2.695,-4.705],[2.751,-4.838],[2.765,-4.93],[2.793,-4.951]]],[[[-2.094,-4.719],[-2.129,-5.099],[-2.129,-5.232],[-2.115,-5.267],[-2.15,-5.295],[-2.164,-5.387],[-2.213,-5.506],[-2.29,-5.619],[-2.339,-5.661],[-2.339,-5.682],[-2.361,-5.682],[-2.494,-5.774],[-2.599,-5.823],[-2.662,-5.837],[-2.704,-5.865],[-2.718,-5.858],[-2.704,-5.696],[-2.718,-5.408],[-2.718,-5.359],[-2.683,-5.281],[-2.669,-5.077],[-2.613,-4.873],[-2.564,-4.775],[-2.459,-4.669],[-2.375,-4.634],[-2.262,-4.634],[-2.178,-4.662],[-2.094,-4.719]]]]},"properties":{"abbr":"icp","name":"inferior cerebellar peduncle (restiform body)","plate":47,"ap_bregma_mm":-8.3,"area_mm2":1.1727,"traced_fraction":[0.991,1.0],"n_labels":2,"no_drawn_outline":false}},{"type":"Feature","geometry":{"type":"MultiPolygon","coordinates":[[[[-3.216,-4.529],[-3.153,-4.599],[-3.083,-4.599],[-3.055,-4.62],[-3.048,-4.641],[-3.055,-4.662],[-3.041,-4.691],[-3.006,-4.719],[-2.985,-4.768],[-2.893,-4.859],[-2.9,-4.895],[-3.013,-4.923],[-3.062,-4.93],[-3.132,-4.965],[-3.314,-5.141],[-3.342,-5.204],[-3.335,-5.267],[-3.363,-5.274],[-3.342,-5.499],[-3.398,-5.619],[-3.482,-5.731],[-3.545,-5.781],[-3.545,-5.795],[-3.686,-5.872],[-3.854,-5.893],[-3.91,-5.886],[-3.91,-5.872],[-4.022,-5.851],[-4.113,-5.809],[-4.303,-5.753],[-4.562,-5.626],[-4.576,-5.633],[-4.597,-5.619],[-4.611,-5.612],[-4.604,-5.605],[-4.618,-5.605],[-4.632,-5.598],[-4.695,-5.556],[-4.709,-5.549],[-4.737,-5.527],[-4.73,-5.52],[-4.751,-5.513],[-4.814,-5.443],[-4.85,-5.338],[-4.843,-5.316],[-4.836,-5.295],[-4.836,-5.288],[-4.808,-5.281],[-4.78,-5.246],[-4.702,-5.218],[-4.702,-5.204],[-4.681,-5.197],[-4.646,-5.204],[-4.562,-5.183],[-4.366,-5.169],[-4.24,-5.134],[-4.233,-5.113],[-4.184,-5.105],[-4.142,-5.007],[-4.022,-4.993],[-4.001,-4.979],[-3.952,-4.979],[-3.931,-4.965],[-3.56,-4.895],[-3.56,-4.803],[-3.286,-4.529],[-3.216,-4.529]]],[[[4.02,-4.81],[4.027,-4.838],[4.139,-4.887],[4.3,-4.923],[4.483,-4.93],[4.63,-4.993],[4.679,-5.0],[4.763,-5.091],[4.819,-5.127],[4.826,-5.225],[4.77,-5.288],[4.77,-5.309],[4.756,-5.309],[4.721,-5.352],[4.693,-5.359],[4.665,-5.394],[4.651,-5.394],[4.651,-5.408],[4.567,-5.457],[4.56,-5.485],[4.546,-5.485],[4.237,-5.563],[4.209,-5.57],[4.006,-5.619],[3.978,-5.584],[3.957,-5.584],[3.943,-5.654],[3.929,-5.661],[3.936,-5.675],[3.873,-5.731],[3.81,-5.753],[3.669,-5.746],[3.613,-5.717],[3.606,-5.696],[3.536,-5.64],[3.494,-5.57],[3.452,-5.415],[3.438,-5.401],[3.445,-5.155],[3.41,-5.035],[3.431,-5.035],[3.445,-4.993],[3.655,-4.789],[3.655,-4.761],[3.95,-4.81],[4.02,-4.81]]]]},"properties":{"abbr":"Fl","name":"flocculus","plate":47,"ap_bregma_mm":-8.3,"area_mm2":2.151,"traced_fraction":[0.789,0.937],"n_labels":2,"no_drawn_outline":false}},{"type":"Feature","geometry":{"type":"MultiPolygon","coordinates":[[[[1.075,-4.965],[1.222,-4.965],[1.292,-4.993],[1.292,-5.007],[1.412,-5.12],[1.475,-5.218],[1.51,-5.309],[1.517,-5.408],[1.51,-5.464],[1.447,-5.563],[1.229,-5.788],[1.229,-5.802],[1.11,-5.921],[1.11,-5.935],[0.998,-6.048],[0.956,-6.069],[0.942,-6.062],[0.928,-6.006],[0.886,-5.964],[0.83,-5.935],[0.844,-5.914],[0.928,-5.914],[0.928,-5.76],[0.675,-5.76],[0.675,-5.865],[0.612,-5.844],[0.5,-5.865],[0.395,-5.928],[0.346,-5.971],[0.325,-6.013],[0.262,-6.062],[0.255,-6.034],[0.29,-5.95],[0.381,-5.851],[0.465,-5.795],[0.57,-5.753],[0.654,-5.675],[0.759,-5.52],[0.788,-5.45],[0.837,-5.394],[0.942,-5.197],[1.054,-5.042],[1.075,-4.965]]],[[[-0.895,-5.007],[-0.895,-5.084],[-0.86,-5.155],[-0.832,-5.197],[-0.685,-5.338],[-0.636,-5.429],[-0.615,-5.443],[-0.58,-5.57],[-0.51,-5.689],[-0.418,-5.781],[-0.292,-5.844],[-0.222,-5.914],[-0.173,-6.013],[-0.25,-6.027],[-0.32,-5.95],[-0.439,-5.907],[-0.538,-5.921],[-0.671,-6.006],[-0.692,-5.999],[-0.692,-5.844],[-0.944,-5.844],[-0.944,-5.971],[-0.979,-5.971],[-1.007,-5.956],[-1.035,-5.907],[-1.302,-5.619],[-1.421,-5.436],[-1.463,-5.331],[-1.449,-5.246],[-1.4,-5.169],[-1.288,-5.063],[-1.141,-4.979],[-0.993,-4.972],[-0.895,-5.007]]]]},"properties":{"abbr":"MVePC","name":"medial vestibular nucleus, parvicellular part","plate":47,"ap_bregma_mm":-8.3,"area_mm2":1.1963,"traced_fraction":[0.868,0.855],"n_labels":2,"no_drawn_outline":false}},{"type":"Feature","geometry":{"type":"MultiPolygon","coordinates":[[[[-2.115,-5.267],[-2.024,-5.443],[-1.919,-5.542],[-1.835,-5.563],[-1.687,-5.542],[-1.701,-5.591],[-1.828,-5.717],[-1.919,-5.837],[-1.968,-5.928],[-2.017,-5.978],[-2.038,-5.964],[-2.038,-5.942],[-2.08,-5.879],[-2.164,-5.795],[-2.339,-5.682],[-2.339,-5.661],[-2.29,-5.619],[-2.213,-5.506],[-2.164,-5.387],[-2.15,-5.295],[-2.115,-5.267]]],[[[2.134,-5.316],[2.162,-5.429],[2.197,-5.506],[2.281,-5.57],[2.162,-5.781],[2.12,-5.886],[2.106,-5.971],[2.085,-6.027],[2.071,-6.027],[2.036,-5.985],[1.994,-5.893],[1.874,-5.724],[1.79,-5.619],[1.664,-5.499],[1.664,-5.478],[1.825,-5.478],[1.986,-5.436],[2.05,-5.401],[2.099,-5.338],[2.134,-5.316]]]]},"properties":{"abbr":"LVe","name":"lateral vestibular nucleus","plate":47,"ap_bregma_mm":-8.3,"area_mm2":0.37,"traced_fraction":[1.0,1.0],"n_labels":2,"no_drawn_outline":false}},{"type":"Feature","geometry":{"type":"MultiPolygon","coordinates":[[[[1.075,-4.965],[1.054,-5.042],[0.942,-5.197],[0.837,-5.394],[0.788,-5.45],[0.759,-5.52],[0.654,-5.675],[0.57,-5.753],[0.465,-5.795],[0.381,-5.851],[0.29,-5.95],[0.262,-6.006],[0.262,-6.062],[0.248,-6.09],[0.22,-6.104],[0.185,-6.182],[0.164,-6.182],[0.142,-6.21],[0.079,-6.238],[0.016,-6.238],[-0.082,-6.189],[-0.096,-6.139],[-0.173,-6.013],[-0.222,-5.914],[-0.292,-5.844],[-0.418,-5.781],[-0.51,-5.689],[-0.58,-5.57],[-0.615,-5.443],[-0.264,-5.443],[-0.257,-5.274],[0.157,-5.295],[0.486,-5.281],[0.584,-5.246],[0.703,-5.176],[0.816,-5.063],[0.858,-5.007],[0.886,-4.937],[0.935,-4.895],[1.012,-4.887],[1.068,-4.93],[1.075,-4.965]]]]},"properties":{"abbr":"4V","name":"4th ventricle","plate":47,"ap_bregma_mm":-8.3,"area_mm2":0.8941,"traced_fraction":[0.898],"n_labels":1,"no_drawn_outline":false}},{"type":"Feature","geometry":{"type":"MultiPolygon","coordinates":[[[[2.772,-5.338],[2.786,-5.338],[2.87,-5.429],[2.884,-5.429],[2.884,-5.443],[3.2,-5.654],[3.2,-5.668],[3.263,-5.71],[3.193,-5.774],[3.193,-5.844],[3.157,-5.844],[3.157,-5.985],[3.08,-5.964],[3.038,-5.971],[2.982,-5.935],[2.849,-5.907],[2.793,-5.816],[2.758,-5.619],[2.758,-5.415],[2.772,-5.338]]],[[[-2.718,-5.408],[-2.704,-5.668],[-2.718,-5.858],[-2.704,-5.865],[-2.704,-5.886],[-2.753,-5.921],[-2.774,-5.971],[-2.816,-6.013],[-2.935,-6.076],[-3.02,-6.097],[-3.223,-6.125],[-3.23,-5.809],[-2.985,-5.647],[-2.914,-5.577],[-2.914,-5.563],[-2.858,-5.535],[-2.746,-5.415],[-2.718,-5.408]]]]},"properties":{"abbr":"VCA","name":"ventral cochlear nucleus, anterior part","plate":47,"ap_bregma_mm":-8.3,"area_mm2":0.4108,"traced_fraction":[0.848,0.874],"n_labels":2,"no_drawn_outline":false}},{"type":"Feature","geometry":{"type":"MultiPolygon","coordinates":[[[[2.281,-5.57],[2.428,-5.619],[2.484,-5.647],[2.519,-5.689],[2.449,-5.724],[2.414,-5.76],[2.421,-5.816],[2.477,-5.872],[2.554,-5.921],[2.674,-5.971],[2.758,-5.985],[2.779,-6.006],[2.863,-6.034],[2.863,-6.055],[2.891,-6.069],[2.975,-6.266],[3.045,-6.35],[3.157,-6.407],[3.256,-6.407],[3.368,-6.371],[3.389,-6.35],[3.389,-6.294],[3.242,-6.154],[3.185,-6.125],[3.094,-6.048],[3.052,-6.006],[3.038,-5.971],[3.08,-5.964],[3.157,-5.985],[3.164,-5.999],[3.214,-6.006],[3.466,-6.125],[3.564,-6.203],[3.613,-6.203],[3.634,-6.175],[3.641,-6.02],[3.69,-6.013],[3.697,-6.034],[3.739,-6.062],[3.746,-6.069],[3.739,-6.083],[3.774,-6.182],[3.81,-6.54],[3.831,-6.54],[3.831,-6.582],[3.823,-6.604],[3.844,-6.688],[3.88,-6.779],[3.908,-6.913],[3.95,-7.011],[3.964,-7.096],[3.915,-7.124],[3.613,-7.11],[3.592,-7.103],[3.592,-7.089],[3.515,-7.054],[3.438,-6.983],[3.368,-6.941],[3.368,-6.927],[3.305,-6.885],[3.27,-6.836],[3.2,-6.815],[3.115,-6.815],[3.01,-6.836],[2.968,-6.857],[2.961,-6.885],[2.947,-6.885],[2.919,-6.906],[2.898,-6.906],[2.842,-6.955],[2.835,-6.892],[2.821,-6.885],[2.821,-6.857],[2.8,-6.843],[2.8,-6.829],[2.898,-6.744],[2.933,-6.646],[2.947,-6.639],[2.968,-6.582],[2.912,-6.597],[2.898,-6.59],[2.877,-6.505],[2.758,-6.266],[2.716,-6.203],[2.611,-6.097],[2.428,-5.992],[2.253,-5.964],[2.106,-5.971],[2.12,-5.886],[2.162,-5.781],[2.281,-5.57]]],[[[-2.339,-5.682],[-2.164,-5.795],[-2.08,-5.879],[-2.045,-5.928],[-2.038,-5.964],[-2.017,-5.978],[-2.017,-6.027],[-2.143,-6.076],[-2.284,-6.167],[-2.297,-6.167],[-2.333,-6.118],[-2.431,-6.118],[-2.55,-6.175],[-2.641,-6.238],[-2.753,-6.343],[-2.83,-6.449],[-2.879,-6.561],[-2.886,-6.632],[-2.922,-6.632],[-2.922,-6.66],[-2.9,-6.681],[-2.858,-6.829],[-2.795,-6.934],[-2.809,-6.948],[-2.943,-6.962],[-2.956,-6.948],[-2.956,-6.927],[-3.006,-6.864],[-3.146,-6.73],[-3.202,-6.73],[-3.223,-6.807],[-3.216,-6.829],[-3.223,-6.85],[-3.272,-6.997],[-3.293,-7.005],[-3.293,-7.026],[-3.349,-7.096],[-3.461,-7.209],[-3.475,-7.209],[-3.475,-7.222],[-3.587,-7.3],[-3.644,-7.321],[-3.644,-7.335],[-3.665,-7.342],[-3.679,-7.349],[-3.686,-7.349],[-3.707,-7.349],[-3.707,-7.363],[-3.721,-7.37],[-3.875,-7.377],[-3.896,-7.37],[-3.959,-7.349],[-3.98,-7.342],[-4.001,-7.335],[-3.994,-7.328],[-4.05,-7.286],[-4.071,-7.293],[-4.078,-7.258],[-4.071,-7.215],[-4.064,-7.209],[-4.057,-7.215],[-4.015,-7.166],[-4.001,-7.166],[-3.966,-7.131],[-3.966,-7.11],[-3.945,-7.089],[-3.896,-7.047],[-3.819,-6.927],[-3.784,-6.829],[-3.784,-6.794],[-3.784,-6.786],[-3.77,-6.751],[-3.777,-6.709],[-3.763,-6.709],[-3.77,-6.568],[-3.798,-6.449],[-3.833,-6.371],[-3.833,-6.315],[-3.812,-6.287],[-3.798,-6.294],[-3.777,-6.266],[-3.756,-6.266],[-3.714,-6.379],[-3.686,-6.4],[-3.637,-6.4],[-3.553,-6.357],[-3.314,-6.16],[-3.223,-6.125],[-3.02,-6.097],[-3.048,-6.146],[-3.076,-6.154],[-3.272,-6.287],[-3.37,-6.379],[-3.391,-6.414],[-3.391,-6.463],[-3.349,-6.512],[-3.237,-6.561],[-3.104,-6.561],[-3.034,-6.54],[-2.977,-6.505],[-2.893,-6.407],[-2.865,-6.35],[-2.83,-6.217],[-2.802,-6.125],[-2.725,-6.041],[-2.641,-6.013],[-2.536,-6.006],[-2.466,-5.956],[-2.466,-5.879],[-2.522,-5.837],[-2.613,-5.858],[-2.662,-5.886],[-2.704,-5.886],[-2.704,-5.865],[-2.662,-5.837],[-2.564,-5.809],[-2.361,-5.682],[-2.339,-5.682]]],[[[3.676,-5.956],[3.697,-5.999],[3.69,-5.999],[3.676,-5.999],[3.662,-5.971],[3.662,-5.956],[3.676,-5.956]]],[[[-3.784,-6.786],[-3.784,-6.794],[-3.791,-6.794],[-3.784,-6.786]]],[[[-3.686,-7.349],[-3.679,-7.349],[-3.686,-7.356],[-3.686,-7.349]]]]},"properties":{"abbr":"8n","name":"vestibulocochlear nerve","plate":47,"ap_bregma_mm":-8.3,"area_mm2":1.9048,"traced_fraction":[0.988,0.992,1.0,1.0,1.0],"n_labels":4,"no_drawn_outline":false}},{"type":"Feature","geometry":{"type":"MultiPolygon","coordinates":[[[[-1.463,-5.331],[-1.421,-5.436],[-1.302,-5.619],[-1.035,-5.907],[-1.007,-5.956],[-0.979,-5.971],[-0.979,-5.992],[-0.93,-6.041],[-0.916,-6.076],[-0.874,-6.104],[-0.86,-6.139],[-0.888,-6.167],[-0.972,-6.175],[-1.007,-6.139],[-1.085,-6.097],[-1.288,-6.034],[-1.519,-6.006],[-1.687,-6.006],[-1.701,-6.02],[-1.891,-6.013],[-1.905,-6.027],[-2.017,-6.027],[-2.017,-5.978],[-1.968,-5.928],[-1.961,-5.9],[-1.828,-5.717],[-1.701,-5.591],[-1.687,-5.542],[-1.631,-5.506],[-1.533,-5.401],[-1.533,-5.387],[-1.463,-5.331]]],[[[1.517,-5.408],[1.664,-5.478],[1.664,-5.499],[1.79,-5.619],[1.874,-5.724],[1.994,-5.893],[2.036,-5.985],[2.071,-6.027],[2.085,-6.027],[2.078,-6.062],[1.973,-6.062],[1.944,-6.048],[1.783,-6.041],[1.734,-6.02],[1.475,-6.02],[1.32,-6.041],[1.159,-6.083],[1.054,-6.139],[1.019,-6.189],[0.97,-6.175],[0.921,-6.125],[0.921,-6.104],[0.935,-6.104],[0.956,-6.069],[0.998,-6.048],[1.11,-5.935],[1.11,-5.921],[1.173,-5.865],[1.229,-5.788],[1.447,-5.563],[1.51,-5.464],[1.517,-5.408]]]]},"properties":{"abbr":"MVeMC","name":"medial vestibular nucleus, magnocellular part","plate":47,"ap_bregma_mm":-8.3,"area_mm2":0.7809,"traced_fraction":[1.0,1.0],"n_labels":2,"no_drawn_outline":false}},{"type":"Feature","geometry":{"type":"MultiPolygon","coordinates":[[[[-0.692,-5.999],[-0.811,-5.999],[-0.846,-6.034],[-0.874,-6.104],[-0.916,-6.076],[-0.93,-6.041],[-0.979,-5.992],[-0.979,-5.971],[-0.944,-5.971],[-0.944,-5.844],[-0.692,-5.844],[-0.692,-5.999]]],[[[-0.762,-5.893],[-0.762,-5.907],[-0.748,-5.907],[-0.762,-5.893]]]]},"properties":{"abbr":"EVe","name":"nucleus of origin of efferents of the vestibular nerve","plate":47,"ap_bregma_mm":-8.3,"area_mm2":0.0481,"traced_fraction":[0.49,1.0],"n_labels":2,"no_drawn_outline":false}},{"type":"Feature","geometry":{"type":"MultiPolygon","coordinates":[[[[-0.972,-6.175],[-1.141,-6.245],[-1.281,-6.343],[-1.309,-6.35],[-1.512,-6.139],[-1.68,-6.048],[-1.701,-6.02],[-1.687,-6.006],[-1.519,-6.006],[-1.288,-6.034],[-1.085,-6.097],[-1.007,-6.139],[-0.972,-6.175]]],[[[1.783,-6.041],[1.734,-6.069],[1.629,-6.083],[1.538,-6.118],[1.531,-6.132],[1.482,-6.139],[1.44,-6.175],[1.419,-6.175],[1.39,-6.203],[1.348,-6.217],[1.313,-6.252],[1.278,-6.266],[1.25,-6.308],[1.222,-6.329],[1.201,-6.329],[1.159,-6.28],[1.019,-6.189],[1.054,-6.139],[1.159,-6.083],[1.32,-6.041],[1.475,-6.02],[1.734,-6.02],[1.783,-6.041]]]]},"properties":{"abbr":"veme","name":"vestibulomesencephalic tract","plate":47,"ap_bregma_mm":-8.3,"area_mm2":0.2188,"traced_fraction":[1.0,1.0],"n_labels":2,"no_drawn_outline":false}},{"type":"Feature","geometry":{"type":"MultiPolygon","coordinates":[[[[0.675,-5.865],[0.696,-5.879],[0.746,-5.865],[0.767,-5.914],[0.78,-5.914],[0.689,-5.985],[0.682,-6.034],[0.605,-6.069],[0.556,-6.118],[0.507,-6.224],[0.486,-6.224],[0.465,-6.196],[0.423,-6.175],[0.36,-6.16],[0.241,-6.182],[0.248,-6.09],[0.262,-6.062],[0.276,-6.062],[0.395,-5.928],[0.5,-5.865],[0.577,-5.844],[0.675,-5.865]]],[[[-0.25,-6.027],[-0.222,-6.118],[-0.229,-6.189],[-0.341,-6.203],[-0.39,-6.217],[-0.404,-6.238],[-0.411,-6.238],[-0.447,-6.21],[-0.46,-6.16],[-0.517,-6.09],[-0.594,-6.048],[-0.657,-6.041],[-0.671,-6.006],[-0.538,-5.921],[-0.439,-5.907],[-0.32,-5.95],[-0.25,-6.027]]]]},"properties":{"abbr":"Pr","name":"prepositus nucleus","plate":47,"ap_bregma_mm":-8.3,"area_mm2":0.1915,"traced_fraction":[1.0,1.0],"n_labels":2,"no_drawn_outline":false}},{"type":"Feature","geometry":{"type":"MultiPolygon","coordinates":[[[[0.921,-6.104],[0.921,-6.125],[0.97,-6.175],[1.019,-6.189],[1.159,-6.28],[1.201,-6.329],[1.222,-6.329],[1.229,-6.357],[1.327,-6.449],[1.341,-6.449],[1.433,-6.547],[1.433,-6.561],[1.398,-6.59],[1.348,-6.597],[1.341,-6.681],[1.32,-6.681],[1.061,-6.491],[0.998,-6.435],[0.865,-6.364],[0.746,-6.336],[0.668,-6.308],[0.556,-6.294],[0.507,-6.245],[0.507,-6.224],[0.556,-6.118],[0.605,-6.069],[0.682,-6.034],[0.738,-6.02],[0.809,-6.027],[0.921,-6.104]]],[[[-0.657,-6.041],[-0.594,-6.048],[-0.517,-6.09],[-0.46,-6.16],[-0.447,-6.21],[-0.411,-6.238],[-0.46,-6.287],[-0.496,-6.301],[-0.727,-6.301],[-0.762,-6.322],[-0.832,-6.35],[-0.846,-6.139],[-0.762,-6.069],[-0.72,-6.048],[-0.657,-6.041]]]]},"properties":{"abbr":"g7","name":"genu of the facial nerve","plate":47,"ap_bregma_mm":-8.3,"area_mm2":0.3174,"traced_fraction":[0.945,0.879],"n_labels":2,"no_drawn_outline":false}},{"type":"Feature","geometry":{"type":"MultiPolygon","coordinates":[[[[3.094,-6.048],[3.185,-6.125],[3.242,-6.154],[3.389,-6.294],[3.389,-6.35],[3.368,-6.371],[3.256,-6.407],[3.157,-6.407],[3.045,-6.35],[2.975,-6.266],[2.891,-6.069],[3.073,-6.062],[3.094,-6.048]]],[[[-3.048,-6.146],[-3.041,-6.21],[-2.83,-6.217],[-2.851,-6.308],[-2.893,-6.407],[-2.977,-6.505],[-3.034,-6.54],[-3.104,-6.561],[-3.237,-6.561],[-3.349,-6.512],[-3.391,-6.463],[-3.391,-6.414],[-3.37,-6.379],[-3.272,-6.287],[-3.076,-6.154],[-3.048,-6.146]]]]},"properties":{"abbr":"Oca","name":"octopus cell area, ventral cochlear nucleus","plate":47,"ap_bregma_mm":-8.3,"area_mm2":0.2554,"traced_fraction":[0.883,0.85],"n_labels":2,"no_drawn_outline":false}},{"type":"Feature","geometry":{"type":"MultiPolygon","coordinates":[[[[0.507,-6.224],[0.507,-6.245],[0.556,-6.294],[0.668,-6.308],[0.746,-6.336],[0.738,-6.393],[0.703,-6.442],[0.654,-6.442],[0.556,-6.477],[0.409,-6.477],[0.409,-6.463],[0.395,-6.463],[0.395,-6.477],[0.304,-6.456],[0.276,-6.421],[0.227,-6.393],[0.234,-6.189],[0.241,-6.182],[0.36,-6.16],[0.423,-6.175],[0.465,-6.196],[0.486,-6.224],[0.507,-6.224]]],[[[-0.411,-6.238],[-0.404,-6.238],[-0.397,-6.287],[-0.194,-6.287],[-0.187,-6.357],[-0.222,-6.4],[-0.285,-6.414],[-0.39,-6.47],[-0.545,-6.491],[-0.713,-6.456],[-0.755,-6.386],[-0.762,-6.322],[-0.727,-6.301],[-0.496,-6.301],[-0.46,-6.287],[-0.411,-6.238]]]]},"properties":{"abbr":"6N","name":"abducens nucleus","plate":47,"ap_bregma_mm":-8.3,"area_mm2":0.2038,"traced_fraction":[1.0,0.86],"n_labels":2,"no_drawn_outline":false}},{"type":"Feature","geometry":{"type":"MultiPolygon","coordinates":[[[[2.912,-6.597],[2.912,-6.625],[2.933,-6.646],[2.898,-6.744],[2.835,-6.807],[2.821,-6.807],[2.8,-6.843],[2.772,-6.85],[2.709,-6.913],[2.695,-6.913],[2.533,-7.068],[2.491,-7.131],[2.379,-7.237],[2.351,-7.3],[2.197,-7.314],[2.169,-7.286],[2.155,-7.265],[2.155,-7.222],[2.19,-7.159],[2.26,-7.117],[2.435,-6.955],[2.449,-6.955],[2.646,-6.744],[2.66,-6.695],[2.653,-6.632],[2.505,-6.428],[2.47,-6.364],[2.428,-6.21],[2.393,-6.167],[2.281,-6.104],[2.078,-6.062],[2.085,-6.027],[2.106,-5.971],[2.253,-5.964],[2.4,-5.985],[2.505,-6.027],[2.611,-6.097],[2.716,-6.203],[2.758,-6.266],[2.877,-6.505],[2.898,-6.59],[2.912,-6.597]]],[[[-2.284,-6.167],[-2.311,-6.196],[-2.347,-6.329],[-2.431,-6.491],[-2.641,-6.646],[-2.669,-6.695],[-2.669,-6.758],[-2.592,-6.878],[-2.438,-7.033],[-2.424,-7.033],[-2.375,-7.089],[-2.185,-7.201],[-2.241,-7.3],[-2.368,-7.307],[-2.424,-7.279],[-2.522,-7.194],[-2.564,-7.187],[-2.795,-6.934],[-2.858,-6.829],[-2.9,-6.681],[-2.886,-6.632],[-2.879,-6.561],[-2.83,-6.449],[-2.753,-6.343],[-2.641,-6.238],[-2.55,-6.175],[-2.431,-6.118],[-2.333,-6.118],[-2.305,-6.16],[-2.284,-6.167]]]]},"properties":{"abbr":"s5","name":"sensory root of the trigeminal nerve","plate":47,"ap_bregma_mm":-8.3,"area_mm2":0.7231,"traced_fraction":[1.0,1.0],"n_labels":2,"no_drawn_outline":false}},{"type":"Feature","geometry":{"type":"MultiPolygon","coordinates":[[[[-1.701,-6.02],[-1.68,-6.048],[-1.512,-6.139],[-1.309,-6.35],[-1.575,-6.604],[-1.575,-6.618],[-1.729,-6.779],[-1.744,-6.779],[-1.849,-6.892],[-1.863,-6.892],[-1.961,-6.997],[-1.975,-6.997],[-2.031,-7.068],[-2.101,-7.117],[-2.108,-7.054],[-2.094,-6.969],[-2.115,-6.85],[-2.15,-6.758],[-2.08,-6.575],[-1.961,-6.456],[-1.919,-6.393],[-1.863,-6.35],[-1.8,-6.259],[-1.793,-6.196],[-1.807,-6.125],[-1.905,-6.027],[-1.891,-6.013],[-1.701,-6.02]]],[[[1.783,-6.041],[1.944,-6.048],[1.973,-6.062],[1.902,-6.182],[1.895,-6.266],[1.909,-6.315],[1.944,-6.357],[2.057,-6.428],[2.12,-6.491],[2.176,-6.604],[2.197,-6.765],[2.211,-6.765],[2.197,-6.829],[2.148,-6.892],[2.12,-6.976],[2.127,-7.075],[2.19,-7.159],[2.155,-7.222],[2.155,-7.265],[2.169,-7.286],[2.036,-7.293],[2.022,-7.265],[1.951,-7.152],[1.755,-6.927],[1.755,-6.913],[1.433,-6.561],[1.39,-6.498],[1.229,-6.357],[1.222,-6.329],[1.25,-6.308],[1.447,-6.463],[1.447,-6.477],[1.496,-6.505],[1.538,-6.554],[1.552,-6.554],[1.552,-6.568],[1.643,-6.632],[1.643,-6.646],[1.706,-6.681],[1.706,-6.695],[1.741,-6.709],[1.755,-6.73],[1.776,-6.73],[1.755,-6.674],[1.72,-6.646],[1.72,-6.632],[1.706,-6.632],[1.685,-6.59],[1.664,-6.582],[1.615,-6.512],[1.594,-6.505],[1.454,-6.364],[1.356,-6.301],[1.356,-6.287],[1.313,-6.252],[1.327,-6.231],[1.39,-6.203],[1.419,-6.175],[1.44,-6.175],[1.482,-6.139],[1.531,-6.132],[1.538,-6.118],[1.629,-6.083],[1.734,-6.069],[1.783,-6.041]]]]},"properties":{"abbr":"PCRt","name":"parvicellular reticular nucleus","plate":47,"ap_bregma_mm":-8.3,"area_mm2":0.9619,"traced_fraction":[1.0,0.988],"n_labels":2,"no_drawn_outline":false}},{"type":"Feature","geometry":{"type":"MultiPolygon","coordinates":[[[[1.061,-6.491],[1.32,-6.681],[1.341,-6.681],[1.369,-6.723],[1.405,-6.737],[1.58,-6.892],[1.594,-6.892],[1.888,-7.187],[1.762,-7.314],[1.762,-7.335],[1.72,-7.335],[1.72,-7.56],[1.664,-7.532],[1.482,-7.539],[1.363,-7.588],[1.32,-7.623],[1.32,-7.637],[1.264,-7.652],[1.229,-7.588],[1.166,-7.37],[1.103,-7.215],[1.033,-6.927],[1.005,-6.737],[1.005,-6.632],[1.026,-6.526],[1.047,-6.491],[1.061,-6.491]]],[[[-1.091,-6.533],[-1.07,-6.59],[-1.07,-6.807],[-1.099,-6.934],[-1.232,-7.342],[-1.379,-7.673],[-1.421,-7.68],[-1.456,-7.63],[-1.533,-7.602],[-1.708,-7.588],[-1.708,-7.363],[-1.737,-7.363],[-1.737,-7.096],[-1.737,-7.082],[-1.638,-6.99],[-1.589,-6.92],[-1.372,-6.709],[-1.176,-6.568],[-1.091,-6.533]]]]},"properties":{"abbr":"IRt","name":"intermediate reticular nucleus","plate":47,"ap_bregma_mm":-8.3,"area_mm2":1.014,"traced_fraction":[0.875,0.828],"n_labels":2,"no_drawn_outline":false}},{"type":"Feature","geometry":{"type":"MultiPolygon","coordinates":[[[[-0.502,-6.604],[-0.447,-6.618],[-0.447,-6.66],[-0.531,-6.997],[-0.552,-7.173],[-0.587,-7.441],[-0.636,-7.448],[-0.699,-7.434],[-0.664,-7.145],[-0.643,-7.061],[-0.622,-7.033],[-0.615,-6.948],[-0.545,-6.695],[-0.502,-6.604]]],[[[0.528,-6.611],[0.626,-7.026],[0.64,-7.04],[0.668,-7.152],[0.668,-7.201],[0.71,-7.328],[0.71,-7.37],[0.64,-7.384],[0.591,-7.377],[0.521,-7.089],[0.5,-6.948],[0.437,-6.667],[0.444,-6.632],[0.528,-6.611]]]]},"properties":{"abbr":"6n","name":"abducens nerve","plate":47,"ap_bregma_mm":-8.3,"area_mm2":0.1712,"traced_fraction":[0.96,0.957],"n_labels":1,"no_drawn_outline":false}},{"type":"Feature","geometry":{"type":"MultiPolygon","coordinates":[[[[-0.187,-6.357],[-0.166,-6.379],[-0.131,-6.526],[-0.082,-6.639],[-0.033,-6.702],[-0.005,-6.716],[-0.026,-6.765],[-0.04,-7.18],[-0.552,-7.173],[-0.531,-6.997],[-0.447,-6.66],[-0.447,-6.618],[-0.432,-6.611],[-0.341,-6.618],[-0.271,-6.597],[-0.208,-6.519],[-0.208,-6.435],[-0.222,-6.4],[-0.187,-6.357]]]]},"properties":{"abbr":"ts","name":"tectospinal tract","plate":47,"ap_bregma_mm":-8.3,"area_mm2":0.2842,"traced_fraction":[0.813],"n_labels":2,"no_drawn_outline":false}},{"type":"Feature","geometry":{"type":"MultiPolygon","coordinates":[[[[-2.564,-7.187],[-2.522,-7.194],[-2.424,-7.279],[-2.368,-7.307],[-2.241,-7.3],[-2.227,-7.314],[-2.143,-7.314],[-2.017,-7.265],[-2.01,-7.546],[-2.297,-7.546],[-2.347,-7.504],[-2.347,-7.49],[-2.494,-7.321],[-2.543,-7.251],[-2.564,-7.187]]]]},"properties":{"abbr":"rs","name":"rubrospinal tract","plate":47,"ap_bregma_mm":-8.3,"area_mm2":0.105,"traced_fraction":[0.68],"n_labels":1,"no_drawn_outline":true}},{"type":"Feature","geometry":{"type":"MultiPolygon","coordinates":[[[[-1.737,-7.096],[-1.737,-7.363],[-1.708,-7.363],[-1.708,-7.588],[-1.75,-7.588],[-1.779,-7.609],[-1.926,-7.595],[-2.003,-7.63],[-2.01,-7.546],[-2.017,-7.265],[-1.877,-7.187],[-1.758,-7.096],[-1.737,-7.096]]],[[[1.888,-7.187],[1.979,-7.258],[2.015,-7.265],[2.007,-7.434],[1.994,-7.546],[1.979,-7.56],[1.902,-7.532],[1.797,-7.532],[1.72,-7.56],[1.72,-7.335],[1.762,-7.335],[1.762,-7.314],[1.888,-7.187]]]]},"properties":{"abbr":"A5","name":"A5 noradrenaline cells","plate":47,"ap_bregma_mm":-8.3,"area_mm2":0.2058,"traced_fraction":[0.482,0.482],"n_labels":2,"no_drawn_outline":true}},{"type":"Feature","geometry":{"type":"MultiPolygon","coordinates":[[[[2.8,-6.843],[2.821,-6.857],[2.821,-6.885],[2.835,-6.892],[2.842,-6.955],[2.646,-7.187],[2.653,-7.201],[2.604,-7.265],[2.596,-7.258],[2.596,-7.272],[2.589,-7.286],[2.583,-7.279],[2.583,-7.293],[2.568,-7.314],[2.554,-7.314],[2.562,-7.328],[2.554,-7.335],[2.519,-7.363],[2.428,-7.518],[2.372,-7.581],[2.295,-7.708],[2.281,-7.708],[2.232,-7.792],[2.218,-7.792],[2.155,-7.891],[2.141,-7.891],[2.078,-7.982],[2.036,-8.017],[2.036,-8.031],[2.022,-8.031],[2.028,-8.045],[2.007,-8.066],[1.994,-8.066],[1.846,-8.221],[1.783,-8.263],[1.769,-8.292],[1.727,-8.313],[1.51,-8.51],[1.51,-8.517],[1.496,-8.524],[1.363,-8.601],[1.306,-8.552],[1.306,-8.538],[1.369,-8.51],[1.412,-8.425],[1.44,-8.411],[1.454,-8.425],[1.51,-8.411],[1.615,-8.327],[1.643,-8.285],[1.657,-8.285],[1.741,-8.172],[1.755,-8.13],[1.755,-8.095],[1.741,-8.088],[1.776,-8.024],[1.916,-7.891],[2.022,-7.743],[2.05,-7.736],[2.078,-7.708],[2.078,-7.694],[2.134,-7.645],[2.134,-7.63],[2.253,-7.497],[2.309,-7.405],[2.351,-7.3],[2.379,-7.237],[2.491,-7.131],[2.533,-7.068],[2.695,-6.913],[2.709,-6.913],[2.772,-6.85],[2.8,-6.843]]],[[[-2.795,-6.934],[-2.564,-7.187],[-2.543,-7.251],[-2.494,-7.321],[-2.347,-7.49],[-2.347,-7.504],[-2.297,-7.546],[-2.136,-7.75],[-2.059,-7.827],[-2.038,-7.827],[-1.954,-7.94],[-1.68,-8.193],[-1.708,-8.214],[-1.716,-8.256],[-1.589,-8.446],[-1.449,-8.566],[-1.379,-8.58],[-1.344,-8.552],[-1.281,-8.594],[-1.295,-8.629],[-1.309,-8.629],[-1.309,-8.692],[-1.337,-8.692],[-1.61,-8.496],[-1.716,-8.348],[-1.75,-8.327],[-1.75,-8.313],[-1.772,-8.306],[-1.793,-8.27],[-2.017,-8.095],[-2.136,-7.975],[-2.347,-7.666],[-2.403,-7.609],[-2.508,-7.546],[-2.571,-7.483],[-2.634,-7.391],[-2.739,-7.286],[-2.886,-7.033],[-2.907,-6.997],[-2.922,-6.997],[-2.928,-6.983],[-2.922,-6.976],[-2.935,-6.976],[-2.943,-6.962],[-2.809,-6.948],[-2.795,-6.934]]],[[[-0.005,-7.82],[-0.005,-7.989],[-0.054,-7.996],[-0.096,-8.045],[-0.152,-8.207],[-0.159,-8.277],[-0.166,-8.285],[-0.236,-8.277],[-0.334,-8.327],[-0.496,-8.51],[-0.559,-8.601],[-0.573,-8.629],[-0.566,-8.65],[-0.643,-8.7],[-0.741,-8.798],[-0.79,-8.875],[-0.895,-8.833],[-0.923,-8.84],[-0.944,-8.833],[-1.035,-8.798],[-1.014,-8.721],[-1.07,-8.573],[-1.162,-8.601],[-1.211,-8.601],[-1.162,-8.517],[-1.155,-8.348],[-1.19,-8.256],[-1.218,-8.228],[-1.281,-8.214],[-1.323,-8.228],[-1.358,-8.263],[-1.379,-8.306],[-1.372,-8.496],[-1.428,-8.474],[-1.568,-8.327],[-1.617,-8.242],[-1.617,-8.207],[-1.512,-8.193],[-1.407,-8.144],[-1.281,-8.024],[-1.246,-7.968],[-1.19,-7.975],[-1.197,-8.102],[-1.162,-8.179],[-1.12,-8.242],[-1.07,-8.285],[-0.972,-8.32],[-0.972,-8.334],[-0.986,-8.46],[-0.944,-8.496],[-0.874,-8.503],[-0.762,-8.481],[-0.685,-8.453],[-0.636,-8.418],[-0.629,-8.411],[-0.601,-8.397],[-0.601,-8.376],[-0.608,-8.334],[-0.636,-8.299],[-0.706,-8.27],[-0.776,-8.27],[-0.755,-8.214],[-0.657,-8.116],[-0.481,-7.975],[-0.306,-7.884],[-0.166,-7.841],[-0.054,-7.827],[-0.005,-7.82]]]]},"properties":{"abbr":"tz","name":"trapezoid body","plate":47,"ap_bregma_mm":-8.3,"area_mm2":1.1832,"traced_fraction":[0.98,0.984,0.969],"n_labels":3,"no_drawn_outline":false}},{"type":"Feature","geometry":{"type":"MultiPolygon","coordinates":[[[[1.72,-7.56],[1.629,-7.666],[1.594,-7.792],[1.573,-7.82],[1.538,-7.82],[1.503,-7.785],[1.461,-7.708],[1.419,-7.673],[1.32,-7.637],[1.32,-7.623],[1.363,-7.588],[1.482,-7.539],[1.664,-7.532],[1.72,-7.56]]],[[[-1.708,-7.588],[-1.533,-7.602],[-1.456,-7.63],[-1.421,-7.68],[-1.519,-7.75],[-1.547,-7.827],[-1.575,-7.856],[-1.617,-7.856],[-1.645,-7.813],[-1.673,-7.722],[-1.779,-7.609],[-1.75,-7.588],[-1.708,-7.588]]]]},"properties":{"abbr":"DLPO","name":"dorsolateral periolivary nucleus","plate":47,"ap_bregma_mm":-8.3,"area_mm2":0.1095,"traced_fraction":[0.993,1.0],"n_labels":2,"no_drawn_outline":false}},{"type":"Feature","geometry":{"type":"MultiPolygon","coordinates":[[[[2.015,-7.265],[2.022,-7.265],[2.036,-7.293],[2.169,-7.286],[2.197,-7.314],[2.351,-7.3],[2.344,-7.335],[2.253,-7.497],[2.134,-7.63],[2.134,-7.645],[2.078,-7.694],[2.078,-7.708],[2.05,-7.736],[2.022,-7.743],[2.022,-7.645],[1.979,-7.56],[1.994,-7.546],[2.007,-7.434],[2.015,-7.265]]],[[[-2.297,-7.546],[-2.01,-7.546],[-2.003,-7.63],[-2.038,-7.666],[-2.052,-7.715],[-2.038,-7.827],[-2.059,-7.827],[-2.136,-7.75],[-2.297,-7.546]]]]},"properties":{"abbr":"vsc","name":"ventral spinocerebellar tract","plate":47,"ap_bregma_mm":-8.3,"area_mm2":0.1373,"traced_fraction":[0.798,0.667],"n_labels":2,"no_drawn_outline":false}},{"type":"Feature","geometry":{"type":"MultiPolygon","coordinates":[[[[1.979,-7.56],[2.022,-7.645],[2.022,-7.743],[1.916,-7.891],[1.776,-8.024],[1.741,-8.088],[1.629,-8.151],[1.475,-8.158],[1.419,-8.144],[1.327,-8.088],[1.243,-7.989],[1.208,-7.919],[1.18,-7.806],[1.187,-7.729],[1.187,-7.715],[1.264,-7.652],[1.32,-7.637],[1.419,-7.673],[1.461,-7.708],[1.503,-7.785],[1.538,-7.82],[1.573,-7.82],[1.594,-7.792],[1.629,-7.666],[1.72,-7.56],[1.797,-7.532],[1.902,-7.532],[1.979,-7.56]]],[[[-1.779,-7.609],[-1.673,-7.722],[-1.645,-7.813],[-1.617,-7.856],[-1.575,-7.856],[-1.547,-7.827],[-1.519,-7.75],[-1.421,-7.68],[-1.379,-7.673],[-1.295,-7.715],[-1.246,-7.771],[-1.232,-7.813],[-1.225,-7.87],[-1.246,-7.968],[-1.281,-8.024],[-1.407,-8.144],[-1.512,-8.193],[-1.617,-8.207],[-1.68,-8.193],[-1.954,-7.94],[-2.038,-7.827],[-2.052,-7.715],[-2.038,-7.666],[-2.003,-7.63],[-1.926,-7.595],[-1.779,-7.609]]]]},"properties":{"abbr":"LSO","name":"lateral superior olive","plate":47,"ap_bregma_mm":-8.3,"area_mm2":0.6496,"traced_fraction":[1.0,1.0],"n_labels":2,"no_drawn_outline":false}},{"type":"Feature","geometry":{"type":"MultiPolygon","coordinates":[[[[1.187,-7.729],[1.18,-7.806],[1.208,-7.919],[1.243,-7.989],[1.327,-8.088],[1.419,-8.144],[1.475,-8.158],[1.629,-8.151],[1.622,-8.186],[1.517,-8.277],[1.44,-8.397],[1.426,-8.397],[1.419,-8.362],[1.412,-8.228],[1.356,-8.116],[1.285,-8.123],[1.222,-8.172],[1.18,-8.249],[1.173,-8.355],[1.173,-8.404],[1.201,-8.474],[1.271,-8.538],[1.222,-8.538],[1.061,-8.496],[1.047,-8.383],[1.012,-8.334],[0.942,-8.277],[0.942,-8.263],[1.033,-8.228],[1.096,-8.158],[1.117,-8.151],[1.159,-8.088],[1.173,-7.968],[1.159,-7.926],[1.117,-7.891],[1.04,-7.891],[0.935,-7.947],[0.928,-7.729],[1.187,-7.729]]],[[[-1.232,-7.813],[-0.986,-7.813],[-0.986,-7.989],[-1.099,-7.933],[-1.141,-7.933],[-1.19,-7.975],[-1.246,-7.968],[-1.225,-7.87],[-1.232,-7.813]]]]},"properties":{"abbr":"DPO","name":"dorsal periolivary nucleus","plate":47,"ap_bregma_mm":-8.3,"area_mm2":0.1997,"traced_fraction":[0.881,0.591],"n_labels":2,"no_drawn_outline":false}},{"type":"Feature","geometry":{"type":"MultiPolygon","coordinates":[[[[0.942,-8.263],[0.907,-8.256],[0.865,-8.221],[0.837,-8.165],[0.83,-8.109],[0.879,-8.003],[0.935,-7.947],[1.04,-7.891],[1.117,-7.891],[1.159,-7.926],[1.173,-7.968],[1.159,-8.088],[1.117,-8.151],[1.096,-8.158],[1.033,-8.228],[0.942,-8.263]]],[[[-0.986,-7.989],[-0.916,-8.066],[-0.895,-8.116],[-0.888,-8.207],[-0.916,-8.27],[-0.909,-8.292],[-0.965,-8.32],[-0.972,-8.32],[-1.07,-8.285],[-1.12,-8.242],[-1.162,-8.179],[-1.197,-8.102],[-1.19,-7.975],[-1.141,-7.933],[-1.099,-7.933],[-0.986,-7.989]]]]},"properties":{"abbr":"SPN","name":"superior periolivary nucleus","plate":47,"ap_bregma_mm":-8.3,"area_mm2":0.1737,"traced_fraction":[0.994,1.0],"n_labels":2,"no_drawn_outline":false}},{"type":"Feature","geometry":{"type":"MultiPolygon","coordinates":[[[[-0.005,-7.989],[0.03,-7.989],[0.072,-8.024],[0.142,-8.263],[0.072,-8.327],[0.037,-8.32],[0.023,-8.221],[0.002,-8.179],[-0.04,-8.179],[-0.054,-8.193],[-0.075,-8.306],[-0.152,-8.285],[-0.159,-8.277],[-0.152,-8.207],[-0.096,-8.045],[-0.054,-7.996],[-0.005,-7.989]]]]},"properties":{"abbr":"RMg","name":"raphe magnus nucleus","plate":47,"ap_bregma_mm":-8.3,"area_mm2":0.0609,"traced_fraction":[0.961],"n_labels":1,"no_drawn_outline":false}},{"type":"Feature","geometry":{"type":"MultiPolygon","coordinates":[[[[-2.9,-7.033],[-2.886,-7.033],[-2.739,-7.286],[-2.634,-7.391],[-2.571,-7.483],[-2.508,-7.546],[-2.403,-7.609],[-2.347,-7.666],[-2.136,-7.975],[-2.017,-8.095],[-1.793,-8.27],[-1.772,-8.306],[-1.772,-8.313],[-1.856,-8.249],[-1.968,-8.249],[-1.898,-8.214],[-1.961,-8.186],[-2.01,-8.32],[-2.073,-8.32],[-2.101,-8.235],[-2.192,-8.32],[-2.213,-8.228],[-2.262,-8.341],[-2.297,-8.172],[-2.241,-8.235],[-2.227,-8.172],[-2.08,-8.193],[-1.989,-8.137],[-2.094,-8.088],[-2.339,-7.708],[-2.69,-7.412],[-2.9,-7.033]]],[[[2.007,-8.066],[2.022,-8.221],[2.071,-8.207],[2.064,-8.151],[2.078,-8.144],[2.099,-8.165],[2.155,-8.066],[2.246,-8.137],[2.274,-8.088],[2.33,-8.095],[2.337,-8.235],[2.197,-8.179],[2.183,-8.221],[2.155,-8.249],[2.141,-8.144],[2.113,-8.249],[1.979,-8.249],[1.973,-8.165],[1.958,-8.151],[1.797,-8.277],[1.797,-8.292],[1.769,-8.292],[1.783,-8.263],[1.846,-8.221],[1.994,-8.066],[2.007,-8.066]]]]},"properties":{"abbr":"LVPO","name":"lateroventral periolivary nucleus","plate":47,"ap_bregma_mm":-8.3,"area_mm2":0.1229,"traced_fraction":[1.0,1.0],"n_labels":2,"no_drawn_outline":false}},{"type":"Feature","geometry":{"type":"MultiPolygon","coordinates":[[[[1.44,-8.397],[1.44,-8.411],[1.412,-8.425],[1.369,-8.51],[1.306,-8.538],[1.278,-8.538],[1.278,-8.355],[1.173,-8.355],[1.18,-8.249],[1.222,-8.172],[1.285,-8.123],[1.356,-8.116],[1.412,-8.228],[1.419,-8.362],[1.426,-8.397],[1.44,-8.397]]],[[[-1.211,-8.601],[-1.281,-8.594],[-1.344,-8.552],[-1.372,-8.496],[-1.379,-8.306],[-1.358,-8.263],[-1.309,-8.221],[-1.253,-8.214],[-1.218,-8.228],[-1.19,-8.256],[-1.155,-8.348],[-1.162,-8.517],[-1.211,-8.601]]]]},"properties":{"abbr":"MSO","name":"medial superior olive","plate":47,"ap_bregma_mm":-8.3,"area_mm2":0.139,"traced_fraction":[0.816,1.0],"n_labels":2,"no_drawn_outline":false}},{"type":"Feature","geometry":{"type":"MultiPolygon","coordinates":[[[[0.71,-8.2],[0.865,-8.221],[0.907,-8.256],[0.942,-8.263],[0.942,-8.277],[1.005,-8.327],[1.047,-8.383],[1.061,-8.496],[1.019,-8.503],[0.865,-8.481],[0.746,-8.425],[0.696,-8.376],[0.689,-8.334],[0.661,-8.292],[0.661,-8.235],[0.71,-8.2]]],[[[-0.776,-8.27],[-0.706,-8.27],[-0.636,-8.299],[-0.608,-8.334],[-0.601,-8.376],[-0.601,-8.397],[-0.629,-8.411],[-0.636,-8.418],[-0.685,-8.453],[-0.762,-8.481],[-0.916,-8.503],[-0.958,-8.489],[-0.986,-8.46],[-0.972,-8.334],[-0.965,-8.32],[-0.909,-8.292],[-0.776,-8.27]]]]},"properties":{"abbr":"MNTB","name":"medial nucleus of the trapezoid body","plate":47,"ap_bregma_mm":-8.3,"area_mm2":0.1484,"traced_fraction":[0.988,0.934],"n_labels":1,"no_drawn_outline":false}},{"type":"Feature","geometry":{"type":"MultiPolygon","coordinates":[[[[-1.758,-8.327],[-1.75,-8.327],[-1.716,-8.348],[-1.61,-8.496],[-1.337,-8.692],[-1.337,-8.7],[-1.365,-8.692],[-1.435,-8.847],[-1.498,-8.77],[-1.512,-8.77],[-1.575,-8.847],[-1.603,-8.791],[-1.617,-8.791],[-1.624,-8.819],[-1.652,-8.847],[-1.687,-8.749],[-1.695,-8.833],[-1.828,-8.847],[-1.807,-8.685],[-1.772,-8.763],[-1.737,-8.685],[-1.68,-8.685],[-1.652,-8.756],[-1.638,-8.756],[-1.617,-8.685],[-1.498,-8.714],[-1.554,-8.552],[-1.695,-8.481],[-1.75,-8.587],[-1.828,-8.587],[-1.849,-8.481],[-1.863,-8.481],[-1.877,-8.559],[-1.898,-8.587],[-1.926,-8.481],[-1.94,-8.587],[-1.989,-8.524],[-2.003,-8.538],[-2.01,-8.587],[-2.122,-8.587],[-2.122,-8.439],[-2.108,-8.46],[-2.101,-8.545],[-2.052,-8.559],[-2.038,-8.439],[-1.737,-8.439],[-1.758,-8.327]]]]},"properties":{"abbr":"MVPO","name":"medioventral periolivary nucleus","plate":47,"ap_bregma_mm":-8.3,"area_mm2":0.1185,"traced_fraction":[1.0],"n_labels":2,"no_drawn_outline":false}},{"type":"Feature","geometry":{"type":"MultiPolygon","coordinates":[[[[1.061,-8.496],[1.145,-8.51],[1.187,-8.531],[1.271,-8.538],[1.278,-8.538],[1.306,-8.538],[1.306,-8.552],[1.363,-8.601],[1.32,-8.643],[1.236,-8.685],[0.963,-8.671],[0.942,-8.615],[1.019,-8.531],[1.019,-8.503],[1.061,-8.496]]]]},"properties":{"abbr":"VNTB","name":"ventral nucleus of the trapezoid body","plate":47,"ap_bregma_mm":-8.3,"area_mm2":0.0556,"traced_fraction":[1.0],"n_labels":1,"no_drawn_outline":false}},{"type":"Feature","geometry":{"type":"MultiPolygon","coordinates":[[[[0.626,-8.622],[0.725,-8.685],[0.837,-8.805],[0.767,-8.84],[0.767,-8.861],[0.746,-8.861],[0.738,-8.861],[0.654,-8.889],[0.535,-8.96],[0.444,-8.96],[0.29,-8.889],[0.171,-8.805],[0.016,-8.721],[0.03,-8.692],[0.129,-8.622],[0.269,-8.58],[0.437,-8.58],[0.626,-8.622]]],[[[-0.019,-8.721],[-0.068,-8.742],[-0.068,-8.763],[-0.082,-8.763],[-0.103,-8.763],[-0.166,-8.819],[-0.18,-8.854],[-0.201,-8.868],[-0.194,-8.882],[-0.299,-8.96],[-0.306,-8.96],[-0.51,-8.981],[-0.552,-8.974],[-0.58,-8.974],[-0.587,-8.953],[-0.72,-8.917],[-0.79,-8.875],[-0.741,-8.798],[-0.643,-8.7],[-0.566,-8.65],[-0.531,-8.65],[-0.418,-8.608],[-0.278,-8.601],[-0.145,-8.636],[-0.019,-8.721]]],[[[0.738,-8.861],[0.746,-8.861],[0.738,-8.868],[0.738,-8.861]]],[[[-0.306,-8.96],[-0.299,-8.96],[-0.306,-8.967],[-0.306,-8.96]]]]},"properties":{"abbr":"py","name":"pyramidal tract","plate":47,"ap_bregma_mm":-8.3,"area_mm2":0.3836,"traced_fraction":[1.0,1.0,1.0,1.0],"n_labels":2,"no_drawn_outline":false}},{"type":"Feature","geometry":{"type":"MultiPolygon","coordinates":[[[[0.886,-4.937],[0.858,-5.007],[0.816,-5.063],[0.703,-5.176],[0.584,-5.246],[0.486,-5.281],[0.157,-5.295],[-0.257,-5.274],[-0.496,-5.183],[-0.608,-5.099],[-0.748,-4.944],[-0.783,-4.93],[-0.755,-4.824],[-0.629,-4.768],[-0.517,-4.747],[-0.208,-4.761],[0.051,-4.726],[0.584,-4.747],[0.689,-4.761],[0.78,-4.796],[0.837,-4.845],[0.886,-4.937]]]]},"properties":{"abbr":"1Cb","name":"1st cerebellar lobule (lingula)","plate":47,"ap_bregma_mm":-8.3,"area_mm2":0.75,"traced_fraction":[1.0],"n_labels":1,"no_drawn_outline":false}},{"type":"Feature","geometry":{"type":"MultiPolygon","coordinates":[[[[3.214,-5.134],[3.27,-5.169],[3.27,-5.183],[3.382,-5.302],[3.375,-5.359],[3.298,-5.478],[3.27,-5.478],[3.263,-5.464],[3.249,-5.288],[3.227,-5.218],[3.2,-5.183],[3.214,-5.134]]]]},"properties":{"abbr":"LR4V","name":"lateral recess of the 4th ventricle","plate":47,"ap_bregma_mm":-8.3,"area_mm2":0.0296,"traced_fraction":[1.0],"n_labels":1,"no_drawn_outline":false}},{"type":"Feature","geometry":{"type":"MultiPolygon","coordinates":[[[[-0.783,-4.93],[-0.748,-4.944],[-0.608,-5.099],[-0.496,-5.183],[-0.257,-5.274],[-0.264,-5.443],[-0.615,-5.443],[-0.636,-5.429],[-0.685,-5.338],[-0.832,-5.197],[-0.86,-5.155],[-0.895,-5.084],[-0.895,-5.007],[-0.853,-4.951],[-0.783,-4.93]]]]},"properties":{"abbr":"SMV","name":"superior medullary velum","plate":47,"ap_bregma_mm":-8.3,"area_mm2":0.1684,"traced_fraction":[0.729],"n_labels":1,"no_drawn_outline":true}},{"type":"Feature","geometry":{"type":"MultiPolygon","coordinates":[[[[-2.914,-5.563],[-2.914,-5.577],[-2.985,-5.647],[-3.23,-5.809],[-3.489,-5.95],[-3.566,-6.006],[-3.637,-6.09],[-3.679,-6.104],[-3.686,-6.041],[-3.693,-6.013],[-3.672,-6.006],[-3.672,-5.978],[-3.651,-5.95],[-3.468,-5.858],[-3.468,-5.844],[-3.426,-5.823],[-3.293,-5.682],[-3.251,-5.668],[-3.216,-5.619],[-3.174,-5.598],[-3.034,-5.464],[-3.02,-5.464],[-2.956,-5.387],[-2.935,-5.387],[-2.922,-5.408],[-2.914,-5.563]]]]},"properties":{"abbr":"GrC","name":"granule cell layer of cochlear nuclei","plate":47,"ap_bregma_mm":-8.3,"area_mm2":0.1163,"traced_fraction":[1.0],"n_labels":1,"no_drawn_outline":false}},{"type":"Feature","geometry":{"type":"MultiPolygon","coordinates":[[[[3.263,-5.71],[3.62,-5.978],[3.641,-6.02],[3.634,-6.175],[3.613,-6.203],[3.564,-6.203],[3.466,-6.125],[3.214,-6.006],[3.164,-5.999],[3.157,-5.985],[3.157,-5.844],[3.193,-5.844],[3.193,-5.774],[3.263,-5.71]]],[[[-3.23,-5.809],[-3.223,-6.125],[-3.314,-6.16],[-3.553,-6.357],[-3.637,-6.4],[-3.686,-6.4],[-3.714,-6.379],[-3.756,-6.266],[-3.756,-6.245],[-3.7,-6.175],[-3.679,-6.104],[-3.637,-6.09],[-3.566,-6.006],[-3.489,-5.95],[-3.23,-5.809]]]]},"properties":{"abbr":"Gca","name":"globular cell area, ventral cochlear nucleus","plate":47,"ap_bregma_mm":-8.3,"area_mm2":0.2885,"traced_fraction":[0.807,0.846],"n_labels":2,"no_drawn_outline":false}},{"type":"Feature","geometry":{"type":"MultiPolygon","coordinates":[[[[2.519,-5.689],[2.575,-5.696],[2.744,-5.802],[2.793,-5.816],[2.849,-5.907],[2.982,-5.935],[3.038,-5.971],[3.052,-6.006],[3.094,-6.048],[3.073,-6.062],[2.891,-6.069],[2.863,-6.055],[2.863,-6.034],[2.779,-6.006],[2.758,-5.985],[2.674,-5.971],[2.554,-5.921],[2.477,-5.872],[2.421,-5.816],[2.414,-5.76],[2.449,-5.724],[2.519,-5.689]]],[[[-2.83,-6.217],[-3.041,-6.21],[-3.048,-6.146],[-3.02,-6.097],[-2.858,-6.041],[-2.816,-6.013],[-2.774,-5.971],[-2.753,-5.921],[-2.704,-5.886],[-2.662,-5.886],[-2.613,-5.858],[-2.522,-5.837],[-2.466,-5.879],[-2.466,-5.956],[-2.536,-6.006],[-2.641,-6.013],[-2.725,-6.041],[-2.802,-6.125],[-2.83,-6.217]]]]},"properties":{"abbr":"VCP","name":"ventral cochlear nucleus, posterior part","plate":47,"ap_bregma_mm":-8.3,"area_mm2":0.1909,"traced_fraction":[0.91,0.855],"n_labels":2,"no_drawn_outline":false}},{"type":"Feature","geometry":{"type":"MultiPolygon","coordinates":[[[[-0.173,-6.013],[-0.096,-6.139],[-0.082,-6.189],[-0.124,-6.189],[-0.173,-6.21],[-0.194,-6.287],[-0.397,-6.287],[-0.404,-6.238],[-0.39,-6.217],[-0.341,-6.203],[-0.229,-6.189],[-0.222,-6.118],[-0.25,-6.027],[-0.173,-6.013]]]]},"properties":{"abbr":"ocb","name":"olivocochlear bundle","plate":47,"ap_bregma_mm":-8.3,"area_mm2":0.039,"traced_fraction":[0.797],"n_labels":1,"no_drawn_outline":false}},{"type":"Feature","geometry":{"type":"MultiPolygon","coordinates":[[[[-1.905,-6.027],[-1.807,-6.125],[-1.793,-6.196],[-1.8,-6.259],[-1.863,-6.35],[-1.919,-6.393],[-1.961,-6.456],[-2.08,-6.575],[-2.15,-6.758],[-2.164,-6.758],[-2.213,-6.695],[-2.431,-6.491],[-2.347,-6.329],[-2.311,-6.196],[-2.284,-6.167],[-2.143,-6.076],[-2.017,-6.027],[-1.905,-6.027]]],[[[1.973,-6.062],[2.078,-6.062],[2.106,-6.076],[2.239,-6.09],[2.316,-6.118],[2.393,-6.167],[2.428,-6.21],[2.47,-6.364],[2.505,-6.428],[2.491,-6.428],[2.337,-6.582],[2.246,-6.723],[2.239,-6.758],[2.211,-6.765],[2.197,-6.765],[2.176,-6.604],[2.12,-6.491],[2.057,-6.428],[1.944,-6.357],[1.909,-6.315],[1.895,-6.266],[1.902,-6.182],[1.973,-6.062]]]]},"properties":{"abbr":"Pr5DM","name":"principal sensory trigeminal nucleus, dorsomedial part","plate":47,"ap_bregma_mm":-8.3,"area_mm2":0.4912,"traced_fraction":[1.0,1.0],"n_labels":2,"no_drawn_outline":false}},{"type":"Feature","geometry":{"type":"MultiPolygon","coordinates":[[[[0.185,-6.182],[0.234,-6.189],[0.227,-6.393],[0.213,-6.414],[0.206,-6.484],[0.185,-6.498],[0.121,-6.646],[0.044,-6.716],[-0.005,-6.716],[-0.026,-6.709],[-0.082,-6.639],[-0.131,-6.526],[-0.166,-6.379],[-0.187,-6.357],[-0.194,-6.287],[-0.173,-6.21],[-0.124,-6.189],[-0.082,-6.189],[0.016,-6.238],[0.079,-6.238],[0.121,-6.224],[0.164,-6.182],[0.185,-6.182]]]]},"properties":{"abbr":"mlf","name":"medial longitudinal fasciculus","plate":47,"ap_bregma_mm":-8.3,"area_mm2":0.1621,"traced_fraction":[1.0],"n_labels":1,"no_drawn_outline":false}},{"type":"Feature","geometry":{"type":"MultiPolygon","coordinates":[[[[0.227,-6.393],[0.276,-6.421],[0.304,-6.456],[0.395,-6.477],[0.409,-6.477],[0.556,-6.477],[0.654,-6.442],[0.703,-6.442],[0.696,-6.484],[0.647,-6.54],[0.528,-6.611],[0.444,-6.632],[0.304,-6.597],[0.248,-6.547],[0.206,-6.484],[0.213,-6.414],[0.227,-6.393]]],[[[-0.222,-6.4],[-0.208,-6.435],[-0.208,-6.519],[-0.222,-6.547],[-0.271,-6.597],[-0.306,-6.611],[-0.432,-6.611],[-0.39,-6.47],[-0.285,-6.414],[-0.222,-6.4]]]]},"properties":{"abbr":"Pa6","name":"paraabducens nucleus","plate":47,"ap_bregma_mm":-8.3,"area_mm2":0.0949,"traced_fraction":[0.983,1.0],"n_labels":2,"no_drawn_outline":false}},{"type":"Feature","geometry":{"type":"MultiPolygon","coordinates":[[[[-0.86,-6.139],[-0.846,-6.139],[-0.832,-6.35],[-0.993,-6.449],[-1.063,-6.512],[-1.091,-6.519],[-1.091,-6.533],[-1.176,-6.568],[-1.372,-6.709],[-1.589,-6.92],[-1.589,-6.934],[-1.737,-7.082],[-1.737,-7.096],[-1.758,-7.096],[-1.877,-7.187],[-2.017,-7.265],[-2.143,-7.314],[-2.227,-7.314],[-2.241,-7.3],[-2.185,-7.201],[-2.171,-7.201],[-2.171,-7.187],[-2.101,-7.117],[-2.031,-7.068],[-1.975,-6.997],[-1.961,-6.997],[-1.744,-6.779],[-1.729,-6.779],[-1.575,-6.618],[-1.575,-6.604],[-1.309,-6.35],[-1.281,-6.343],[-1.141,-6.245],[-0.972,-6.175],[-0.888,-6.167],[-0.86,-6.139]]],[[[1.433,-6.561],[1.755,-6.913],[1.755,-6.927],[1.951,-7.152],[2.022,-7.265],[2.015,-7.265],[1.979,-7.258],[1.888,-7.187],[1.594,-6.892],[1.58,-6.892],[1.433,-6.758],[1.369,-6.723],[1.341,-6.681],[1.348,-6.597],[1.398,-6.59],[1.433,-6.561]]]]},"properties":{"abbr":"7n","name":"facial nerve","plate":47,"ap_bregma_mm":-8.3,"area_mm2":0.4577,"traced_fraction":[0.957,0.924],"n_labels":2,"no_drawn_outline":false}},{"type":"Feature","geometry":{"type":"MultiPolygon","coordinates":[[[[2.505,-6.428],[2.653,-6.632],[2.66,-6.695],[2.646,-6.744],[2.449,-6.955],[2.435,-6.955],[2.26,-7.117],[2.19,-7.159],[2.127,-7.075],[2.12,-6.976],[2.148,-6.892],[2.197,-6.829],[2.211,-6.765],[2.239,-6.758],[2.246,-6.723],[2.337,-6.582],[2.491,-6.428],[2.505,-6.428]]],[[[-2.431,-6.491],[-2.347,-6.575],[-2.333,-6.575],[-2.164,-6.758],[-2.15,-6.758],[-2.115,-6.85],[-2.094,-6.969],[-2.108,-7.054],[-2.101,-7.117],[-2.171,-7.187],[-2.171,-7.201],[-2.185,-7.201],[-2.311,-7.131],[-2.438,-7.033],[-2.592,-6.878],[-2.669,-6.758],[-2.669,-6.695],[-2.641,-6.646],[-2.431,-6.491]]]]},"properties":{"abbr":"Pr5VL","name":"principal sensory trigeminal nucleus, ventrolateral part","plate":47,"ap_bregma_mm":-8.3,"area_mm2":0.4341,"traced_fraction":[1.0,1.0],"n_labels":2,"no_drawn_outline":false}},{"type":"Feature","geometry":{"type":"MultiPolygon","coordinates":[[[[-0.054,-7.426],[0.044,-7.426],[0.121,-7.434],[0.121,-7.581],[0.058,-7.581],[0.037,-7.602],[-0.047,-7.602],[-0.061,-7.581],[-0.054,-7.426]]]]},"properties":{"abbr":"RIP","name":"raphe interpositus nucleus","plate":47,"ap_bregma_mm":-8.3,"area_mm2":0.0295,"traced_fraction":[0.485],"n_labels":1,"no_drawn_outline":true}},{"type":"Feature","geometry":{"type":"MultiPolygon","coordinates":[[[[-0.762,-6.322],[-0.755,-6.386],[-0.713,-6.456],[-0.706,-6.491],[-0.671,-6.526],[-0.608,-6.568],[-0.502,-6.604],[-0.545,-6.695],[-0.615,-6.948],[-0.622,-7.033],[-0.643,-7.061],[-0.664,-7.145],[-0.699,-7.434],[-0.699,-7.462],[-0.636,-7.448],[-0.587,-7.441],[-0.552,-7.173],[-0.04,-7.18],[-0.054,-7.426],[-0.061,-7.581],[-0.047,-7.602],[-0.061,-7.63],[-0.054,-7.827],[-0.166,-7.841],[-0.306,-7.884],[-0.481,-7.975],[-0.657,-8.116],[-0.755,-8.214],[-0.776,-8.27],[-0.909,-8.292],[-0.916,-8.27],[-0.888,-8.207],[-0.895,-8.116],[-0.916,-8.066],[-0.986,-7.989],[-0.986,-7.813],[-1.232,-7.813],[-1.246,-7.771],[-1.295,-7.715],[-1.379,-7.673],[-1.232,-7.342],[-1.099,-6.934],[-1.07,-6.807],[-1.07,-6.59],[-1.091,-6.533],[-1.091,-6.519],[-1.063,-6.512],[-0.993,-6.449],[-0.832,-6.35],[-0.762,-6.322]]],[[[0.746,-6.336],[0.865,-6.364],[0.998,-6.435],[1.061,-6.491],[1.047,-6.491],[1.026,-6.526],[1.005,-6.632],[1.005,-6.737],[1.033,-6.927],[1.103,-7.215],[1.166,-7.37],[1.229,-7.588],[1.264,-7.652],[1.243,-7.659],[1.187,-7.729],[0.928,-7.729],[0.935,-7.947],[0.879,-8.003],[0.83,-8.109],[0.837,-8.165],[0.865,-8.221],[0.71,-8.2],[0.689,-8.165],[0.577,-8.06],[0.374,-7.919],[0.241,-7.862],[0.023,-7.82],[0.037,-7.602],[0.058,-7.581],[0.121,-7.581],[0.121,-7.434],[0.044,-7.426],[0.044,-6.716],[0.121,-6.646],[0.185,-6.498],[0.206,-6.484],[0.248,-6.547],[0.304,-6.597],[0.444,-6.632],[0.437,-6.667],[0.5,-6.948],[0.318,-6.948],[0.318,-7.089],[0.521,-7.089],[0.591,-7.377],[0.64,-7.384],[0.71,-7.37],[0.71,-7.328],[0.668,-7.201],[0.668,-7.152],[0.64,-7.04],[0.626,-7.026],[0.528,-6.611],[0.647,-6.54],[0.696,-6.484],[0.703,-6.442],[0.738,-6.393],[0.746,-6.336]]]]},"properties":{"abbr":"PnC","name":"pontine reticular nucleus, caudal part","plate":47,"ap_bregma_mm":-8.3,"area_mm2":2.6981,"traced_fraction":[0.859,0.833],"n_labels":3,"no_drawn_outline":false}},{"type":"Feature","geometry":{"type":"MultiPolygon","coordinates":[[[[-0.005,-7.82],[0.023,-7.82],[0.241,-7.862],[0.374,-7.919],[0.535,-8.024],[0.633,-8.123],[0.647,-8.123],[0.71,-8.2],[0.661,-8.235],[0.661,-8.292],[0.689,-8.334],[0.696,-8.376],[0.746,-8.425],[0.865,-8.481],[1.019,-8.503],[1.019,-8.531],[0.942,-8.615],[0.963,-8.671],[1.236,-8.685],[1.215,-8.721],[1.145,-8.756],[0.984,-8.77],[0.837,-8.805],[0.725,-8.685],[0.626,-8.622],[0.626,-8.601],[0.528,-8.474],[0.381,-8.334],[0.276,-8.277],[0.142,-8.263],[0.072,-8.024],[0.03,-7.989],[-0.005,-7.989],[-0.005,-7.82]]]]},"properties":{"abbr":"PnV","name":"pontine reticular nucleus, ventral part","plate":47,"ap_bregma_mm":-8.3,"area_mm2":0.3782,"traced_fraction":[0.965],"n_labels":1,"no_drawn_outline":false}},{"type":"Feature","geometry":{"type":"MultiPolygon","coordinates":[[[[0.142,-8.263],[0.276,-8.277],[0.381,-8.334],[0.528,-8.474],[0.556,-8.524],[0.598,-8.559],[0.626,-8.622],[0.437,-8.58],[0.269,-8.58],[0.129,-8.622],[0.03,-8.692],[0.016,-8.721],[-0.019,-8.721],[-0.145,-8.636],[-0.278,-8.601],[-0.418,-8.608],[-0.531,-8.65],[-0.566,-8.65],[-0.573,-8.629],[-0.496,-8.51],[-0.334,-8.327],[-0.236,-8.277],[-0.166,-8.285],[-0.152,-8.285],[-0.075,-8.306],[-0.075,-8.348],[-0.019,-8.446],[0.016,-8.432],[0.044,-8.355],[0.058,-8.348],[0.065,-8.341],[0.072,-8.334],[0.072,-8.327],[0.142,-8.263]]]]},"properties":{"abbr":"tzx","name":"decussation of the trapezoid body","plate":47,"ap_bregma_mm":-8.3,"area_mm2":0.2984,"traced_fraction":[0.99],"n_labels":1,"no_drawn_outline":false}},{"type":"Feature","geometry":{"type":"MultiPolygon","coordinates":[[[[-1.68,-8.193],[-1.617,-8.207],[-1.617,-8.242],[-1.568,-8.327],[-1.428,-8.474],[-1.372,-8.496],[-1.344,-8.552],[-1.379,-8.58],[-1.449,-8.566],[-1.589,-8.446],[-1.716,-8.256],[-1.708,-8.214],[-1.68,-8.193]]],[[[1.769,-8.292],[1.797,-8.292],[1.825,-8.327],[1.825,-8.348],[1.958,-8.341],[1.958,-8.376],[1.944,-8.397],[1.937,-8.481],[1.881,-8.432],[1.867,-8.496],[1.769,-8.496],[1.762,-8.467],[1.699,-8.39],[1.685,-8.411],[1.51,-8.517],[1.51,-8.51],[1.727,-8.313],[1.769,-8.292]]]]},"properties":{"abbr":"LNTB","name":"lateral nucleus of the trapezoid body","plate":47,"ap_bregma_mm":-8.3,"area_mm2":0.0851,"traced_fraction":[1.0,1.0],"n_labels":2,"no_drawn_outline":false}},{"type":"Feature","geometry":{"type":"Polygon","coordinates":[[[1.25,-0.97],[1.243,-0.97],[1.236,-0.97],[1.145,-0.928],[0.816,-0.829],[0.682,-0.794],[0.339,-0.752],[0.016,-0.745],[-0.243,-0.759],[-0.376,-0.78],[-0.404,-0.745],[-0.334,-0.738],[0.451,-0.724],[1.075,-0.864],[1.25,-0.97]]]},"properties":{"abbr":null,"name":"unnamed sealed face","plate":47,"ap_bregma_mm":-8.3,"index":0}},{"type":"Feature","geometry":{"type":"Polygon","coordinates":[[[-2.241,-0.921],[-2.248,-0.942],[-2.375,-0.998],[-2.529,-1.104],[-2.739,-1.132],[-3.055,-1.216],[-3.153,-1.258],[-3.181,-1.258],[-3.335,-1.336],[-3.44,-1.364],[-3.517,-1.413],[-3.524,-1.406],[-3.51,-1.357],[-3.209,-1.216],[-2.536,-1.083],[-2.361,-0.949],[-2.241,-0.921]]]},"properties":{"abbr":null,"name":"unnamed sealed face","plate":47,"ap_bregma_mm":-8.3,"index":1}},{"type":"Feature","geometry":{"type":"Polygon","coordinates":[[[3.305,-1.202],[3.354,-1.202],[3.354,-1.216],[3.347,-1.23],[3.389,-1.265],[3.312,-1.23],[3.305,-1.202]]]},"properties":{"abbr":null,"name":"unnamed sealed face","plate":47,"ap_bregma_mm":-8.3,"index":2}},{"type":"Feature","geometry":{"type":"Polygon","coordinates":[[[3.403,-1.279],[3.417,-1.279],[3.473,-1.343],[3.76,-1.357],[4.167,-1.568],[4.237,-1.638],[4.412,-1.765],[4.377,-1.793],[4.42,-1.849],[4.405,-1.849],[4.384,-1.814],[4.272,-1.715],[4.272,-1.701],[4.027,-1.533],[3.69,-1.378],[3.627,-1.364],[3.424,-1.371],[3.424,-1.315],[3.403,-1.279]]]},"properties":{"abbr":null,"name":"unnamed sealed face","plate":47,"ap_bregma_mm":-8.3,"index":3}},{"type":"Feature","geometry":{"type":"Polygon","coordinates":[[[4.426,-1.856],[4.441,-1.877],[4.42,-1.87],[4.426,-1.856]]]},"properties":{"abbr":null,"name":"unnamed sealed face","plate":47,"ap_bregma_mm":-8.3,"index":4}},{"type":"Feature","geometry":{"type":"Polygon","coordinates":[[[4.448,-1.884],[4.454,-1.898],[4.441,-1.898],[4.448,-1.884]]]},"properties":{"abbr":null,"name":"unnamed sealed face","plate":47,"ap_bregma_mm":-8.3,"index":5}},{"type":"Feature","geometry":{"type":"Polygon","coordinates":[[[4.462,-1.905],[4.553,-2.032],[4.588,-2.06],[4.623,-2.25],[4.616,-2.306],[4.595,-2.292],[4.588,-2.208],[4.553,-2.088],[4.497,-1.99],[4.497,-1.969],[4.454,-1.919],[4.462,-1.905]]]},"properties":{"abbr":null,"name":"unnamed sealed face","plate":47,"ap_bregma_mm":-8.3,"index":6}},{"type":"Feature","geometry":{"type":"Polygon","coordinates":[[[-4.113,-3.038],[-4.113,-3.108],[-4.184,-3.171],[-4.226,-3.263],[-4.254,-3.41],[-4.254,-3.607],[-4.219,-3.755],[-4.113,-3.945],[-4.085,-4.036],[-4.127,-4.022],[-4.142,-3.994],[-4.163,-3.987],[-4.275,-3.79],[-4.352,-3.53],[-4.352,-3.326],[-4.324,-3.403],[-4.289,-3.586],[-4.275,-3.579],[-4.261,-3.235],[-4.163,-3.129],[-4.121,-3.073],[-4.113,-3.038]]]},"properties":{"abbr":null,"name":"unnamed sealed face","plate":47,"ap_bregma_mm":-8.3,"index":7}},{"type":"Feature","geometry":{"type":"Polygon","coordinates":[[[-4.969,-3.593],[-4.962,-3.6],[-5.011,-3.643],[-5.011,-3.657],[-5.025,-3.657],[-5.053,-3.706],[-5.067,-3.706],[-5.172,-3.882],[-5.221,-4.044],[-5.235,-4.163],[-5.256,-4.198],[-5.249,-4.444],[-5.165,-4.691],[-5.165,-4.81],[-5.144,-4.916],[-5.088,-5.049],[-5.074,-5.056],[-5.046,-5.127],[-5.032,-5.127],[-5.032,-5.148],[-5.123,-5.063],[-5.193,-4.859],[-5.193,-4.634],[-5.277,-4.508],[-5.277,-4.212],[-5.228,-3.938],[-5.193,-3.861],[-5.172,-3.84],[-5.123,-3.72],[-4.983,-3.593],[-4.969,-3.593]]]},"properties":{"abbr":null,"name":"unnamed sealed face","plate":47,"ap_bregma_mm":-8.3,"index":8}},{"type":"Feature","geometry":{"type":"Polygon","coordinates":[[[-4.555,-5.014],[-4.913,-5.204],[-4.997,-5.19],[-5.025,-5.155],[-5.011,-5.148],[-4.983,-5.169],[-4.92,-5.169],[-4.843,-5.113],[-4.702,-5.049],[-4.569,-5.007],[-4.555,-5.014]]]},"properties":{"abbr":null,"name":"unnamed sealed face","plate":47,"ap_bregma_mm":-8.3,"index":9}},{"type":"Feature","geometry":{"type":"Polygon","coordinates":[[[5.317,-4.036],[5.464,-4.522],[5.443,-4.733],[5.359,-4.887],[5.261,-4.965],[5.156,-5.077],[4.959,-5.169],[4.903,-5.155],[4.903,-5.141],[4.959,-5.141],[5.029,-5.12],[5.156,-5.028],[5.296,-4.895],[5.296,-4.88],[5.31,-4.88],[5.422,-4.705],[5.443,-4.634],[5.443,-4.55],[5.422,-4.472],[5.324,-4.247],[5.317,-4.036]]]},"properties":{"abbr":null,"name":"unnamed sealed face","plate":47,"ap_bregma_mm":-8.3,"index":10}},{"type":"Feature","geometry":{"type":"Polygon","coordinates":[[[4.819,-5.127],[4.882,-5.134],[4.896,-5.155],[4.868,-5.155],[4.868,-5.309],[4.77,-5.309],[4.77,-5.288],[4.826,-5.225],[4.819,-5.127]]]},"properties":{"abbr":null,"name":"unnamed sealed face","plate":47,"ap_bregma_mm":-8.3,"index":11}},{"type":"Feature","geometry":{"type":"Polygon","coordinates":[[[3.031,-4.782],[3.052,-4.789],[3.059,-4.81],[3.178,-4.824],[3.235,-4.852],[3.319,-4.916],[3.41,-5.035],[3.445,-5.155],[3.438,-5.401],[3.452,-5.415],[3.466,-5.499],[3.522,-5.619],[3.592,-5.696],[3.606,-5.696],[3.613,-5.717],[3.669,-5.746],[3.81,-5.753],[3.873,-5.731],[3.852,-5.767],[3.613,-5.767],[3.55,-5.682],[3.473,-5.696],[3.529,-5.76],[3.543,-5.76],[3.746,-5.935],[3.732,-5.95],[3.676,-5.956],[3.662,-5.956],[3.662,-5.971],[3.676,-5.999],[3.69,-5.999],[3.69,-6.013],[3.641,-6.02],[3.62,-5.978],[3.263,-5.71],[3.2,-5.668],[3.2,-5.654],[2.884,-5.443],[2.884,-5.429],[2.87,-5.429],[2.786,-5.338],[2.779,-5.324],[2.751,-5.134],[2.765,-5.028],[2.793,-4.951],[2.828,-4.916],[2.835,-4.88],[2.912,-4.81],[2.989,-4.775],[3.031,-4.782]]]},"properties":{"abbr":null,"name":"unnamed sealed face","plate":47,"ap_bregma_mm":-8.3,"index":12}},{"type":"Feature","geometry":{"type":"Polygon","coordinates":[[[3.214,-5.134],[3.2,-5.183],[3.227,-5.218],[3.249,-5.288],[3.263,-5.464],[3.27,-5.478],[3.298,-5.478],[3.375,-5.359],[3.382,-5.302],[3.27,-5.183],[3.27,-5.169],[3.214,-5.134]]]},"properties":{"abbr":null,"name":"unnamed sealed face","plate":47,"ap_bregma_mm":-8.3,"index":13}},{"type":"Feature","geometry":{"type":"Polygon","coordinates":[[[4.679,-5.0],[4.63,-4.993],[4.483,-4.93],[4.3,-4.923],[4.139,-4.887],[4.027,-4.838],[4.02,-4.81],[4.076,-4.803],[4.314,-4.866],[4.567,-4.873],[4.665,-4.944],[4.679,-5.0]]]},"properties":{"abbr":null,"name":"unnamed sealed face","plate":47,"ap_bregma_mm":-8.3,"index":14}},{"type":"Feature","geometry":{"type":"Polygon","coordinates":[[[-2.746,-4.972],[-2.718,-5.042],[-2.697,-5.07],[-2.669,-5.077],[-2.683,-5.281],[-2.718,-5.359],[-2.718,-5.408],[-2.746,-5.415],[-2.858,-5.535],[-2.914,-5.563],[-2.922,-5.408],[-2.935,-5.387],[-2.956,-5.387],[-3.02,-5.464],[-3.034,-5.464],[-3.174,-5.598],[-3.216,-5.619],[-3.251,-5.584],[-3.251,-5.556],[-3.167,-5.436],[-3.146,-5.429],[-3.132,-5.394],[-3.083,-5.359],[-3.076,-5.331],[-2.985,-5.232],[-2.943,-5.162],[-2.943,-5.014],[-2.999,-4.951],[-3.013,-4.923],[-2.9,-4.895],[-2.858,-4.887],[-2.837,-4.916],[-2.746,-4.972]]]},"properties":{"abbr":null,"name":"unnamed sealed face","plate":47,"ap_bregma_mm":-8.3,"index":15}},{"type":"Feature","geometry":{"type":"Polygon","coordinates":[[[-3.013,-4.923],[-2.999,-4.951],[-3.048,-4.986],[-3.139,-5.113],[-3.153,-5.113],[-3.237,-5.204],[-3.335,-5.267],[-3.342,-5.204],[-3.314,-5.141],[-3.132,-4.965],[-3.062,-4.93],[-3.013,-4.923]]]},"properties":{"abbr":null,"name":"unnamed sealed face","plate":47,"ap_bregma_mm":-8.3,"index":16}},{"type":"Feature","geometry":{"type":"Polygon","coordinates":[[[-3.342,-5.499],[-3.321,-5.499],[-3.3,-5.535],[-3.293,-5.682],[-3.426,-5.823],[-3.468,-5.844],[-3.468,-5.858],[-3.651,-5.95],[-3.672,-5.978],[-3.672,-6.006],[-3.693,-6.013],[-3.7,-5.971],[-3.672,-5.935],[-3.658,-5.935],[-3.658,-5.921],[-3.854,-5.893],[-3.686,-5.872],[-3.545,-5.795],[-3.545,-5.781],[-3.482,-5.731],[-3.398,-5.619],[-3.342,-5.499]]]},"properties":{"abbr":null,"name":"unnamed sealed face","plate":47,"ap_bregma_mm":-8.3,"index":17}},{"type":"Feature","geometry":{"type":"Polygon","coordinates":[[[0.956,-6.069],[0.956,-6.083],[0.921,-6.104],[0.809,-6.027],[0.738,-6.02],[0.682,-6.034],[0.689,-5.985],[0.78,-5.914],[0.767,-5.914],[0.746,-5.865],[0.725,-5.879],[0.675,-5.865],[0.675,-5.76],[0.928,-5.76],[0.928,-5.914],[0.844,-5.914],[0.83,-5.935],[0.886,-5.964],[0.928,-6.006],[0.942,-6.062],[0.956,-6.069]]]},"properties":{"abbr":null,"name":"unnamed sealed face","plate":47,"ap_bregma_mm":-8.3,"index":18}},{"type":"Feature","geometry":{"type":"Polygon","coordinates":[[[1.313,-6.252],[1.356,-6.287],[1.356,-6.301],[1.454,-6.364],[1.594,-6.505],[1.615,-6.512],[1.664,-6.582],[1.685,-6.59],[1.706,-6.632],[1.72,-6.632],[1.72,-6.646],[1.755,-6.674],[1.776,-6.73],[1.755,-6.73],[1.741,-6.709],[1.706,-6.695],[1.706,-6.681],[1.643,-6.646],[1.643,-6.632],[1.594,-6.604],[1.496,-6.505],[1.25,-6.308],[1.278,-6.266],[1.313,-6.252]]]},"properties":{"abbr":null,"name":"unnamed sealed face","plate":47,"ap_bregma_mm":-8.3,"index":19}},{"type":"Feature","geometry":{"type":"Polygon","coordinates":[[[-0.005,-6.716],[0.044,-6.716],[0.044,-7.426],[-0.054,-7.426],[-0.04,-7.18],[-0.026,-6.765],[-0.005,-6.716]]]},"properties":{"abbr":null,"name":"unnamed sealed face","plate":47,"ap_bregma_mm":-8.3,"index":20}},{"type":"Feature","geometry":{"type":"Polygon","coordinates":[[[1.741,-8.088],[1.755,-8.095],[1.741,-8.172],[1.657,-8.285],[1.643,-8.285],[1.615,-8.327],[1.51,-8.411],[1.482,-8.425],[1.454,-8.425],[1.44,-8.411],[1.44,-8.397],[1.517,-8.277],[1.622,-8.186],[1.629,-8.151],[1.741,-8.088]]]},"properties":{"abbr":null,"name":"unnamed sealed face","plate":47,"ap_bregma_mm":-8.3,"index":21}},{"type":"Feature","geometry":{"type":"Polygon","coordinates":[[[1.496,-8.524],[1.594,-8.657],[1.615,-8.65],[1.664,-8.58],[1.832,-8.58],[1.832,-8.742],[1.762,-8.707],[1.762,-8.692],[1.727,-8.671],[1.664,-8.742],[1.657,-8.657],[1.643,-8.664],[1.622,-8.742],[1.573,-8.664],[1.559,-8.678],[1.552,-8.742],[1.517,-8.7],[1.489,-8.707],[1.454,-8.742],[1.419,-8.664],[1.39,-8.622],[1.377,-8.622],[1.306,-8.685],[1.152,-8.784],[0.767,-8.861],[0.767,-8.84],[0.837,-8.805],[0.984,-8.77],[1.145,-8.756],[1.215,-8.721],[1.236,-8.685],[1.299,-8.657],[1.363,-8.601],[1.496,-8.524]]]},"properties":{"abbr":null,"name":"unnamed sealed face","plate":47,"ap_bregma_mm":-8.3,"index":22}},{"type":"Feature","geometry":{"type":"Polygon","coordinates":[[[-0.944,-8.833],[-0.972,-8.882],[-1.042,-8.819],[-1.057,-8.819],[-1.085,-8.868],[-1.112,-8.805],[-1.337,-8.7],[-1.337,-8.692],[-1.309,-8.692],[-1.309,-8.629],[-1.295,-8.629],[-1.281,-8.594],[-1.211,-8.601],[-1.162,-8.601],[-1.07,-8.573],[-1.014,-8.721],[-1.035,-8.798],[-0.944,-8.833]]]},"properties":{"abbr":null,"name":"unnamed sealed face","plate":47,"ap_bregma_mm":-8.3,"index":23}},{"type":"Feature","geometry":{"type":"MultiPolygon","coordinates":[[[[-1.07,-0.725],[-1.035,-0.778],[-0.912,-0.778],[-0.86,-0.725],[-0.842,-0.884],[-0.684,-0.796],[-0.368,-0.778],[-0.403,-0.743],[0.439,-0.725],[1.07,-0.866],[1.281,-0.989],[1.614,-0.884],[1.912,-0.936],[2.263,-0.901],[2.491,-0.989],[2.982,-1.024],[3.281,-1.201],[3.386,-1.201],[3.333,-1.218],[3.474,-1.341],[3.754,-1.359],[4.158,-1.57],[4.404,-1.764],[4.368,-1.782],[4.579,-2.063],[4.614,-2.257],[4.597,-2.679],[4.333,-2.996],[4.333,-3.102],[4.491,-3.243],[4.597,-3.489],[4.702,-3.436],[4.842,-3.454],[4.895,-3.472],[4.86,-3.507],[5.018,-3.542],[5.211,-3.683],[5.456,-4.528],[5.439,-4.722],[5.351,-4.88],[5.14,-5.074],[4.947,-5.162],[4.86,-5.144],[4.86,-5.303],[4.754,-5.303],[4.632,-5.461],[3.982,-5.62],[3.842,-5.76],[3.614,-5.76],[3.544,-5.672],[3.456,-5.69],[3.737,-5.936],[3.667,-5.954],[3.772,-6.113],[3.825,-6.57],[4.0,-7.081],[3.895,-7.151],[3.702,-7.151],[3.474,-7.046],[3.193,-6.817],[3.158,-6.87],[3.105,-6.834],[2.93,-6.887],[2.614,-7.239],[2.193,-7.891],[2.0,-8.067],[2.017,-8.225],[2.07,-8.208],[2.053,-8.102],[2.088,-8.172],[2.158,-8.067],[2.246,-8.137],[2.281,-8.084],[2.333,-8.102],[2.333,-8.225],[2.193,-8.172],[2.158,-8.243],[2.14,-8.12],[2.105,-8.243],[1.982,-8.243],[1.965,-8.137],[1.789,-8.278],[1.825,-8.348],[2.105,-8.331],[2.14,-8.454],[2.053,-8.489],[2.017,-8.348],[2.0,-8.489],[1.947,-8.348],[1.93,-8.472],[1.877,-8.419],[1.86,-8.489],[1.772,-8.489],[1.702,-8.384],[1.491,-8.525],[1.596,-8.665],[1.667,-8.577],[1.825,-8.577],[1.825,-8.736],[1.719,-8.665],[1.667,-8.736],[1.649,-8.63],[1.614,-8.736],[1.561,-8.648],[1.544,-8.736],[1.509,-8.683],[1.456,-8.736],[1.386,-8.613],[1.158,-8.771],[0.737,-8.859],[0.509,-9.0],[0.158,-8.859],[0.053,-8.753],[-0.088,-8.753],[-0.175,-8.912],[-0.193,-8.877],[-0.368,-9.0],[-0.702,-8.947],[-0.947,-8.824],[-0.982,-8.877],[-1.053,-8.806],[-1.088,-8.859],[-1.105,-8.806],[-1.368,-8.683],[-1.439,-8.841],[-1.509,-8.753],[-1.579,-8.841],[-1.614,-8.771],[-1.649,-8.841],[-1.702,-8.718],[-1.702,-8.824],[-1.825,-8.841],[-1.807,-8.683],[-1.772,-8.771],[-1.737,-8.683],[-1.684,-8.683],[-1.649,-8.771],[-1.614,-8.683],[-1.491,-8.718],[-1.544,-8.56],[-1.702,-8.472],[-1.754,-8.577],[-1.825,-8.577],[-1.86,-8.454],[-1.895,-8.577],[-1.93,-8.454],[-1.947,-8.577],[-2.0,-8.507],[-2.018,-8.577],[-2.123,-8.577],[-2.123,-8.436],[-2.105,-8.542],[-2.053,-8.56],[-2.035,-8.436],[-1.737,-8.436],[-1.754,-8.331],[-1.86,-8.243],[-1.965,-8.243],[-1.895,-8.208],[-1.965,-8.172],[-2.018,-8.313],[-2.07,-8.313],[-2.105,-8.225],[-2.193,-8.313],[-2.211,-8.208],[-2.263,-8.331],[-2.298,-8.172],[-2.246,-8.243],[-2.228,-8.172],[-2.088,-8.19],[-1.982,-8.137],[-2.088,-8.084],[-2.351,-7.697],[-2.684,-7.415],[-2.947,-6.958],[-3.14,-6.764],[-3.211,-6.799],[-3.281,-6.993],[-3.246,-7.028],[-3.509,-7.274],[-3.807,-7.398],[-4.07,-7.31],[-4.088,-7.222],[-3.947,-7.081],[-3.965,-7.01],[-3.93,-7.046],[-3.86,-6.958],[-3.772,-6.746],[-3.86,-6.341],[-3.737,-6.183],[-3.737,-6.06],[-3.684,-6.042],[-3.702,-5.972],[-3.649,-5.919],[-4.035,-5.866],[-4.403,-5.743],[-4.842,-5.461],[-4.877,-5.391],[-4.807,-5.215],[-4.684,-5.197],[-4.684,-5.144],[-4.193,-5.109],[-4.123,-4.95],[-4.544,-5.003],[-4.93,-5.197],[-5.0,-5.179],[-5.123,-5.056],[-5.193,-4.845],[-5.193,-4.634],[-5.281,-4.493],[-5.281,-4.246],[-5.228,-3.947],[-5.123,-3.718],[-4.719,-3.366],[-4.737,-3.331],[-4.386,-3.19],[-4.281,-3.63],[-4.263,-3.243],[-4.123,-3.067],[-4.07,-2.82],[-4.193,-2.767],[-4.298,-2.591],[-4.316,-2.257],[-4.123,-1.852],[-3.93,-1.641],[-3.772,-1.535],[-3.597,-1.553],[-3.509,-1.359],[-3.211,-1.218],[-2.526,-1.077],[-2.368,-0.954],[-2.175,-0.901],[-2.193,-0.866],[-1.789,-0.848],[-1.632,-0.954],[-1.614,-0.884],[-1.211,-0.884],[-1.14,-0.831],[-1.158,-0.778],[-1.07,-0.743],[-1.07,-0.725]]]]},"properties":{"abbr":"brain_outline","name":"outline of the section","plate":47,"ap_bregma_mm":-8.3}}]}
