{"type":"FeatureCollection","name":"GerbilAtlas plate 61","note":"Region extents cut from the atlas drawing (METHODS.md, Region extents). Coordinates are [ML, DV] in mm, ML positive to the right of the plate as printed, DV negative below the dorsal surface; AP is the plate bregma. traced_fraction is the share of each polygon boundary the atlas actually draws; below 0.5 the boundary is an estimate. no_drawn_outline marks a feature that lies only inside boundaries the atlas draws round more than one name and prints nothing within, so the whole of its outline is where the extraction cut it. Not a segmentation.","plate":61,"ap_bregma_mm":-13.2,"features":[{"type":"Feature","geometry":{"type":"MultiPolygon","coordinates":[[[[0.415,-6.863],[0.478,-7.074],[0.499,-7.208],[0.499,-7.299],[0.45,-7.525],[0.45,-7.588],[0.379,-7.637],[0.344,-7.63],[0.323,-7.609],[0.295,-7.503],[0.225,-7.208],[0.225,-7.117],[0.253,-7.067],[0.309,-7.011],[0.365,-6.906],[0.4,-6.878],[0.4,-6.863],[0.415,-6.863]]],[[[-0.315,-6.92],[-0.28,-6.955],[-0.174,-7.11],[-0.21,-7.321],[-0.238,-7.398],[-0.245,-7.489],[-0.28,-7.602],[-0.322,-7.602],[-0.364,-7.567],[-0.413,-7.482],[-0.448,-7.363],[-0.469,-7.335],[-0.476,-7.194],[-0.413,-6.976],[-0.315,-6.92]]]]},"properties":{"abbr":"11N","name":"accessory nerve nucleus","plate":61,"ap_bregma_mm":-13.2,"area_mm2":0.2793,"traced_fraction":[1.0,0.91],"n_labels":2,"no_drawn_outline":false}},{"type":"Feature","geometry":{"type":"MultiPolygon","coordinates":[[[[-0.238,-6.751],[-0.182,-6.751],[-0.104,-6.779],[-0.069,-6.8],[-0.006,-6.878],[0.008,-6.878],[0.008,-6.92],[0.022,-6.934],[0.043,-6.934],[0.043,-6.885],[0.078,-6.885],[0.148,-6.793],[0.204,-6.758],[0.246,-6.751],[0.316,-6.751],[0.337,-6.807],[0.309,-6.892],[0.253,-6.976],[0.225,-7.046],[0.211,-7.046],[0.183,-7.082],[0.127,-7.082],[0.092,-7.039],[0.071,-6.955],[0.043,-6.955],[-0.006,-6.969],[-0.041,-7.06],[-0.069,-7.088],[-0.104,-7.088],[-0.167,-7.032],[-0.245,-6.934],[-0.315,-6.814],[-0.315,-6.779],[-0.28,-6.751],[-0.238,-6.751]]]]},"properties":{"abbr":"CeCv","name":"central cervical nucleus of the spinal cord","plate":61,"ap_bregma_mm":-13.2,"area_mm2":0.1306,"traced_fraction":[1.0],"n_labels":2,"no_drawn_outline":false}},{"type":"Feature","geometry":{"type":"MultiPolygon","coordinates":[[[[0.471,-6.322],[0.548,-6.336],[0.695,-6.329],[0.73,-6.343],[0.695,-6.42],[0.625,-6.519],[0.499,-6.547],[0.337,-6.533],[0.337,-6.519],[0.443,-6.406],[0.457,-6.322],[0.471,-6.322]]]]},"properties":{"abbr":"Cu","name":"cuneate nucleus","plate":61,"ap_bregma_mm":-13.2,"area_mm2":0.0563,"traced_fraction":[0.986],"n_labels":1,"no_drawn_outline":false}},{"type":"Feature","geometry":{"type":"MultiPolygon","coordinates":[[[[-0.742,-6.209],[-0.869,-6.195],[-1.1,-6.259],[-1.135,-6.287],[-1.177,-6.294],[-1.184,-6.308],[-1.303,-6.364],[-1.394,-6.434],[-1.5,-6.54],[-1.556,-6.645],[-1.668,-6.624],[-1.752,-6.575],[-1.71,-6.491],[-1.626,-6.533],[-1.563,-6.441],[-1.366,-6.259],[-1.268,-6.195],[-1.002,-6.076],[-0.946,-6.062],[-0.833,-6.076],[-0.777,-6.125],[-0.742,-6.209]]],[[[1.585,-6.519],[1.599,-6.709],[1.613,-6.73],[1.599,-6.913],[1.543,-7.082],[1.445,-7.264],[1.438,-7.328],[1.438,-7.342],[1.277,-7.553],[1.193,-7.546],[1.193,-7.503],[1.235,-7.468],[1.305,-7.37],[1.438,-7.074],[1.494,-6.835],[1.494,-6.688],[1.48,-6.631],[1.403,-6.484],[1.354,-6.434],[1.207,-6.336],[1.017,-6.266],[0.821,-6.266],[0.821,-6.244],[0.919,-6.16],[0.996,-6.125],[1.088,-6.125],[1.2,-6.174],[1.445,-6.343],[1.585,-6.519]]]]},"properties":{"abbr":"Ge5","name":"gelatinous layer of the caudal spinal trigeminal nucleus","plate":61,"ap_bregma_mm":-13.2,"area_mm2":0.3541,"traced_fraction":[0.946,0.996],"n_labels":2,"no_drawn_outline":false}},{"type":"Feature","geometry":{"type":"MultiPolygon","coordinates":[[[[0.085,-6.097],[0.071,-6.16],[0.071,-6.357],[0.057,-6.463],[-0.034,-6.463],[-0.069,-6.392],[-0.076,-6.35],[-0.146,-6.216],[-0.167,-6.118],[0.015,-6.069],[0.085,-6.097]]]]},"properties":{"abbr":"Gr","name":"gracile nucleus","plate":61,"ap_bregma_mm":-13.2,"area_mm2":0.0679,"traced_fraction":[0.969],"n_labels":1,"no_drawn_outline":false}},{"type":"Feature","geometry":{"type":"MultiPolygon","coordinates":[[[[0.625,-6.519],[0.618,-6.561],[0.562,-6.645],[0.548,-6.695],[0.59,-6.73],[0.716,-6.779],[0.744,-6.807],[0.716,-6.828],[0.688,-6.892],[0.569,-6.814],[0.471,-6.772],[0.436,-6.772],[0.422,-6.786],[0.415,-6.863],[0.4,-6.863],[0.4,-6.878],[0.365,-6.906],[0.309,-7.011],[0.253,-7.067],[0.225,-7.046],[0.253,-6.976],[0.309,-6.892],[0.337,-6.807],[0.316,-6.751],[0.246,-6.751],[0.239,-6.554],[0.337,-6.533],[0.499,-6.547],[0.625,-6.519]]],[[[-0.245,-6.54],[-0.238,-6.751],[-0.28,-6.751],[-0.315,-6.779],[-0.315,-6.814],[-0.245,-6.934],[-0.28,-6.955],[-0.315,-6.92],[-0.357,-6.863],[-0.378,-6.786],[-0.42,-6.758],[-0.574,-6.786],[-0.707,-6.856],[-0.714,-6.842],[-0.721,-6.835],[-0.728,-6.821],[-0.749,-6.779],[-0.658,-6.73],[-0.434,-6.688],[-0.476,-6.547],[-0.308,-6.554],[-0.245,-6.54]]]]},"properties":{"abbr":"IB","name":"interstitial nucleus of the medulla","plate":61,"ap_bregma_mm":-13.2,"area_mm2":0.1963,"traced_fraction":[0.914,0.896],"n_labels":2,"no_drawn_outline":false}},{"type":"Feature","geometry":{"type":"MultiPolygon","coordinates":[[[[-0.763,-6.793],[-0.728,-6.821],[-0.721,-6.835],[-0.714,-6.842],[-0.707,-6.856],[-0.714,-6.955],[-0.89,-6.955],[-0.911,-6.885],[-0.911,-6.807],[-0.805,-6.807],[-0.791,-6.793],[-0.763,-6.793]]],[[[0.744,-6.807],[0.765,-6.807],[0.779,-6.828],[0.891,-6.828],[0.891,-6.913],[0.884,-6.913],[0.87,-6.899],[0.863,-6.92],[0.856,-6.927],[0.849,-6.934],[0.842,-6.941],[0.835,-6.948],[0.828,-6.955],[0.821,-6.962],[0.807,-6.983],[0.709,-6.983],[0.709,-6.92],[0.688,-6.892],[0.716,-6.828],[0.744,-6.807]]]]},"properties":{"abbr":"IRt","name":"intermediate reticular nucleus","plate":61,"ap_bregma_mm":-13.2,"area_mm2":0.0546,"traced_fraction":[0.294,0.444],"n_labels":2,"no_drawn_outline":true}},{"type":"Feature","geometry":{"type":"MultiPolygon","coordinates":[[[[0.786,-6.315],[0.8,-6.371],[0.856,-6.427],[0.919,-6.456],[1.074,-6.568],[1.144,-6.645],[1.179,-6.716],[1.207,-6.878],[1.137,-7.243],[1.123,-7.243],[1.067,-7.18],[0.975,-7.011],[0.891,-6.913],[0.891,-6.828],[0.779,-6.828],[0.765,-6.807],[0.744,-6.807],[0.716,-6.779],[0.632,-6.751],[0.548,-6.695],[0.562,-6.645],[0.618,-6.561],[0.625,-6.519],[0.674,-6.456],[0.73,-6.343],[0.751,-6.322],[0.786,-6.315]]],[[[-0.637,-6.329],[-0.602,-6.343],[-0.588,-6.392],[-0.574,-6.392],[-0.574,-6.343],[-0.392,-6.343],[-0.364,-6.406],[-0.329,-6.441],[-0.238,-6.491],[-0.238,-6.505],[-0.224,-6.526],[-0.245,-6.54],[-0.308,-6.554],[-0.476,-6.547],[-0.434,-6.688],[-0.658,-6.73],[-0.749,-6.779],[-0.763,-6.779],[-0.763,-6.793],[-0.791,-6.793],[-0.805,-6.807],[-0.911,-6.807],[-0.911,-6.885],[-0.932,-6.885],[-0.946,-6.906],[-0.981,-6.92],[-1.107,-7.046],[-1.198,-7.166],[-1.219,-7.166],[-1.275,-6.99],[-1.289,-6.863],[-1.247,-6.709],[-1.219,-6.681],[-1.212,-6.652],[-1.072,-6.526],[-0.925,-6.448],[-0.637,-6.329]]]]},"properties":{"abbr":"MdD","name":"medullary reticular nucleus, dorsal part","plate":61,"ap_bregma_mm":-13.2,"area_mm2":0.6472,"traced_fraction":[0.929,0.943],"n_labels":2,"no_drawn_outline":false}},{"type":"Feature","geometry":{"type":"MultiPolygon","coordinates":[[[[-0.315,-6.92],[-0.413,-6.976],[-0.476,-7.194],[-0.469,-7.335],[-0.448,-7.363],[-0.413,-7.482],[-0.364,-7.567],[-0.49,-7.567],[-0.553,-7.546],[-0.714,-7.461],[-0.756,-7.426],[-0.932,-7.342],[-1.009,-7.307],[-1.107,-7.307],[-1.121,-7.271],[-1.093,-7.222],[-1.016,-7.124],[-0.883,-6.99],[-0.883,-6.976],[-0.89,-6.969],[-0.89,-6.955],[-0.714,-6.955],[-0.707,-6.856],[-0.574,-6.786],[-0.42,-6.758],[-0.378,-6.786],[-0.357,-6.863],[-0.315,-6.92]]],[[[0.688,-6.892],[0.709,-6.92],[0.709,-6.983],[0.807,-6.983],[0.814,-7.011],[0.912,-7.117],[1.004,-7.299],[1.032,-7.391],[1.032,-7.51],[0.983,-7.489],[0.933,-7.489],[0.821,-7.525],[0.618,-7.581],[0.45,-7.588],[0.45,-7.525],[0.499,-7.299],[0.499,-7.208],[0.478,-7.074],[0.415,-6.863],[0.422,-6.786],[0.436,-6.772],[0.471,-6.772],[0.569,-6.814],[0.688,-6.892]]]]},"properties":{"abbr":"MdV","name":"medullary reticular nucleus, ventral part","plate":61,"ap_bregma_mm":-13.2,"area_mm2":0.6566,"traced_fraction":[0.881,0.944],"n_labels":2,"no_drawn_outline":false}},{"type":"Feature","geometry":{"type":"MultiPolygon","coordinates":[[[[-0.034,-6.463],[0.057,-6.463],[0.099,-6.491],[0.155,-6.491],[0.197,-6.547],[0.225,-6.554],[0.218,-6.631],[0.19,-6.631],[0.19,-6.617],[-0.09,-6.617],[-0.09,-6.533],[-0.041,-6.512],[-0.034,-6.463]]]]},"properties":{"abbr":"MnA","name":"median accessory nucleus of the medulla","plate":61,"ap_bregma_mm":-13.2,"area_mm2":0.0389,"traced_fraction":[0.478],"n_labels":1,"no_drawn_outline":true}},{"type":"Feature","geometry":{"type":"MultiPolygon","coordinates":[[[[-0.21,-6.519],[-0.09,-6.533],[-0.09,-6.617],[0.19,-6.617],[0.19,-6.631],[0.218,-6.631],[0.225,-6.554],[0.239,-6.554],[0.246,-6.751],[0.204,-6.758],[0.148,-6.793],[0.078,-6.885],[0.043,-6.885],[0.036,-6.878],[0.036,-6.856],[0.022,-6.856],[0.022,-6.878],[0.008,-6.878],[-0.006,-6.878],[-0.013,-6.856],[-0.104,-6.779],[-0.182,-6.751],[-0.238,-6.751],[-0.245,-6.54],[-0.224,-6.526],[-0.21,-6.519]]]]},"properties":{"abbr":"SolC","name":"nucleus of the solitary tract, commissural part","plate":61,"ap_bregma_mm":-13.2,"area_mm2":0.1056,"traced_fraction":[0.582],"n_labels":1,"no_drawn_outline":true}},{"type":"Feature","geometry":{"type":"MultiPolygon","coordinates":[[[[-0.742,-6.209],[-0.637,-6.329],[-0.925,-6.448],[-1.072,-6.526],[-1.212,-6.652],[-1.219,-6.681],[-1.247,-6.709],[-1.289,-6.863],[-1.275,-6.99],[-1.219,-7.166],[-1.226,-7.25],[-1.247,-7.271],[-1.296,-7.271],[-1.43,-7.159],[-1.521,-7.025],[-1.577,-6.899],[-1.584,-6.807],[-1.689,-6.828],[-1.71,-6.737],[-1.689,-6.652],[-1.668,-6.624],[-1.556,-6.645],[-1.5,-6.54],[-1.394,-6.434],[-1.303,-6.364],[-1.247,-6.343],[-1.177,-6.294],[-1.135,-6.287],[-1.1,-6.259],[-0.869,-6.195],[-0.742,-6.209]]],[[[1.193,-7.503],[1.144,-7.475],[1.13,-7.419],[1.123,-7.328],[1.137,-7.243],[1.207,-6.878],[1.179,-6.716],[1.144,-6.645],[1.074,-6.568],[0.919,-6.456],[0.856,-6.427],[0.8,-6.371],[0.786,-6.315],[0.821,-6.266],[1.017,-6.266],[1.207,-6.336],[1.249,-6.371],[1.27,-6.371],[1.403,-6.484],[1.48,-6.631],[1.494,-6.688],[1.494,-6.835],[1.438,-7.074],[1.305,-7.37],[1.235,-7.468],[1.193,-7.503]]]]},"properties":{"abbr":"Sp5C","name":"spinal trigeminal nucleus, caudal part","plate":61,"ap_bregma_mm":-13.2,"area_mm2":0.7413,"traced_fraction":[0.956,0.995],"n_labels":2,"no_drawn_outline":false}},{"type":"Feature","geometry":{"type":"MultiPolygon","coordinates":[[[[-0.167,-6.118],[-0.146,-6.216],[-0.076,-6.35],[-0.069,-6.392],[-0.111,-6.392],[-0.167,-6.343],[-0.28,-6.294],[-0.329,-6.294],[-0.392,-6.343],[-0.574,-6.343],[-0.602,-6.343],[-0.637,-6.329],[-0.742,-6.209],[-0.777,-6.125],[-0.833,-6.076],[-0.89,-6.062],[-1.002,-6.076],[-1.268,-6.195],[-1.366,-6.259],[-1.563,-6.441],[-1.626,-6.533],[-1.71,-6.491],[-1.661,-6.406],[-1.591,-6.35],[-1.514,-6.259],[-1.401,-6.181],[-1.373,-6.146],[-1.135,-6.019],[-0.967,-5.977],[-0.721,-5.977],[-0.406,-6.027],[-0.21,-6.118],[-0.167,-6.118]]],[[[1.67,-6.512],[1.585,-6.519],[1.445,-6.343],[1.2,-6.174],[1.088,-6.125],[0.996,-6.125],[0.919,-6.16],[0.821,-6.244],[0.821,-6.266],[0.786,-6.315],[0.765,-6.315],[0.73,-6.343],[0.695,-6.329],[0.548,-6.336],[0.471,-6.322],[0.443,-6.273],[0.394,-6.273],[0.288,-6.336],[0.239,-6.392],[0.204,-6.378],[0.239,-6.287],[0.253,-6.202],[0.274,-6.188],[0.281,-6.16],[0.323,-6.139],[0.379,-6.083],[0.492,-6.034],[0.541,-6.027],[0.814,-5.998],[0.947,-5.998],[1.06,-6.005],[1.207,-6.041],[1.382,-6.132],[1.536,-6.273],[1.606,-6.385],[1.627,-6.399],[1.67,-6.512]]]]},"properties":{"abbr":"cu","name":"cuneate fasciculus","plate":61,"ap_bregma_mm":-13.2,"area_mm2":0.564,"traced_fraction":[0.993,0.994],"n_labels":2,"no_drawn_outline":false}},{"type":"Feature","geometry":{"type":"MultiPolygon","coordinates":[[[[0.471,-6.322],[0.457,-6.322],[0.443,-6.406],[0.337,-6.519],[0.337,-6.533],[0.239,-6.554],[0.225,-6.554],[0.197,-6.547],[0.155,-6.491],[0.162,-6.448],[0.204,-6.378],[0.239,-6.392],[0.288,-6.336],[0.394,-6.273],[0.443,-6.273],[0.471,-6.322]]],[[[-0.069,-6.392],[-0.034,-6.463],[-0.041,-6.512],[-0.09,-6.533],[-0.21,-6.519],[-0.216,-6.505],[-0.238,-6.505],[-0.238,-6.491],[-0.287,-6.47],[-0.364,-6.406],[-0.392,-6.343],[-0.329,-6.294],[-0.28,-6.294],[-0.167,-6.343],[-0.111,-6.392],[-0.069,-6.392]]]]},"properties":{"abbr":"dcs","name":"dorsal corticospinal tract","plate":61,"ap_bregma_mm":-13.2,"area_mm2":0.1023,"traced_fraction":[1.0,0.963],"n_labels":2,"no_drawn_outline":false}},{"type":"Feature","geometry":{"type":"MultiPolygon","coordinates":[[[[-0.932,-7.342],[-0.946,-7.637],[-0.981,-7.637],[-0.981,-7.785],[-1.072,-7.729],[-1.156,-7.637],[-1.324,-7.503],[-1.324,-7.489],[-1.205,-7.37],[-1.107,-7.307],[-1.044,-7.299],[-0.932,-7.342]]],[[[1.032,-7.51],[1.046,-7.546],[1.06,-7.546],[1.088,-7.581],[1.109,-7.644],[1.144,-7.693],[0.968,-7.848],[0.835,-7.911],[0.821,-7.525],[0.933,-7.489],[0.983,-7.489],[1.032,-7.51]]]]},"properties":{"abbr":"dsc","name":"dorsal spinocerebellar tract","plate":61,"ap_bregma_mm":-13.2,"area_mm2":0.2018,"traced_fraction":[0.679,0.726],"n_labels":2,"no_drawn_outline":true}},{"type":"Feature","geometry":{"type":"MultiPolygon","coordinates":[[[[-0.245,-7.489],[-0.006,-7.489],[-0.006,-7.623],[0.008,-7.651],[-0.245,-7.644],[-0.28,-7.602],[-0.245,-7.489]]],[[[0.295,-7.503],[0.323,-7.609],[0.344,-7.63],[0.316,-7.651],[0.036,-7.651],[0.036,-7.637],[0.085,-7.595],[0.085,-7.503],[0.295,-7.503]]]]},"properties":{"abbr":"mlf","name":"medial longitudinal fasciculus","plate":61,"ap_bregma_mm":-13.2,"area_mm2":0.0764,"traced_fraction":[0.24,0.295],"n_labels":2,"no_drawn_outline":true}},{"type":"Feature","geometry":{"type":"MultiPolygon","coordinates":[[[[-0.245,-6.934],[-0.167,-7.032],[-0.104,-7.088],[-0.069,-7.088],[-0.041,-7.06],[-0.006,-6.969],[0.043,-6.955],[0.071,-6.955],[0.092,-7.039],[0.127,-7.082],[0.183,-7.082],[0.211,-7.046],[0.225,-7.046],[0.253,-7.067],[0.225,-7.117],[0.225,-7.208],[0.295,-7.503],[0.085,-7.503],[0.085,-7.595],[0.036,-7.637],[0.036,-7.651],[0.008,-7.651],[-0.006,-7.623],[-0.006,-7.489],[-0.245,-7.489],[-0.238,-7.398],[-0.21,-7.321],[-0.174,-7.11],[-0.28,-6.955],[-0.245,-6.934]]]]},"properties":{"abbr":"pyx","name":"pyramidal decussation","plate":61,"ap_bregma_mm":-13.2,"area_mm2":0.2265,"traced_fraction":[0.701],"n_labels":1,"no_drawn_outline":true}},{"type":"Feature","geometry":{"type":"MultiPolygon","coordinates":[[[[-0.946,-6.906],[-0.904,-6.955],[-0.89,-6.955],[-0.89,-6.969],[-0.883,-6.976],[-0.883,-6.99],[-1.016,-7.124],[-1.093,-7.222],[-1.121,-7.271],[-1.107,-7.307],[-1.205,-7.37],[-1.324,-7.489],[-1.324,-7.503],[-1.464,-7.398],[-1.619,-7.229],[-1.661,-7.138],[-1.71,-7.074],[-1.745,-6.976],[-1.654,-6.962],[-1.619,-7.053],[-1.556,-7.152],[-1.451,-7.264],[-1.437,-7.264],[-1.437,-7.278],[-1.324,-7.342],[-1.296,-7.271],[-1.247,-7.271],[-1.226,-7.25],[-1.219,-7.166],[-1.198,-7.166],[-1.107,-7.046],[-0.981,-6.92],[-0.946,-6.906]]],[[[0.884,-6.913],[0.891,-6.913],[0.975,-7.011],[1.067,-7.18],[1.123,-7.243],[1.137,-7.243],[1.123,-7.328],[1.13,-7.419],[1.144,-7.475],[1.193,-7.503],[1.193,-7.546],[1.277,-7.553],[1.221,-7.637],[1.144,-7.693],[1.123,-7.672],[1.088,-7.581],[1.06,-7.546],[1.046,-7.546],[1.032,-7.51],[1.032,-7.391],[1.004,-7.299],[0.912,-7.117],[0.814,-7.011],[0.807,-6.983],[0.821,-6.962],[0.828,-6.955],[0.835,-6.948],[0.842,-6.941],[0.849,-6.934],[0.856,-6.927],[0.863,-6.92],[0.884,-6.913]]]]},"properties":{"abbr":"rs","name":"rubrospinal tract","plate":61,"ap_bregma_mm":-13.2,"area_mm2":0.2323,"traced_fraction":[0.949,0.96],"n_labels":2,"no_drawn_outline":false}},{"type":"Feature","geometry":{"type":"MultiPolygon","coordinates":[[[[1.67,-6.512],[1.698,-6.681],[1.691,-6.892],[1.67,-6.976],[1.592,-7.145],[1.543,-7.208],[1.515,-7.271],[1.445,-7.335],[1.438,-7.328],[1.445,-7.264],[1.543,-7.082],[1.599,-6.913],[1.613,-6.73],[1.599,-6.709],[1.585,-6.519],[1.67,-6.512]]],[[[-1.752,-6.575],[-1.668,-6.624],[-1.689,-6.652],[-1.71,-6.737],[-1.689,-6.828],[-1.654,-6.962],[-1.745,-6.976],[-1.78,-6.899],[-1.787,-6.793],[-1.787,-6.674],[-1.773,-6.603],[-1.752,-6.575]]]]},"properties":{"abbr":"sp5","name":"spinal trigeminal tract","plate":61,"ap_bregma_mm":-13.2,"area_mm2":0.1026,"traced_fraction":[0.989,0.95],"n_labels":2,"no_drawn_outline":false}},{"type":"Feature","geometry":{"type":"MultiPolygon","coordinates":[[[[-0.322,-7.602],[-0.28,-7.602],[-0.245,-7.644],[0.008,-7.651],[0.036,-7.651],[0.316,-7.651],[0.344,-7.63],[0.379,-7.637],[0.386,-8.01],[0.169,-7.996],[0.071,-7.954],[0.05,-7.904],[0.043,-7.799],[0.008,-7.771],[-0.006,-7.975],[-0.069,-8.017],[-0.336,-8.017],[-0.322,-7.602]]]]},"properties":{"abbr":"ts","name":"tectospinal tract","plate":61,"ap_bregma_mm":-13.2,"area_mm2":0.2439,"traced_fraction":[0.545],"n_labels":2,"no_drawn_outline":true}},{"type":"Feature","geometry":{"type":"MultiPolygon","coordinates":[[[[-0.932,-7.342],[-0.756,-7.426],[-0.714,-7.461],[-0.553,-7.546],[-0.49,-7.567],[-0.364,-7.567],[-0.322,-7.602],[-0.336,-8.017],[-0.553,-7.982],[-0.707,-7.939],[-0.939,-7.82],[-0.981,-7.785],[-0.981,-7.637],[-0.946,-7.637],[-0.932,-7.342]]],[[[0.821,-7.525],[0.835,-7.911],[0.66,-7.982],[0.555,-8.003],[0.386,-8.01],[0.379,-7.637],[0.45,-7.588],[0.618,-7.581],[0.821,-7.525]]]]},"properties":{"abbr":"vsc","name":"ventral spinocerebellar tract","plate":61,"ap_bregma_mm":-13.2,"area_mm2":0.4682,"traced_fraction":[0.656,0.626],"n_labels":2,"no_drawn_outline":true}},{"type":"Feature","geometry":{"type":"Polygon","coordinates":[[[0.085,-6.097],[0.155,-6.104],[0.211,-6.153],[0.281,-6.16],[0.274,-6.188],[0.253,-6.202],[0.239,-6.287],[0.204,-6.378],[0.162,-6.448],[0.155,-6.491],[0.099,-6.491],[0.057,-6.463],[0.071,-6.357],[0.071,-6.16],[0.085,-6.097]]]},"properties":{"abbr":null,"name":"unnamed sealed face","plate":61,"ap_bregma_mm":-13.2,"index":0}},{"type":"Feature","geometry":{"type":"Polygon","coordinates":[[[-1.296,-7.271],[-1.324,-7.342],[-1.437,-7.278],[-1.437,-7.264],[-1.451,-7.264],[-1.556,-7.152],[-1.619,-7.053],[-1.654,-6.962],[-1.689,-6.828],[-1.584,-6.807],[-1.577,-6.899],[-1.521,-7.025],[-1.43,-7.159],[-1.296,-7.271]]]},"properties":{"abbr":null,"name":"unnamed sealed face","plate":61,"ap_bregma_mm":-13.2,"index":1}},{"type":"Feature","geometry":{"type":"MultiPolygon","coordinates":[[[[-0.083,-8.01],[-0.28,-8.017],[-0.539,-7.975],[-0.7,-7.933],[-0.925,-7.82],[-1.079,-7.714],[-1.198,-7.602],[-1.479,-7.377],[-1.612,-7.229],[-1.731,-7.025],[-1.78,-6.885],[-1.787,-6.688],[-1.773,-6.61],[-1.696,-6.456],[-1.654,-6.399],[-1.464,-6.216],[-1.317,-6.111],[-1.128,-6.019],[-0.953,-5.977],[-0.749,-5.977],[-0.385,-6.034],[-0.203,-6.118],[-0.161,-6.118],[0.022,-6.069],[0.085,-6.097],[0.148,-6.104],[0.211,-6.153],[0.288,-6.16],[0.379,-6.083],[0.499,-6.034],[0.849,-5.998],[1.038,-6.005],[1.221,-6.048],[1.382,-6.139],[1.522,-6.266],[1.627,-6.413],[1.676,-6.554],[1.691,-6.723],[1.684,-6.878],[1.655,-6.983],[1.599,-7.11],[1.501,-7.271],[1.424,-7.349],[1.207,-7.637],[0.968,-7.834],[0.828,-7.911],[0.674,-7.968],[0.534,-7.996],[0.281,-8.003],[0.141,-7.982],[0.078,-7.947],[-0.027,-7.975],[-0.062,-8.003],[-0.083,-8.01]]]]},"properties":{"abbr":"brain_outline","name":"outline of the section","plate":61,"ap_bregma_mm":-13.2}}]}
