{"type":"FeatureCollection","name":"GerbilAtlas plate 56","note":"Region extents cut from the atlas drawing (METHODS.md, Region extents). Coordinates are [ML, DV] in mm, ML positive to the right of the plate as printed, DV negative below the dorsal surface; AP is the plate bregma. traced_fraction is the share of each polygon boundary the atlas actually draws; below 0.5 the boundary is an estimate. no_drawn_outline marks a feature that lies only inside boundaries the atlas draws round more than one name and prints nothing within, so the whole of its outline is where the extraction cut it. Not a segmentation.","plate":56,"ap_bregma_mm":-11.45,"features":[{"type":"Feature","geometry":{"type":"MultiPolygon","coordinates":[[[[0.358,-6.162],[0.259,-6.162],[0.175,-6.134],[0.154,-6.113],[0.147,-6.078],[0.28,-5.993],[0.337,-5.979],[0.421,-5.986],[0.477,-6.028],[0.491,-6.049],[0.491,-6.092],[0.449,-6.12],[0.365,-6.141],[0.358,-6.162]]],[[[-0.098,-6.042],[-0.098,-6.085],[-0.133,-6.127],[-0.238,-6.148],[-0.337,-6.148],[-0.4,-6.12],[-0.428,-6.085],[-0.428,-6.056],[-0.4,-6.028],[-0.315,-6.0],[-0.224,-6.0],[-0.161,-6.021],[-0.154,-6.035],[-0.098,-6.042]]]]},"properties":{"abbr":"10N","name":"dorsal motor nucleus of vagus","plate":56,"ap_bregma_mm":-11.45,"area_mm2":0.0832,"traced_fraction":[1.0,1.0],"n_labels":2,"no_drawn_outline":false}},{"type":"Feature","geometry":{"type":"MultiPolygon","coordinates":[[[[0.259,-6.162],[0.358,-6.162],[0.463,-6.183],[0.505,-6.253],[0.477,-6.281],[0.484,-6.387],[0.442,-6.535],[0.428,-6.556],[0.393,-6.563],[0.365,-6.598],[0.267,-6.612],[0.105,-6.612],[0.042,-6.584],[0.0,-6.584],[-0.063,-6.619],[-0.168,-6.626],[-0.28,-6.591],[-0.343,-6.535],[-0.343,-6.499],[-0.392,-6.373],[-0.4,-6.274],[-0.322,-6.204],[-0.231,-6.176],[-0.161,-6.183],[-0.091,-6.211],[-0.098,-6.281],[-0.014,-6.281],[0.0,-6.317],[0.014,-6.317],[0.035,-6.281],[0.105,-6.281],[0.105,-6.225],[0.147,-6.197],[0.246,-6.176],[0.259,-6.162]]],[[[0.435,-7.231],[0.722,-7.231],[0.722,-7.386],[0.652,-7.386],[0.575,-7.449],[0.554,-7.442],[0.491,-7.358],[0.435,-7.231]]]]},"properties":{"abbr":"12N","name":"hypoglossal nucleus","plate":56,"ap_bregma_mm":-11.45,"area_mm2":0.3717,"traced_fraction":[0.937,0.363],"n_labels":3,"no_drawn_outline":false}},{"type":"Feature","geometry":{"type":"MultiPolygon","coordinates":[[[[-0.371,-7.238],[-0.371,-7.259],[-0.442,-7.379],[-0.47,-7.4],[-0.519,-7.477],[-0.575,-7.519],[-0.631,-7.477],[-0.631,-7.238],[-0.371,-7.238]]]]},"properties":{"abbr":"12n","name":"hypoglossal nerve","plate":56,"ap_bregma_mm":-11.45,"area_mm2":0.0489,"traced_fraction":[0.446],"n_labels":1,"no_drawn_outline":true}},{"type":"Feature","geometry":{"type":"MultiPolygon","coordinates":[[[[-0.077,-1.513],[0.14,-1.513],[0.231,-1.534],[0.267,-1.527],[0.295,-1.534],[0.295,-1.548],[0.477,-1.611],[0.498,-1.625],[0.498,-1.639],[0.519,-1.639],[0.526,-1.647],[0.533,-1.675],[0.554,-1.675],[0.554,-1.759],[0.533,-1.759],[0.533,-1.773],[0.519,-1.773],[0.519,-1.787],[0.491,-1.801],[0.435,-1.872],[-0.133,-1.872],[-0.14,-1.886],[-0.371,-1.886],[-0.371,-1.872],[-0.428,-1.773],[-0.435,-1.71],[-0.414,-1.661],[-0.358,-1.611],[-0.364,-1.604],[-0.098,-1.52],[-0.077,-1.513]]]]},"properties":{"abbr":"7Cb","name":"7th cerebellar lobule","plate":56,"ap_bregma_mm":-11.45,"area_mm2":0.2988,"traced_fraction":[1.0],"n_labels":1,"no_drawn_outline":false}},{"type":"Feature","geometry":{"type":"MultiPolygon","coordinates":[[[[-0.371,-1.872],[-0.371,-1.886],[-0.14,-1.886],[-0.133,-1.872],[0.435,-1.872],[0.687,-1.949],[0.856,-2.033],[1.024,-2.167],[1.024,-2.181],[1.178,-2.336],[1.248,-2.427],[1.381,-2.638],[1.522,-2.92],[1.557,-2.955],[1.585,-3.039],[1.606,-3.046],[1.606,-3.06],[1.613,-3.081],[1.62,-3.095],[1.627,-3.109],[1.62,-3.124],[1.634,-3.124],[1.641,-3.145],[1.648,-3.159],[1.641,-3.173],[1.655,-3.173],[1.662,-3.194],[1.669,-3.208],[1.676,-3.222],[1.683,-3.236],[1.697,-3.271],[1.704,-3.285],[1.711,-3.306],[1.718,-3.32],[1.711,-3.328],[0.933,-3.334],[0.919,-3.334],[0.877,-3.271],[0.659,-3.06],[0.638,-3.025],[0.589,-2.99],[0.554,-2.99],[0.414,-2.927],[0.252,-2.891],[-0.133,-2.877],[-0.308,-2.891],[-0.498,-2.955],[-0.652,-3.046],[-0.834,-2.863],[-1.087,-2.343],[-1.122,-2.336],[-1.108,-2.287],[-1.002,-2.118],[-0.989,-2.118],[-0.989,-2.104],[-0.855,-1.984],[-0.687,-1.921],[-0.371,-1.872]]]]},"properties":{"abbr":"8Cb","name":"8th cerebellar lobule","plate":56,"ap_bregma_mm":-11.45,"area_mm2":2.5742,"traced_fraction":[0.797],"n_labels":1,"no_drawn_outline":false}},{"type":"Feature","geometry":{"type":"MultiPolygon","coordinates":[[[[0.933,-3.334],[0.94,-3.363],[0.996,-3.419],[1.129,-3.623],[1.283,-3.939],[0.764,-3.946],[0.666,-4.052],[0.007,-3.996],[0.0,-3.982],[-0.379,-3.982],[-0.764,-4.017],[-0.904,-3.876],[-1.311,-3.869],[-1.304,-3.834],[-1.192,-3.679],[-1.185,-3.651],[-1.164,-3.637],[-1.031,-3.433],[-1.002,-3.412],[-0.989,-3.363],[-0.785,-3.152],[-0.652,-3.046],[-0.498,-2.955],[-0.308,-2.891],[-0.175,-2.877],[0.252,-2.891],[0.414,-2.927],[0.554,-2.99],[0.589,-2.99],[0.638,-3.025],[0.659,-3.06],[0.877,-3.271],[0.912,-3.328],[0.933,-3.334]]]]},"properties":{"abbr":"9aCb","name":"9th cerebellar lobule, a","plate":56,"ap_bregma_mm":-11.45,"area_mm2":2.0817,"traced_fraction":[0.818],"n_labels":2,"no_drawn_outline":false}},{"type":"Feature","geometry":{"type":"MultiPolygon","coordinates":[[[[-1.311,-3.869],[-0.904,-3.876],[-0.764,-4.017],[-0.379,-3.982],[0.0,-3.982],[0.007,-3.996],[0.666,-4.052],[0.764,-3.946],[1.283,-3.939],[1.339,-4.045],[1.536,-4.523],[1.507,-4.544],[1.494,-4.593],[1.402,-4.755],[1.29,-4.875],[1.276,-4.875],[1.276,-4.889],[1.262,-4.889],[1.262,-4.903],[1.248,-4.91],[1.241,-4.903],[1.241,-4.917],[1.22,-4.931],[1.206,-4.938],[1.185,-4.938],[1.199,-4.945],[1.178,-4.959],[1.164,-4.966],[0.869,-5.086],[0.596,-5.149],[0.498,-5.156],[0.498,-5.177],[-0.224,-5.198],[-0.231,-5.184],[-0.273,-5.177],[-0.414,-5.163],[-0.463,-5.17],[-0.505,-5.163],[-0.547,-5.156],[-0.582,-5.149],[-0.624,-5.142],[-0.666,-5.135],[-0.708,-5.128],[-0.743,-5.121],[-0.736,-5.114],[-0.764,-5.1],[-0.904,-5.072],[-0.975,-5.044],[-0.989,-5.051],[-1.002,-5.044],[-1.024,-5.037],[-1.213,-4.959],[-1.227,-4.938],[-1.311,-4.903],[-1.325,-4.896],[-1.318,-4.889],[-1.332,-4.889],[-1.339,-4.889],[-1.346,-4.868],[-1.395,-4.847],[-1.409,-4.84],[-1.402,-4.833],[-1.5,-4.755],[-1.585,-4.657],[-1.627,-4.579],[-1.648,-4.488],[-1.669,-4.453],[-1.549,-4.284],[-1.325,-3.869],[-1.311,-3.869]]]]},"properties":{"abbr":"9cCb","name":"9th cerebellar lobule, c","plate":56,"ap_bregma_mm":-11.45,"area_mm2":3.2821,"traced_fraction":[0.863],"n_labels":1,"no_drawn_outline":false}},{"type":"Feature","geometry":{"type":"MultiPolygon","coordinates":[[[[0.175,-5.388],[0.168,-5.444],[0.119,-5.529],[0.077,-5.564],[0.028,-5.578],[-0.084,-5.564],[-0.119,-5.536],[-0.161,-5.487],[-0.175,-5.395],[-0.028,-5.346],[0.035,-5.346],[0.175,-5.388]]]]},"properties":{"abbr":"AP","name":"area postrema","plate":56,"ap_bregma_mm":-11.45,"area_mm2":0.061,"traced_fraction":[1.0],"n_labels":1,"no_drawn_outline":false}},{"type":"Feature","geometry":{"type":"MultiPolygon","coordinates":[[[[-0.589,-5.48],[-0.54,-5.536],[-0.428,-5.599],[-0.301,-5.62],[-0.294,-5.67],[-0.266,-5.726],[-0.119,-5.881],[-0.098,-5.944],[-0.098,-6.042],[-0.154,-6.035],[-0.161,-6.021],[-0.224,-6.0],[-0.315,-6.0],[-0.4,-6.028],[-0.428,-6.056],[-0.428,-6.085],[-0.4,-6.12],[-0.337,-6.148],[-0.238,-6.148],[-0.231,-6.176],[-0.322,-6.204],[-0.4,-6.274],[-0.392,-6.373],[-0.343,-6.499],[-0.343,-6.535],[-0.414,-6.514],[-0.54,-6.422],[-0.694,-6.274],[-0.708,-6.274],[-0.862,-6.106],[-0.869,-6.07],[-0.939,-6.021],[-0.975,-5.972],[-1.031,-5.937],[-1.031,-5.923],[-1.031,-5.895],[-1.01,-5.859],[-0.96,-5.888],[-0.883,-5.888],[-0.785,-5.845],[-0.722,-5.789],[-0.68,-5.719],[-0.659,-5.634],[-0.666,-5.536],[-0.687,-5.487],[-0.589,-5.48]]],[[[-0.617,-5.831],[-0.652,-5.859],[-0.666,-5.895],[-0.659,-5.937],[-0.617,-5.937],[-0.582,-5.888],[-0.582,-5.838],[-0.617,-5.831]]],[[[0.926,-5.902],[0.926,-5.937],[0.884,-5.993],[0.877,-6.035],[0.835,-6.113],[0.778,-6.197],[0.764,-6.246],[0.736,-6.267],[0.687,-6.352],[0.645,-6.387],[0.631,-6.422],[0.617,-6.422],[0.526,-6.514],[0.442,-6.535],[0.484,-6.387],[0.477,-6.281],[0.505,-6.253],[0.624,-6.19],[0.764,-6.049],[0.82,-5.972],[0.89,-5.916],[0.926,-5.902]]]]},"properties":{"abbr":"CeCv","name":"central cervical nucleus of the spinal cord","plate":56,"ap_bregma_mm":-11.45,"area_mm2":0.5169,"traced_fraction":[0.99,1.0,1.0],"n_labels":2,"no_drawn_outline":false}},{"type":"Feature","geometry":{"type":"MultiPolygon","coordinates":[[[[-1.122,-2.336],[-1.087,-2.343],[-0.834,-2.863],[-0.652,-3.046],[-0.785,-3.152],[-0.989,-3.363],[-1.002,-3.412],[-1.031,-3.433],[-1.164,-3.637],[-1.185,-3.651],[-1.192,-3.679],[-1.304,-3.834],[-1.311,-3.869],[-1.325,-3.869],[-1.549,-4.284],[-1.669,-4.453],[-1.76,-4.523],[-1.781,-4.523],[-1.781,-4.537],[-1.795,-4.544],[-1.816,-4.551],[-1.83,-4.558],[-1.837,-4.558],[-1.921,-4.579],[-2.047,-4.558],[-2.04,-4.551],[-2.075,-4.523],[-2.11,-4.467],[-2.124,-4.383],[-2.117,-4.214],[-2.089,-4.073],[-1.956,-3.637],[-1.907,-3.56],[-1.907,-3.538],[-1.767,-3.334],[-1.753,-3.285],[-1.739,-3.285],[-1.662,-3.159],[-1.563,-3.039],[-1.304,-2.631],[-1.276,-2.596],[-1.262,-2.596],[-1.255,-2.568],[-1.227,-2.54],[-1.164,-2.392],[-1.122,-2.336]]],[[[1.718,-3.32],[1.725,-3.334],[1.732,-3.349],[1.746,-3.384],[1.76,-3.412],[1.767,-3.433],[1.781,-3.461],[1.795,-3.496],[1.802,-3.51],[1.795,-3.524],[1.83,-3.63],[1.872,-3.707],[1.879,-3.757],[2.026,-4.171],[2.061,-4.375],[2.047,-4.495],[2.047,-4.523],[2.026,-4.523],[1.984,-4.593],[1.963,-4.608],[1.928,-4.629],[1.921,-4.629],[1.851,-4.643],[1.739,-4.629],[1.536,-4.523],[1.339,-4.045],[1.283,-3.939],[1.129,-3.623],[0.996,-3.419],[0.94,-3.363],[0.933,-3.334],[1.711,-3.328],[1.718,-3.32]]],[[[-1.837,-4.558],[-1.83,-4.558],[-1.837,-4.565],[-1.837,-4.558]]],[[[1.921,-4.629],[1.928,-4.629],[1.921,-4.636],[1.921,-4.629]]]]},"properties":{"abbr":"Cop","name":"copula of the pyramis","plate":56,"ap_bregma_mm":-11.45,"area_mm2":2.1947,"traced_fraction":[0.863,0.818,1.0,1.0],"n_labels":2,"no_drawn_outline":false}},{"type":"Feature","geometry":{"type":"MultiPolygon","coordinates":[[[[1.017,-5.388],[1.038,-5.515],[1.08,-5.557],[1.157,-5.585],[1.241,-5.585],[1.367,-5.543],[1.409,-5.508],[1.451,-5.416],[1.473,-5.416],[1.479,-5.487],[1.444,-5.578],[1.374,-5.648],[1.283,-5.705],[1.29,-5.754],[1.234,-5.754],[1.136,-5.789],[1.101,-5.719],[1.087,-5.719],[1.045,-5.824],[0.926,-5.902],[0.89,-5.916],[0.862,-5.888],[0.771,-5.866],[0.722,-5.817],[0.694,-5.677],[0.701,-5.578],[0.743,-5.466],[0.806,-5.402],[0.856,-5.381],[1.017,-5.388]]],[[[-0.687,-5.487],[-0.666,-5.536],[-0.659,-5.634],[-0.68,-5.719],[-0.722,-5.789],[-0.785,-5.845],[-0.883,-5.888],[-0.96,-5.888],[-1.01,-5.859],[-1.045,-5.824],[-1.087,-5.74],[-1.094,-5.663],[-1.066,-5.55],[-0.989,-5.423],[-0.904,-5.409],[-0.778,-5.416],[-0.722,-5.444],[-0.687,-5.487]]]]},"properties":{"abbr":"CuR","name":"cuneate nucleus, rotundus part","plate":56,"ap_bregma_mm":-11.45,"area_mm2":0.3867,"traced_fraction":[0.98,1.0],"n_labels":2,"no_drawn_outline":false}},{"type":"Feature","geometry":{"type":"MultiPolygon","coordinates":[[[[1.353,-5.226],[1.374,-5.248],[1.367,-5.255],[1.381,-5.255],[1.409,-5.276],[1.402,-5.29],[1.479,-5.381],[1.557,-5.409],[1.599,-5.437],[1.613,-5.444],[1.613,-5.459],[1.683,-5.501],[1.683,-5.522],[1.599,-5.599],[1.599,-5.782],[1.465,-5.754],[1.29,-5.754],[1.283,-5.705],[1.374,-5.648],[1.444,-5.578],[1.479,-5.487],[1.473,-5.416],[1.451,-5.416],[1.423,-5.487],[1.367,-5.543],[1.276,-5.578],[1.157,-5.585],[1.08,-5.557],[1.038,-5.515],[1.017,-5.388],[1.066,-5.255],[1.066,-5.219],[1.122,-5.198],[1.241,-5.191],[1.353,-5.226]]],[[[-1.178,-5.205],[-1.143,-5.212],[-1.122,-5.212],[-1.115,-5.24],[-1.059,-5.276],[-1.017,-5.332],[-1.002,-5.409],[-0.989,-5.423],[-1.066,-5.55],[-1.101,-5.55],[-1.213,-5.592],[-1.297,-5.592],[-1.36,-5.564],[-1.402,-5.564],[-1.402,-5.55],[-1.507,-5.437],[-1.536,-5.381],[-1.486,-5.318],[-1.36,-5.248],[-1.304,-5.255],[-1.276,-5.219],[-1.178,-5.205]]]]},"properties":{"abbr":"ECu","name":"external cuneate nucleus","plate":56,"ap_bregma_mm":-11.45,"area_mm2":0.3612,"traced_fraction":[0.908,1.0],"n_labels":2,"no_drawn_outline":false}},{"type":"Feature","geometry":{"type":"MultiPolygon","coordinates":[[[[0.589,-5.339],[0.596,-5.36],[0.659,-5.381],[0.68,-5.416],[0.645,-5.487],[0.505,-5.578],[0.365,-5.599],[0.323,-5.578],[0.301,-5.55],[0.295,-5.487],[0.323,-5.437],[0.372,-5.395],[0.372,-5.374],[0.589,-5.339]]],[[[-0.54,-5.36],[-0.273,-5.402],[-0.266,-5.437],[-0.231,-5.473],[-0.224,-5.529],[-0.245,-5.585],[-0.301,-5.62],[-0.428,-5.599],[-0.54,-5.536],[-0.589,-5.48],[-0.603,-5.459],[-0.603,-5.416],[-0.54,-5.374],[-0.54,-5.36]]]]},"properties":{"abbr":"Gr","name":"gracile nucleus","plate":56,"ap_bregma_mm":-11.45,"area_mm2":0.1369,"traced_fraction":[1.0,1.0],"n_labels":2,"no_drawn_outline":false}},{"type":"Feature","geometry":{"type":"MultiPolygon","coordinates":[[[[0.512,-7.674],[0.554,-7.688],[0.554,-7.836],[0.799,-7.836],[0.806,-7.758],[0.905,-7.78],[0.905,-8.04],[0.645,-8.019],[0.393,-8.019],[0.351,-8.033],[0.351,-7.85],[0.512,-7.85],[0.512,-7.674]]],[[[-0.442,-7.688],[-0.358,-7.773],[-0.35,-8.04],[-0.624,-8.033],[-0.89,-8.075],[-0.897,-7.878],[-0.589,-7.787],[-0.519,-7.751],[-0.456,-7.688],[-0.442,-7.688]]]]},"properties":{"abbr":"IOB","name":"inferior olive, subnucleus B of medial nucleus","plate":56,"ap_bregma_mm":-11.45,"area_mm2":0.2528,"traced_fraction":[0.467,0.721],"n_labels":1,"no_drawn_outline":true}},{"type":"Feature","geometry":{"type":"MultiPolygon","coordinates":[[[[0.119,-7.463],[0.295,-7.463],[0.309,-7.505],[0.365,-7.583],[0.442,-7.646],[0.091,-7.646],[0.119,-7.463]]]]},"properties":{"abbr":"IOBe","name":"inferior olive, beta subnucleus","plate":56,"ap_bregma_mm":-11.45,"area_mm2":0.045,"traced_fraction":[0.593],"n_labels":1,"no_drawn_outline":true}},{"type":"Feature","geometry":{"type":"MultiPolygon","coordinates":[[[[-0.252,-7.463],[-0.077,-7.463],[0.0,-7.787],[0.0,-7.808],[-0.098,-7.808],[-0.098,-7.955],[-0.021,-7.955],[-0.042,-8.012],[-0.035,-8.047],[-0.147,-8.11],[-0.21,-8.075],[-0.35,-8.04],[-0.358,-7.773],[-0.442,-7.688],[-0.329,-7.576],[-0.252,-7.463]]],[[[0.091,-7.646],[0.442,-7.646],[0.512,-7.674],[0.512,-7.85],[0.351,-7.85],[0.351,-8.033],[0.175,-8.11],[0.105,-8.061],[0.063,-7.787],[0.091,-7.646]]]]},"properties":{"abbr":"IOC","name":"inferior olive, subnucleus C of medial nucleus","plate":56,"ap_bregma_mm":-11.45,"area_mm2":0.3318,"traced_fraction":[0.636,0.557],"n_labels":1,"no_drawn_outline":true}},{"type":"Feature","geometry":{"type":"MultiPolygon","coordinates":[[[[0.905,-7.78],[1.045,-7.822],[1.129,-7.864],[1.157,-7.892],[1.192,-7.899],[1.248,-7.984],[1.241,-8.075],[1.08,-8.089],[1.038,-8.061],[0.905,-8.04],[0.905,-7.78]]],[[[-0.897,-7.878],[-0.89,-8.075],[-1.045,-8.124],[-1.164,-8.11],[-1.206,-8.082],[-1.206,-8.019],[-1.136,-7.969],[-0.897,-7.878]]]]},"properties":{"abbr":"IOPr","name":"inferior olive, principal nucleus","plate":56,"ap_bregma_mm":-11.45,"area_mm2":0.127,"traced_fraction":[0.814,0.85],"n_labels":1,"no_drawn_outline":false}},{"type":"Feature","geometry":{"type":"MultiPolygon","coordinates":[[[[0.764,-6.246],[1.073,-6.464],[1.318,-6.661],[1.402,-6.746],[1.416,-6.746],[1.893,-7.196],[1.97,-7.308],[1.844,-7.372],[1.585,-7.583],[1.318,-7.28],[1.248,-7.189],[1.241,-7.161],[1.409,-7.175],[1.458,-7.146],[1.494,-7.069],[1.494,-6.95],[1.479,-6.914],[1.465,-6.893],[1.395,-6.858],[1.297,-6.858],[1.227,-6.886],[1.171,-6.943],[1.15,-6.999],[1.101,-6.992],[1.066,-6.971],[0.947,-6.802],[0.884,-6.739],[0.715,-6.499],[0.631,-6.422],[0.645,-6.387],[0.687,-6.352],[0.736,-6.267],[0.764,-6.246]]],[[[-0.708,-6.274],[-0.694,-6.274],[-0.54,-6.422],[-0.799,-6.816],[-1.002,-7.076],[-1.101,-7.224],[-1.129,-7.238],[-1.143,-7.224],[-1.143,-7.083],[-1.192,-7.02],[-1.234,-7.006],[-1.318,-7.006],[-1.367,-7.027],[-1.43,-7.09],[-1.458,-7.189],[-1.423,-7.266],[-1.381,-7.308],[-1.325,-7.336],[-1.206,-7.336],[-1.22,-7.379],[-1.332,-7.505],[-1.346,-7.561],[-1.374,-7.576],[-1.43,-7.576],[-1.514,-7.421],[-1.563,-7.358],[-1.641,-7.28],[-1.732,-7.231],[-1.732,-7.217],[-1.627,-7.111],[-1.514,-7.027],[-1.206,-6.732],[-1.192,-6.732],[-1.136,-6.668],[-1.122,-6.668],[-0.876,-6.436],[-0.806,-6.387],[-0.736,-6.31],[-0.722,-6.31],[-0.708,-6.274]]]]},"properties":{"abbr":"IRt","name":"intermediate reticular nucleus","plate":56,"ap_bregma_mm":-11.45,"area_mm2":0.9328,"traced_fraction":[0.979,1.0],"n_labels":2,"no_drawn_outline":false}},{"type":"Feature","geometry":{"type":"MultiPolygon","coordinates":[[[[1.571,-7.618],[1.683,-7.688],[1.683,-7.709],[1.536,-7.773],[1.451,-7.829],[1.451,-7.843],[1.402,-7.871],[1.346,-7.941],[1.283,-7.927],[1.206,-7.878],[1.143,-7.808],[1.087,-7.773],[1.052,-7.702],[0.996,-7.639],[0.989,-7.604],[0.996,-7.512],[1.066,-7.435],[1.199,-7.428],[1.241,-7.442],[1.486,-7.59],[1.571,-7.618]]],[[[-0.869,-7.723],[-1.15,-7.92],[-1.269,-7.962],[-1.346,-7.955],[-1.36,-7.934],[-1.36,-7.871],[-1.402,-7.758],[-1.43,-7.73],[-1.43,-7.709],[-1.444,-7.709],[-1.451,-7.681],[-1.514,-7.618],[-1.507,-7.59],[-1.43,-7.576],[-1.374,-7.576],[-1.346,-7.561],[-1.094,-7.498],[-0.989,-7.498],[-0.883,-7.519],[-0.82,-7.576],[-0.82,-7.625],[-0.869,-7.695],[-0.869,-7.723]]]]},"properties":{"abbr":"LRt","name":"lateral reticular nucleus","plate":56,"ap_bregma_mm":-11.45,"area_mm2":0.4013,"traced_fraction":[1.0,1.0],"n_labels":2,"no_drawn_outline":false}},{"type":"Feature","geometry":{"type":"MultiPolygon","coordinates":[[[[-1.928,-7.716],[-1.921,-7.716],[-1.683,-7.892],[-1.311,-8.117],[-1.318,-8.124],[-1.451,-8.054],[-1.578,-8.054],[-1.606,-7.99],[-1.62,-7.99],[-1.676,-8.054],[-1.788,-8.054],[-1.802,-8.012],[-1.837,-8.054],[-1.949,-8.054],[-1.949,-7.927],[-1.872,-8.026],[-1.795,-7.857],[-1.795,-7.836],[-1.949,-7.758],[-1.928,-7.716]]]]},"properties":{"abbr":"LRtPC","name":"lateral reticular nucleus, parvicellular part","plate":56,"ap_bregma_mm":-11.45,"area_mm2":0.0625,"traced_fraction":[1.0],"n_labels":1,"no_drawn_outline":false}},{"type":"Feature","geometry":{"type":"MultiPolygon","coordinates":[[[[2.096,-7.301],[2.174,-7.329],[2.188,-7.336],[2.195,-7.372],[2.209,-7.379],[2.188,-7.463],[2.019,-7.604],[1.844,-7.716],[1.683,-7.688],[1.571,-7.618],[1.585,-7.583],[1.844,-7.372],[1.97,-7.308],[2.033,-7.294],[2.096,-7.301]]]]},"properties":{"abbr":"LRtS5","name":"lateral reticular nucleus, subtrigeminal part","plate":56,"ap_bregma_mm":-11.45,"area_mm2":0.1511,"traced_fraction":[1.0],"n_labels":1,"no_drawn_outline":false}},{"type":"Feature","geometry":{"type":"MultiPolygon","coordinates":[[[[-0.939,-6.021],[-0.869,-6.07],[-0.862,-6.106],[-0.708,-6.274],[-0.722,-6.31],[-0.736,-6.31],[-1.017,-6.577],[-1.031,-6.577],[-1.192,-6.732],[-1.206,-6.732],[-1.514,-7.027],[-1.627,-7.111],[-1.732,-7.217],[-1.732,-7.231],[-1.83,-7.224],[-1.956,-7.266],[-1.963,-7.175],[-1.963,-7.161],[-1.935,-7.154],[-1.823,-7.034],[-1.641,-6.668],[-1.634,-6.626],[-1.599,-6.598],[-1.521,-6.464],[-1.395,-6.331],[-1.227,-6.113],[-0.96,-6.113],[-0.953,-6.035],[-0.939,-6.021]]],[[[0.835,-6.113],[1.136,-6.113],[1.227,-6.19],[1.43,-6.288],[1.55,-6.373],[1.669,-6.499],[1.774,-6.675],[1.795,-6.682],[1.788,-6.703],[1.816,-6.76],[2.012,-7.062],[2.104,-7.175],[2.096,-7.301],[2.033,-7.294],[1.97,-7.308],[1.893,-7.196],[1.416,-6.746],[1.402,-6.746],[1.318,-6.661],[1.073,-6.464],[0.764,-6.246],[0.778,-6.197],[0.835,-6.113]]]]},"properties":{"abbr":"MdD","name":"medullary reticular nucleus, dorsal part","plate":56,"ap_bregma_mm":-11.45,"area_mm2":1.0049,"traced_fraction":[0.896,0.911],"n_labels":2,"no_drawn_outline":false}},{"type":"Feature","geometry":{"type":"MultiPolygon","coordinates":[[[[-0.54,-6.422],[-0.414,-6.514],[-0.343,-6.535],[-0.28,-6.591],[-0.322,-6.612],[-0.322,-6.767],[-0.196,-6.781],[-0.196,-6.788],[-0.259,-6.936],[-0.322,-7.139],[-0.371,-7.238],[-0.631,-7.238],[-0.631,-7.477],[-0.575,-7.519],[-0.631,-7.576],[-0.792,-7.681],[-0.806,-7.702],[-0.869,-7.723],[-0.869,-7.695],[-0.82,-7.625],[-0.82,-7.576],[-0.883,-7.519],[-0.989,-7.498],[-1.094,-7.498],[-1.346,-7.561],[-1.332,-7.505],[-1.22,-7.379],[-1.206,-7.336],[-1.129,-7.238],[-1.101,-7.224],[-1.002,-7.076],[-0.799,-6.816],[-0.54,-6.422]]],[[[0.631,-6.422],[0.715,-6.499],[0.884,-6.739],[0.947,-6.802],[1.066,-6.971],[1.101,-6.992],[1.108,-7.02],[1.15,-7.048],[1.171,-7.097],[1.241,-7.161],[1.248,-7.189],[1.318,-7.28],[1.585,-7.583],[1.571,-7.618],[1.486,-7.59],[1.241,-7.442],[1.199,-7.428],[1.066,-7.435],[0.996,-7.512],[0.989,-7.604],[0.996,-7.639],[1.052,-7.702],[1.087,-7.773],[0.989,-7.758],[0.848,-7.688],[0.673,-7.569],[0.582,-7.477],[0.575,-7.449],[0.652,-7.386],[0.722,-7.386],[0.722,-7.231],[0.435,-7.231],[0.4,-7.175],[0.316,-6.921],[0.231,-6.732],[0.182,-6.682],[0.119,-6.647],[0.07,-6.633],[0.035,-6.64],[-0.007,-6.64],[-0.056,-6.64],[-0.119,-6.689],[-0.14,-6.689],[-0.161,-6.668],[-0.168,-6.626],[-0.063,-6.619],[0.0,-6.584],[0.042,-6.584],[0.105,-6.612],[0.267,-6.612],[0.246,-6.675],[0.267,-6.753],[0.449,-6.753],[0.449,-6.605],[0.421,-6.605],[0.428,-6.556],[0.442,-6.535],[0.526,-6.514],[0.617,-6.422],[0.631,-6.422]]]]},"properties":{"abbr":"MdV","name":"medullary reticular nucleus, ventral part","plate":56,"ap_bregma_mm":-11.45,"area_mm2":1.3483,"traced_fraction":[0.838,0.856],"n_labels":2,"no_drawn_outline":false}},{"type":"Feature","geometry":{"type":"MultiPolygon","coordinates":[[[[1.045,-5.824],[1.08,-5.824],[1.059,-5.874],[1.052,-5.951],[1.08,-6.042],[1.136,-6.113],[0.835,-6.113],[0.877,-6.035],[0.884,-5.993],[0.926,-5.937],[0.926,-5.902],[1.045,-5.824]]],[[[-1.15,-5.852],[-1.101,-5.874],[-1.052,-5.923],[-1.031,-5.923],[-1.031,-5.937],[-0.975,-5.972],[-0.939,-6.021],[-0.953,-6.035],[-0.96,-6.113],[-1.227,-6.113],[-1.199,-6.035],[-1.185,-6.028],[-1.178,-5.972],[-1.164,-5.965],[-1.15,-5.852]]]]},"properties":{"abbr":"Mx","name":"matrix region of the medulla","plate":56,"ap_bregma_mm":-11.45,"area_mm2":0.0928,"traced_fraction":[0.776,0.681],"n_labels":2,"no_drawn_outline":true}},{"type":"Feature","geometry":{"type":"MultiPolygon","coordinates":[[[[-1.199,-2.111],[-1.164,-2.153],[-1.185,-2.315],[-1.248,-2.469],[-1.262,-2.476],[-1.325,-2.61],[-1.325,-2.631],[-1.304,-2.631],[-1.563,-3.039],[-1.662,-3.159],[-1.739,-3.285],[-1.753,-3.285],[-1.823,-3.299],[-2.061,-2.814],[-2.068,-2.807],[-2.068,-2.779],[-2.096,-2.73],[-2.103,-2.73],[-2.138,-2.652],[-2.18,-2.498],[-2.145,-2.413],[-2.103,-2.357],[-2.005,-2.273],[-1.956,-2.251],[-1.942,-2.237],[-1.949,-2.23],[-1.928,-2.223],[-1.549,-2.09],[-1.528,-2.083],[-1.493,-2.09],[-1.332,-2.069],[-1.255,-2.083],[-1.22,-2.111],[-1.199,-2.111]]],[[[1.809,-2.455],[1.858,-2.856],[1.844,-2.856],[1.837,-2.913],[1.795,-2.969],[1.732,-2.99],[1.662,-2.976],[1.557,-2.955],[1.522,-2.92],[1.381,-2.638],[1.248,-2.427],[1.178,-2.336],[1.024,-2.181],[1.024,-2.167],[1.101,-2.118],[1.206,-2.097],[1.304,-2.104],[1.416,-2.132],[1.564,-2.202],[1.648,-2.265],[1.648,-2.279],[1.718,-2.336],[1.732,-2.371],[1.746,-2.371],[1.788,-2.434],[1.788,-2.455],[1.809,-2.455]]],[[[-2.124,-2.786],[-2.117,-2.807],[-2.138,-2.807],[-2.124,-2.786]]]]},"properties":{"abbr":"PM","name":"paramedian lobule","plate":56,"ap_bregma_mm":-11.45,"area_mm2":1.1314,"traced_fraction":[1.0,1.0,1.0],"n_labels":1,"no_drawn_outline":false}},{"type":"Feature","geometry":{"type":"MultiPolygon","coordinates":[[[[1.956,-5.909],[1.935,-5.909],[1.795,-5.859],[1.732,-5.817],[1.676,-5.761],[1.655,-5.719],[1.669,-5.677],[1.697,-5.641],[1.753,-5.613],[1.865,-5.627],[1.977,-5.691],[2.061,-5.789],[2.061,-5.859],[2.026,-5.888],[1.956,-5.909]]],[[[-1.718,-5.838],[-1.83,-5.951],[-1.942,-6.007],[-1.977,-6.042],[-1.991,-6.042],[-2.04,-6.0],[-2.047,-5.951],[-2.026,-5.895],[-1.921,-5.789],[-1.837,-5.74],[-1.767,-5.733],[-1.725,-5.775],[-1.718,-5.838]]]]},"properties":{"abbr":"Pa5","name":"paratrigeminal nucleus","plate":56,"ap_bregma_mm":-11.45,"area_mm2":0.1366,"traced_fraction":[1.0,1.0],"n_labels":2,"no_drawn_outline":false}},{"type":"Feature","geometry":{"type":"MultiPolygon","coordinates":[[[[1.241,-7.161],[1.171,-7.097],[1.15,-7.048],[1.15,-6.999],[1.171,-6.943],[1.227,-6.886],[1.297,-6.858],[1.395,-6.858],[1.444,-6.879],[1.479,-6.914],[1.494,-6.95],[1.494,-7.069],[1.458,-7.146],[1.409,-7.175],[1.241,-7.161]]],[[[-1.129,-7.238],[-1.206,-7.336],[-1.325,-7.336],[-1.381,-7.308],[-1.423,-7.266],[-1.458,-7.189],[-1.43,-7.09],[-1.367,-7.027],[-1.318,-7.006],[-1.234,-7.006],[-1.192,-7.02],[-1.143,-7.083],[-1.143,-7.224],[-1.129,-7.238]]]]},"properties":{"abbr":"RAmb","name":"retroambiguus nucleus","plate":56,"ap_bregma_mm":-11.45,"area_mm2":0.1749,"traced_fraction":[0.994,1.0],"n_labels":2,"no_drawn_outline":false}},{"type":"Feature","geometry":{"type":"MultiPolygon","coordinates":[[[[0.0,-7.787],[0.063,-7.787],[0.105,-8.061],[0.049,-8.04],[-0.035,-8.047],[-0.042,-8.012],[-0.021,-7.955],[-0.098,-7.955],[-0.098,-7.808],[0.0,-7.808],[0.0,-7.787]]]]},"properties":{"abbr":"RPa","name":"raphe pallidus nucleus","plate":56,"ap_bregma_mm":-11.45,"area_mm2":0.0391,"traced_fraction":[0.693],"n_labels":1,"no_drawn_outline":true}},{"type":"Feature","geometry":{"type":"MultiPolygon","coordinates":[[[[-1.318,-5.705],[-1.304,-5.705],[-1.262,-5.761],[-1.213,-5.782],[-1.15,-5.852],[-1.164,-5.965],[-1.178,-5.972],[-1.185,-6.028],[-1.199,-6.035],[-1.227,-6.113],[-1.395,-6.331],[-1.521,-6.464],[-1.599,-6.598],[-1.634,-6.626],[-1.669,-6.577],[-1.704,-6.457],[-1.802,-6.267],[-1.886,-6.141],[-1.977,-6.042],[-1.942,-6.007],[-1.83,-5.951],[-1.718,-5.838],[-1.683,-5.831],[-1.507,-5.719],[-1.416,-5.698],[-1.318,-5.705]]],[[[1.599,-5.782],[1.655,-5.81],[1.732,-5.817],[1.795,-5.859],[1.935,-5.909],[1.914,-5.951],[1.914,-6.099],[1.879,-6.436],[1.816,-6.654],[1.795,-6.682],[1.774,-6.675],[1.669,-6.499],[1.55,-6.373],[1.43,-6.288],[1.227,-6.19],[1.136,-6.113],[1.08,-6.042],[1.052,-5.951],[1.059,-5.874],[1.08,-5.824],[1.136,-5.789],[1.234,-5.754],[1.29,-5.754],[1.388,-5.747],[1.599,-5.782]]]]},"properties":{"abbr":"Sp5C","name":"spinal trigeminal nucleus, caudal part","plate":56,"ap_bregma_mm":-11.45,"area_mm2":0.8712,"traced_fraction":[1.0,1.0],"n_labels":2,"no_drawn_outline":false}},{"type":"Feature","geometry":{"type":"MultiPolygon","coordinates":[[[[1.935,-5.909],[1.956,-5.909],[2.096,-6.028],[2.363,-6.204],[2.454,-6.288],[2.538,-6.408],[2.58,-6.549],[2.594,-6.654],[2.587,-6.76],[2.573,-6.83],[2.524,-6.95],[2.461,-7.041],[2.342,-7.161],[2.258,-7.21],[2.202,-7.224],[2.153,-7.21],[2.104,-7.175],[2.012,-7.062],[1.816,-6.76],[1.788,-6.703],[1.795,-6.682],[1.816,-6.654],[1.879,-6.436],[1.914,-6.099],[1.914,-5.951],[1.935,-5.909]]],[[[-1.991,-6.042],[-1.977,-6.042],[-1.886,-6.141],[-1.802,-6.267],[-1.704,-6.457],[-1.669,-6.577],[-1.634,-6.626],[-1.641,-6.668],[-1.823,-7.034],[-1.935,-7.154],[-1.963,-7.161],[-1.963,-7.175],[-2.075,-7.203],[-2.174,-7.161],[-2.265,-7.097],[-2.335,-7.027],[-2.37,-6.971],[-2.44,-6.767],[-2.461,-6.633],[-2.461,-6.528],[-2.433,-6.471],[-2.419,-6.387],[-2.328,-6.246],[-2.223,-6.162],[-2.019,-6.07],[-1.991,-6.042]]]]},"properties":{"abbr":"Sp5I","name":"spinal trigeminal nucleus, interpolar part","plate":56,"ap_bregma_mm":-11.45,"area_mm2":1.331,"traced_fraction":[1.0,1.0],"n_labels":2,"no_drawn_outline":false}},{"type":"Feature","geometry":{"type":"MultiPolygon","coordinates":[[[[-1.122,-5.212],[-0.968,-5.248],[-0.968,-5.262],[-0.932,-5.276],[-0.834,-5.29],[-0.799,-5.283],[-0.659,-5.311],[-0.624,-5.318],[-0.589,-5.325],[-0.596,-5.339],[-0.54,-5.36],[-0.54,-5.374],[-0.603,-5.416],[-0.603,-5.459],[-0.589,-5.48],[-0.687,-5.487],[-0.722,-5.444],[-0.778,-5.416],[-0.904,-5.409],[-0.989,-5.423],[-1.002,-5.409],[-1.017,-5.332],[-1.059,-5.276],[-1.115,-5.24],[-1.122,-5.212]]],[[[1.066,-5.219],[1.066,-5.255],[1.017,-5.388],[0.856,-5.381],[0.806,-5.402],[0.743,-5.466],[0.701,-5.578],[0.694,-5.677],[0.722,-5.817],[0.771,-5.866],[0.862,-5.888],[0.89,-5.916],[0.82,-5.972],[0.764,-6.049],[0.624,-6.19],[0.505,-6.253],[0.463,-6.183],[0.358,-6.162],[0.365,-6.141],[0.449,-6.12],[0.491,-6.092],[0.491,-6.049],[0.421,-5.986],[0.301,-5.986],[0.189,-6.042],[0.161,-6.078],[0.147,-6.078],[0.133,-6.028],[0.147,-5.916],[0.182,-5.852],[0.323,-5.719],[0.365,-5.599],[0.505,-5.578],[0.645,-5.487],[0.68,-5.416],[0.659,-5.381],[0.596,-5.36],[0.589,-5.339],[0.596,-5.325],[0.785,-5.311],[1.066,-5.219]]],[[[-1.066,-5.55],[-1.087,-5.599],[-1.087,-5.74],[-1.045,-5.824],[-1.01,-5.859],[-1.031,-5.895],[-1.031,-5.923],[-1.052,-5.923],[-1.101,-5.874],[-1.15,-5.852],[-1.213,-5.782],[-1.262,-5.761],[-1.304,-5.705],[-1.318,-5.705],[-1.332,-5.663],[-1.395,-5.592],[-1.402,-5.564],[-1.36,-5.564],[-1.297,-5.592],[-1.213,-5.592],[-1.101,-5.55],[-1.066,-5.55]]],[[[0.582,-5.81],[0.561,-5.824],[0.561,-5.881],[0.582,-5.909],[0.631,-5.916],[0.645,-5.902],[0.638,-5.838],[0.617,-5.817],[0.582,-5.81]]]]},"properties":{"abbr":"cu","name":"cuneate fasciculus","plate":56,"ap_bregma_mm":-11.45,"area_mm2":0.464,"traced_fraction":[0.982,0.996,0.995,1.0],"n_labels":3,"no_drawn_outline":false}},{"type":"Feature","geometry":{"type":"MultiPolygon","coordinates":[[[[0.372,-5.374],[0.372,-5.395],[0.323,-5.437],[0.295,-5.487],[0.301,-5.55],[0.323,-5.578],[0.365,-5.599],[0.323,-5.719],[0.182,-5.852],[0.147,-5.916],[0.133,-5.972],[0.147,-6.078],[0.147,-6.099],[0.175,-6.134],[0.259,-6.162],[0.246,-6.176],[0.147,-6.197],[0.105,-6.225],[0.049,-6.253],[-0.014,-6.197],[-0.035,-6.197],[-0.056,-6.225],[-0.091,-6.211],[-0.133,-6.19],[-0.231,-6.176],[-0.238,-6.148],[-0.133,-6.127],[-0.098,-6.085],[-0.098,-6.042],[-0.098,-5.944],[-0.119,-5.881],[-0.266,-5.726],[-0.287,-5.691],[-0.301,-5.62],[-0.245,-5.585],[-0.224,-5.529],[-0.231,-5.473],[-0.266,-5.437],[-0.273,-5.402],[-0.175,-5.395],[-0.161,-5.487],[-0.119,-5.536],[-0.084,-5.564],[0.028,-5.578],[0.077,-5.564],[0.119,-5.529],[0.133,-5.494],[0.154,-5.48],[0.175,-5.388],[0.372,-5.374]]]]},"properties":{"abbr":"gr","name":"gracile fasciculus","plate":56,"ap_bregma_mm":-11.45,"area_mm2":0.3092,"traced_fraction":[0.998],"n_labels":2,"no_drawn_outline":false}},{"type":"Feature","geometry":{"type":"MultiPolygon","coordinates":[[[[-0.007,-6.64],[-0.007,-6.689],[0.007,-6.718],[0.028,-6.718],[0.035,-6.64],[0.07,-6.633],[0.119,-6.647],[0.182,-6.682],[0.231,-6.732],[0.316,-6.921],[0.4,-7.175],[0.435,-7.231],[0.491,-7.358],[0.554,-7.442],[0.575,-7.449],[0.582,-7.477],[0.673,-7.569],[0.848,-7.688],[0.989,-7.758],[1.087,-7.773],[1.143,-7.808],[1.206,-7.878],[1.192,-7.899],[1.157,-7.892],[1.129,-7.864],[1.045,-7.822],[0.905,-7.78],[0.806,-7.758],[0.554,-7.688],[0.512,-7.674],[0.442,-7.646],[0.365,-7.583],[0.309,-7.505],[0.295,-7.463],[0.267,-7.393],[0.203,-7.315],[0.175,-7.315],[0.154,-7.336],[0.119,-7.463],[0.091,-7.646],[0.063,-7.787],[0.0,-7.787],[-0.077,-7.463],[-0.084,-7.421],[-0.042,-7.421],[0.0,-7.4],[0.007,-7.393],[0.007,-7.386],[0.035,-7.386],[0.021,-7.358],[0.021,-7.259],[0.014,-7.111],[0.056,-7.118],[0.049,-6.816],[0.014,-6.795],[0.021,-6.95],[-0.021,-6.943],[-0.035,-6.929],[-0.084,-6.929],[-0.084,-6.788],[-0.196,-6.788],[-0.196,-6.781],[-0.154,-6.732],[-0.14,-6.689],[-0.119,-6.689],[-0.056,-6.64],[-0.007,-6.64]]]]},"properties":{"abbr":"mlx","name":"medial lemniscal decussation","plate":56,"ap_bregma_mm":-11.45,"area_mm2":0.4416,"traced_fraction":[0.939],"n_labels":1,"no_drawn_outline":false}},{"type":"Feature","geometry":{"type":"MultiPolygon","coordinates":[[[[0.905,-8.04],[1.038,-8.061],[1.08,-8.089],[1.073,-8.096],[1.066,-8.103],[1.052,-8.103],[1.066,-8.11],[1.045,-8.117],[1.031,-8.124],[0.926,-8.166],[0.905,-8.173],[0.89,-8.18],[0.877,-8.18],[0.589,-8.258],[0.428,-8.272],[0.337,-8.258],[0.274,-8.23],[0.182,-8.145],[0.175,-8.11],[0.351,-8.033],[0.393,-8.019],[0.645,-8.019],[0.905,-8.04]]],[[[-0.35,-8.04],[-0.21,-8.075],[-0.147,-8.11],[-0.182,-8.173],[-0.28,-8.258],[-0.379,-8.293],[-0.47,-8.3],[-0.47,-8.314],[-0.876,-8.279],[-0.904,-8.279],[-0.911,-8.258],[-1.002,-8.237],[-1.087,-8.194],[-1.045,-8.124],[-0.89,-8.075],[-0.624,-8.033],[-0.35,-8.04]]],[[[0.877,-8.18],[0.89,-8.18],[0.877,-8.188],[0.877,-8.18]]]]},"properties":{"abbr":"py","name":"pyramidal tract","plate":56,"ap_bregma_mm":-11.45,"area_mm2":0.3477,"traced_fraction":[0.993,1.0,1.0],"n_labels":2,"no_drawn_outline":false}},{"type":"Feature","geometry":{"type":"MultiPolygon","coordinates":[[[[-1.536,-5.381],[-1.507,-5.437],[-1.402,-5.55],[-1.402,-5.564],[-1.395,-5.592],[-1.332,-5.663],[-1.318,-5.705],[-1.416,-5.698],[-1.486,-5.712],[-1.563,-5.747],[-1.683,-5.831],[-1.718,-5.838],[-1.725,-5.775],[-1.767,-5.733],[-1.837,-5.74],[-1.921,-5.789],[-2.026,-5.895],[-2.047,-5.951],[-2.04,-6.0],[-1.991,-6.042],[-2.019,-6.07],[-2.223,-6.162],[-2.328,-6.246],[-2.419,-6.387],[-2.433,-6.471],[-2.461,-6.528],[-2.461,-6.633],[-2.44,-6.767],[-2.37,-6.971],[-2.335,-7.027],[-2.265,-7.097],[-2.174,-7.161],[-2.075,-7.203],[-2.089,-7.252],[-2.131,-7.287],[-2.18,-7.287],[-2.244,-7.266],[-2.321,-7.217],[-2.363,-7.217],[-2.377,-7.182],[-2.426,-7.139],[-2.426,-7.125],[-2.44,-7.125],[-2.517,-6.978],[-2.524,-6.964],[-2.531,-6.943],[-2.531,-6.936],[-2.58,-6.746],[-2.58,-6.563],[-2.559,-6.422],[-2.517,-6.303],[-2.517,-6.288],[-2.51,-6.274],[-2.503,-6.253],[-2.489,-6.253],[-2.412,-6.092],[-2.398,-6.092],[-2.363,-6.028],[-2.195,-5.852],[-1.984,-5.698],[-1.711,-5.536],[-1.585,-5.416],[-1.57,-5.416],[-1.549,-5.381],[-1.536,-5.381]]],[[[1.683,-5.501],[2.019,-5.655],[2.174,-5.768],[2.174,-5.782],[2.195,-5.789],[2.202,-5.81],[2.293,-5.895],[2.321,-5.944],[2.335,-5.944],[2.475,-6.127],[2.489,-6.127],[2.489,-6.141],[2.531,-6.176],[2.622,-6.295],[2.643,-6.345],[2.664,-6.345],[2.664,-6.359],[2.672,-6.38],[2.721,-6.506],[2.727,-6.528],[2.721,-6.584],[2.735,-6.633],[2.721,-6.9],[2.699,-6.9],[2.693,-6.95],[2.636,-7.048],[2.636,-7.069],[2.531,-7.21],[2.496,-7.21],[2.433,-7.245],[2.328,-7.336],[2.188,-7.336],[2.174,-7.329],[2.202,-7.224],[2.258,-7.21],[2.342,-7.161],[2.461,-7.041],[2.524,-6.95],[2.552,-6.893],[2.587,-6.76],[2.594,-6.654],[2.58,-6.549],[2.538,-6.408],[2.454,-6.288],[2.363,-6.204],[2.096,-6.028],[1.956,-5.909],[2.026,-5.888],[2.061,-5.859],[2.061,-5.789],[1.977,-5.691],[1.865,-5.627],[1.753,-5.613],[1.697,-5.641],[1.669,-5.677],[1.655,-5.719],[1.676,-5.761],[1.732,-5.817],[1.655,-5.81],[1.599,-5.782],[1.599,-5.599],[1.683,-5.522],[1.683,-5.501]]],[[[-2.517,-6.288],[-2.517,-6.303],[-2.524,-6.303],[-2.517,-6.288]]],[[[-2.538,-6.936],[-2.531,-6.936],[-2.531,-6.943],[-2.538,-6.936]]]]},"properties":{"abbr":"sp5","name":"spinal trigeminal tract","plate":56,"ap_bregma_mm":-11.45,"area_mm2":0.7692,"traced_fraction":[1.0,0.956,1.0,1.0],"n_labels":2,"no_drawn_outline":false}},{"type":"Feature","geometry":{"type":"MultiPolygon","coordinates":[[[[-0.196,-6.788],[-0.084,-6.788],[-0.084,-6.929],[-0.035,-6.929],[-0.021,-6.943],[-0.021,-7.224],[0.007,-7.259],[0.021,-7.259],[0.021,-7.358],[0.0,-7.365],[0.007,-7.386],[0.007,-7.393],[0.0,-7.4],[-0.014,-7.414],[-0.084,-7.421],[-0.119,-7.322],[-0.161,-7.315],[-0.252,-7.463],[-0.329,-7.576],[-0.442,-7.688],[-0.456,-7.688],[-0.498,-7.737],[-0.589,-7.787],[-0.897,-7.878],[-1.136,-7.969],[-1.15,-7.92],[-0.869,-7.723],[-0.806,-7.702],[-0.792,-7.681],[-0.631,-7.576],[-0.575,-7.519],[-0.519,-7.477],[-0.47,-7.4],[-0.442,-7.379],[-0.414,-7.315],[-0.386,-7.287],[-0.371,-7.238],[-0.322,-7.139],[-0.259,-6.936],[-0.196,-6.788]]]]},"properties":{"abbr":"ts","name":"tectospinal tract","plate":56,"ap_bregma_mm":-11.45,"area_mm2":0.3303,"traced_fraction":[0.92],"n_labels":1,"no_drawn_outline":false}},{"type":"Feature","geometry":{"type":"MultiPolygon","coordinates":[[[[2.531,-7.21],[2.489,-7.294],[2.342,-7.442],[2.342,-7.456],[2.328,-7.456],[2.328,-7.47],[2.307,-7.477],[2.307,-7.491],[2.188,-7.611],[2.174,-7.611],[2.153,-7.646],[2.132,-7.653],[2.132,-7.667],[2.083,-7.695],[2.083,-7.709],[2.04,-7.73],[2.04,-7.744],[1.984,-7.787],[1.949,-7.801],[1.914,-7.843],[1.844,-7.871],[1.844,-7.892],[1.83,-7.892],[1.802,-7.892],[1.795,-7.906],[1.69,-7.948],[1.641,-7.99],[1.494,-8.054],[1.241,-8.075],[1.248,-7.984],[1.192,-7.899],[1.206,-7.878],[1.283,-7.927],[1.346,-7.941],[1.423,-7.948],[1.522,-7.92],[1.697,-7.822],[1.711,-7.801],[1.746,-7.787],[1.767,-7.751],[1.683,-7.709],[1.683,-7.688],[1.844,-7.716],[2.019,-7.604],[2.188,-7.463],[2.209,-7.414],[2.209,-7.379],[2.195,-7.372],[2.188,-7.336],[2.328,-7.336],[2.433,-7.245],[2.496,-7.21],[2.531,-7.21]]],[[[-2.18,-7.287],[-2.131,-7.287],[-2.131,-7.358],[-2.012,-7.358],[-1.949,-7.449],[-1.816,-7.547],[-1.732,-7.583],[-1.613,-7.702],[-1.613,-7.716],[-1.549,-7.78],[-1.536,-7.78],[-1.536,-7.794],[-1.521,-7.794],[-1.423,-7.899],[-1.409,-7.899],[-1.409,-7.913],[-1.36,-7.934],[-1.346,-7.955],[-1.269,-7.962],[-1.15,-7.92],[-1.136,-7.969],[-1.206,-8.019],[-1.206,-8.082],[-1.164,-8.11],[-1.045,-8.124],[-1.087,-8.194],[-1.192,-8.173],[-1.311,-8.117],[-1.683,-7.892],[-1.921,-7.716],[-1.942,-7.688],[-1.949,-7.695],[-1.963,-7.681],[-1.956,-7.674],[-1.97,-7.66],[-1.977,-7.667],[-2.012,-7.639],[-2.005,-7.632],[-2.019,-7.632],[-2.061,-7.59],[-2.187,-7.47],[-2.18,-7.287]]]]},"properties":{"abbr":"vsc","name":"ventral spinocerebellar tract","plate":56,"ap_bregma_mm":-11.45,"area_mm2":0.4129,"traced_fraction":[0.991,0.93],"n_labels":2,"no_drawn_outline":false}},{"type":"Feature","geometry":{"type":"Polygon","coordinates":[[[-0.364,-1.604],[-0.358,-1.611],[-0.4,-1.639],[-0.435,-1.71],[-0.428,-1.773],[-0.371,-1.872],[-0.687,-1.921],[-0.855,-1.984],[-0.897,-2.012],[-0.989,-2.104],[-0.989,-2.118],[-1.002,-2.118],[-1.108,-2.287],[-1.122,-2.336],[-1.164,-2.392],[-1.227,-2.54],[-1.255,-2.568],[-1.262,-2.596],[-1.276,-2.596],[-1.304,-2.631],[-1.325,-2.631],[-1.325,-2.61],[-1.262,-2.476],[-1.248,-2.469],[-1.185,-2.315],[-1.164,-2.153],[-1.101,-2.223],[-0.968,-1.991],[-0.764,-1.914],[-0.722,-1.886],[-0.442,-1.85],[-0.477,-1.696],[-0.463,-1.689],[-0.407,-1.569],[-0.386,-1.604],[-0.364,-1.604]]]},"properties":{"abbr":null,"name":"unnamed sealed face","plate":56,"ap_bregma_mm":-11.45,"index":0}},{"type":"Feature","geometry":{"type":"Polygon","coordinates":[[[0.554,-1.759],[0.554,-1.893],[0.869,-1.991],[1.017,-2.132],[1.122,-2.09],[1.185,-2.047],[1.486,-2.118],[1.711,-2.258],[1.725,-2.294],[1.795,-2.371],[1.809,-2.455],[1.788,-2.455],[1.788,-2.434],[1.746,-2.371],[1.732,-2.371],[1.718,-2.336],[1.704,-2.336],[1.648,-2.265],[1.564,-2.202],[1.416,-2.132],[1.304,-2.104],[1.206,-2.097],[1.101,-2.118],[1.024,-2.167],[0.856,-2.033],[0.617,-1.921],[0.435,-1.872],[0.442,-1.85],[0.484,-1.822],[0.519,-1.773],[0.533,-1.773],[0.533,-1.759],[0.554,-1.759]]]},"properties":{"abbr":null,"name":"unnamed sealed face","plate":56,"ap_bregma_mm":-11.45,"index":1}},{"type":"Feature","geometry":{"type":"Polygon","coordinates":[[[-1.753,-3.285],[-1.767,-3.334],[-1.907,-3.538],[-1.907,-3.56],[-1.956,-3.637],[-2.089,-4.073],[-2.117,-4.214],[-2.124,-4.383],[-2.11,-4.467],[-2.075,-4.523],[-2.04,-4.551],[-2.047,-4.558],[-2.089,-4.558],[-2.11,-4.544],[-2.124,-4.46],[-2.159,-4.368],[-2.11,-3.96],[-2.026,-3.7],[-1.809,-3.342],[-1.823,-3.299],[-1.753,-3.285]]]},"properties":{"abbr":null,"name":"unnamed sealed face","plate":56,"ap_bregma_mm":-11.45,"index":2}},{"type":"Feature","geometry":{"type":"Polygon","coordinates":[[[-1.178,-5.205],[-1.276,-5.219],[-1.304,-5.255],[-1.36,-5.248],[-1.486,-5.318],[-1.536,-5.381],[-1.549,-5.381],[-1.57,-5.416],[-1.585,-5.416],[-1.711,-5.536],[-1.984,-5.698],[-2.195,-5.852],[-2.363,-6.028],[-2.398,-6.092],[-2.412,-6.092],[-2.489,-6.253],[-2.503,-6.253],[-2.44,-6.078],[-2.223,-5.845],[-2.138,-5.789],[-2.082,-5.726],[-1.942,-5.613],[-1.648,-5.466],[-1.62,-5.381],[-1.557,-5.332],[-1.479,-5.297],[-1.479,-5.283],[-1.507,-5.276],[-1.5,-5.262],[-1.325,-5.205],[-1.297,-5.177],[-1.178,-5.205]]]},"properties":{"abbr":null,"name":"unnamed sealed face","plate":56,"ap_bregma_mm":-11.45,"index":3}},{"type":"Feature","geometry":{"type":"Polygon","coordinates":[[[1.353,-5.226],[1.241,-5.191],[1.122,-5.198],[1.066,-5.219],[1.017,-5.226],[0.813,-5.304],[0.596,-5.325],[0.589,-5.339],[0.372,-5.374],[0.175,-5.388],[0.035,-5.346],[-0.028,-5.346],[-0.175,-5.395],[-0.273,-5.402],[-0.54,-5.36],[-0.596,-5.339],[-0.589,-5.325],[-0.273,-5.388],[-0.217,-5.388],[0.0,-5.318],[0.414,-5.353],[1.108,-5.177],[1.304,-5.177],[1.353,-5.226]]]},"properties":{"abbr":null,"name":"unnamed sealed face","plate":56,"ap_bregma_mm":-11.45,"index":4}},{"type":"Feature","geometry":{"type":"Polygon","coordinates":[[[1.613,-5.444],[2.111,-5.67],[2.622,-6.218],[2.594,-6.239],[2.693,-6.288],[2.657,-6.324],[2.664,-6.345],[2.643,-6.345],[2.636,-6.317],[2.531,-6.176],[2.489,-6.141],[2.489,-6.127],[2.475,-6.127],[2.335,-5.944],[2.321,-5.944],[2.293,-5.895],[2.202,-5.81],[2.195,-5.789],[2.174,-5.782],[2.174,-5.768],[2.019,-5.655],[1.683,-5.501],[1.613,-5.459],[1.613,-5.444]]]},"properties":{"abbr":null,"name":"unnamed sealed face","plate":56,"ap_bregma_mm":-11.45,"index":5}},{"type":"Feature","geometry":{"type":"Polygon","coordinates":[[[0.428,-6.556],[0.421,-6.605],[0.449,-6.605],[0.449,-6.753],[0.267,-6.753],[0.267,-6.725],[0.246,-6.703],[0.267,-6.612],[0.365,-6.598],[0.372,-6.577],[0.428,-6.556]]]},"properties":{"abbr":null,"name":"unnamed sealed face","plate":56,"ap_bregma_mm":-11.45,"index":6}},{"type":"Feature","geometry":{"type":"Polygon","coordinates":[[[2.721,-6.9],[2.706,-7.027],[2.629,-7.111],[2.517,-7.273],[2.552,-7.407],[2.391,-7.421],[2.377,-7.491],[2.335,-7.477],[1.984,-7.85],[1.844,-7.892],[1.844,-7.871],[1.914,-7.843],[1.949,-7.801],[1.984,-7.787],[2.04,-7.744],[2.04,-7.73],[2.083,-7.709],[2.083,-7.695],[2.132,-7.667],[2.132,-7.653],[2.153,-7.646],[2.153,-7.632],[2.167,-7.632],[2.174,-7.611],[2.188,-7.611],[2.489,-7.294],[2.531,-7.21],[2.636,-7.069],[2.636,-7.048],[2.693,-6.95],[2.699,-6.9],[2.721,-6.9]]]},"properties":{"abbr":null,"name":"unnamed sealed face","plate":56,"ap_bregma_mm":-11.45,"index":7}},{"type":"Feature","geometry":{"type":"Polygon","coordinates":[[[-2.44,-7.125],[-2.426,-7.125],[-2.426,-7.139],[-2.377,-7.182],[-2.363,-7.217],[-2.321,-7.217],[-2.258,-7.259],[-2.18,-7.287],[-2.187,-7.47],[-2.258,-7.407],[-2.405,-7.407],[-2.405,-7.196],[-2.44,-7.125]]]},"properties":{"abbr":null,"name":"unnamed sealed face","plate":56,"ap_bregma_mm":-11.45,"index":8}},{"type":"Feature","geometry":{"type":"Polygon","coordinates":[[[-1.963,-7.175],[-1.956,-7.266],[-1.83,-7.224],[-1.732,-7.231],[-1.641,-7.28],[-1.563,-7.358],[-1.514,-7.421],[-1.43,-7.576],[-1.493,-7.583],[-1.514,-7.597],[-1.514,-7.618],[-1.479,-7.646],[-1.402,-7.758],[-1.36,-7.871],[-1.36,-7.934],[-1.409,-7.913],[-1.409,-7.899],[-1.423,-7.899],[-1.521,-7.794],[-1.536,-7.794],[-1.536,-7.78],[-1.549,-7.78],[-1.732,-7.583],[-1.816,-7.547],[-1.949,-7.449],[-2.012,-7.358],[-2.131,-7.358],[-2.131,-7.287],[-2.103,-7.273],[-2.075,-7.203],[-1.963,-7.175]]]},"properties":{"abbr":null,"name":"unnamed sealed face","plate":56,"ap_bregma_mm":-11.45,"index":9}},{"type":"Feature","geometry":{"type":"Polygon","coordinates":[[[1.683,-7.709],[1.767,-7.751],[1.76,-7.773],[1.697,-7.822],[1.522,-7.92],[1.423,-7.948],[1.346,-7.941],[1.346,-7.927],[1.451,-7.843],[1.451,-7.829],[1.536,-7.773],[1.683,-7.709]]]},"properties":{"abbr":null,"name":"unnamed sealed face","plate":56,"ap_bregma_mm":-11.45,"index":10}},{"type":"Feature","geometry":{"type":"Polygon","coordinates":[[[1.83,-7.892],[1.879,-7.941],[2.111,-7.906],[2.089,-7.969],[2.061,-8.005],[2.061,-8.019],[2.132,-8.033],[2.111,-8.047],[2.054,-8.054],[2.026,-7.976],[2.012,-7.976],[1.914,-8.075],[1.879,-7.962],[1.865,-8.054],[1.851,-8.047],[1.83,-7.99],[1.795,-8.054],[1.683,-8.054],[1.676,-8.005],[1.662,-7.99],[1.536,-8.075],[1.066,-8.11],[1.066,-8.103],[1.073,-8.096],[1.08,-8.089],[1.241,-8.075],[1.494,-8.054],[1.641,-7.99],[1.69,-7.948],[1.711,-7.948],[1.802,-7.892],[1.83,-7.892]]]},"properties":{"abbr":null,"name":"unnamed sealed face","plate":56,"ap_bregma_mm":-11.45,"index":11}},{"type":"Feature","geometry":{"type":"Polygon","coordinates":[[[0.105,-8.061],[0.175,-8.11],[0.182,-8.145],[0.274,-8.23],[0.337,-8.258],[0.428,-8.272],[0.589,-8.258],[0.877,-8.18],[0.877,-8.188],[0.638,-8.286],[0.301,-8.286],[0.189,-8.209],[0.203,-8.286],[0.105,-8.3],[0.035,-8.23],[0.007,-8.272],[-0.035,-8.3],[-0.063,-8.251],[-0.105,-8.286],[-0.14,-8.138],[-0.189,-8.251],[-0.428,-8.321],[-0.47,-8.314],[-0.47,-8.3],[-0.379,-8.293],[-0.28,-8.258],[-0.182,-8.173],[-0.147,-8.11],[-0.035,-8.047],[0.049,-8.04],[0.105,-8.061]]]},"properties":{"abbr":null,"name":"unnamed sealed face","plate":56,"ap_bregma_mm":-11.45,"index":12}},{"type":"Feature","geometry":{"type":"MultiPolygon","coordinates":[[[[-1.298,-5.179],[-0.246,-5.391],[0.0,-5.32],[0.386,-5.355],[1.105,-5.179],[1.298,-5.179],[1.579,-5.426],[2.105,-5.672],[2.614,-6.218],[2.579,-6.236],[2.684,-6.289],[2.649,-6.324],[2.737,-6.553],[2.702,-7.01],[2.509,-7.274],[2.544,-7.398],[2.386,-7.415],[2.368,-7.486],[2.333,-7.468],[1.982,-7.838],[1.825,-7.891],[1.877,-7.943],[2.105,-7.908],[2.053,-8.014],[2.123,-8.032],[2.053,-8.049],[2.017,-7.961],[1.912,-8.067],[1.877,-7.943],[1.86,-8.049],[1.825,-7.979],[1.789,-8.049],[1.684,-8.049],[1.667,-7.979],[1.526,-8.067],[1.07,-8.102],[0.631,-8.278],[0.298,-8.278],[0.175,-8.19],[0.193,-8.278],[0.105,-8.296],[0.035,-8.225],[-0.035,-8.296],[-0.07,-8.243],[-0.105,-8.278],[-0.14,-8.12],[-0.193,-8.243],[-0.439,-8.313],[-1.053,-8.26],[-1.456,-8.049],[-1.579,-8.049],[-1.614,-7.979],[-1.684,-8.049],[-1.789,-8.049],[-1.807,-7.996],[-1.842,-8.049],[-1.947,-8.049],[-1.947,-7.926],[-1.877,-8.032],[-1.789,-7.838],[-1.947,-7.75],[-1.93,-7.715],[-2.263,-7.398],[-2.404,-7.398],[-2.404,-7.204],[-2.597,-6.817],[-2.632,-6.377],[-2.544,-6.341],[-2.439,-6.077],[-2.246,-5.866],[-1.947,-5.62],[-1.649,-5.461],[-1.614,-5.373],[-1.474,-5.285],[-1.509,-5.267],[-1.316,-5.197],[-1.298,-5.179]]],[[[-0.035,-1.482],[0.263,-1.482],[0.228,-1.517],[0.404,-1.553],[0.544,-1.658],[0.544,-1.887],[0.86,-1.993],[1.017,-2.134],[1.193,-2.046],[1.474,-2.116],[1.702,-2.257],[1.789,-2.38],[1.86,-2.891],[1.825,-2.961],[1.702,-3.014],[1.649,-2.979],[1.596,-3.049],[2.0,-3.965],[2.07,-4.264],[2.035,-4.563],[1.842,-4.669],[1.544,-4.581],[1.368,-4.827],[1.0,-5.074],[0.667,-5.162],[-0.298,-5.197],[-0.895,-5.091],[-1.211,-4.95],[-1.281,-4.986],[-1.316,-4.898],[-1.544,-4.757],[-1.684,-4.493],[-1.895,-4.581],[-2.105,-4.546],[-2.158,-4.352],[-2.105,-3.947],[-2.018,-3.683],[-1.807,-3.331],[-2.07,-2.803],[-2.14,-2.803],[-2.105,-2.732],[-2.193,-2.468],[-2.088,-2.275],[-1.439,-2.046],[-1.246,-2.063],[-1.105,-2.222],[-0.965,-1.993],[-0.719,-1.887],[-0.439,-1.852],[-0.474,-1.694],[-0.403,-1.57],[-0.386,-1.605],[-0.053,-1.5],[-0.035,-1.482]]]]},"properties":{"abbr":"brain_outline","name":"outline of the section","plate":56,"ap_bregma_mm":-11.45}}]}
