{"type":"FeatureCollection","name":"GerbilAtlas plate 03","note":"Region extents cut from the atlas drawing (METHODS.md, Region extents). Coordinates are [ML, DV] in mm, ML positive to the right of the plate as printed, DV negative below the dorsal surface; AP is the plate bregma. traced_fraction is the share of each polygon boundary the atlas actually draws; below 0.5 the boundary is an estimate. no_drawn_outline marks a feature that lies only inside boundaries the atlas draws round more than one name and prints nothing within, so the whole of its outline is where the extraction cut it. Not a segmentation.","plate":3,"ap_bregma_mm":7.1,"features":[{"type":"Feature","geometry":{"type":"MultiPolygon","coordinates":[[[[1.527,-4.136],[1.548,-4.157],[1.541,-4.164],[1.562,-4.185],[1.569,-4.178],[1.576,-4.192],[1.618,-4.234],[1.695,-4.326],[1.674,-4.333],[1.695,-4.403],[1.611,-4.41],[1.59,-4.403],[1.492,-4.291],[1.415,-4.277],[1.38,-4.241],[1.359,-4.192],[1.282,-4.136],[1.156,-4.101],[1.064,-4.037],[0.931,-4.045],[0.889,-4.023],[0.826,-4.023],[0.819,-3.974],[0.945,-3.953],[1.078,-3.953],[1.106,-3.974],[1.191,-3.995],[1.24,-4.052],[1.331,-4.087],[1.359,-4.115],[1.457,-4.122],[1.506,-4.15],[1.527,-4.136]]],[[[-1.411,-4.53],[-1.354,-4.544],[-1.382,-4.579],[-1.39,-4.614],[-1.425,-4.692],[-1.46,-4.699],[-1.495,-4.755],[-1.544,-4.874],[-1.565,-4.973],[-1.558,-5.191],[-1.523,-5.268],[-1.495,-5.282],[-1.495,-5.303],[-1.446,-5.36],[-1.425,-5.416],[-1.397,-5.437],[-1.382,-5.472],[-1.361,-5.479],[-1.348,-5.514],[-1.333,-5.514],[-1.291,-5.571],[-1.256,-5.578],[-1.249,-5.627],[-1.284,-5.627],[-1.327,-5.599],[-1.34,-5.571],[-1.509,-5.416],[-1.572,-5.332],[-1.614,-5.212],[-1.621,-5.057],[-1.586,-4.846],[-1.502,-4.635],[-1.439,-4.544],[-1.411,-4.53]]]]},"properties":{"abbr":"Mi","name":"mitral cell layer of the olfactory bulb","plate":3,"ap_bregma_mm":7.1,"area_mm2":0.1711,"traced_fraction":[0.99,1.0],"n_labels":2,"no_drawn_outline":false}},{"type":"Feature","geometry":{"type":"MultiPolygon","coordinates":[[[[-0.443,-4.692],[-0.457,-4.811],[-0.499,-4.966],[-0.52,-4.973],[-0.534,-5.008],[-0.59,-5.233],[-0.604,-5.339],[-0.583,-5.367],[-0.618,-5.557],[-0.639,-5.592],[-0.639,-5.718],[-0.576,-6.028],[-0.527,-6.197],[-0.513,-6.351],[-0.527,-6.351],[-0.548,-6.422],[-0.541,-6.485],[-0.646,-6.605],[-0.731,-6.661],[-0.871,-6.71],[-1.025,-6.724],[-1.151,-6.682],[-1.263,-6.583],[-1.284,-6.506],[-1.277,-6.422],[-1.186,-6.126],[-1.158,-6.112],[-1.137,-6.063],[-1.13,-5.958],[-1.144,-5.943],[-1.144,-5.859],[-1.13,-5.81],[-1.144,-5.725],[-0.941,-5.718],[-0.913,-5.747],[-0.899,-5.908],[-0.927,-5.922],[-0.927,-6.147],[-0.941,-6.225],[-0.983,-6.316],[-0.983,-6.358],[-0.962,-6.38],[-0.906,-6.38],[-0.885,-6.365],[-0.85,-6.316],[-0.85,-6.246],[-0.836,-6.147],[-0.836,-6.028],[-0.85,-6.007],[-0.85,-5.979],[-0.85,-5.697],[-0.878,-5.458],[-0.864,-5.458],[-0.85,-5.402],[-0.85,-5.247],[-0.836,-5.198],[-0.808,-5.177],[-0.773,-5.015],[-0.773,-4.888],[-0.808,-4.839],[-0.885,-4.811],[-1.011,-4.825],[-1.081,-4.881],[-1.116,-4.952],[-1.123,-5.029],[-1.074,-5.24],[-1.495,-5.247],[-1.537,-5.149],[-1.537,-5.029],[-1.509,-4.888],[-1.425,-4.692],[-1.39,-4.614],[-1.354,-4.607],[-1.348,-4.586],[-1.27,-4.516],[-1.249,-4.516],[-1.242,-4.502],[-1.123,-4.445],[-1.011,-4.41],[-0.864,-4.403],[-0.639,-4.452],[-0.541,-4.502],[-0.499,-4.544],[-0.478,-4.586],[-0.464,-4.685],[-0.443,-4.692]]]]},"properties":{"abbr":"aci","name":"anterior commissure, intrabulbar part","plate":3,"ap_bregma_mm":7.1,"area_mm2":1.294,"traced_fraction":[0.946],"n_labels":2,"no_drawn_outline":false}},{"type":"Feature","geometry":{"type":"MultiPolygon","coordinates":[[[[0.798,-4.284],[0.854,-4.291],[0.959,-4.333],[0.966,-4.347],[1.008,-4.354],[1.015,-4.368],[1.036,-4.368],[1.043,-4.382],[1.064,-4.382],[1.163,-4.438],[1.282,-4.523],[1.359,-4.607],[1.401,-4.677],[1.422,-4.699],[1.443,-4.699],[1.457,-4.776],[1.492,-4.839],[1.499,-4.881],[1.492,-5.036],[1.436,-5.156],[1.38,-5.226],[1.366,-5.268],[1.331,-5.303],[1.289,-5.395],[1.233,-5.472],[1.156,-5.634],[1.106,-5.796],[1.078,-5.789],[1.106,-5.606],[1.078,-5.62],[1.05,-5.704],[1.05,-5.775],[1.064,-5.796],[1.064,-5.958],[1.085,-5.972],[1.085,-5.986],[1.057,-5.993],[1.064,-6.077],[0.917,-6.077],[0.896,-5.972],[0.889,-5.74],[0.868,-5.732],[0.868,-5.711],[0.868,-5.704],[0.868,-5.69],[0.847,-5.564],[0.875,-5.451],[0.91,-5.402],[0.917,-5.353],[0.938,-5.325],[0.903,-5.325],[0.924,-5.212],[0.973,-5.212],[1.282,-5.219],[1.24,-5.296],[1.24,-5.31],[1.261,-5.31],[1.359,-5.191],[1.387,-5.135],[1.387,-5.092],[1.429,-5.036],[1.45,-4.952],[1.457,-4.86],[1.422,-4.818],[1.401,-4.741],[1.324,-4.614],[1.184,-4.495],[0.84,-4.333],[0.798,-4.298],[0.798,-4.284]]],[[[-1.074,-5.24],[-0.976,-5.493],[-0.962,-5.641],[-0.941,-5.718],[-1.144,-5.725],[-1.2,-5.69],[-1.249,-5.627],[-1.256,-5.578],[-1.27,-5.536],[-1.312,-5.493],[-1.327,-5.458],[-1.348,-5.451],[-1.369,-5.409],[-1.382,-5.409],[-1.411,-5.367],[-1.446,-5.36],[-1.495,-5.303],[-1.495,-5.282],[-1.495,-5.247],[-1.074,-5.24]]],[[[1.198,-5.381],[1.142,-5.472],[1.142,-5.507],[1.17,-5.5],[1.198,-5.451],[1.212,-5.402],[1.212,-5.381],[1.198,-5.381]]]]},"properties":{"abbr":"GrO","name":"granular cell layer of the olfactory bulb","plate":3,"ap_bregma_mm":7.1,"area_mm2":0.4543,"traced_fraction":[0.942,0.718,1.0],"n_labels":2,"no_drawn_outline":false}},{"type":"Feature","geometry":{"type":"MultiPolygon","coordinates":[[[[0.826,-4.023],[0.889,-4.023],[0.931,-4.045],[1.064,-4.037],[1.156,-4.101],[1.282,-4.136],[1.359,-4.192],[1.366,-4.22],[1.415,-4.277],[1.492,-4.291],[1.534,-4.326],[1.548,-4.361],[1.611,-4.41],[1.653,-4.579],[1.653,-4.685],[1.703,-4.832],[1.716,-5.078],[1.674,-5.247],[1.534,-5.465],[1.478,-5.613],[1.429,-5.676],[1.373,-5.817],[1.324,-5.873],[1.303,-5.922],[1.303,-5.986],[1.352,-6.049],[1.359,-6.176],[1.415,-6.302],[1.415,-6.387],[1.394,-6.422],[1.387,-6.513],[1.331,-6.612],[1.303,-6.633],[1.226,-6.745],[1.127,-6.844],[1.008,-6.914],[0.903,-6.921],[0.819,-6.886],[0.707,-6.893],[0.546,-6.816],[0.468,-6.802],[0.44,-6.787],[0.384,-6.717],[0.37,-6.633],[0.279,-6.499],[0.258,-6.401],[0.258,-6.253],[0.286,-6.133],[0.286,-5.993],[0.272,-5.922],[0.307,-5.873],[0.3,-5.641],[0.349,-5.55],[0.342,-5.374],[0.356,-5.346],[0.356,-5.268],[0.321,-5.205],[0.272,-5.029],[0.258,-4.867],[0.188,-4.692],[0.181,-4.516],[0.202,-4.424],[0.265,-4.305],[0.356,-4.248],[0.405,-4.185],[0.574,-4.164],[0.602,-4.15],[0.672,-4.073],[0.826,-4.023]]],[[[-0.92,-4.157],[-0.773,-4.171],[-0.71,-4.199],[-0.625,-4.27],[-0.457,-4.291],[-0.366,-4.333],[-0.247,-4.459],[-0.205,-4.544],[-0.184,-4.628],[-0.184,-4.748],[-0.205,-4.832],[-0.219,-5.015],[-0.247,-5.078],[-0.282,-5.107],[-0.303,-5.17],[-0.296,-5.374],[-0.324,-5.543],[-0.324,-5.69],[-0.303,-5.747],[-0.317,-5.866],[-0.296,-5.894],[-0.261,-6.063],[-0.268,-6.112],[-0.296,-6.14],[-0.296,-6.183],[-0.282,-6.197],[-0.268,-6.267],[-0.282,-6.443],[-0.338,-6.576],[-0.373,-6.773],[-0.394,-6.787],[-0.506,-6.795],[-0.667,-6.928],[-0.766,-6.97],[-0.955,-6.956],[-1.144,-6.907],[-1.214,-6.837],[-1.312,-6.787],[-1.439,-6.661],[-1.488,-6.591],[-1.509,-6.506],[-1.495,-6.309],[-1.516,-6.246],[-1.516,-6.168],[-1.481,-6.098],[-1.488,-5.979],[-1.544,-5.838],[-1.67,-5.69],[-1.698,-5.627],[-1.747,-5.381],[-1.789,-5.31],[-1.859,-5.247],[-1.887,-5.177],[-1.873,-5.036],[-1.782,-4.853],[-1.74,-4.692],[-1.684,-4.579],[-1.572,-4.424],[-1.481,-4.361],[-1.354,-4.22],[-1.27,-4.171],[-0.969,-4.171],[-0.92,-4.157]]],[[[0.854,-6.731],[0.959,-6.731],[1.085,-6.703],[1.184,-6.605],[1.226,-6.583],[1.254,-6.513],[1.261,-6.45],[1.212,-6.246],[1.106,-5.936],[1.106,-5.796],[1.156,-5.634],[1.233,-5.472],[1.289,-5.395],[1.331,-5.303],[1.366,-5.268],[1.38,-5.226],[1.436,-5.156],[1.492,-5.036],[1.499,-4.881],[1.492,-4.839],[1.457,-4.776],[1.443,-4.699],[1.436,-4.621],[1.415,-4.572],[1.296,-4.452],[1.177,-4.382],[1.135,-4.375],[1.127,-4.361],[1.008,-4.312],[1.001,-4.298],[0.826,-4.234],[0.651,-4.227],[0.538,-4.256],[0.419,-4.347],[0.37,-4.445],[0.37,-4.586],[0.391,-4.699],[0.525,-5.149],[0.595,-5.486],[0.574,-5.697],[0.496,-5.972],[0.454,-6.197],[0.447,-6.365],[0.496,-6.506],[0.595,-6.626],[0.735,-6.717],[0.798,-6.738],[0.854,-6.731]]],[[[-1.411,-4.53],[-1.439,-4.544],[-1.502,-4.635],[-1.586,-4.846],[-1.621,-5.057],[-1.614,-5.212],[-1.572,-5.332],[-1.509,-5.416],[-1.404,-5.521],[-1.39,-5.521],[-1.327,-5.599],[-1.284,-5.627],[-1.249,-5.627],[-1.2,-5.69],[-1.144,-5.725],[-1.13,-5.81],[-1.172,-5.81],[-1.186,-5.732],[-1.2,-5.711],[-1.221,-5.711],[-1.221,-5.747],[-1.193,-5.817],[-1.193,-5.979],[-1.214,-6.084],[-1.298,-6.302],[-1.327,-6.415],[-1.333,-6.506],[-1.319,-6.569],[-1.284,-6.64],[-1.27,-6.64],[-1.242,-6.682],[-1.172,-6.724],[-1.088,-6.752],[-0.99,-6.773],[-0.871,-6.773],[-0.744,-6.738],[-0.59,-6.64],[-0.527,-6.569],[-0.485,-6.492],[-0.492,-6.358],[-0.478,-6.358],[-0.471,-6.33],[-0.478,-6.19],[-0.59,-5.775],[-0.597,-5.585],[-0.618,-5.557],[-0.583,-5.367],[-0.555,-5.332],[-0.527,-5.303],[-0.471,-5.113],[-0.394,-4.762],[-0.401,-4.558],[-0.443,-4.481],[-0.485,-4.438],[-0.59,-4.375],[-0.71,-4.34],[-0.85,-4.326],[-1.081,-4.333],[-1.165,-4.347],[-1.277,-4.389],[-1.361,-4.452],[-1.361,-4.466],[-1.411,-4.509],[-1.411,-4.53]]]]},"properties":{"abbr":"EPl","name":"external plexiform layer of the olfactory bulb","plate":3,"ap_bregma_mm":7.1,"area_mm2":2.8353,"traced_fraction":[1.0,1.0,1.0,1.0],"n_labels":2,"no_drawn_outline":false}},{"type":"Feature","geometry":{"type":"MultiPolygon","coordinates":[[[[0.819,-3.974],[0.826,-4.023],[0.672,-4.073],[0.602,-4.15],[0.574,-4.164],[0.405,-4.185],[0.356,-4.248],[0.265,-4.305],[0.216,-4.389],[0.181,-4.516],[0.188,-4.692],[0.258,-4.867],[0.272,-5.029],[0.321,-5.205],[0.356,-5.268],[0.356,-5.346],[0.342,-5.374],[0.349,-5.55],[0.3,-5.641],[0.307,-5.873],[0.272,-5.922],[0.286,-5.993],[0.286,-6.133],[0.258,-6.253],[0.258,-6.401],[0.279,-6.499],[0.37,-6.633],[0.384,-6.717],[0.412,-6.759],[0.468,-6.802],[0.546,-6.816],[0.707,-6.893],[0.819,-6.886],[0.903,-6.921],[1.008,-6.914],[1.127,-6.844],[1.226,-6.745],[1.303,-6.633],[1.331,-6.612],[1.387,-6.513],[1.394,-6.422],[1.415,-6.387],[1.415,-6.302],[1.359,-6.176],[1.352,-6.049],[1.303,-5.986],[1.303,-5.922],[1.324,-5.873],[1.373,-5.817],[1.429,-5.676],[1.478,-5.613],[1.534,-5.465],[1.674,-5.247],[1.716,-5.078],[1.703,-4.832],[1.653,-4.685],[1.653,-4.579],[1.611,-4.41],[1.695,-4.403],[1.766,-4.551],[1.801,-4.706],[1.836,-4.783],[1.878,-4.959],[1.913,-5.043],[1.892,-5.205],[1.941,-5.282],[1.941,-5.303],[1.99,-5.303],[1.99,-5.367],[1.941,-5.62],[1.92,-5.88],[1.885,-6.021],[1.829,-6.133],[1.625,-6.429],[1.527,-6.499],[1.331,-6.752],[1.121,-6.949],[1.093,-6.956],[1.029,-6.956],[0.896,-6.998],[0.588,-6.998],[0.51,-6.984],[0.44,-6.963],[0.37,-6.914],[0.307,-6.837],[0.258,-6.745],[0.202,-6.576],[0.153,-6.513],[0.146,-6.415],[0.132,-6.387],[0.132,-6.232],[0.174,-6.14],[0.146,-6.014],[0.146,-5.936],[0.167,-5.852],[0.146,-5.789],[0.139,-5.641],[0.097,-5.557],[0.097,-5.493],[0.146,-5.388],[0.139,-5.254],[0.125,-5.226],[0.132,-5.029],[0.118,-4.896],[0.062,-4.79],[0.041,-4.706],[0.048,-4.642],[0.069,-4.614],[0.083,-4.544],[0.153,-4.382],[0.167,-4.375],[0.223,-4.248],[0.314,-4.157],[0.44,-4.073],[0.56,-4.023],[0.819,-3.974]]],[[[-0.871,-4.002],[-0.878,-4.016],[-0.899,-4.009],[-0.871,-4.002]]],[[[-0.913,-4.009],[-0.92,-4.023],[-0.955,-4.016],[-0.913,-4.009]]],[[[-0.983,-4.016],[-0.99,-4.03],[-1.011,-4.023],[-0.983,-4.016]]],[[[-1.053,-4.03],[-1.067,-4.045],[-1.053,-4.066],[-0.941,-4.066],[-0.822,-4.037],[-0.766,-4.037],[-0.702,-4.052],[-0.611,-4.108],[-0.52,-4.108],[-0.443,-4.136],[-0.38,-4.192],[-0.331,-4.262],[-0.226,-4.326],[-0.226,-4.34],[-0.17,-4.382],[-0.1,-4.509],[-0.057,-4.67],[-0.043,-4.677],[-0.029,-4.727],[-0.001,-4.727],[-0.008,-4.783],[-0.085,-4.874],[-0.1,-4.931],[-0.106,-5.064],[-0.092,-5.289],[-0.134,-5.367],[-0.128,-5.486],[-0.149,-5.536],[-0.134,-5.845],[-0.092,-5.972],[-0.092,-6.155],[-0.17,-6.626],[-0.212,-6.759],[-0.261,-6.858],[-0.345,-6.949],[-0.387,-6.97],[-0.513,-6.991],[-0.576,-7.076],[-0.667,-7.104],[-0.85,-7.104],[-0.934,-7.062],[-1.018,-7.055],[-1.193,-6.942],[-1.242,-6.928],[-1.27,-6.928],[-1.284,-6.942],[-1.39,-6.858],[-1.488,-6.724],[-1.593,-6.612],[-1.691,-6.429],[-1.726,-6.394],[-1.705,-6.38],[-1.705,-6.344],[-1.74,-6.253],[-1.803,-6.14],[-1.873,-5.958],[-1.894,-5.936],[-1.915,-5.936],[-2.007,-5.536],[-2.014,-5.31],[-1.986,-5.078],[-1.88,-4.72],[-1.796,-4.558],[-1.67,-4.396],[-1.642,-4.361],[-1.649,-4.396],[-1.593,-4.375],[-1.586,-4.354],[-1.572,-4.354],[-1.572,-4.291],[-1.509,-4.241],[-1.502,-4.248],[-1.502,-4.234],[-1.453,-4.192],[-1.446,-4.22],[-1.411,-4.22],[-1.376,-4.192],[-1.369,-4.15],[-1.249,-4.087],[-1.053,-4.03]]],[[[-0.92,-4.157],[-0.969,-4.171],[-1.27,-4.171],[-1.354,-4.22],[-1.481,-4.361],[-1.572,-4.424],[-1.684,-4.579],[-1.74,-4.692],[-1.782,-4.853],[-1.873,-5.036],[-1.887,-5.177],[-1.859,-5.247],[-1.768,-5.339],[-1.733,-5.423],[-1.691,-5.648],[-1.656,-5.711],[-1.544,-5.838],[-1.488,-5.979],[-1.481,-6.098],[-1.516,-6.168],[-1.516,-6.246],[-1.495,-6.309],[-1.509,-6.506],[-1.488,-6.591],[-1.439,-6.661],[-1.312,-6.787],[-1.214,-6.837],[-1.144,-6.907],[-0.997,-6.949],[-0.766,-6.97],[-0.667,-6.928],[-0.506,-6.795],[-0.394,-6.787],[-0.373,-6.773],[-0.338,-6.576],[-0.282,-6.443],[-0.268,-6.267],[-0.282,-6.197],[-0.296,-6.183],[-0.296,-6.14],[-0.268,-6.112],[-0.261,-6.063],[-0.296,-5.894],[-0.317,-5.866],[-0.303,-5.747],[-0.324,-5.69],[-0.324,-5.543],[-0.296,-5.374],[-0.303,-5.17],[-0.282,-5.107],[-0.247,-5.078],[-0.219,-5.015],[-0.205,-4.832],[-0.184,-4.748],[-0.184,-4.628],[-0.205,-4.544],[-0.247,-4.459],[-0.366,-4.333],[-0.457,-4.291],[-0.625,-4.27],[-0.689,-4.213],[-0.773,-4.171],[-0.92,-4.157]]],[[[1.983,-5.071],[1.99,-5.092],[1.976,-5.092],[1.983,-5.071]]]]},"properties":{"abbr":"Gl","name":"glomerular layer of the olfactory bulb","plate":3,"ap_bregma_mm":7.1,"area_mm2":2.4492,"traced_fraction":[0.998,1.0,1.0,1.0,1.0,1.0,1.0],"n_labels":2,"no_drawn_outline":false}},{"type":"Feature","geometry":{"type":"MultiPolygon","coordinates":[[[[1.443,-4.699],[1.422,-4.699],[1.401,-4.677],[1.359,-4.607],[1.282,-4.523],[1.163,-4.438],[1.064,-4.382],[1.043,-4.382],[1.036,-4.368],[1.015,-4.368],[1.008,-4.354],[0.966,-4.347],[0.959,-4.333],[0.854,-4.291],[0.798,-4.284],[0.672,-4.27],[0.546,-4.319],[0.461,-4.396],[0.419,-4.502],[0.433,-4.663],[0.595,-5.205],[0.609,-5.317],[0.63,-5.472],[0.651,-5.528],[0.63,-5.697],[0.546,-6.014],[0.517,-6.211],[0.496,-6.26],[0.496,-6.358],[0.532,-6.436],[0.56,-6.45],[0.553,-6.471],[0.63,-6.555],[0.644,-6.598],[0.658,-6.598],[0.693,-6.64],[0.805,-6.689],[0.854,-6.731],[0.798,-6.738],[0.735,-6.717],[0.595,-6.626],[0.496,-6.506],[0.447,-6.365],[0.454,-6.197],[0.496,-5.972],[0.574,-5.697],[0.595,-5.486],[0.525,-5.149],[0.391,-4.699],[0.37,-4.586],[0.37,-4.445],[0.419,-4.347],[0.538,-4.256],[0.651,-4.227],[0.826,-4.234],[1.001,-4.298],[1.008,-4.312],[1.029,-4.312],[1.135,-4.375],[1.177,-4.382],[1.296,-4.452],[1.415,-4.572],[1.436,-4.621],[1.443,-4.699]]],[[[-0.555,-5.332],[-0.569,-5.275],[-0.527,-5.149],[-0.492,-4.994],[-0.499,-4.966],[-0.457,-4.811],[-0.443,-4.692],[-0.436,-4.607],[-0.485,-4.509],[-0.527,-4.481],[-0.527,-4.466],[-0.555,-4.459],[-0.555,-4.445],[-0.738,-4.382],[-0.941,-4.368],[-1.158,-4.403],[-1.284,-4.466],[-1.284,-4.481],[-1.298,-4.481],[-1.354,-4.544],[-1.411,-4.53],[-1.411,-4.509],[-1.361,-4.466],[-1.361,-4.452],[-1.277,-4.389],[-1.214,-4.361],[-1.081,-4.333],[-0.85,-4.326],[-0.71,-4.34],[-0.59,-4.375],[-0.485,-4.438],[-0.443,-4.481],[-0.401,-4.558],[-0.394,-4.762],[-0.471,-5.113],[-0.527,-5.303],[-0.555,-5.332]]]]},"properties":{"abbr":"IPl","name":"internal plexiform layer of the olfactory bulb","plate":3,"ap_bregma_mm":7.1,"area_mm2":0.2974,"traced_fraction":[1.0,1.0],"n_labels":2,"no_drawn_outline":false}},{"type":"Feature","geometry":{"type":"MultiPolygon","coordinates":[[[[0.798,-4.284],[0.798,-4.298],[0.84,-4.333],[1.184,-4.495],[1.324,-4.614],[1.401,-4.741],[1.422,-4.818],[1.457,-4.86],[1.45,-4.952],[1.317,-4.952],[1.317,-5.121],[1.345,-5.128],[1.345,-5.142],[1.282,-5.219],[0.973,-5.212],[1.001,-5.085],[1.001,-4.931],[0.98,-4.867],[0.875,-4.734],[0.819,-4.706],[0.77,-4.706],[0.742,-4.734],[0.742,-4.776],[0.84,-4.938],[0.868,-5.121],[0.847,-5.282],[0.847,-5.437],[0.875,-5.451],[0.847,-5.564],[0.868,-5.69],[0.847,-5.683],[0.847,-5.662],[0.826,-5.669],[0.812,-5.754],[0.791,-5.908],[0.784,-6.176],[0.798,-6.204],[0.798,-6.26],[0.819,-6.302],[0.833,-6.337],[0.861,-6.358],[0.917,-6.351],[0.938,-6.316],[0.938,-6.19],[0.917,-6.077],[1.064,-6.077],[1.121,-6.274],[1.142,-6.302],[1.184,-6.443],[1.205,-6.457],[1.184,-6.605],[1.085,-6.703],[0.959,-6.731],[0.896,-6.689],[0.84,-6.682],[0.784,-6.654],[0.665,-6.562],[0.63,-6.555],[0.553,-6.471],[0.56,-6.45],[0.532,-6.33],[0.532,-6.218],[0.517,-6.211],[0.546,-6.014],[0.63,-5.697],[0.651,-5.528],[0.665,-5.528],[0.672,-5.507],[0.672,-5.444],[0.644,-5.346],[0.609,-5.317],[0.595,-5.205],[0.433,-4.663],[0.419,-4.502],[0.461,-4.396],[0.546,-4.319],[0.672,-4.27],[0.798,-4.284]]]]},"properties":{"abbr":"GrA","name":"granule cell layer of the accessory olfactory bulb","plate":3,"ap_bregma_mm":7.1,"area_mm2":1.1356,"traced_fraction":[0.93],"n_labels":1,"no_drawn_outline":false}},{"type":"Feature","geometry":{"type":"MultiPolygon","coordinates":[[[[0.924,-5.212],[0.903,-5.325],[0.903,-5.346],[0.917,-5.353],[0.91,-5.402],[0.875,-5.451],[0.847,-5.437],[0.847,-5.282],[0.868,-5.121],[0.84,-4.938],[0.917,-4.924],[0.924,-4.945],[0.924,-5.212]]],[[[0.812,-5.754],[0.861,-5.754],[0.861,-6.274],[0.84,-6.302],[0.819,-6.302],[0.798,-6.26],[0.798,-6.204],[0.784,-6.176],[0.791,-5.908],[0.812,-5.754]]],[[[-0.899,-5.908],[-0.878,-5.965],[-0.85,-5.979],[-0.85,-6.007],[-0.871,-6.007],[-0.885,-6.035],[-0.885,-6.225],[-0.871,-6.246],[-0.85,-6.246],[-0.85,-6.316],[-0.885,-6.365],[-0.906,-6.38],[-0.962,-6.38],[-0.983,-6.358],[-0.983,-6.316],[-0.948,-6.246],[-0.927,-6.147],[-0.927,-5.922],[-0.899,-5.908]]]]},"properties":{"abbr":"E","name":"ependyma and subependymal layer","plate":3,"ap_bregma_mm":7.1,"area_mm2":0.1008,"traced_fraction":[1.0,1.0,1.0],"n_labels":4,"no_drawn_outline":false}},{"type":"Feature","geometry":{"type":"MultiPolygon","coordinates":[[[[0.02,-4.713],[0.013,-4.727],[0.027,-4.713],[0.041,-4.706],[0.062,-4.79],[0.118,-4.896],[0.132,-5.029],[0.125,-5.226],[0.139,-5.254],[0.146,-5.388],[0.097,-5.493],[0.097,-5.557],[0.139,-5.641],[0.146,-5.789],[0.167,-5.852],[0.146,-5.936],[0.146,-6.014],[0.174,-6.119],[0.16,-6.19],[0.132,-6.232],[0.132,-6.387],[0.146,-6.415],[0.153,-6.513],[0.202,-6.576],[0.258,-6.745],[0.307,-6.837],[0.37,-6.914],[0.44,-6.963],[0.51,-6.984],[0.588,-6.998],[0.896,-6.998],[1.029,-6.956],[1.093,-6.956],[1.099,-6.97],[1.078,-6.991],[0.945,-7.118],[0.728,-7.266],[0.616,-7.329],[0.595,-7.329],[0.588,-7.343],[0.461,-7.385],[0.251,-7.385],[0.139,-7.343],[0.076,-7.266],[0.034,-7.055],[0.02,-6.949],[-0.001,-6.914],[-0.015,-6.914],[-0.029,-6.942],[-0.05,-7.012],[-0.043,-7.041],[-0.057,-7.048],[-0.1,-7.188],[-0.134,-7.252],[-0.24,-7.35],[-0.338,-7.392],[-0.436,-7.413],[-0.639,-7.413],[-0.738,-7.385],[-0.927,-7.273],[-1.025,-7.195],[-1.081,-7.132],[-1.165,-7.076],[-1.284,-6.942],[-1.27,-6.928],[-1.193,-6.942],[-1.018,-7.055],[-0.934,-7.062],[-0.85,-7.104],[-0.667,-7.104],[-0.576,-7.076],[-0.513,-6.991],[-0.387,-6.97],[-0.345,-6.949],[-0.261,-6.858],[-0.212,-6.759],[-0.17,-6.626],[-0.092,-6.155],[-0.092,-5.972],[-0.134,-5.845],[-0.149,-5.536],[-0.128,-5.486],[-0.134,-5.367],[-0.092,-5.289],[-0.106,-5.064],[-0.1,-4.931],[-0.085,-4.874],[-0.008,-4.783],[-0.001,-4.727],[-0.001,-4.706],[0.02,-4.713]]]]},"properties":{"abbr":"ON","name":"olfactory nerve layer","plate":3,"ap_bregma_mm":7.1,"area_mm2":1.29,"traced_fraction":[1.0],"n_labels":2,"no_drawn_outline":false}},{"type":"Feature","geometry":{"type":"Polygon","coordinates":[[[1.527,-4.136],[1.506,-4.15],[1.457,-4.122],[1.359,-4.115],[1.331,-4.087],[1.24,-4.052],[1.191,-3.995],[1.106,-3.974],[1.078,-3.953],[0.945,-3.953],[0.819,-3.974],[0.56,-4.023],[0.44,-4.073],[0.314,-4.157],[0.209,-4.27],[0.083,-4.544],[0.069,-4.614],[0.041,-4.663],[0.041,-4.706],[0.027,-4.713],[0.02,-4.713],[-0.001,-4.706],[-0.001,-4.727],[-0.029,-4.727],[-0.043,-4.677],[-0.057,-4.67],[-0.1,-4.509],[-0.149,-4.41],[-0.198,-4.354],[-0.212,-4.354],[-0.212,-4.34],[-0.226,-4.34],[-0.226,-4.326],[-0.331,-4.262],[-0.38,-4.192],[-0.443,-4.136],[-0.52,-4.108],[-0.611,-4.108],[-0.702,-4.052],[-0.766,-4.037],[-0.822,-4.037],[-0.941,-4.066],[-1.053,-4.066],[-1.067,-4.058],[-1.053,-4.03],[-1.011,-4.023],[-0.99,-4.03],[-0.983,-4.016],[-0.955,-4.016],[-0.92,-4.023],[-0.913,-4.009],[-0.899,-4.009],[-0.878,-4.016],[-0.871,-4.002],[-0.562,-4.023],[-0.366,-4.087],[-0.198,-4.185],[-0.177,-4.22],[-0.121,-4.262],[-0.113,-4.291],[-0.085,-4.319],[-0.05,-4.424],[0.013,-4.445],[0.034,-4.438],[0.069,-4.326],[0.16,-4.178],[0.265,-4.073],[0.426,-3.974],[0.651,-3.904],[0.791,-3.89],[1.05,-3.897],[1.247,-3.946],[1.436,-4.045],[1.457,-4.073],[1.492,-4.087],[1.527,-4.136]]]},"properties":{"abbr":null,"name":"unnamed sealed face","plate":3,"ap_bregma_mm":7.1,"index":0}},{"type":"Feature","geometry":{"type":"Polygon","coordinates":[[[1.695,-4.326],[1.752,-4.382],[1.899,-4.677],[1.962,-4.896],[1.983,-5.071],[1.976,-5.092],[1.99,-5.092],[1.99,-5.303],[1.948,-5.31],[1.892,-5.205],[1.913,-5.043],[1.878,-4.959],[1.857,-4.846],[1.801,-4.706],[1.766,-4.551],[1.695,-4.403],[1.674,-4.354],[1.674,-4.333],[1.695,-4.326]]]},"properties":{"abbr":null,"name":"unnamed sealed face","plate":3,"ap_bregma_mm":7.1,"index":1}},{"type":"Feature","geometry":{"type":"Polygon","coordinates":[[[-0.443,-4.692],[-0.464,-4.685],[-0.478,-4.586],[-0.499,-4.544],[-0.541,-4.502],[-0.639,-4.452],[-0.864,-4.403],[-1.011,-4.41],[-1.123,-4.445],[-1.242,-4.502],[-1.249,-4.516],[-1.27,-4.516],[-1.348,-4.586],[-1.354,-4.607],[-1.39,-4.614],[-1.39,-4.593],[-1.354,-4.544],[-1.298,-4.481],[-1.284,-4.481],[-1.284,-4.466],[-1.158,-4.403],[-0.941,-4.368],[-0.738,-4.382],[-0.597,-4.424],[-0.485,-4.509],[-0.436,-4.607],[-0.443,-4.692]]]},"properties":{"abbr":null,"name":"unnamed sealed face","plate":3,"ap_bregma_mm":7.1,"index":2}},{"type":"Feature","geometry":{"type":"Polygon","coordinates":[[[-1.425,-4.692],[-1.488,-4.825],[-1.537,-5.029],[-1.537,-5.149],[-1.495,-5.247],[-1.495,-5.282],[-1.523,-5.268],[-1.558,-5.191],[-1.565,-4.973],[-1.509,-4.783],[-1.467,-4.706],[-1.425,-4.692]]]},"properties":{"abbr":null,"name":"unnamed sealed face","plate":3,"ap_bregma_mm":7.1,"index":3}},{"type":"Feature","geometry":{"type":"Polygon","coordinates":[[[0.973,-5.212],[0.924,-5.212],[0.924,-4.945],[0.917,-4.924],[0.84,-4.938],[0.742,-4.776],[0.742,-4.734],[0.756,-4.713],[0.819,-4.706],[0.875,-4.734],[0.98,-4.867],[1.001,-4.931],[1.001,-5.085],[0.973,-5.212]]]},"properties":{"abbr":null,"name":"unnamed sealed face","plate":3,"ap_bregma_mm":7.1,"index":4}},{"type":"Feature","geometry":{"type":"Polygon","coordinates":[[[-0.85,-5.979],[-0.878,-5.965],[-0.899,-5.908],[-0.913,-5.747],[-0.941,-5.718],[-0.962,-5.641],[-0.976,-5.493],[-1.074,-5.24],[-1.123,-5.029],[-1.116,-4.952],[-1.081,-4.881],[-1.011,-4.825],[-0.885,-4.811],[-0.808,-4.839],[-0.773,-4.888],[-0.773,-5.015],[-0.808,-5.177],[-0.836,-5.198],[-0.85,-5.247],[-0.85,-5.402],[-0.864,-5.458],[-0.878,-5.458],[-0.85,-5.697],[-0.85,-5.979]]]},"properties":{"abbr":null,"name":"unnamed sealed face","plate":3,"ap_bregma_mm":7.1,"index":5}},{"type":"Feature","geometry":{"type":"Polygon","coordinates":[[[1.45,-4.952],[1.429,-5.036],[1.387,-5.092],[1.387,-5.135],[1.359,-5.191],[1.261,-5.31],[1.24,-5.31],[1.24,-5.296],[1.282,-5.219],[1.345,-5.142],[1.345,-5.128],[1.317,-5.121],[1.317,-4.952],[1.45,-4.952]]]},"properties":{"abbr":null,"name":"unnamed sealed face","plate":3,"ap_bregma_mm":7.1,"index":6}},{"type":"Feature","geometry":{"type":"Polygon","coordinates":[[[-0.618,-5.557],[-0.597,-5.585],[-0.59,-5.775],[-0.478,-6.19],[-0.471,-6.33],[-0.478,-6.358],[-0.492,-6.358],[-0.485,-6.492],[-0.527,-6.569],[-0.59,-6.64],[-0.744,-6.738],[-0.871,-6.773],[-0.99,-6.773],[-1.088,-6.752],[-1.172,-6.724],[-1.242,-6.682],[-1.263,-6.647],[-1.284,-6.64],[-1.319,-6.569],[-1.333,-6.506],[-1.327,-6.415],[-1.298,-6.302],[-1.214,-6.084],[-1.193,-5.979],[-1.193,-5.817],[-1.221,-5.747],[-1.221,-5.711],[-1.2,-5.711],[-1.186,-5.732],[-1.172,-5.81],[-1.13,-5.81],[-1.144,-5.859],[-1.144,-5.943],[-1.13,-5.958],[-1.137,-6.063],[-1.158,-6.112],[-1.186,-6.126],[-1.277,-6.422],[-1.284,-6.506],[-1.263,-6.583],[-1.151,-6.682],[-1.025,-6.724],[-0.871,-6.71],[-0.731,-6.661],[-0.646,-6.605],[-0.541,-6.485],[-0.548,-6.422],[-0.527,-6.351],[-0.513,-6.351],[-0.513,-6.267],[-0.639,-5.718],[-0.639,-5.592],[-0.618,-5.557]]]},"properties":{"abbr":null,"name":"unnamed sealed face","plate":3,"ap_bregma_mm":7.1,"index":7}},{"type":"Feature","geometry":{"type":"Polygon","coordinates":[[[1.106,-5.796],[1.106,-5.936],[1.212,-6.246],[1.261,-6.45],[1.24,-6.555],[1.219,-6.591],[1.184,-6.605],[1.205,-6.457],[1.184,-6.443],[1.142,-6.302],[1.121,-6.274],[1.064,-6.077],[1.057,-5.993],[1.085,-5.986],[1.085,-5.972],[1.064,-5.958],[1.064,-5.796],[1.05,-5.775],[1.05,-5.704],[1.078,-5.62],[1.106,-5.606],[1.106,-5.662],[1.078,-5.747],[1.078,-5.789],[1.106,-5.796]]]},"properties":{"abbr":null,"name":"unnamed sealed face","plate":3,"ap_bregma_mm":7.1,"index":8}},{"type":"Feature","geometry":{"type":"Polygon","coordinates":[[[0.868,-5.732],[0.889,-5.74],[0.896,-5.972],[0.917,-6.077],[0.938,-6.19],[0.938,-6.316],[0.917,-6.351],[0.861,-6.358],[0.833,-6.337],[0.819,-6.302],[0.84,-6.302],[0.861,-6.274],[0.861,-5.754],[0.868,-5.732]]]},"properties":{"abbr":null,"name":"unnamed sealed face","plate":3,"ap_bregma_mm":7.1,"index":9}},{"type":"Feature","geometry":{"type":"Polygon","coordinates":[[[-1.915,-5.936],[-1.894,-5.936],[-1.873,-5.958],[-1.803,-6.14],[-1.74,-6.253],[-1.705,-6.344],[-1.705,-6.38],[-1.726,-6.394],[-1.775,-6.316],[-1.894,-6.049],[-1.915,-5.936]]]},"properties":{"abbr":null,"name":"unnamed sealed face","plate":3,"ap_bregma_mm":7.1,"index":10}},{"type":"Feature","geometry":{"type":"MultiPolygon","coordinates":[[[[-0.345,-7.385],[-0.464,-7.406],[-0.625,-7.406],[-0.738,-7.378],[-0.934,-7.259],[-1.179,-7.055],[-1.327,-6.9],[-1.376,-6.865],[-1.607,-6.583],[-1.698,-6.422],[-1.747,-6.365],[-1.894,-6.035],[-2.007,-5.514],[-2.014,-5.332],[-1.979,-5.05],[-1.88,-4.727],[-1.789,-4.551],[-1.628,-4.333],[-1.432,-4.171],[-1.242,-4.087],[-1.039,-4.023],[-0.878,-4.002],[-0.576,-4.023],[-0.359,-4.094],[-0.233,-4.164],[-0.134,-4.256],[-0.078,-4.347],[-0.05,-4.431],[0.027,-4.445],[0.076,-4.312],[0.167,-4.171],[0.258,-4.08],[0.398,-3.988],[0.517,-3.939],[0.665,-3.904],[0.833,-3.89],[1.029,-3.897],[1.254,-3.953],[1.373,-4.009],[1.492,-4.094],[1.745,-4.382],[1.892,-4.685],[1.955,-4.903],[1.983,-5.092],[1.983,-5.339],[1.941,-5.585],[1.913,-5.859],[1.878,-6.007],[1.829,-6.112],[1.646,-6.387],[1.59,-6.45],[1.534,-6.485],[1.31,-6.759],[1.029,-7.034],[0.868,-7.16],[0.651,-7.301],[0.525,-7.357],[0.44,-7.378],[0.265,-7.378],[0.202,-7.364],[0.139,-7.336],[0.083,-7.273],[0.055,-7.188],[0.034,-7.048],[-0.057,-7.034],[-0.113,-7.195],[-0.163,-7.273],[-0.247,-7.343],[-0.331,-7.378],[-0.345,-7.385]]]]},"properties":{"abbr":"brain_outline","name":"outline of the section","plate":3,"ap_bregma_mm":7.1}}]}
