{"type":"FeatureCollection","name":"GerbilAtlas plate 51","note":"Region extents cut from the atlas drawing (METHODS.md, Region extents). Coordinates are [ML, DV] in mm, ML positive to the right of the plate as printed, DV negative below the dorsal surface; AP is the plate bregma. traced_fraction is the share of each polygon boundary the atlas actually draws; below 0.5 the boundary is an estimate. no_drawn_outline marks a feature that lies only inside boundaries the atlas draws round more than one name and prints nothing within, so the whole of its outline is where the extraction cut it. Not a segmentation.","plate":51,"ap_bregma_mm":-9.7,"features":[{"type":"Feature","geometry":{"type":"MultiPolygon","coordinates":[[[[-1.289,-1.539],[-1.289,-1.56],[-1.254,-1.581],[-1.296,-1.63],[-1.346,-1.644],[-1.521,-1.644],[-1.759,-1.665],[-1.956,-1.7],[-2.159,-1.764],[-2.194,-1.757],[-2.32,-1.813],[-2.348,-1.848],[-2.503,-1.933],[-2.594,-2.003],[-2.685,-2.094],[-2.72,-2.151],[-2.944,-2.319],[-3.049,-2.383],[-3.098,-2.432],[-3.126,-2.439],[-3.344,-2.601],[-3.673,-2.763],[-3.701,-2.77],[-3.772,-2.692],[-3.779,-2.636],[-3.779,-2.559],[-3.743,-2.411],[-3.751,-2.038],[-3.73,-1.926],[-3.68,-1.827],[-3.617,-1.743],[-3.414,-1.546],[-3.274,-1.461],[-3.175,-1.419],[-2.474,-1.222],[-2.152,-1.201],[-1.97,-1.222],[-1.682,-1.3],[-1.472,-1.398],[-1.332,-1.525],[-1.289,-1.539]]],[[[4.123,-2.277],[3.436,-2.277],[3.436,-2.608],[3.415,-2.608],[3.352,-2.573],[3.338,-2.545],[3.128,-2.439],[3.008,-2.362],[2.714,-2.228],[2.665,-2.193],[2.644,-2.193],[2.623,-2.172],[2.427,-2.08],[2.377,-2.031],[2.279,-1.989],[2.237,-1.989],[2.055,-1.904],[1.739,-1.806],[1.382,-1.757],[1.333,-1.715],[1.312,-1.672],[1.277,-1.511],[1.319,-1.433],[1.41,-1.349],[1.571,-1.279],[1.943,-1.222],[2.279,-1.222],[2.56,-1.257],[2.854,-1.328],[3.24,-1.468],[3.261,-1.49],[3.345,-1.518],[3.625,-1.672],[3.787,-1.813],[3.829,-1.834],[3.976,-1.989],[3.997,-2.038],[4.06,-2.115],[4.123,-2.277]]]]},"properties":{"abbr":"Crus1","name":"crus 1 of the ansiform lobule","plate":51,"ap_bregma_mm":-9.7,"area_mm2":3.6834,"traced_fraction":[1.0,0.857],"n_labels":2,"no_drawn_outline":false}},{"type":"Feature","geometry":{"type":"MultiPolygon","coordinates":[[[[-0.105,-1.004],[0.176,-1.025],[0.176,-1.771],[0.162,-1.771],[-0.105,-1.771],[-0.105,-1.004]]]]},"properties":{"abbr":"6Cb","name":"6th cerebellar lobule","plate":51,"ap_bregma_mm":-9.7,"area_mm2":0.212,"traced_fraction":[0.17],"n_labels":1,"no_drawn_outline":true}},{"type":"Feature","geometry":{"type":"MultiPolygon","coordinates":[[[[-0.119,-1.004],[-0.105,-1.004],[-0.105,-1.771],[0.162,-1.771],[0.162,-2.158],[-0.119,-2.158],[-0.119,-1.004]]]]},"properties":{"abbr":"7Cb","name":"7th cerebellar lobule","plate":51,"ap_bregma_mm":-9.7,"area_mm2":0.1192,"traced_fraction":[0.034],"n_labels":1,"no_drawn_outline":true}},{"type":"Feature","geometry":{"type":"MultiPolygon","coordinates":[[[[-2.72,-2.151],[-2.685,-2.179],[-2.685,-2.861],[-3.098,-2.861],[-3.098,-2.432],[-3.049,-2.383],[-2.944,-2.319],[-2.72,-2.151]]],[[[2.714,-2.228],[3.008,-2.362],[3.128,-2.439],[3.338,-2.545],[3.352,-2.573],[3.415,-2.608],[3.436,-2.608],[3.436,-2.277],[4.123,-2.277],[4.158,-2.411],[4.158,-2.713],[4.116,-2.903],[4.074,-3.023],[3.955,-3.262],[3.913,-3.262],[3.752,-3.17],[3.534,-3.17],[3.394,-3.241],[3.338,-3.304],[2.987,-3.473],[2.917,-3.41],[2.651,-2.875],[2.651,-2.348],[2.714,-2.228]]]]},"properties":{"abbr":"Crus2","name":"crus 2 of the ansiform lobule","plate":51,"ap_bregma_mm":-9.7,"area_mm2":1.5711,"traced_fraction":[0.23,0.381],"n_labels":3,"no_drawn_outline":true}},{"type":"Feature","geometry":{"type":"MultiPolygon","coordinates":[[[[-0.119,-1.004],[-0.119,-2.158],[0.162,-2.158],[0.162,-1.771],[0.176,-1.771],[0.176,-1.025],[0.358,-1.032],[0.786,-1.131],[0.793,-1.145],[0.856,-1.159],[1.066,-1.271],[1.066,-1.286],[1.101,-1.3],[1.15,-1.37],[1.186,-1.391],[1.214,-1.44],[1.235,-1.447],[1.242,-1.483],[1.277,-1.511],[1.312,-1.672],[1.333,-1.715],[1.382,-1.757],[1.739,-1.806],[2.055,-1.904],[2.237,-1.989],[2.279,-1.989],[2.377,-2.031],[2.427,-2.08],[2.623,-2.172],[2.644,-2.193],[2.665,-2.193],[2.714,-2.228],[2.651,-2.348],[2.651,-2.875],[2.917,-3.41],[2.987,-3.473],[2.889,-3.663],[2.889,-3.818],[2.91,-3.86],[3.029,-3.972],[3.029,-4.282],[2.931,-4.254],[2.798,-4.19],[2.63,-4.078],[2.602,-4.106],[2.595,-4.577],[2.574,-4.577],[2.469,-4.5],[2.398,-4.472],[2.398,-4.458],[2.286,-4.387],[2.139,-4.317],[2.125,-4.31],[2.069,-4.282],[1.915,-4.218],[1.824,-4.218],[1.789,-4.24],[1.781,-4.303],[1.796,-4.359],[1.873,-4.542],[1.866,-4.577],[1.859,-4.612],[1.824,-4.655],[1.81,-4.655],[1.81,-4.669],[1.487,-4.767],[0.982,-4.837],[0.975,-4.176],[0.926,-4.134],[0.835,-4.113],[0.484,-4.057],[0.239,-4.043],[0.239,-3.705],[-0.041,-3.705],[-0.041,-4.029],[-0.182,-4.036],[-0.252,-4.057],[-0.399,-4.064],[-0.56,-4.092],[-0.539,-4.162],[-0.553,-4.176],[-0.546,-4.76],[-0.567,-4.795],[-0.567,-4.83],[-0.813,-4.816],[-1.149,-4.774],[-1.367,-4.704],[-1.451,-4.648],[-1.535,-4.556],[-1.584,-4.429],[-1.605,-4.268],[-1.647,-4.218],[-1.745,-4.225],[-1.935,-4.289],[-2.089,-4.394],[-2.11,-4.394],[-2.271,-4.5],[-2.453,-4.591],[-2.467,-4.211],[-2.495,-4.183],[-2.467,-4.134],[-2.467,-4.12],[-2.482,-4.12],[-2.671,-4.225],[-2.748,-4.24],[-2.804,-4.275],[-2.958,-4.268],[-3.049,-4.24],[-3.049,-4.225],[-3.295,-4.099],[-3.358,-4.036],[-3.414,-3.937],[-3.463,-3.698],[-3.021,-3.698],[-3.021,-3.55],[-3.484,-3.55],[-3.512,-3.417],[-3.659,-2.974],[-3.673,-2.805],[-3.673,-2.763],[-3.344,-2.601],[-3.126,-2.439],[-3.098,-2.432],[-3.098,-2.861],[-2.685,-2.861],[-2.685,-2.179],[-2.72,-2.151],[-2.685,-2.094],[-2.503,-1.933],[-2.348,-1.848],[-2.32,-1.813],[-2.194,-1.757],[-2.159,-1.764],[-1.956,-1.7],[-1.759,-1.665],[-1.521,-1.644],[-1.346,-1.644],[-1.296,-1.63],[-1.254,-1.581],[-1.219,-1.553],[-1.219,-1.539],[-1.198,-1.511],[-1.191,-1.497],[-1.184,-1.504],[-1.184,-1.49],[-1.163,-1.447],[-1.114,-1.349],[-1.065,-1.314],[-1.023,-1.257],[-0.827,-1.138],[-0.7,-1.089],[-0.504,-1.039],[-0.119,-1.004]]]]},"properties":{"abbr":"8Cb","name":"8th cerebellar lobule","plate":51,"ap_bregma_mm":-9.7,"area_mm2":16.5874,"traced_fraction":[0.602],"n_labels":1,"no_drawn_outline":true}},{"type":"Feature","geometry":{"type":"MultiPolygon","coordinates":[[[[3.955,-3.262],[3.794,-3.606],[3.766,-3.712],[3.738,-3.972],[3.696,-4.078],[3.667,-4.113],[3.654,-4.113],[3.618,-4.169],[3.45,-4.268],[3.331,-4.303],[3.226,-4.31],[3.128,-4.31],[3.029,-4.282],[3.029,-3.972],[2.91,-3.86],[2.889,-3.818],[2.889,-3.663],[2.987,-3.473],[3.338,-3.304],[3.394,-3.241],[3.534,-3.17],[3.752,-3.17],[3.913,-3.262],[3.955,-3.262]]],[[[-3.484,-3.55],[-3.021,-3.55],[-3.021,-3.698],[-3.463,-3.698],[-3.484,-3.55]]]]},"properties":{"abbr":"PM","name":"paramedian lobule","plate":51,"ap_bregma_mm":-9.7,"area_mm2":0.8676,"traced_fraction":[0.483,0.189],"n_labels":2,"no_drawn_outline":true}},{"type":"Feature","geometry":{"type":"MultiPolygon","coordinates":[[[[0.239,-4.043],[-0.041,-4.029],[-0.041,-3.705],[0.239,-3.705],[0.239,-4.043]]]]},"properties":{"abbr":"9Cb","name":"9th cerebellar lobule","plate":51,"ap_bregma_mm":-9.7,"area_mm2":0.0927,"traced_fraction":[0.275],"n_labels":1,"no_drawn_outline":true}},{"type":"Feature","geometry":{"type":"MultiPolygon","coordinates":[[[[3.029,-4.282],[3.128,-4.31],[3.226,-4.31],[3.219,-4.331],[3.24,-4.345],[3.436,-4.38],[3.443,-4.408],[3.485,-4.451],[3.492,-4.584],[3.401,-4.795],[3.387,-4.795],[3.366,-4.83],[3.254,-4.88],[3.233,-4.887],[3.142,-4.88],[2.995,-4.823],[2.742,-4.669],[2.686,-4.648],[2.686,-4.633],[2.637,-4.619],[2.623,-4.598],[2.595,-4.591],[2.595,-4.577],[2.602,-4.106],[2.63,-4.078],[2.798,-4.19],[2.931,-4.254],[3.029,-4.282]]],[[[-2.495,-4.183],[-2.467,-4.211],[-2.453,-4.591],[-2.692,-4.76],[-2.762,-4.851],[-2.783,-4.851],[-2.867,-4.929],[-2.958,-4.971],[-3.042,-4.971],[-3.141,-4.929],[-3.141,-4.915],[-3.162,-4.915],[-3.162,-4.894],[-3.218,-4.802],[-3.253,-4.676],[-3.246,-4.472],[-3.183,-4.387],[-3.112,-4.359],[-3.112,-4.345],[-3.042,-4.31],[-3.007,-4.303],[-2.958,-4.268],[-2.804,-4.275],[-2.79,-4.289],[-2.678,-4.289],[-2.587,-4.247],[-2.495,-4.183]]]]},"properties":{"abbr":"Cop","name":"copula of the pyramis","plate":51,"ap_bregma_mm":-9.7,"area_mm2":0.8755,"traced_fraction":[0.844,0.86],"n_labels":2,"no_drawn_outline":false}},{"type":"Feature","geometry":{"type":"MultiPolygon","coordinates":[[[[-0.041,-4.029],[0.239,-4.043],[0.484,-4.057],[0.835,-4.113],[0.926,-4.134],[0.975,-4.176],[0.982,-4.837],[0.498,-4.873],[0.085,-4.873],[-0.567,-4.83],[-0.567,-4.795],[-0.546,-4.76],[-0.553,-4.176],[-0.539,-4.162],[-0.56,-4.092],[-0.399,-4.064],[-0.252,-4.057],[-0.182,-4.036],[-0.041,-4.029]]]]},"properties":{"abbr":"10Cb","name":"10th cerebellar lobule (nodule)","plate":51,"ap_bregma_mm":-9.7,"area_mm2":1.2135,"traced_fraction":[0.705],"n_labels":1,"no_drawn_outline":true}},{"type":"Feature","geometry":{"type":"MultiPolygon","coordinates":[[[[-1.416,-5.091],[-1.542,-5.147],[-1.591,-5.147],[-1.584,-5.105],[-1.493,-4.978],[-1.493,-4.936],[-1.521,-4.936],[-1.528,-4.957],[-1.584,-5.006],[-1.731,-5.062],[-1.808,-5.076],[-1.991,-5.076],[-2.075,-5.055],[-2.201,-4.992],[-2.215,-4.971],[-2.243,-4.964],[-2.243,-4.95],[-2.271,-4.943],[-2.271,-4.929],[-2.285,-4.929],[-2.334,-4.865],[-2.334,-4.802],[-2.299,-4.767],[-2.222,-4.725],[-2.166,-4.725],[-2.068,-4.767],[-2.005,-4.767],[-1.977,-4.753],[-1.97,-4.669],[-1.991,-4.577],[-1.942,-4.514],[-1.836,-4.451],[-1.724,-4.458],[-1.605,-4.528],[-1.605,-4.542],[-1.57,-4.563],[-1.528,-4.619],[-1.528,-4.64],[-1.458,-4.76],[-1.374,-4.844],[-1.31,-4.88],[-1.304,-4.943],[-1.317,-4.971],[-1.388,-5.041],[-1.402,-5.041],[-1.416,-5.091]]],[[[1.922,-4.57],[2.125,-4.57],[2.153,-4.584],[2.174,-4.64],[2.146,-4.676],[2.146,-4.753],[2.181,-4.844],[2.202,-4.865],[2.195,-4.88],[2.209,-4.894],[2.23,-4.887],[2.307,-4.887],[2.356,-4.915],[2.385,-4.964],[2.37,-5.055],[2.349,-5.062],[2.335,-5.091],[2.181,-5.175],[2.111,-5.196],[1.992,-5.196],[1.894,-5.175],[1.831,-5.14],[1.753,-5.062],[1.726,-5.013],[1.718,-4.936],[1.76,-4.873],[1.845,-4.844],[1.964,-4.851],[1.992,-4.837],[1.992,-4.795],[1.95,-4.739],[1.81,-4.669],[1.81,-4.655],[1.824,-4.655],[1.859,-4.612],[1.866,-4.577],[1.922,-4.57]]],[[[3.366,-4.83],[3.422,-4.851],[3.429,-4.873],[3.506,-4.929],[3.534,-4.985],[3.59,-5.217],[3.64,-5.273],[3.696,-5.379],[3.703,-5.513],[3.646,-5.625],[3.429,-5.808],[3.303,-5.864],[3.198,-5.864],[3.135,-5.822],[3.1,-5.766],[3.065,-5.646],[2.952,-5.428],[2.931,-5.358],[2.938,-5.224],[3.008,-5.147],[3.121,-5.105],[3.352,-5.112],[3.429,-5.133],[3.415,-5.062],[3.401,-5.034],[3.387,-5.034],[3.373,-4.999],[3.359,-4.999],[3.331,-4.957],[3.275,-4.929],[3.254,-4.901],[3.254,-4.88],[3.366,-4.83]]],[[[-2.762,-4.851],[-2.706,-4.873],[-2.664,-4.915],[-2.636,-4.964],[-2.594,-5.119],[-2.482,-5.147],[-2.418,-5.21],[-2.397,-5.288],[-2.404,-5.47],[-2.418,-5.513],[-2.453,-5.548],[-2.503,-5.562],[-2.509,-5.576],[-2.516,-5.562],[-2.601,-5.562],[-2.755,-5.463],[-2.769,-5.442],[-2.79,-5.442],[-2.804,-5.477],[-2.797,-5.499],[-2.839,-5.667],[-2.895,-5.745],[-2.937,-5.773],[-3.063,-5.766],[-3.133,-5.731],[-3.133,-5.716],[-3.204,-5.688],[-3.316,-5.569],[-3.33,-5.527],[-3.351,-5.513],[-3.393,-5.435],[-3.414,-5.365],[-3.414,-5.273],[-3.393,-5.203],[-3.33,-5.098],[-3.253,-5.041],[-3.197,-4.978],[-3.183,-4.978],[-3.169,-4.95],[-3.154,-4.957],[-3.141,-4.929],[-3.042,-4.971],[-2.958,-4.971],[-2.867,-4.929],[-2.783,-4.851],[-2.762,-4.851]]],[[[0.358,-5.491],[0.33,-5.491],[0.295,-5.527],[0.232,-5.653],[0.155,-5.745],[0.099,-5.766],[0.036,-5.759],[-0.006,-5.738],[-0.077,-5.653],[-0.189,-5.344],[-0.224,-5.309],[-0.252,-5.309],[-0.315,-5.224],[-0.392,-5.168],[-0.329,-5.098],[-0.21,-5.055],[-0.133,-5.055],[-0.034,-5.091],[0.113,-5.203],[0.211,-5.203],[0.358,-5.126],[0.449,-5.126],[0.498,-5.14],[0.54,-5.161],[0.576,-5.21],[0.519,-5.231],[0.47,-5.288],[0.358,-5.491]]]]},"properties":{"abbr":"chp","name":"choroid plexus","plate":51,"ap_bregma_mm":-9.7,"area_mm2":2.0953,"traced_fraction":[1.0,1.0,1.0,1.0,1.0],"n_labels":5,"no_drawn_outline":false}},{"type":"Feature","geometry":{"type":"MultiPolygon","coordinates":[[[[-0.967,-5.091],[-0.988,-5.126],[-1.002,-5.288],[-1.037,-5.442],[-1.079,-5.569],[-1.121,-5.653],[-1.156,-5.688],[-1.177,-5.752],[-1.423,-5.815],[-1.5,-5.808],[-1.535,-5.822],[-1.745,-5.829],[-1.836,-5.822],[-1.893,-5.794],[-1.815,-5.681],[-1.78,-5.576],[-1.78,-5.463],[-1.808,-5.407],[-1.836,-5.393],[-1.836,-5.386],[-1.759,-5.28],[-1.591,-5.147],[-1.542,-5.147],[-1.416,-5.091],[-1.332,-5.084],[-1.212,-5.048],[-1.114,-5.048],[-0.967,-5.091]]],[[[1.936,-5.295],[1.957,-5.309],[1.964,-5.309],[1.964,-5.33],[1.978,-5.33],[1.992,-5.372],[2.118,-5.484],[2.048,-5.548],[1.985,-5.674],[1.985,-5.801],[2.034,-5.906],[1.95,-5.928],[1.866,-5.928],[1.732,-5.906],[1.634,-5.871],[1.578,-5.878],[1.459,-5.836],[1.396,-5.829],[1.361,-5.808],[1.326,-5.716],[1.242,-5.583],[1.214,-5.47],[1.207,-5.309],[1.235,-5.196],[1.235,-5.14],[1.445,-5.133],[1.585,-5.154],[1.683,-5.182],[1.936,-5.295]]]]},"properties":{"abbr":"SpVe","name":"spinal vestibular nucleus","plate":51,"ap_bregma_mm":-9.7,"area_mm2":1.0359,"traced_fraction":[1.0,1.0],"n_labels":2,"no_drawn_outline":false}},{"type":"Feature","geometry":{"type":"MultiPolygon","coordinates":[[[[-0.771,-5.126],[-0.658,-5.126],[-0.392,-5.168],[-0.343,-5.196],[-0.252,-5.309],[-0.252,-5.358],[-0.203,-5.442],[-0.182,-5.52],[-0.077,-5.752],[-0.266,-5.738],[-0.343,-5.766],[-0.434,-5.541],[-0.462,-5.513],[-0.462,-5.491],[-0.532,-5.379],[-0.658,-5.238],[-0.764,-5.161],[-0.771,-5.126]]]]},"properties":{"abbr":"MVePC","name":"medial vestibular nucleus, parvicellular part","plate":51,"ap_bregma_mm":-9.7,"area_mm2":0.183,"traced_fraction":[1.0],"n_labels":1,"no_drawn_outline":false}},{"type":"Feature","geometry":{"type":"MultiPolygon","coordinates":[[[[-1.836,-5.393],[-1.808,-5.407],[-1.78,-5.463],[-1.78,-5.576],[-1.815,-5.681],[-1.893,-5.794],[-1.921,-5.787],[-1.97,-5.731],[-1.97,-5.639],[-1.942,-5.569],[-1.85,-5.435],[-1.836,-5.393]]],[[[2.118,-5.484],[2.181,-5.548],[2.216,-5.618],[2.23,-5.688],[2.195,-5.794],[2.104,-5.878],[2.034,-5.906],[1.992,-5.829],[1.978,-5.71],[2.02,-5.59],[2.118,-5.484]]]]},"properties":{"abbr":"X","name":"nucleus X","plate":51,"ap_bregma_mm":-9.7,"area_mm2":0.1162,"traced_fraction":[1.0,1.0],"n_labels":2,"no_drawn_outline":false}},{"type":"Feature","geometry":{"type":"MultiPolygon","coordinates":[[[[-0.967,-5.091],[-0.771,-5.126],[-0.764,-5.161],[-0.658,-5.238],[-0.532,-5.379],[-0.462,-5.491],[-0.462,-5.513],[-0.434,-5.541],[-0.343,-5.766],[-0.413,-5.836],[-0.427,-5.949],[-0.392,-6.04],[-0.308,-6.124],[-0.308,-6.139],[-0.483,-6.139],[-0.56,-6.11],[-0.7,-6.089],[-0.687,-6.04],[-0.687,-5.942],[-0.7,-5.913],[-0.799,-5.822],[-0.967,-5.752],[-1.177,-5.752],[-1.156,-5.688],[-1.121,-5.653],[-1.079,-5.569],[-1.037,-5.442],[-1.002,-5.288],[-0.988,-5.126],[-0.967,-5.091]]],[[[1.235,-5.14],[1.235,-5.196],[1.207,-5.309],[1.214,-5.47],[1.242,-5.583],[1.326,-5.716],[1.361,-5.808],[1.207,-5.801],[1.094,-5.815],[0.94,-5.878],[0.842,-5.949],[0.793,-6.005],[0.786,-6.068],[0.807,-6.11],[0.625,-6.139],[0.47,-6.131],[0.463,-6.11],[0.527,-6.026],[0.54,-5.97],[0.533,-5.864],[0.491,-5.808],[0.491,-5.787],[0.505,-5.724],[0.59,-5.576],[0.674,-5.463],[0.688,-5.463],[0.688,-5.449],[0.772,-5.365],[0.772,-5.351],[0.891,-5.245],[0.926,-5.196],[0.926,-5.175],[1.073,-5.147],[1.235,-5.14]]]]},"properties":{"abbr":"MVeMC","name":"medial vestibular nucleus, magnocellular part","plate":51,"ap_bregma_mm":-9.7,"area_mm2":0.9503,"traced_fraction":[1.0,0.993],"n_labels":2,"no_drawn_outline":false}},{"type":"Feature","geometry":{"type":"MultiPolygon","coordinates":[[[[1.985,-5.323],[2.104,-5.372],[2.16,-5.421],[2.181,-5.435],[2.174,-5.442],[2.195,-5.463],[2.202,-5.456],[2.23,-5.477],[2.251,-5.491],[2.244,-5.499],[2.258,-5.499],[2.279,-5.513],[2.504,-5.618],[2.567,-5.752],[2.609,-5.794],[2.714,-5.871],[2.833,-5.928],[2.995,-6.096],[3.058,-6.258],[3.058,-6.378],[3.023,-6.708],[2.791,-6.708],[2.791,-6.61],[2.735,-6.406],[2.714,-6.385],[2.7,-6.321],[2.679,-6.307],[2.672,-6.279],[2.609,-6.195],[2.476,-6.061],[2.328,-5.956],[2.181,-5.899],[2.111,-5.913],[2.104,-5.878],[2.195,-5.794],[2.23,-5.688],[2.216,-5.618],[2.181,-5.548],[2.118,-5.484],[1.992,-5.372],[1.978,-5.33],[1.985,-5.323]]],[[[-1.836,-5.386],[-1.836,-5.393],[-1.85,-5.435],[-1.942,-5.569],[-1.97,-5.639],[-1.97,-5.731],[-1.921,-5.787],[-1.927,-5.843],[-2.019,-5.843],[-2.145,-5.892],[-2.306,-5.998],[-2.432,-6.117],[-2.594,-6.335],[-2.664,-6.504],[-2.699,-6.638],[-2.923,-6.638],[-2.923,-6.539],[-2.867,-6.258],[-2.783,-6.089],[-2.65,-5.956],[-2.65,-5.942],[-2.566,-5.871],[-2.566,-5.857],[-2.432,-5.716],[-2.278,-5.597],[-2.201,-5.576],[-2.04,-5.499],[-2.033,-5.484],[-2.012,-5.484],[-1.998,-5.463],[-1.871,-5.386],[-1.836,-5.386]]]]},"properties":{"abbr":"icp","name":"inferior cerebellar peduncle (restiform body)","plate":51,"ap_bregma_mm":-9.7,"area_mm2":0.8783,"traced_fraction":[0.955,0.951],"n_labels":2,"no_drawn_outline":false}},{"type":"Feature","geometry":{"type":"MultiPolygon","coordinates":[[[[-1.921,-5.787],[-1.893,-5.794],[-1.836,-5.822],[-1.745,-5.829],[-1.535,-5.822],[-1.5,-5.808],[-1.423,-5.815],[-1.57,-5.949],[-1.591,-6.026],[-1.689,-5.984],[-1.808,-5.991],[-1.899,-6.026],[-2.012,-6.047],[-2.005,-6.019],[-1.963,-5.984],[-1.921,-5.92],[-1.927,-5.843],[-1.921,-5.787]]],[[[2.034,-5.906],[2.104,-5.878],[2.111,-5.913],[2.097,-5.928],[2.104,-5.991],[2.174,-6.082],[2.125,-6.082],[2.006,-6.047],[1.866,-6.047],[1.796,-6.061],[1.739,-6.089],[1.726,-6.075],[1.711,-6.005],[1.578,-5.878],[1.634,-5.871],[1.732,-5.906],[1.866,-5.928],[1.95,-5.928],[2.034,-5.906]]]]},"properties":{"abbr":"Mx","name":"matrix region of the medulla","plate":51,"ap_bregma_mm":-9.7,"area_mm2":0.1459,"traced_fraction":[1.0,1.0],"n_labels":2,"no_drawn_outline":false}},{"type":"Feature","geometry":{"type":"MultiPolygon","coordinates":[[[[-0.077,-5.752],[-0.013,-5.822],[-0.006,-5.864],[0.008,-5.864],[0.022,-5.942],[0.015,-5.991],[-0.266,-5.991],[-0.266,-6.139],[-0.308,-6.139],[-0.308,-6.124],[-0.392,-6.04],[-0.427,-5.949],[-0.413,-5.836],[-0.343,-5.766],[-0.266,-5.738],[-0.077,-5.752]]],[[[0.491,-5.787],[0.491,-5.808],[0.533,-5.864],[0.54,-5.97],[0.527,-6.026],[0.463,-6.11],[0.442,-6.103],[0.428,-6.054],[0.407,-6.04],[0.323,-6.033],[0.281,-6.047],[0.253,-6.075],[0.253,-6.124],[0.246,-6.124],[0.239,-6.124],[0.183,-6.103],[0.127,-6.033],[0.12,-5.956],[0.148,-5.864],[0.225,-5.759],[0.246,-5.752],[0.407,-5.745],[0.491,-5.787]]]]},"properties":{"abbr":"Pr","name":"prepositus nucleus","plate":51,"ap_bregma_mm":-9.7,"area_mm2":0.2275,"traced_fraction":[0.847,1.0],"n_labels":1,"no_drawn_outline":false}},{"type":"Feature","geometry":{"type":"MultiPolygon","coordinates":[[[[-0.7,-6.089],[-0.729,-6.096],[-0.785,-6.082],[-0.946,-6.082],[-1.1,-6.124],[-1.409,-6.139],[-1.493,-6.117],[-1.535,-6.103],[-1.584,-6.054],[-1.591,-6.026],[-1.57,-5.949],[-1.423,-5.815],[-1.177,-5.752],[-0.967,-5.752],[-0.799,-5.822],[-0.7,-5.913],[-0.687,-5.942],[-0.687,-6.04],[-0.7,-6.089]]],[[[1.361,-5.808],[1.396,-5.829],[1.459,-5.836],[1.578,-5.878],[1.711,-6.005],[1.718,-6.054],[1.739,-6.089],[1.704,-6.146],[1.669,-6.174],[1.662,-6.202],[1.494,-6.209],[1.354,-6.188],[1.305,-6.167],[1.171,-6.146],[0.954,-6.146],[0.807,-6.11],[0.786,-6.068],[0.793,-6.005],[0.842,-5.949],[0.94,-5.878],[1.094,-5.815],[1.207,-5.801],[1.361,-5.808]]]]},"properties":{"abbr":"sol","name":"solitary tract","plate":51,"ap_bregma_mm":-9.7,"area_mm2":0.5508,"traced_fraction":[1.0,1.0],"n_labels":3,"no_drawn_outline":false}},{"type":"Feature","geometry":{"type":"MultiPolygon","coordinates":[[[[0.008,-5.864],[0.043,-5.878],[0.113,-5.878],[0.148,-5.864],[0.12,-5.956],[0.127,-6.033],[0.183,-6.103],[0.239,-6.124],[0.246,-6.124],[0.253,-6.124],[0.26,-6.139],[0.253,-6.146],[0.169,-6.146],[0.099,-6.103],[0.015,-6.103],[-0.006,-6.075],[-0.027,-6.075],[-0.041,-6.117],[-0.069,-6.139],[-0.266,-6.139],[-0.266,-5.991],[0.015,-5.991],[0.022,-5.942],[0.008,-5.864]]]]},"properties":{"abbr":"12N","name":"hypoglossal nucleus","plate":51,"ap_bregma_mm":-9.7,"area_mm2":0.0699,"traced_fraction":[0.871],"n_labels":2,"no_drawn_outline":false}},{"type":"Feature","geometry":{"type":"MultiPolygon","coordinates":[[[[-0.308,-8.241],[-0.14,-8.249],[-0.147,-8.354],[-0.133,-8.452],[-0.28,-8.424],[-0.483,-8.417],[-0.574,-8.431],[-0.757,-8.495],[-0.82,-8.537],[-0.869,-8.593],[-0.939,-8.558],[-0.918,-8.53],[-0.869,-8.509],[-0.806,-8.452],[-0.666,-8.375],[-0.581,-8.312],[-0.539,-8.312],[-0.441,-8.27],[-0.308,-8.241]]],[[[0.323,-8.263],[0.561,-8.347],[0.639,-8.361],[0.674,-8.389],[0.849,-8.466],[0.968,-8.488],[0.975,-8.523],[0.891,-8.551],[0.863,-8.516],[0.772,-8.481],[0.414,-8.41],[0.162,-8.417],[0.085,-8.445],[0.043,-8.445],[0.057,-8.256],[0.246,-8.249],[0.323,-8.263]]]]},"properties":{"abbr":"ml","name":"medial lemniscus","plate":51,"ap_bregma_mm":-9.7,"area_mm2":0.1996,"traced_fraction":[1.0,1.0],"n_labels":2,"no_drawn_outline":false}},{"type":"Feature","geometry":{"type":"MultiPolygon","coordinates":[[[[0.47,-6.131],[0.625,-6.139],[0.653,-6.216],[0.772,-6.413],[0.204,-6.413],[0.204,-6.244],[0.169,-6.146],[0.253,-6.146],[0.26,-6.146],[0.267,-6.181],[0.302,-6.209],[0.372,-6.202],[0.4,-6.16],[0.393,-6.153],[0.393,-6.139],[0.463,-6.146],[0.47,-6.131]]],[[[-0.483,-6.139],[-0.308,-6.139],[-0.266,-6.139],[-0.069,-6.139],[-0.126,-6.251],[-0.119,-6.42],[-0.637,-6.42],[-0.483,-6.139]]]]},"properties":{"abbr":"DPGi","name":"dorsal paragigantocellular nucleus","plate":51,"ap_bregma_mm":-9.7,"area_mm2":0.2535,"traced_fraction":[0.708,0.705],"n_labels":2,"no_drawn_outline":true}},{"type":"Feature","geometry":{"type":"MultiPolygon","coordinates":[[[[-1.591,-6.026],[-1.584,-6.054],[-1.535,-6.103],[-1.493,-6.117],[-1.507,-6.16],[-1.507,-6.279],[-1.528,-6.328],[-1.605,-6.385],[-1.682,-6.42],[-1.689,-6.441],[-1.801,-6.462],[-1.893,-6.328],[-1.914,-6.251],[-1.899,-6.026],[-1.864,-6.005],[-1.766,-5.984],[-1.689,-5.984],[-1.591,-6.026]]],[[[2.125,-6.082],[2.076,-6.188],[2.048,-6.209],[2.034,-6.244],[1.887,-6.392],[1.887,-6.406],[1.852,-6.427],[1.831,-6.469],[1.789,-6.462],[1.669,-6.328],[1.655,-6.279],[1.662,-6.202],[1.669,-6.174],[1.704,-6.146],[1.739,-6.089],[1.775,-6.068],[1.866,-6.047],[2.006,-6.047],[2.125,-6.082]]]]},"properties":{"abbr":"DMSp5","name":"dorsomedial spinal trigeminal nucleus","plate":51,"ap_bregma_mm":-9.7,"area_mm2":0.2748,"traced_fraction":[0.986,1.0],"n_labels":1,"no_drawn_outline":false}},{"type":"Feature","geometry":{"type":"MultiPolygon","coordinates":[[[[-1.899,-6.026],[-1.914,-6.251],[-1.893,-6.328],[-1.801,-6.462],[-1.822,-6.49],[-1.864,-6.511],[-2.005,-6.666],[-2.033,-6.617],[-2.054,-6.504],[-2.117,-6.364],[-2.236,-6.223],[-2.236,-6.209],[-2.131,-6.117],[-2.012,-6.047],[-1.899,-6.026]]],[[[2.125,-6.082],[2.174,-6.082],[2.251,-6.124],[2.37,-6.244],[2.195,-6.434],[2.118,-6.575],[2.104,-6.631],[2.083,-6.652],[2.069,-6.652],[2.069,-6.638],[1.985,-6.554],[1.831,-6.476],[1.831,-6.469],[1.852,-6.427],[1.887,-6.406],[1.887,-6.392],[2.034,-6.244],[2.048,-6.209],[2.076,-6.188],[2.125,-6.082]]]]},"properties":{"abbr":"Sp5O","name":"spinal trigeminal nucleus, oral part","plate":51,"ap_bregma_mm":-9.7,"area_mm2":0.2733,"traced_fraction":[0.995,1.0],"n_labels":2,"no_drawn_outline":false}},{"type":"Feature","geometry":{"type":"MultiPolygon","coordinates":[[[[-2.923,-6.638],[-2.699,-6.638],[-2.713,-6.891],[-2.678,-7.095],[-2.58,-7.278],[-2.482,-7.376],[-2.446,-7.39],[-2.446,-7.412],[-2.334,-7.545],[-2.355,-7.559],[-2.355,-7.594],[-2.369,-7.601],[-2.369,-7.637],[-2.39,-7.665],[-2.58,-7.482],[-2.713,-7.313],[-2.762,-7.271],[-2.846,-7.151],[-2.909,-6.961],[-2.923,-6.863],[-2.923,-6.638]]],[[[2.791,-6.708],[3.023,-6.708],[3.008,-6.856],[2.966,-7.011],[2.861,-7.179],[2.623,-7.412],[2.391,-7.587],[2.293,-7.679],[1.985,-7.897],[1.81,-7.995],[1.803,-7.932],[1.775,-7.911],[1.775,-7.841],[1.775,-7.826],[1.936,-7.714],[1.943,-7.679],[1.95,-7.672],[1.999,-7.651],[2.027,-7.651],[2.062,-7.623],[2.083,-7.623],[2.216,-7.538],[2.314,-7.454],[2.37,-7.376],[2.448,-7.348],[2.532,-7.264],[2.546,-7.264],[2.693,-7.081],[2.735,-7.004],[2.777,-6.877],[2.791,-6.708]]]]},"properties":{"abbr":"oc","name":"olivocerebellar tract","plate":51,"ap_bregma_mm":-9.7,"area_mm2":0.5032,"traced_fraction":[0.897,0.92],"n_labels":2,"no_drawn_outline":false}},{"type":"Feature","geometry":{"type":"MultiPolygon","coordinates":[[[[-2.236,-6.223],[-2.117,-6.364],[-2.054,-6.504],[-2.033,-6.617],[-2.005,-6.666],[-2.075,-6.905],[-2.068,-7.137],[-2.075,-7.194],[-2.103,-7.243],[-2.194,-7.292],[-2.32,-7.292],[-2.362,-7.278],[-2.439,-7.179],[-2.524,-7.004],[-2.559,-6.807],[-2.552,-6.729],[-2.516,-6.575],[-2.453,-6.448],[-2.362,-6.35],[-2.362,-6.335],[-2.25,-6.223],[-2.236,-6.223]]],[[[2.37,-6.244],[2.385,-6.244],[2.441,-6.307],[2.455,-6.343],[2.546,-6.455],[2.609,-6.589],[2.644,-6.722],[2.623,-6.898],[2.567,-7.025],[2.49,-7.137],[2.385,-7.229],[2.237,-7.222],[2.188,-7.208],[2.132,-7.165],[2.097,-7.123],[2.083,-7.046],[2.097,-6.891],[2.083,-6.652],[2.104,-6.631],[2.118,-6.575],[2.195,-6.434],[2.37,-6.244]]]]},"properties":{"abbr":"Sp5I","name":"spinal trigeminal nucleus, interpolar part","plate":51,"ap_bregma_mm":-9.7,"area_mm2":0.8197,"traced_fraction":[1.0,1.0],"n_labels":2,"no_drawn_outline":false}},{"type":"Feature","geometry":{"type":"MultiPolygon","coordinates":[[[[-0.729,-6.096],[-0.743,-6.146],[-0.862,-6.265],[-0.862,-6.279],[-1.451,-6.877],[-1.465,-6.877],[-1.689,-7.109],[-1.703,-7.109],[-1.878,-7.278],[-1.899,-7.327],[-1.991,-7.334],[-2.054,-7.376],[-2.075,-7.369],[-2.075,-7.313],[-2.089,-7.306],[-2.089,-7.257],[-2.103,-7.243],[-2.075,-7.194],[-2.068,-7.137],[-2.075,-6.905],[-2.005,-6.666],[-1.963,-6.631],[-1.942,-6.589],[-1.801,-6.462],[-1.689,-6.441],[-1.57,-6.42],[-1.388,-6.343],[-1.36,-6.314],[-1.24,-6.258],[-1.226,-6.237],[-1.149,-6.195],[-1.149,-6.181],[-1.114,-6.167],[-1.1,-6.124],[-0.946,-6.082],[-0.785,-6.082],[-0.729,-6.096]]],[[[0.954,-6.146],[1.171,-6.146],[1.305,-6.167],[1.354,-6.188],[1.368,-6.293],[1.396,-6.335],[1.41,-6.392],[1.445,-6.455],[1.508,-6.511],[1.655,-6.518],[1.732,-6.497],[1.789,-6.462],[1.831,-6.469],[1.831,-6.476],[1.824,-6.736],[1.564,-6.743],[1.501,-6.807],[1.487,-6.807],[1.417,-6.729],[1.403,-6.694],[1.347,-6.645],[1.186,-6.434],[0.961,-6.188],[0.954,-6.146]]]]},"properties":{"abbr":"PCRt","name":"parvicellular reticular nucleus","plate":51,"ap_bregma_mm":-9.7,"area_mm2":0.8747,"traced_fraction":[0.949,0.749],"n_labels":2,"no_drawn_outline":false}},{"type":"Feature","geometry":{"type":"MultiPolygon","coordinates":[[[[-0.7,-6.089],[-0.56,-6.11],[-0.483,-6.139],[-0.637,-6.42],[-0.708,-6.518],[-0.778,-6.666],[-0.967,-6.975],[-1.114,-6.975],[-1.114,-7.123],[-1.058,-7.123],[-1.198,-7.39],[-1.36,-7.637],[-1.395,-7.721],[-1.696,-7.615],[-1.696,-7.447],[-1.787,-7.447],[-1.794,-7.419],[-1.899,-7.327],[-1.878,-7.278],[-1.703,-7.109],[-1.689,-7.109],[-1.465,-6.877],[-1.451,-6.877],[-0.862,-6.279],[-0.862,-6.265],[-0.743,-6.146],[-0.729,-6.096],[-0.7,-6.089]]],[[[0.807,-6.11],[0.954,-6.146],[0.961,-6.188],[1.186,-6.434],[1.347,-6.645],[1.403,-6.694],[1.417,-6.729],[1.487,-6.807],[1.501,-6.807],[1.508,-6.835],[1.627,-6.968],[1.627,-6.983],[1.873,-7.236],[1.873,-7.278],[1.803,-7.278],[1.726,-7.299],[1.676,-7.327],[1.613,-7.39],[1.585,-7.454],[1.585,-7.538],[1.606,-7.615],[1.522,-7.665],[1.452,-7.686],[1.347,-7.517],[1.2,-7.215],[1.186,-7.165],[1.122,-7.067],[0.87,-6.575],[0.772,-6.413],[0.653,-6.216],[0.625,-6.139],[0.807,-6.11]]]]},"properties":{"abbr":"IRt","name":"intermediate reticular nucleus","plate":51,"ap_bregma_mm":-9.7,"area_mm2":1.4003,"traced_fraction":[0.881,0.98],"n_labels":2,"no_drawn_outline":false}},{"type":"Feature","geometry":{"type":"MultiPolygon","coordinates":[[[[-0.111,-6.687],[-0.013,-6.687],[-0.006,-6.786],[-0.02,-6.877],[-0.02,-7.243],[-0.034,-7.405],[-0.056,-7.405],[-0.084,-7.376],[-0.111,-7.306],[-0.111,-6.687]]],[[[0.071,-6.729],[0.169,-6.736],[0.162,-6.954],[0.148,-6.968],[0.141,-7.039],[0.134,-7.313],[0.106,-7.405],[0.05,-7.419],[0.071,-7.081],[0.071,-6.729]]]]},"properties":{"abbr":"ts","name":"tectospinal tract","plate":51,"ap_bregma_mm":-9.7,"area_mm2":0.1175,"traced_fraction":[0.97,0.973],"n_labels":2,"no_drawn_outline":false}},{"type":"Feature","geometry":{"type":"MultiPolygon","coordinates":[[[[1.831,-6.476],[1.985,-6.554],[2.027,-6.589],[2.069,-6.652],[2.083,-6.652],[2.076,-6.673],[2.097,-6.764],[2.083,-7.046],[2.097,-7.123],[2.132,-7.165],[2.083,-7.208],[2.083,-7.243],[2.062,-7.257],[2.062,-7.313],[2.027,-7.341],[1.943,-7.292],[1.873,-7.278],[1.873,-7.236],[1.627,-6.983],[1.627,-6.968],[1.508,-6.835],[1.501,-6.807],[1.564,-6.743],[1.824,-6.736],[1.831,-6.476]]]]},"properties":{"abbr":"Li","name":"linear nucleus of the medulla","plate":51,"ap_bregma_mm":-9.7,"area_mm2":0.2804,"traced_fraction":[0.69],"n_labels":3,"no_drawn_outline":true}},{"type":"Feature","geometry":{"type":"MultiPolygon","coordinates":[[[[0.071,-6.729],[0.071,-7.081],[0.05,-7.419],[0.05,-7.454],[0.036,-7.468],[0.029,-7.651],[-0.027,-7.658],[-0.14,-7.679],[-0.231,-7.742],[-0.322,-7.834],[-0.771,-7.834],[-0.785,-8.143],[-0.806,-8.143],[-0.848,-8.094],[-1.1,-7.897],[-1.395,-7.721],[-1.36,-7.637],[-1.198,-7.39],[-1.058,-7.123],[-0.967,-6.975],[-0.778,-6.666],[-0.708,-6.518],[-0.637,-6.42],[-0.119,-6.42],[-0.111,-6.687],[-0.111,-7.306],[-0.098,-7.355],[-0.056,-7.405],[-0.034,-7.405],[-0.02,-7.243],[-0.013,-6.687],[0.015,-6.392],[0.029,-6.357],[0.057,-6.343],[0.071,-6.364],[0.078,-6.554],[0.071,-6.729]]],[[[0.204,-6.413],[0.772,-6.413],[0.87,-6.575],[1.122,-7.067],[1.073,-7.067],[1.073,-7.215],[1.2,-7.215],[1.347,-7.517],[1.452,-7.686],[1.228,-7.855],[1.179,-7.876],[1.094,-7.967],[1.017,-7.981],[0.856,-8.129],[0.849,-7.834],[0.351,-7.834],[0.211,-7.728],[0.211,-7.714],[0.211,-7.468],[0.176,-7.468],[0.106,-7.405],[0.134,-7.313],[0.141,-7.039],[0.148,-6.968],[0.162,-6.954],[0.169,-6.736],[0.176,-6.575],[0.204,-6.413]]]]},"properties":{"abbr":"Gi","name":"gigantocellular reticular nucleus","plate":51,"ap_bregma_mm":-9.7,"area_mm2":2.8967,"traced_fraction":[0.836,0.59],"n_labels":2,"no_drawn_outline":true}},{"type":"Feature","geometry":{"type":"MultiPolygon","coordinates":[[[[0.106,-7.405],[0.176,-7.468],[0.211,-7.468],[0.211,-7.714],[0.113,-7.665],[0.043,-7.651],[0.029,-7.651],[0.036,-7.468],[0.05,-7.454],[0.05,-7.419],[0.106,-7.405]]]]},"properties":{"abbr":"ROb","name":"raphe obscurus nucleus","plate":51,"ap_bregma_mm":-9.7,"area_mm2":0.0425,"traced_fraction":[0.63],"n_labels":1,"no_drawn_outline":true}},{"type":"Feature","geometry":{"type":"MultiPolygon","coordinates":[[[[-2.334,-7.545],[-2.131,-7.686],[-1.984,-7.749],[-1.78,-7.869],[-1.367,-8.227],[-1.31,-8.256],[-1.156,-8.382],[-0.988,-8.474],[-0.918,-8.53],[-0.939,-8.558],[-1.325,-8.396],[-1.528,-8.291],[-1.556,-8.277],[-1.57,-8.27],[-1.584,-8.263],[-1.906,-8.108],[-1.927,-8.08],[-1.956,-8.073],[-2.39,-7.665],[-2.369,-7.637],[-2.355,-7.559],[-2.334,-7.545]]],[[[1.775,-7.841],[1.775,-7.911],[1.803,-7.932],[1.81,-7.995],[1.41,-8.319],[1.34,-8.347],[1.263,-8.403],[1.115,-8.481],[0.975,-8.523],[0.968,-8.488],[1.08,-8.389],[1.41,-8.164],[1.662,-7.918],[1.676,-7.918],[1.747,-7.848],[1.775,-7.841]]]]},"properties":{"abbr":"vsc","name":"ventral spinocerebellar tract","plate":51,"ap_bregma_mm":-9.7,"area_mm2":0.3983,"traced_fraction":[0.98,0.935],"n_labels":2,"no_drawn_outline":false}},{"type":"Feature","geometry":{"type":"MultiPolygon","coordinates":[[[[-0.322,-7.834],[-0.378,-7.89],[-0.406,-7.953],[-0.462,-8.023],[-0.532,-8.171],[-0.546,-8.178],[-0.588,-8.291],[-0.666,-8.27],[-0.785,-8.157],[-0.785,-8.143],[-0.771,-7.834],[-0.322,-7.834]]],[[[0.351,-7.834],[0.849,-7.834],[0.856,-8.129],[0.695,-8.291],[0.639,-8.305],[0.611,-8.284],[0.491,-8.038],[0.351,-7.834]]]]},"properties":{"abbr":"GiV","name":"gigantocellular reticular nucleus, ventral part","plate":51,"ap_bregma_mm":-9.7,"area_mm2":0.2823,"traced_fraction":[0.493,0.498],"n_labels":2,"no_drawn_outline":true}},{"type":"Feature","geometry":{"type":"MultiPolygon","coordinates":[[[[0.043,-7.651],[0.113,-7.665],[0.211,-7.714],[0.211,-7.728],[0.351,-7.834],[0.491,-8.038],[0.611,-8.284],[0.639,-8.305],[0.639,-8.361],[0.561,-8.347],[0.323,-8.263],[0.309,-8.185],[0.204,-8.016],[0.106,-7.925],[0.008,-7.89],[-0.09,-7.932],[-0.189,-8.016],[-0.273,-8.136],[-0.301,-8.192],[-0.308,-8.241],[-0.441,-8.27],[-0.539,-8.312],[-0.581,-8.312],[-0.588,-8.291],[-0.546,-8.178],[-0.532,-8.171],[-0.462,-8.023],[-0.406,-7.953],[-0.378,-7.89],[-0.322,-7.834],[-0.231,-7.742],[-0.14,-7.679],[-0.027,-7.658],[-0.034,-7.848],[-0.027,-7.869],[0.001,-7.883],[0.022,-7.834],[0.029,-7.672],[0.043,-7.651]]]]},"properties":{"abbr":"GiA","name":"gigantocellular reticular nucleus, alpha part","plate":51,"ap_bregma_mm":-9.7,"area_mm2":0.3343,"traced_fraction":[0.991],"n_labels":2,"no_drawn_outline":false}},{"type":"Feature","geometry":{"type":"MultiPolygon","coordinates":[[[[-1.696,-7.615],[-1.395,-7.721],[-1.1,-7.897],[-0.89,-8.059],[-0.806,-8.143],[-0.785,-8.143],[-0.785,-8.157],[-0.666,-8.27],[-0.588,-8.291],[-0.581,-8.312],[-0.609,-8.34],[-0.806,-8.452],[-0.869,-8.509],[-0.918,-8.53],[-0.988,-8.474],[-1.156,-8.382],[-1.31,-8.256],[-1.367,-8.227],[-1.78,-7.869],[-1.984,-7.749],[-1.977,-7.7],[-1.921,-7.721],[-1.843,-7.721],[-1.766,-7.672],[-1.738,-7.609],[-1.696,-7.615]]],[[[1.606,-7.615],[1.655,-7.672],[1.753,-7.714],[1.824,-7.714],[1.943,-7.679],[1.936,-7.714],[1.775,-7.826],[1.775,-7.841],[1.747,-7.848],[1.676,-7.918],[1.662,-7.918],[1.445,-8.136],[1.27,-8.27],[1.08,-8.389],[0.968,-8.488],[0.849,-8.466],[0.674,-8.389],[0.639,-8.361],[0.639,-8.305],[0.695,-8.291],[0.856,-8.129],[1.017,-7.981],[1.094,-7.967],[1.179,-7.876],[1.228,-7.855],[1.452,-7.686],[1.522,-7.665],[1.606,-7.615]]]]},"properties":{"abbr":"LPGi","name":"lateral paragigantocellular nucleus","plate":51,"ap_bregma_mm":-9.7,"area_mm2":0.8928,"traced_fraction":[0.991,0.908],"n_labels":2,"no_drawn_outline":false}},{"type":"Feature","geometry":{"type":"MultiPolygon","coordinates":[[[[0.891,-8.551],[0.842,-8.586],[0.632,-8.664],[0.456,-8.692],[0.344,-8.692],[0.246,-8.685],[0.155,-8.656],[0.099,-8.614],[0.043,-8.537],[-0.006,-8.516],[-0.006,-8.509],[0.043,-8.445],[0.085,-8.445],[0.162,-8.417],[0.414,-8.41],[0.772,-8.481],[0.863,-8.516],[0.891,-8.551]]],[[[-0.133,-8.452],[-0.056,-8.509],[-0.056,-8.53],[-0.147,-8.621],[-0.196,-8.642],[-0.252,-8.692],[-0.413,-8.741],[-0.623,-8.734],[-0.82,-8.621],[-0.869,-8.593],[-0.82,-8.537],[-0.757,-8.495],[-0.574,-8.431],[-0.483,-8.417],[-0.28,-8.424],[-0.133,-8.452]]]]},"properties":{"abbr":"py","name":"pyramidal tract","plate":51,"ap_bregma_mm":-9.7,"area_mm2":0.3623,"traced_fraction":[1.0,1.0],"n_labels":2,"no_drawn_outline":false}},{"type":"Feature","geometry":{"type":"MultiPolygon","coordinates":[[[[0.057,-8.256],[0.043,-8.445],[-0.006,-8.509],[-0.056,-8.509],[-0.133,-8.452],[-0.147,-8.354],[-0.14,-8.249],[-0.084,-8.164],[-0.056,-8.15],[0.001,-8.15],[0.036,-8.178],[0.057,-8.256]]]]},"properties":{"abbr":"RPa","name":"raphe pallidus nucleus","plate":51,"ap_bregma_mm":-9.7,"area_mm2":0.0592,"traced_fraction":[1.0],"n_labels":1,"no_drawn_outline":false}},{"type":"Feature","geometry":{"type":"MultiPolygon","coordinates":[[[[-0.252,-5.309],[-0.224,-5.309],[-0.189,-5.344],[-0.077,-5.653],[-0.006,-5.738],[0.036,-5.759],[0.099,-5.766],[0.155,-5.745],[0.232,-5.653],[0.295,-5.527],[0.33,-5.491],[0.358,-5.491],[0.351,-5.548],[0.274,-5.674],[0.246,-5.752],[0.225,-5.759],[0.148,-5.864],[0.113,-5.878],[0.043,-5.878],[0.008,-5.864],[-0.006,-5.864],[-0.013,-5.822],[-0.077,-5.752],[-0.182,-5.52],[-0.203,-5.442],[-0.252,-5.358],[-0.252,-5.309]]]]},"properties":{"abbr":"4V","name":"4th ventricle","plate":51,"ap_bregma_mm":-9.7,"area_mm2":0.0667,"traced_fraction":[1.0],"n_labels":1,"no_drawn_outline":false}},{"type":"Feature","geometry":{"type":"MultiPolygon","coordinates":[[[[0.169,-6.146],[0.204,-6.244],[0.204,-6.413],[0.176,-6.575],[0.169,-6.736],[0.071,-6.729],[0.078,-6.554],[0.071,-6.364],[0.057,-6.343],[0.029,-6.357],[0.015,-6.392],[-0.013,-6.687],[-0.111,-6.687],[-0.119,-6.42],[-0.126,-6.251],[-0.069,-6.139],[-0.041,-6.117],[-0.034,-6.082],[-0.006,-6.075],[0.015,-6.103],[0.099,-6.103],[0.169,-6.146]]]]},"properties":{"abbr":"mlf","name":"medial longitudinal fasciculus","plate":51,"ap_bregma_mm":-9.7,"area_mm2":0.1544,"traced_fraction":[0.963],"n_labels":1,"no_drawn_outline":false}},{"type":"Feature","geometry":{"type":"MultiPolygon","coordinates":[[[[-1.927,-5.843],[-1.921,-5.92],[-1.963,-5.984],[-2.005,-6.019],[-2.012,-6.047],[-2.131,-6.117],[-2.201,-6.188],[-2.215,-6.188],[-2.236,-6.223],[-2.25,-6.223],[-2.362,-6.335],[-2.362,-6.35],[-2.453,-6.448],[-2.516,-6.575],[-2.552,-6.729],[-2.559,-6.807],[-2.524,-7.004],[-2.439,-7.179],[-2.362,-7.278],[-2.383,-7.341],[-2.446,-7.39],[-2.482,-7.376],[-2.58,-7.278],[-2.678,-7.095],[-2.713,-6.891],[-2.699,-6.638],[-2.664,-6.504],[-2.594,-6.335],[-2.432,-6.117],[-2.306,-5.998],[-2.145,-5.892],[-2.019,-5.843],[-1.927,-5.843]]],[[[2.791,-6.708],[2.777,-6.877],[2.735,-7.004],[2.693,-7.081],[2.546,-7.264],[2.532,-7.264],[2.448,-7.348],[2.37,-7.376],[2.328,-7.348],[2.321,-7.313],[2.377,-7.257],[2.385,-7.229],[2.49,-7.137],[2.567,-7.025],[2.623,-6.898],[2.644,-6.722],[2.609,-6.589],[2.546,-6.455],[2.455,-6.343],[2.441,-6.307],[2.385,-6.244],[2.37,-6.244],[2.251,-6.124],[2.174,-6.082],[2.104,-5.991],[2.097,-5.928],[2.111,-5.913],[2.181,-5.899],[2.328,-5.956],[2.476,-6.061],[2.609,-6.195],[2.672,-6.279],[2.679,-6.307],[2.7,-6.321],[2.714,-6.385],[2.735,-6.406],[2.791,-6.61],[2.791,-6.708]]]]},"properties":{"abbr":"sp5","name":"spinal trigeminal tract","plate":51,"ap_bregma_mm":-9.7,"area_mm2":0.6087,"traced_fraction":[1.0,1.0],"n_labels":2,"no_drawn_outline":false}},{"type":"Feature","geometry":{"type":"MultiPolygon","coordinates":[[[[1.354,-6.188],[1.494,-6.209],[1.662,-6.202],[1.655,-6.279],[1.669,-6.328],[1.789,-6.462],[1.732,-6.497],[1.655,-6.518],[1.508,-6.511],[1.445,-6.455],[1.41,-6.392],[1.396,-6.335],[1.368,-6.293],[1.354,-6.188]]]]},"properties":{"abbr":"5Sol","name":"trigeminal-solitary transition zone","plate":51,"ap_bregma_mm":-9.7,"area_mm2":0.0924,"traced_fraction":[1.0],"n_labels":1,"no_drawn_outline":false}},{"type":"Feature","geometry":{"type":"MultiPolygon","coordinates":[[[[2.132,-7.165],[2.188,-7.208],[2.237,-7.222],[2.385,-7.229],[2.377,-7.257],[2.321,-7.313],[2.328,-7.348],[2.37,-7.376],[2.314,-7.454],[2.216,-7.538],[2.083,-7.623],[2.062,-7.623],[2.027,-7.651],[1.999,-7.651],[2.006,-7.615],[2.055,-7.566],[2.083,-7.482],[2.069,-7.405],[2.027,-7.341],[2.062,-7.313],[2.062,-7.257],[2.083,-7.243],[2.083,-7.208],[2.132,-7.165]]],[[[-2.103,-7.243],[-2.089,-7.257],[-2.089,-7.306],[-2.075,-7.313],[-2.075,-7.369],[-2.054,-7.376],[-2.089,-7.419],[-2.089,-7.566],[-2.054,-7.637],[-1.977,-7.7],[-1.984,-7.749],[-2.131,-7.686],[-2.334,-7.545],[-2.446,-7.412],[-2.446,-7.39],[-2.383,-7.341],[-2.362,-7.278],[-2.32,-7.292],[-2.194,-7.292],[-2.103,-7.243]]]]},"properties":{"abbr":"rs","name":"rubrospinal tract","plate":51,"ap_bregma_mm":-9.7,"area_mm2":0.2092,"traced_fraction":[0.876,0.937],"n_labels":2,"no_drawn_outline":false}},{"type":"Feature","geometry":{"type":"MultiPolygon","coordinates":[[[[1.873,-7.278],[1.943,-7.292],[2.027,-7.341],[2.069,-7.405],[2.083,-7.482],[2.069,-7.538],[2.006,-7.615],[1.999,-7.651],[1.95,-7.672],[1.943,-7.679],[1.824,-7.714],[1.753,-7.714],[1.676,-7.686],[1.606,-7.615],[1.585,-7.538],[1.585,-7.454],[1.613,-7.39],[1.676,-7.327],[1.726,-7.299],[1.803,-7.278],[1.873,-7.278]]],[[[-1.899,-7.327],[-1.794,-7.419],[-1.787,-7.447],[-1.696,-7.447],[-1.696,-7.615],[-1.738,-7.609],[-1.766,-7.672],[-1.843,-7.721],[-1.921,-7.721],[-1.977,-7.7],[-2.054,-7.637],[-2.089,-7.566],[-2.089,-7.419],[-2.054,-7.376],[-1.991,-7.334],[-1.899,-7.327]]]]},"properties":{"abbr":"P7","name":"perifacial zone","plate":51,"ap_bregma_mm":-9.7,"area_mm2":0.2859,"traced_fraction":[1.0,0.844],"n_labels":3,"no_drawn_outline":false}},{"type":"Feature","geometry":{"type":"MultiPolygon","coordinates":[[[[0.323,-8.263],[0.246,-8.249],[0.057,-8.256],[0.036,-8.178],[0.001,-8.15],[-0.056,-8.15],[-0.084,-8.164],[-0.14,-8.249],[-0.308,-8.241],[-0.308,-8.213],[-0.273,-8.136],[-0.189,-8.016],[-0.09,-7.932],[0.008,-7.89],[0.106,-7.925],[0.204,-8.016],[0.309,-8.185],[0.323,-8.263]]]]},"properties":{"abbr":"RMg","name":"raphe magnus nucleus","plate":51,"ap_bregma_mm":-9.7,"area_mm2":0.1403,"traced_fraction":[1.0],"n_labels":1,"no_drawn_outline":false}},{"type":"Feature","geometry":{"type":"Polygon","coordinates":[[[-0.567,-4.83],[0.085,-4.873],[0.498,-4.873],[0.982,-4.837],[1.487,-4.767],[1.81,-4.669],[1.95,-4.739],[1.992,-4.795],[1.992,-4.837],[1.964,-4.851],[1.845,-4.844],[1.76,-4.873],[1.718,-4.936],[1.726,-5.013],[1.753,-5.062],[1.831,-5.14],[1.894,-5.175],[1.992,-5.196],[1.936,-5.295],[1.915,-5.295],[1.908,-5.28],[1.753,-5.21],[1.585,-5.154],[1.445,-5.133],[1.235,-5.14],[1.073,-5.147],[0.926,-5.175],[0.926,-5.196],[0.891,-5.245],[0.772,-5.351],[0.772,-5.365],[0.73,-5.4],[0.688,-5.463],[0.674,-5.463],[0.59,-5.576],[0.505,-5.724],[0.491,-5.787],[0.407,-5.745],[0.246,-5.752],[0.274,-5.674],[0.351,-5.548],[0.358,-5.491],[0.47,-5.288],[0.519,-5.231],[0.576,-5.21],[0.54,-5.161],[0.498,-5.14],[0.449,-5.126],[0.358,-5.126],[0.211,-5.203],[0.113,-5.203],[-0.034,-5.091],[-0.133,-5.055],[-0.21,-5.055],[-0.329,-5.098],[-0.392,-5.168],[-0.658,-5.126],[-0.771,-5.126],[-0.967,-5.091],[-1.114,-5.048],[-1.212,-5.048],[-1.332,-5.084],[-1.416,-5.091],[-1.402,-5.041],[-1.388,-5.041],[-1.317,-4.971],[-1.304,-4.943],[-1.31,-4.88],[-1.374,-4.844],[-1.458,-4.76],[-1.493,-4.711],[-1.528,-4.619],[-1.556,-4.577],[-1.605,-4.542],[-1.605,-4.528],[-1.724,-4.458],[-1.836,-4.451],[-1.942,-4.514],[-1.991,-4.577],[-1.97,-4.669],[-1.977,-4.753],[-2.005,-4.767],[-2.068,-4.767],[-2.166,-4.725],[-2.222,-4.725],[-2.299,-4.767],[-2.334,-4.802],[-2.334,-4.865],[-2.313,-4.901],[-2.271,-4.929],[-2.271,-4.943],[-2.243,-4.95],[-2.243,-4.964],[-2.215,-4.971],[-2.201,-4.992],[-2.11,-5.041],[-1.991,-5.076],[-1.808,-5.076],[-1.731,-5.062],[-1.584,-5.006],[-1.528,-4.957],[-1.521,-4.936],[-1.493,-4.936],[-1.493,-4.978],[-1.584,-5.105],[-1.591,-5.147],[-1.759,-5.28],[-1.836,-5.386],[-1.871,-5.386],[-1.998,-5.463],[-2.012,-5.484],[-2.033,-5.484],[-2.04,-5.499],[-2.201,-5.576],[-2.278,-5.597],[-2.432,-5.716],[-2.509,-5.576],[-2.503,-5.562],[-2.453,-5.548],[-2.411,-5.499],[-2.397,-5.288],[-2.418,-5.21],[-2.482,-5.147],[-2.594,-5.119],[-2.636,-4.964],[-2.664,-4.915],[-2.706,-4.873],[-2.762,-4.851],[-2.692,-4.76],[-2.453,-4.591],[-2.271,-4.5],[-2.11,-4.394],[-2.089,-4.394],[-1.935,-4.289],[-1.745,-4.225],[-1.647,-4.218],[-1.605,-4.268],[-1.584,-4.429],[-1.535,-4.556],[-1.451,-4.648],[-1.367,-4.704],[-1.149,-4.774],[-0.813,-4.816],[-0.567,-4.83]]]},"properties":{"abbr":null,"name":"unnamed sealed face","plate":51,"ap_bregma_mm":-9.7,"index":0}},{"type":"Feature","geometry":{"type":"Polygon","coordinates":[[[2.398,-4.472],[2.419,-4.472],[2.539,-4.556],[2.595,-4.577],[2.595,-4.591],[2.686,-4.633],[2.686,-4.648],[2.623,-4.661],[2.623,-4.76],[2.665,-4.873],[2.665,-5.006],[2.651,-5.041],[2.609,-5.048],[2.539,-4.971],[2.455,-4.802],[2.448,-4.711],[2.462,-4.669],[2.448,-4.633],[2.419,-4.619],[2.391,-4.577],[2.406,-4.528],[2.398,-4.472]]]},"properties":{"abbr":null,"name":"unnamed sealed face","plate":51,"ap_bregma_mm":-9.7,"index":1}},{"type":"Feature","geometry":{"type":"Polygon","coordinates":[[[0.463,-6.11],[0.47,-6.131],[0.463,-6.146],[0.393,-6.139],[0.393,-6.153],[0.26,-6.146],[0.26,-6.139],[0.253,-6.124],[0.253,-6.075],[0.281,-6.047],[0.323,-6.033],[0.407,-6.04],[0.428,-6.054],[0.442,-6.103],[0.463,-6.11]]]},"properties":{"abbr":null,"name":"unnamed sealed face","plate":51,"ap_bregma_mm":-9.7,"index":2}},{"type":"Feature","geometry":{"type":"Polygon","coordinates":[[[-1.493,-6.117],[-1.409,-6.139],[-1.1,-6.124],[-1.114,-6.167],[-1.149,-6.181],[-1.149,-6.195],[-1.226,-6.237],[-1.24,-6.258],[-1.36,-6.314],[-1.388,-6.343],[-1.57,-6.42],[-1.689,-6.441],[-1.682,-6.42],[-1.605,-6.385],[-1.528,-6.328],[-1.507,-6.279],[-1.507,-6.16],[-1.493,-6.117]]]},"properties":{"abbr":null,"name":"unnamed sealed face","plate":51,"ap_bregma_mm":-9.7,"index":3}},{"type":"Feature","geometry":{"type":"MultiPolygon","coordinates":[[[[-0.441,-8.734],[-0.623,-8.727],[-0.89,-8.579],[-1.317,-8.389],[-1.878,-8.115],[-1.963,-8.059],[-2.348,-7.707],[-2.559,-7.496],[-2.783,-7.236],[-2.853,-7.13],[-2.902,-6.983],[-2.923,-6.835],[-2.923,-6.554],[-2.867,-6.265],[-2.783,-6.089],[-2.432,-5.716],[-2.516,-5.562],[-2.488,-5.555],[-2.573,-5.562],[-2.615,-5.548],[-2.755,-5.456],[-2.811,-5.499],[-2.846,-5.66],[-2.916,-5.752],[-2.944,-5.766],[-3.063,-5.759],[-3.211,-5.674],[-3.309,-5.569],[-3.386,-5.442],[-3.414,-5.351],[-3.414,-5.28],[-3.386,-5.189],[-3.323,-5.091],[-3.175,-4.964],[-3.162,-4.894],[-3.211,-4.809],[-3.239,-4.725],[-3.253,-4.655],[-3.246,-4.472],[-3.19,-4.394],[-3.042,-4.31],[-3.049,-4.225],[-3.302,-4.085],[-3.351,-4.036],[-3.407,-3.944],[-3.449,-3.789],[-3.498,-3.473],[-3.659,-2.959],[-3.673,-2.805],[-3.772,-2.685],[-3.779,-2.573],[-3.743,-2.39],[-3.751,-2.052],[-3.73,-1.933],[-3.687,-1.841],[-3.603,-1.729],[-3.421,-1.553],[-3.351,-1.504],[-3.19,-1.426],[-2.467,-1.222],[-2.194,-1.201],[-1.984,-1.222],[-1.696,-1.3],[-1.479,-1.398],[-1.31,-1.539],[-1.219,-1.539],[-1.107,-1.342],[-0.988,-1.229],[-0.841,-1.145],[-0.694,-1.089],[-0.497,-1.039],[-0.119,-1.004],[0.337,-1.032],[0.709,-1.11],[0.863,-1.166],[1.024,-1.25],[1.101,-1.307],[1.221,-1.447],[1.319,-1.433],[1.41,-1.349],[1.578,-1.279],[1.81,-1.236],[1.985,-1.222],[2.244,-1.222],[2.539,-1.257],[2.84,-1.328],[3.114,-1.419],[3.394,-1.546],[3.625,-1.679],[3.836,-1.848],[3.962,-1.982],[4.06,-2.13],[4.123,-2.291],[4.151,-2.425],[4.151,-2.692],[4.109,-2.889],[4.067,-3.009],[3.801,-3.571],[3.766,-3.684],[3.731,-3.958],[3.696,-4.057],[3.618,-4.155],[3.443,-4.261],[3.429,-4.387],[3.478,-4.451],[3.485,-4.563],[3.464,-4.648],[3.394,-4.781],[3.415,-4.859],[3.492,-4.922],[3.527,-4.985],[3.583,-5.21],[3.633,-5.273],[3.689,-5.386],[3.696,-5.499],[3.64,-5.618],[3.422,-5.801],[3.289,-5.857],[3.198,-5.857],[3.142,-5.822],[3.107,-5.773],[3.065,-5.653],[2.974,-5.477],[2.931,-5.344],[2.938,-5.231],[2.959,-5.189],[3.008,-5.147],[3.128,-5.105],[3.345,-5.119],[3.387,-5.02],[3.331,-4.957],[3.212,-4.873],[3.149,-4.873],[2.98,-4.809],[2.693,-4.64],[2.616,-4.655],[2.616,-4.746],[2.658,-4.88],[2.658,-4.985],[2.644,-5.034],[2.609,-5.041],[2.546,-4.971],[2.462,-4.809],[2.448,-4.76],[2.448,-4.711],[2.462,-4.683],[2.448,-4.626],[2.419,-4.612],[2.391,-4.57],[2.406,-4.507],[2.398,-4.458],[2.265,-4.373],[1.971,-4.233],[1.901,-4.211],[1.824,-4.211],[1.781,-4.24],[1.775,-4.282],[1.789,-4.345],[1.859,-4.535],[1.929,-4.57],[2.111,-4.57],[2.146,-4.584],[2.167,-4.633],[2.139,-4.683],[2.139,-4.739],[2.181,-4.851],[2.23,-4.887],[2.293,-4.887],[2.342,-4.908],[2.377,-4.964],[2.37,-5.034],[2.335,-5.076],[2.174,-5.168],[2.09,-5.189],[1.985,-5.189],[1.929,-5.295],[2.083,-5.365],[2.307,-5.534],[2.476,-5.604],[2.511,-5.639],[2.567,-5.752],[2.595,-5.78],[2.707,-5.864],[2.833,-5.935],[2.938,-6.033],[2.995,-6.11],[3.029,-6.188],[3.051,-6.265],[3.051,-6.335],[3.002,-6.842],[2.952,-7.018],[2.847,-7.179],[2.63,-7.39],[2.265,-7.686],[1.985,-7.883],[1.775,-8.009],[1.41,-8.305],[1.122,-8.466],[0.891,-8.544],[0.849,-8.572],[0.618,-8.656],[0.428,-8.685],[0.253,-8.678],[0.162,-8.649],[0.12,-8.628],[0.043,-8.537],[0.001,-8.509],[-0.069,-8.53],[-0.147,-8.607],[-0.273,-8.692],[-0.427,-8.734],[-0.441,-8.734]]]]},"properties":{"abbr":"brain_outline","name":"outline of the section","plate":51,"ap_bregma_mm":-9.7}}]}
