{"type":"FeatureCollection","name":"GerbilAtlas plate 27","note":"Region extents cut from the atlas drawing (METHODS.md, Region extents). Coordinates are [ML, DV] in mm, ML positive to the right of the plate as printed, DV negative below the dorsal surface; AP is the plate bregma. traced_fraction is the share of each polygon boundary the atlas actually draws; below 0.5 the boundary is an estimate. no_drawn_outline marks a feature that lies only inside boundaries the atlas draws round more than one name and prints nothing within, so the whole of its outline is where the extraction cut it. Not a segmentation.","plate":27,"ap_bregma_mm":-1.3,"features":[{"type":"Feature","geometry":{"type":"MultiPolygon","coordinates":[[[[-1.458,-0.852],[-1.36,-2.371],[-1.416,-2.378],[-1.549,-2.385],[-1.724,-0.88],[-1.556,-0.859],[-1.844,-0.859],[-1.458,-0.852],[-1.458,-0.852]]],[[[0.379,-5.522],[0.519,-5.571],[0.772,-5.599],[0.779,-5.733],[0.688,-5.831],[0.491,-5.852],[0.344,-5.648],[0.379,-5.522],[0.379,-5.522]]],[[[-0.834,-5.536],[-0.645,-5.648],[-0.672,-5.859],[-0.743,-5.93],[-0.897,-5.937],[-0.988,-5.852],[-1.002,-5.698],[-0.932,-5.578],[-0.834,-5.536],[-0.834,-5.536]]]]},"properties":{"abbr":"mt","name":"mammillothalamic tract","plate":27,"ap_bregma_mm":-1.3,"area_mm2":0.5555,"traced_fraction":[1.0,1.0,1.0],"n_labels":3,"no_drawn_outline":false}},{"type":"Feature","geometry":{"type":"MultiPolygon","coordinates":[[[[1.08,-0.823],[1.27,-0.831],[1.347,-2.357],[1.066,-2.343],[0.765,-1.52],[0.414,-0.922],[0.386,-0.915],[0.442,-0.908],[0.442,-0.908],[1.08,-0.823],[1.08,-0.823]]],[[[-1.458,-0.852],[-0.869,-0.859],[-1.079,-0.866],[-0.778,-0.894],[-0.462,-0.999],[-0.82,-1.639],[-1.065,-2.357],[-1.36,-2.371],[-1.458,-0.852],[-1.458,-0.852]]]]},"properties":{"abbr":"M2","name":"secondary motor cortex","plate":27,"ap_bregma_mm":-1.3,"area_mm2":1.7422,"traced_fraction":[1.0,1.0],"n_labels":2,"no_drawn_outline":false}},{"type":"Feature","geometry":{"type":"MultiPolygon","coordinates":[[[[1.284,-0.823],[1.487,-0.831],[1.396,-0.838],[1.487,-0.831],[1.683,-0.838],[1.627,-0.845],[1.599,-2.378],[1.347,-2.357],[1.27,-0.831],[1.284,-0.823],[1.284,-0.823]]]]},"properties":{"abbr":"M1","name":"primary motor cortex","plate":27,"ap_bregma_mm":-1.3,"area_mm2":0.4693,"traced_fraction":[1.0],"n_labels":1,"no_drawn_outline":false}},{"type":"Feature","geometry":{"type":"MultiPolygon","coordinates":[[[[0.414,-0.922],[0.765,-1.52],[1.066,-2.343],[0.849,-2.371],[0.407,-1.977],[0.155,-1.878],[-0.105,-1.871],[-0.469,-2.033],[-0.771,-2.378],[-1.065,-2.357],[-0.82,-1.639],[-0.462,-0.999],[-0.357,-1.034],[-0.343,-1.042],[-0.343,-1.042],[-0.168,-1.168],[-0.161,-1.175],[-0.147,-1.182],[-0.007,-1.421],[0.141,-1.084],[0.414,-0.922],[0.414,-0.922]]]]},"properties":{"abbr":"Cg1","name":"cingulate cortex, area 1","plate":27,"ap_bregma_mm":-1.3,"area_mm2":1.5659,"traced_fraction":[1.0],"n_labels":4,"no_drawn_outline":false}},{"type":"Feature","geometry":{"type":"MultiPolygon","coordinates":[[[[3.184,-1.077],[3.345,-1.119],[3.45,-1.154],[3.45,-1.154],[3.457,-1.154],[3.029,-2.737],[2.805,-2.666],[3.184,-1.077],[3.184,-1.077]]],[[[-3.295,-1.217],[-2.825,-2.61],[-3.007,-2.687],[-3.505,-1.274],[-3.295,-1.217],[-3.295,-1.217]]]]},"properties":{"abbr":"S1DZ","name":"primary somatosensory cortex, dysgranular zone","plate":27,"ap_bregma_mm":-1.3,"area_mm2":0.7327,"traced_fraction":[1.0,0.998],"n_labels":2,"no_drawn_outline":false}},{"type":"Feature","geometry":{"type":"MultiPolygon","coordinates":[[[[3.457,-1.154],[3.471,-1.161],[3.471,-1.161],[3.499,-1.168],[3.499,-1.168],[3.527,-1.175],[3.794,-1.246],[3.822,-1.253],[3.822,-1.253],[3.85,-1.26],[3.85,-1.26],[3.878,-1.267],[3.878,-1.267],[3.906,-1.274],[3.927,-1.281],[3.955,-1.288],[4.986,-1.696],[5.631,-2.146],[4.579,-3.51],[3.773,-3.039],[3.029,-2.737],[3.457,-1.154],[3.457,-1.154]]],[[[-3.505,-1.274],[-3.007,-2.687],[-3.884,-3.123],[-4.325,-3.426],[-5.496,-2.223],[-4.935,-1.738],[-4.332,-1.492],[-4.255,-1.485],[-4.255,-1.485],[-4.213,-1.471],[-4.213,-1.471],[-4.122,-1.442],[-4.122,-1.442],[-4.052,-1.421],[-4.052,-1.421],[-4.031,-1.414],[-4.031,-1.414],[-3.982,-1.4],[-3.982,-1.4],[-3.961,-1.393],[-3.961,-1.393],[-3.94,-1.386],[-3.94,-1.386],[-3.919,-1.379],[-3.919,-1.379],[-3.891,-1.372],[-3.891,-1.372],[-3.87,-1.365],[-3.505,-1.274],[-3.505,-1.274]]]]},"properties":{"abbr":"S1BF","name":"primary somatosensory cortex, barrel field","plate":27,"ap_bregma_mm":-1.3,"area_mm2":6.6285,"traced_fraction":[1.0,1.0],"n_labels":2,"no_drawn_outline":false}},{"type":"Feature","geometry":{"type":"MultiPolygon","coordinates":[[[[0.849,-2.371],[0.618,-2.821],[0.309,-2.948],[0.253,-2.891],[0.085,-2.919],[0.113,-2.765],[0.071,-2.68],[0.022,-2.729],[0.05,-2.933],[0.036,-2.933],[-0.126,-2.884],[-0.154,-2.962],[-0.511,-2.835],[-0.771,-2.378],[-0.469,-2.033],[-0.105,-1.871],[0.155,-1.878],[0.407,-1.977],[0.849,-2.371],[0.849,-2.371]]]]},"properties":{"abbr":"Cg2","name":"cingulate cortex, area 2","plate":27,"ap_bregma_mm":-1.3,"area_mm2":1.226,"traced_fraction":[0.987],"n_labels":4,"no_drawn_outline":false}},{"type":"Feature","geometry":{"type":"MultiPolygon","coordinates":[[[[1.066,-2.343],[1.347,-2.357],[1.599,-2.378],[1.964,-2.434],[1.936,-2.554],[1.452,-2.476],[1.122,-2.533],[0.947,-2.603],[0.744,-2.793],[0.667,-2.849],[0.618,-2.821],[0.849,-2.371],[1.066,-2.343],[1.066,-2.343]]],[[[-0.771,-2.378],[-0.511,-2.835],[-0.967,-2.519],[-1.409,-2.504],[-1.416,-2.378],[-1.36,-2.371],[-1.065,-2.357],[-0.771,-2.378],[-0.771,-2.378]]]]},"properties":{"abbr":"cg","name":"cingulum","plate":27,"ap_bregma_mm":-1.3,"area_mm2":0.3646,"traced_fraction":[0.975,0.968],"n_labels":2,"no_drawn_outline":false}},{"type":"Feature","geometry":{"type":"MultiPolygon","coordinates":[[[[-1.458,-2.694],[-1.451,-2.849],[-1.696,-2.955],[-1.71,-3.032],[-1.654,-3.095],[-1.304,-3.229],[-0.897,-3.229],[-0.89,-3.327],[-1.227,-3.461],[-1.233,-3.461],[-1.388,-3.313],[-2.194,-3.13],[-2.285,-3.067],[-2.222,-2.919],[-1.899,-2.765],[-1.458,-2.694],[-1.458,-2.694]]],[[[1.55,-2.779],[1.796,-2.941],[1.824,-3.137],[1.683,-3.257],[1.073,-3.517],[1.038,-3.475],[0.414,-3.208],[0.414,-3.201],[0.863,-2.926],[0.87,-3.046],[1.157,-3.046],[1.157,-2.772],[1.55,-2.779],[1.55,-2.779]]]]},"properties":{"abbr":"Or","name":"oriens layer of the hippocampus","plate":27,"ap_bregma_mm":-1.3,"area_mm2":0.9505,"traced_fraction":[0.959,0.774],"n_labels":2,"no_drawn_outline":false}},{"type":"Feature","geometry":{"type":"MultiPolygon","coordinates":[[[[-0.897,-3.229],[-1.304,-3.229],[-1.654,-3.095],[-1.71,-3.032],[-1.696,-2.955],[-1.451,-2.849],[-1.198,-2.877],[-0.792,-3.046],[-0.757,-3.144],[-0.897,-3.229],[-0.897,-3.229]]]]},"properties":{"abbr":"Py","name":"pyramidal cell layer of the hippocampus","plate":27,"ap_bregma_mm":-1.3,"area_mm2":0.2506,"traced_fraction":[0.993],"n_labels":1,"no_drawn_outline":false}},{"type":"Feature","geometry":{"type":"MultiPolygon","coordinates":[[[[-1.409,-2.504],[-0.967,-2.519],[-0.511,-2.835],[-0.154,-2.962],[0.309,-2.948],[0.618,-2.821],[0.667,-2.849],[0.744,-2.793],[0.751,-2.905],[0.526,-3.067],[0.295,-3.06],[0.211,-3.102],[0.211,-3.159],[0.155,-3.159],[0.148,-3.166],[-0.182,-3.137],[-0.273,-3.053],[-0.462,-3.039],[-0.469,-3.039],[-0.932,-2.673],[-1.268,-2.603],[-1.654,-2.624],[-1.668,-2.533],[-1.409,-2.504],[-1.409,-2.504]]]]},"properties":{"abbr":"cc","name":"corpus callosum","plate":27,"ap_bregma_mm":-1.3,"area_mm2":0.3568,"traced_fraction":[0.957],"n_labels":1,"no_drawn_outline":false}},{"type":"Feature","geometry":{"type":"MultiPolygon","coordinates":[[[[-0.476,-3.088],[-0.427,-3.13],[-0.89,-3.327],[-0.897,-3.229],[-0.757,-3.144],[-0.792,-3.046],[-1.198,-2.877],[-1.451,-2.849],[-1.458,-2.694],[-0.981,-2.751],[-0.476,-3.088],[-0.476,-3.088]]],[[[1.157,-2.772],[1.157,-3.046],[0.87,-3.046],[0.863,-2.926],[1.157,-2.772],[1.157,-2.772]]]]},"properties":{"abbr":"CA3","name":"field CA3 of the hippocampus","plate":27,"ap_bregma_mm":-1.3,"area_mm2":0.2585,"traced_fraction":[0.93,0.364],"n_labels":2,"no_drawn_outline":false}},{"type":"Feature","geometry":{"type":"MultiPolygon","coordinates":[[[[2.013,-2.751],[2.763,-2.99],[2.672,-3.081],[2.518,-3.067],[2.609,-3.152],[2.574,-3.313],[2.462,-3.222],[2.49,-3.144],[2.377,-3.074],[2.391,-3.004],[2.398,-3.004],[2.398,-3.004],[2.391,-3.004],[2.055,-2.849],[2.013,-2.751],[2.013,-2.751]]],[[[-0.175,-3.271],[-0.126,-3.278],[-0.02,-3.405],[-0.02,-3.278],[0.085,-3.292],[0.281,-3.454],[0.183,-3.482],[0.183,-3.482],[0.176,-3.602],[0.015,-3.623],[-0.041,-3.777],[-0.14,-3.799],[-0.245,-3.341],[-0.175,-3.271],[-0.175,-3.271]]]]},"properties":{"abbr":"chp","name":"choroid plexus","plate":27,"ap_bregma_mm":-1.3,"area_mm2":0.2646,"traced_fraction":[0.981,0.977],"n_labels":2,"no_drawn_outline":false}},{"type":"Feature","geometry":{"type":"MultiPolygon","coordinates":[[[[5.631,-2.146],[5.862,-2.343],[6.479,-3.088],[5.126,-4.017],[4.579,-3.51],[5.631,-2.146],[5.631,-2.146]]],[[[-5.496,-2.223],[-4.325,-3.426],[-4.851,-3.988],[-6.268,-3.137],[-5.945,-2.694],[-5.496,-2.223],[-5.496,-2.223]]]]},"properties":{"abbr":"S1ULp","name":"primary somatosensory cortex, upper lip region","plate":27,"ap_bregma_mm":-1.3,"area_mm2":3.3411,"traced_fraction":[1.0,0.997],"n_labels":2,"no_drawn_outline":false}},{"type":"Feature","geometry":{"type":"MultiPolygon","coordinates":[[[[-0.427,-3.13],[-0.294,-3.187],[-0.497,-3.222],[-0.743,-3.398],[-1.227,-3.461],[-0.89,-3.327],[-0.427,-3.13],[-0.427,-3.13]]],[[[0.414,-3.208],[1.038,-3.475],[0.807,-3.454],[0.337,-3.215],[0.414,-3.208],[0.414,-3.208]]]]},"properties":{"abbr":"GrDG","name":"granular layer of the dentate gyrus","plate":27,"ap_bregma_mm":-1.3,"area_mm2":0.1008,"traced_fraction":[0.945,1.0],"n_labels":2,"no_drawn_outline":false}},{"type":"Feature","geometry":{"type":"MultiPolygon","coordinates":[[[[-1.416,-2.378],[-1.409,-2.504],[-1.668,-2.533],[-1.654,-2.624],[-1.724,-2.638],[-1.991,-2.61],[-2.46,-2.729],[-2.832,-2.884],[-3.056,-3.081],[-3.603,-3.18],[-4.213,-3.524],[-4.564,-3.883],[-4.9,-4.368],[-5.083,-4.861],[-5.104,-5.325],[-5.013,-5.852],[-4.914,-6.077],[-4.802,-6.176],[-4.816,-6.204],[-4.914,-6.253],[-5.146,-5.662],[-5.146,-5.655],[-5.202,-5.247],[-5.202,-5.001],[-5.111,-4.488],[-4.851,-3.988],[-4.325,-3.426],[-3.884,-3.123],[-3.007,-2.687],[-2.825,-2.61],[-2.32,-2.462],[-1.549,-2.385],[-1.416,-2.378],[-1.416,-2.378]]],[[[1.964,-2.434],[2.805,-2.666],[3.029,-2.737],[3.773,-3.039],[4.579,-3.51],[5.126,-4.017],[5.336,-4.382],[5.413,-4.931],[5.399,-5.093],[5.329,-5.416],[4.965,-6.105],[4.916,-6.049],[5.196,-5.571],[5.336,-5.058],[5.273,-4.579],[5.063,-4.136],[4.67,-3.756],[4.102,-3.391],[3.611,-3.187],[2.882,-3.025],[2.763,-2.99],[2.013,-2.751],[1.466,-2.666],[1.249,-2.645],[0.751,-2.905],[0.744,-2.793],[0.947,-2.603],[1.122,-2.533],[1.452,-2.476],[1.936,-2.554],[1.964,-2.434],[1.964,-2.434]]]]},"properties":{"abbr":"ec","name":"external capsule","plate":27,"ap_bregma_mm":-1.3,"area_mm2":2.1817,"traced_fraction":[0.99,0.968],"n_labels":2,"no_drawn_outline":false}},{"type":"Feature","geometry":{"type":"MultiPolygon","coordinates":[[[[-0.294,-3.187],[-0.175,-3.271],[-0.245,-3.341],[-0.771,-3.707],[-1.268,-3.559],[-1.233,-3.461],[-1.227,-3.461],[-0.743,-3.398],[-0.497,-3.222],[-0.294,-3.187],[-0.294,-3.187]]],[[[0.337,-3.215],[0.807,-3.454],[1.038,-3.475],[1.073,-3.517],[0.947,-3.651],[0.681,-3.7],[0.281,-3.454],[0.085,-3.292],[0.337,-3.215],[0.337,-3.215]]]]},"properties":{"abbr":"MoDG","name":"molecular layer of the dentate gyrus","plate":27,"ap_bregma_mm":-1.3,"area_mm2":0.4504,"traced_fraction":[0.964,1.0],"n_labels":2,"no_drawn_outline":false}},{"type":"Feature","geometry":{"type":"MultiPolygon","coordinates":[[[[1.557,-2.722],[1.957,-2.835],[2.462,-3.222],[2.574,-3.313],[2.644,-3.454],[2.707,-3.503],[2.728,-3.468],[2.721,-3.51],[3.057,-3.735],[3.057,-3.749],[3.015,-3.89],[2.924,-3.953],[2.616,-4.017],[2.468,-3.981],[2.419,-3.939],[2.293,-3.904],[2.041,-3.714],[1.894,-3.595],[1.585,-3.552],[1.242,-3.573],[1.094,-3.672],[0.947,-3.651],[1.073,-3.517],[1.683,-3.257],[1.824,-3.137],[1.796,-2.941],[1.55,-2.779],[1.557,-2.722],[1.557,-2.722]]],[[[-1.907,-2.737],[-1.899,-2.765],[-2.222,-2.919],[-2.285,-3.067],[-2.194,-3.13],[-1.388,-3.313],[-1.233,-3.461],[-1.268,-3.559],[-1.458,-3.496],[-1.675,-3.524],[-2.012,-3.567],[-2.229,-3.784],[-2.32,-3.911],[-2.411,-3.995],[-2.601,-4.045],[-2.804,-4.024],[-3.035,-3.848],[-2.986,-3.735],[-2.965,-3.714],[-2.72,-3.236],[-2.25,-2.842],[-1.907,-2.737],[-1.907,-2.737]]]]},"properties":{"abbr":"fi","name":"fimbria of the hippocampus","plate":27,"ap_bregma_mm":-1.3,"area_mm2":1.9237,"traced_fraction":[0.977,0.997],"n_labels":2,"no_drawn_outline":false}},{"type":"Feature","geometry":{"type":"MultiPolygon","coordinates":[[[[-1.675,-3.524],[-1.451,-3.616],[-1.563,-3.792],[-1.668,-3.855],[-2.047,-3.862],[-2.229,-3.784],[-2.012,-3.567],[-1.675,-3.524],[-1.675,-3.524]]],[[[2.041,-3.714],[1.767,-3.855],[1.732,-3.855],[1.655,-3.7],[1.424,-3.623],[1.585,-3.552],[1.894,-3.595],[2.041,-3.714],[2.041,-3.714]]]]},"properties":{"abbr":"LDDM","name":"laterodorsal thalamic nucleus, dorsomedial part","plate":27,"ap_bregma_mm":-1.3,"area_mm2":0.2718,"traced_fraction":[1.0,1.0],"n_labels":2,"no_drawn_outline":false}},{"type":"Feature","geometry":{"type":"MultiPolygon","coordinates":[[[[6.479,-3.088],[6.746,-3.44],[6.753,-3.454],[6.759,-3.461],[6.767,-3.475],[6.907,-3.721],[5.336,-4.382],[5.126,-4.017],[6.479,-3.088],[6.479,-3.088]]],[[[-6.268,-3.137],[-4.851,-3.988],[-5.111,-4.488],[-6.8,-4.01],[-6.268,-3.137],[-6.268,-3.137]]]]},"properties":{"abbr":"S1","name":"primary somatosensory cortex","plate":27,"ap_bregma_mm":-1.3,"area_mm2":2.3211,"traced_fraction":[1.0,1.0],"n_labels":2,"no_drawn_outline":false}},{"type":"Feature","geometry":{"type":"MultiPolygon","coordinates":[[[[2.041,-3.714],[2.293,-3.904],[2.09,-3.995],[2.041,-3.981],[1.767,-3.855],[2.041,-3.714],[2.041,-3.714]]],[[[-2.229,-3.784],[-2.047,-3.862],[-1.668,-3.855],[-1.703,-3.904],[-1.801,-3.981],[-2.131,-4.052],[-2.208,-3.939],[-2.32,-3.911],[-2.229,-3.784],[-2.229,-3.784]]]]},"properties":{"abbr":"LDVL","name":"laterodorsal thalamic nucleus, ventrolateral part","plate":27,"ap_bregma_mm":-1.3,"area_mm2":0.1606,"traced_fraction":[0.935,1.0],"n_labels":2,"no_drawn_outline":false}},{"type":"Feature","geometry":{"type":"MultiPolygon","coordinates":[[[[-1.451,-3.616],[-0.974,-3.82],[-0.939,-4.115],[-1.065,-4.34],[-1.388,-4.164],[-1.703,-3.904],[-1.668,-3.855],[-1.563,-3.792],[-1.451,-3.616],[-1.451,-3.616]]],[[[1.424,-3.623],[1.655,-3.7],[1.732,-3.855],[1.333,-4.087],[1.01,-4.368],[0.919,-4.157],[0.954,-3.855],[1.214,-3.686],[1.424,-3.623],[1.424,-3.623]]]]},"properties":{"abbr":"AD","name":"anterodorsal thalamic nucleus","plate":27,"ap_bregma_mm":-1.3,"area_mm2":0.6259,"traced_fraction":[0.955,0.997],"n_labels":2,"no_drawn_outline":false}},{"type":"Feature","geometry":{"type":"MultiPolygon","coordinates":[[[[-6.198,-6.795],[-6.183,-6.816],[-5.889,-6.816],[-5.938,-7.132],[-5.342,-7.857],[-5.069,-8.23],[-4.844,-8.405],[-4.613,-8.525],[-4.452,-8.511],[-4.368,-8.518],[-4.361,-8.44],[-4.297,-8.448],[-4.192,-8.539],[-3.849,-8.455],[-3.652,-8.3],[-3.554,-8.553],[-3.863,-8.701],[-3.884,-8.708],[-3.884,-8.708],[-3.898,-8.715],[-3.898,-8.715],[-4.115,-8.806],[-4.115,-8.806],[-4.136,-8.813],[-4.361,-8.813],[-4.396,-8.806],[-4.396,-8.806],[-4.431,-8.799],[-4.431,-8.799],[-4.501,-8.785],[-4.501,-8.785],[-4.536,-8.778],[-4.536,-8.778],[-4.571,-8.771],[-4.999,-8.553],[-5.545,-8.054],[-5.861,-7.632],[-6.219,-6.942],[-6.198,-6.795],[-6.198,-6.795]]],[[[3.352,-7.969],[3.436,-8.18],[3.885,-8.469],[4.06,-8.511],[4.25,-8.363],[4.25,-8.729],[4.137,-8.736],[3.787,-8.63],[3.317,-8.398],[3.303,-8.391],[3.282,-8.377],[3.268,-8.37],[3.247,-8.356],[3.219,-8.342],[3.219,-8.342],[3.205,-8.335],[3.205,-8.335],[3.184,-8.321],[3.156,-8.293],[3.352,-7.969],[3.352,-7.969]]]]},"properties":{"abbr":"1","name":"layer 1 of cortex","plate":27,"ap_bregma_mm":-1.3,"area_mm2":1.1206,"traced_fraction":[0.993,1.0],"n_labels":3,"no_drawn_outline":false}},{"type":"Feature","geometry":{"type":"MultiPolygon","coordinates":[[[[3.057,-3.749],[3.135,-3.799],[3.177,-4.073],[3.015,-4.221],[2.833,-4.235],[2.644,-4.171],[2.483,-4.052],[2.468,-3.981],[2.616,-4.017],[2.924,-3.953],[3.015,-3.89],[3.057,-3.749],[3.057,-3.749]]],[[[-3.07,-3.848],[-3.035,-3.848],[-2.804,-4.024],[-2.601,-4.045],[-2.411,-3.995],[-2.404,-4.066],[-2.657,-4.27],[-2.916,-4.27],[-3.098,-4.115],[-3.07,-3.848],[-3.07,-3.848]]]]},"properties":{"abbr":"st","name":"stria terminalis","plate":27,"ap_bregma_mm":-1.3,"area_mm2":0.3186,"traced_fraction":[1.0,0.96],"n_labels":3,"no_drawn_outline":false}},{"type":"Feature","geometry":{"type":"MultiPolygon","coordinates":[[[[-0.343,-4.157],[-0.504,-4.214],[-0.729,-4.207],[-0.939,-4.115],[-0.974,-3.82],[-0.862,-3.792],[-0.63,-3.883],[-0.434,-4.122],[-0.343,-4.157],[-0.343,-4.157]]],[[[0.863,-3.827],[0.954,-3.855],[0.919,-4.157],[0.779,-4.249],[0.484,-4.263],[0.274,-4.164],[0.421,-4.157],[0.554,-3.932],[0.863,-3.827],[0.863,-3.827]]]]},"properties":{"abbr":"sm","name":"stria medullaris of the thalamus","plate":27,"ap_bregma_mm":-1.3,"area_mm2":0.3269,"traced_fraction":[0.944,0.996],"n_labels":2,"no_drawn_outline":false}},{"type":"Feature","geometry":{"type":"MultiPolygon","coordinates":[[[[1.732,-3.855],[1.767,-3.855],[2.041,-3.981],[2.055,-4.038],[2.041,-4.087],[1.648,-4.53],[1.298,-4.636],[1.045,-4.474],[1.01,-4.368],[1.333,-4.087],[1.732,-3.855],[1.732,-3.855]]],[[[-1.703,-3.904],[-1.388,-4.164],[-1.065,-4.34],[-1.086,-4.622],[-1.212,-4.65],[-1.612,-4.579],[-1.822,-4.207],[-1.801,-3.981],[-1.703,-3.904],[-1.703,-3.904]]]]},"properties":{"abbr":"AVDM","name":"anterovent thalamic nucleus, dorsomedial part","plate":27,"ap_bregma_mm":-1.3,"area_mm2":0.7767,"traced_fraction":[0.932,0.997],"n_labels":2,"no_drawn_outline":false}},{"type":"Feature","geometry":{"type":"MultiPolygon","coordinates":[[[[-0.287,-4.108],[-0.252,-4.136],[-0.196,-4.389],[-0.525,-4.27],[-0.715,-4.27],[-0.729,-4.207],[-0.504,-4.214],[-0.343,-4.157],[-0.287,-4.108],[-0.287,-4.108]]],[[[0.267,-4.164],[0.274,-4.164],[0.484,-4.263],[0.141,-4.382],[0.239,-4.171],[0.267,-4.164],[0.267,-4.164]]]]},"properties":{"abbr":"fr","name":"fasciculus retroflexus","plate":27,"ap_bregma_mm":-1.3,"area_mm2":0.0924,"traced_fraction":[1.0,1.0],"n_labels":2,"no_drawn_outline":false}},{"type":"Feature","geometry":{"type":"MultiPolygon","coordinates":[[[[-0.939,-4.115],[-0.729,-4.207],[-0.715,-4.27],[-0.567,-4.72],[-0.469,-4.868],[-0.799,-4.847],[-0.827,-4.839],[-1.086,-4.622],[-1.065,-4.34],[-0.939,-4.115],[-0.939,-4.115]]],[[[0.919,-4.157],[1.01,-4.368],[1.045,-4.474],[0.758,-4.804],[0.526,-4.825],[0.547,-4.769],[0.779,-4.249],[0.919,-4.157],[0.919,-4.157]]]]},"properties":{"abbr":"PC","name":"paracentral thalamic nucleus","plate":27,"ap_bregma_mm":-1.3,"area_mm2":0.4394,"traced_fraction":[1.0,1.0],"n_labels":2,"no_drawn_outline":false}},{"type":"Feature","geometry":{"type":"MultiPolygon","coordinates":[[[[0.779,-4.249],[0.547,-4.769],[0.372,-4.706],[0.113,-4.818],[0.064,-4.65],[0.141,-4.382],[0.484,-4.263],[0.779,-4.249],[0.779,-4.249]]],[[[-0.196,-4.389],[-0.119,-4.671],[-0.161,-4.832],[-0.378,-4.664],[-0.567,-4.72],[-0.715,-4.27],[-0.525,-4.27],[-0.196,-4.389],[-0.196,-4.389]]]]},"properties":{"abbr":"MD","name":"mediodorsal thalamic nucleus","plate":27,"ap_bregma_mm":-1.3,"area_mm2":0.4523,"traced_fraction":[1.0,1.0],"n_labels":2,"no_drawn_outline":false}},{"type":"Feature","geometry":{"type":"MultiPolygon","coordinates":[[[[-0.252,-4.136],[-0.231,-4.143],[-0.041,-4.221],[0.148,-4.178],[0.239,-4.171],[0.141,-4.382],[0.064,-4.65],[0.113,-4.818],[0.057,-4.973],[-0.084,-4.98],[-0.161,-4.832],[-0.119,-4.671],[-0.196,-4.389],[-0.252,-4.136],[-0.252,-4.136]]]]},"properties":{"abbr":"PV","name":"paraventricular thalamic nucleus","plate":27,"ap_bregma_mm":-1.3,"area_mm2":0.221,"traced_fraction":[1.0],"n_labels":1,"no_drawn_outline":false}},{"type":"Feature","geometry":{"type":"MultiPolygon","coordinates":[[[[6.907,-3.721],[6.956,-3.777],[6.963,-3.799],[6.963,-3.799],[6.97,-3.813],[7.166,-4.263],[7.264,-4.741],[7.271,-4.614],[7.278,-4.896],[7.194,-5.311],[5.413,-4.931],[5.336,-4.382],[6.907,-3.721],[6.907,-3.721]]],[[[-6.8,-4.01],[-5.111,-4.488],[-5.202,-5.001],[-6.983,-5.564],[-6.983,-5.557],[-6.983,-5.557],[-6.99,-5.536],[-6.99,-5.536],[-6.997,-5.515],[-6.997,-5.515],[-7.004,-5.494],[-7.004,-5.494],[-7.011,-5.473],[-7.011,-5.473],[-7.018,-5.444],[-7.018,-5.444],[-7.025,-5.423],[-7.025,-5.423],[-7.032,-5.402],[-7.032,-5.402],[-7.039,-5.374],[-7.039,-4.699],[-6.8,-4.01],[-6.8,-4.01]]]]},"properties":{"abbr":"S2","name":"secondary somatosensory cortex","plate":27,"ap_bregma_mm":-1.3,"area_mm2":3.9364,"traced_fraction":[0.982,0.983],"n_labels":2,"no_drawn_outline":false}},{"type":"Feature","geometry":{"type":"MultiPolygon","coordinates":[[[[2.293,-3.904],[2.419,-3.939],[2.405,-4.087],[2.462,-4.178],[3.036,-4.354],[3.191,-4.516],[3.198,-4.692],[2.742,-5.367],[2.377,-5.677],[2.006,-5.873],[1.522,-5.993],[1.22,-5.972],[1.165,-5.887],[1.199,-5.838],[1.368,-5.803],[2.083,-5.606],[2.63,-5.149],[2.784,-4.861],[2.812,-4.671],[2.581,-4.516],[2.139,-4.298],[2.041,-4.087],[2.055,-4.038],[2.09,-3.995],[2.293,-3.904],[2.293,-3.904]]],[[[-2.32,-3.911],[-2.208,-3.939],[-2.131,-4.052],[-2.159,-4.263],[-2.509,-4.488],[-2.713,-4.565],[-2.797,-4.678],[-2.762,-4.924],[-2.615,-5.219],[-2.138,-5.698],[-1.612,-5.916],[-1.458,-5.979],[-1.381,-6.084],[-1.43,-6.204],[-1.808,-6.204],[-1.907,-6.169],[-2.692,-5.501],[-3.169,-4.713],[-3.155,-4.572],[-3.063,-4.46],[-2.475,-4.256],[-2.404,-4.185],[-2.404,-4.066],[-2.411,-3.995],[-2.32,-3.911],[-2.32,-3.911]]]]},"properties":{"abbr":"Rt","name":"reticular thalamic nucleus","plate":27,"ap_bregma_mm":-1.3,"area_mm2":1.7878,"traced_fraction":[1.0,0.983],"n_labels":2,"no_drawn_outline":false}},{"type":"Feature","geometry":{"type":"MultiPolygon","coordinates":[[[[2.882,-3.025],[3.611,-3.187],[4.102,-3.391],[4.67,-3.756],[5.063,-4.136],[5.273,-4.579],[5.336,-5.058],[5.196,-5.571],[4.916,-6.049],[4.67,-6.162],[4.228,-6.211],[3.997,-6.302],[3.997,-6.049],[3.857,-6.042],[3.787,-5.972],[3.948,-5.62],[3.941,-5.163],[3.808,-4.481],[3.682,-4.256],[3.555,-4.15],[3.401,-3.939],[3.135,-3.799],[3.057,-3.749],[3.057,-3.735],[3.029,-3.609],[2.791,-3.384],[2.728,-3.468],[2.735,-3.384],[2.784,-3.37],[2.665,-3.088],[2.882,-3.025],[2.882,-3.025]]],[[[-3.056,-3.081],[-3.0,-3.271],[-3.049,-3.573],[-2.986,-3.735],[-3.035,-3.848],[-3.07,-3.848],[-3.421,-4.01],[-3.603,-4.439],[-3.73,-4.628],[-3.954,-5.564],[-3.891,-5.852],[-3.758,-6.063],[-3.87,-6.141],[-4.073,-6.141],[-4.073,-6.429],[-4.157,-6.408],[-4.157,-6.274],[-4.438,-6.302],[-4.802,-6.176],[-4.914,-6.077],[-5.013,-5.852],[-5.104,-5.325],[-5.083,-4.861],[-4.9,-4.368],[-4.564,-3.883],[-4.213,-3.524],[-3.603,-3.18],[-3.056,-3.081],[-3.056,-3.081]]]]},"properties":{"abbr":"CPu","name":"caudate putamen (striatum)","plate":27,"ap_bregma_mm":-1.3,"area_mm2":7.7913,"traced_fraction":[0.953,0.896],"n_labels":2,"no_drawn_outline":false}},{"type":"Feature","geometry":{"type":"MultiPolygon","coordinates":[[[[-0.161,-4.832],[-0.084,-4.98],[-0.168,-5.05],[-0.266,-5.05],[-0.469,-4.868],[-0.567,-4.72],[-0.378,-4.664],[-0.161,-4.832],[-0.161,-4.832]]],[[[0.547,-4.769],[0.526,-4.825],[0.281,-5.036],[0.162,-5.043],[0.057,-4.973],[0.113,-4.818],[0.372,-4.706],[0.547,-4.769],[0.547,-4.769]]]]},"properties":{"abbr":"PT","name":"paratenial thalamic nucleus","plate":27,"ap_bregma_mm":-1.3,"area_mm2":0.196,"traced_fraction":[0.988,1.0],"n_labels":2,"no_drawn_outline":false}},{"type":"Feature","geometry":{"type":"MultiPolygon","coordinates":[[[[-1.801,-3.981],[-1.822,-4.207],[-1.612,-4.579],[-1.493,-4.917],[-1.339,-5.142],[-1.409,-5.276],[-1.878,-4.994],[-2.061,-4.6],[-2.509,-4.488],[-2.159,-4.263],[-2.131,-4.052],[-1.801,-3.981],[-1.801,-3.981]]],[[[2.041,-4.087],[2.139,-4.298],[2.581,-4.516],[2.104,-4.643],[1.403,-5.515],[1.22,-5.451],[0.926,-5.473],[0.933,-5.437],[1.052,-5.198],[1.256,-5.121],[1.431,-4.973],[1.578,-4.769],[1.648,-4.53],[2.041,-4.087],[2.041,-4.087]]]]},"properties":{"abbr":"VA","name":"ventral anterior thalamic nucleus","plate":27,"ap_bregma_mm":-1.3,"area_mm2":1.1905,"traced_fraction":[0.951,0.997],"n_labels":2,"no_drawn_outline":false}},{"type":"Feature","geometry":{"type":"MultiPolygon","coordinates":[[[[1.045,-4.474],[1.298,-4.636],[1.157,-4.832],[0.484,-5.219],[0.463,-5.121],[0.47,-5.079],[0.758,-4.804],[1.045,-4.474],[1.045,-4.474]]],[[[-1.086,-4.622],[-0.827,-4.839],[-0.806,-4.875],[-0.483,-5.114],[-0.441,-5.367],[-0.469,-5.353],[-1.009,-5.001],[-1.03,-4.994],[-1.212,-4.65],[-1.086,-4.622],[-1.086,-4.622]]]]},"properties":{"abbr":"IAD","name":"interanterodorsal thalamic nucleus","plate":27,"ap_bregma_mm":-1.3,"area_mm2":0.3999,"traced_fraction":[0.989,0.996],"n_labels":2,"no_drawn_outline":false}},{"type":"Feature","geometry":{"type":"MultiPolygon","coordinates":[[[[-2.509,-4.488],[-2.061,-4.6],[-1.878,-4.994],[-1.409,-5.276],[-1.332,-5.395],[-1.374,-5.803],[-1.612,-5.916],[-2.138,-5.698],[-2.615,-5.219],[-2.762,-4.924],[-2.797,-4.678],[-2.713,-4.565],[-2.509,-4.488],[-2.509,-4.488]]],[[[2.581,-4.516],[2.812,-4.671],[2.784,-4.861],[2.63,-5.149],[2.083,-5.606],[1.368,-5.803],[1.326,-5.662],[1.403,-5.515],[2.104,-4.643],[2.581,-4.516],[2.581,-4.516]]]]},"properties":{"abbr":"VL","name":"ventrolateral thalamic nucleus","plate":27,"ap_bregma_mm":-1.3,"area_mm2":2.0863,"traced_fraction":[0.974,1.0],"n_labels":3,"no_drawn_outline":false}},{"type":"Feature","geometry":{"type":"MultiPolygon","coordinates":[[[[3.135,-3.799],[3.401,-3.939],[3.555,-4.15],[3.555,-4.474],[3.443,-4.952],[2.784,-5.951],[2.686,-6.338],[2.693,-6.359],[2.349,-6.612],[2.118,-6.619],[1.95,-6.563],[1.978,-6.499],[2.195,-6.549],[2.455,-6.464],[2.644,-6.232],[2.651,-6.028],[2.581,-5.986],[2.342,-6.028],[2.055,-6.197],[1.929,-6.366],[1.809,-6.38],[1.824,-6.12],[2.006,-5.873],[2.377,-5.677],[2.742,-5.367],[3.198,-4.692],[3.191,-4.516],[3.036,-4.354],[2.462,-4.178],[2.405,-4.087],[2.419,-3.939],[2.468,-3.981],[2.483,-4.052],[2.644,-4.171],[2.833,-4.235],[3.015,-4.221],[3.177,-4.073],[3.135,-3.799],[3.135,-3.799]]],[[[-3.07,-3.848],[-3.098,-4.115],[-2.916,-4.27],[-2.657,-4.27],[-2.404,-4.066],[-2.404,-4.185],[-2.475,-4.256],[-3.063,-4.46],[-3.155,-4.572],[-3.169,-4.713],[-2.692,-5.501],[-1.907,-6.169],[-1.822,-6.436],[-1.886,-6.661],[-2.257,-6.802],[-2.594,-6.732],[-2.741,-6.647],[-3.049,-6.352],[-3.225,-6.105],[-3.365,-5.747],[-3.554,-4.973],[-3.603,-4.439],[-3.421,-4.01],[-3.07,-3.848],[-3.07,-3.848]]],[[[-2.867,-5.803],[-3.007,-5.909],[-3.042,-6.035],[-3.028,-6.246],[-2.923,-6.394],[-2.671,-6.584],[-2.369,-6.703],[-2.075,-6.682],[-1.921,-6.584],[-1.907,-6.324],[-2.04,-6.141],[-2.867,-5.803],[-2.867,-5.803]]]]},"properties":{"abbr":"ic","name":"internal capsule","plate":27,"ap_bregma_mm":-1.3,"area_mm2":2.76,"traced_fraction":[0.991,0.977,1.0],"n_labels":2,"no_drawn_outline":false}},{"type":"Feature","geometry":{"type":"MultiPolygon","coordinates":[[[[5.413,-4.931],[7.194,-5.311],[7.033,-5.641],[5.399,-5.093],[5.413,-4.931],[5.413,-4.931]]],[[[-5.202,-5.001],[-5.202,-5.247],[-6.857,-5.817],[-6.92,-5.726],[-6.927,-5.705],[-6.927,-5.705],[-7.011,-5.648],[-6.948,-5.655],[-6.983,-5.578],[-6.983,-5.564],[-5.202,-5.001],[-5.202,-5.001]]]]},"properties":{"abbr":"GI","name":"granular insular cortex","plate":27,"ap_bregma_mm":-1.3,"area_mm2":0.9295,"traced_fraction":[1.0,1.0],"n_labels":2,"no_drawn_outline":false}},{"type":"Feature","geometry":{"type":"MultiPolygon","coordinates":[[[[1.157,-4.832],[1.052,-5.198],[0.933,-5.437],[0.519,-5.437],[0.519,-5.571],[0.379,-5.522],[0.33,-5.374],[0.484,-5.219],[1.157,-4.832],[1.157,-4.832]]],[[[-1.023,-5.001],[-1.009,-5.001],[-0.469,-5.353],[-0.469,-5.501],[-0.848,-5.501],[-0.974,-5.283],[-1.023,-5.001],[-1.023,-5.001]]]]},"properties":{"abbr":"AM","name":"anteromedial thalamic nucleus","plate":27,"ap_bregma_mm":-1.3,"area_mm2":0.4061,"traced_fraction":[0.789,0.719],"n_labels":2,"no_drawn_outline":false}},{"type":"Feature","geometry":{"type":"MultiPolygon","coordinates":[[[[3.555,-4.15],[3.682,-4.256],[3.808,-4.481],[3.941,-5.163],[3.948,-5.62],[3.787,-5.972],[3.632,-6.077],[3.359,-6.105],[2.896,-6.26],[2.812,-6.26],[2.812,-6.317],[2.714,-6.345],[2.686,-6.338],[2.784,-5.951],[3.443,-4.952],[3.555,-4.474],[3.555,-4.15],[3.555,-4.15]]],[[[-3.603,-4.439],[-3.554,-4.973],[-3.365,-5.747],[-3.225,-6.105],[-3.049,-6.352],[-3.715,-6.098],[-3.758,-6.063],[-3.891,-5.852],[-3.954,-5.564],[-3.73,-4.628],[-3.603,-4.439],[-3.603,-4.439]]]]},"properties":{"abbr":"GP","name":"globus pallidus","plate":27,"ap_bregma_mm":-1.3,"area_mm2":1.9023,"traced_fraction":[0.967,1.0],"n_labels":2,"no_drawn_outline":false}},{"type":"Feature","geometry":{"type":"MultiPolygon","coordinates":[[[[-0.469,-5.353],[-0.441,-5.367],[-0.308,-5.423],[-0.392,-5.613],[-0.645,-5.648],[-0.834,-5.536],[-0.848,-5.501],[-0.469,-5.501],[-0.469,-5.353],[-0.469,-5.353]]],[[[0.933,-5.437],[0.926,-5.473],[0.772,-5.599],[0.519,-5.571],[0.519,-5.437],[0.933,-5.437],[0.933,-5.437]]]]},"properties":{"abbr":"AMV","name":"anteromedial thalamic nucleus, ventral part","plate":27,"ap_bregma_mm":-1.3,"area_mm2":0.1225,"traced_fraction":[0.677,0.521],"n_labels":2,"no_drawn_outline":true}},{"type":"Feature","geometry":{"type":"MultiPolygon","coordinates":[[[[-0.932,-5.578],[-1.002,-5.698],[-0.988,-5.852],[-1.402,-5.972],[-1.458,-5.979],[-1.612,-5.916],[-1.374,-5.803],[-1.332,-5.395],[-1.142,-5.437],[-0.932,-5.578],[-0.932,-5.578]]],[[[1.403,-5.515],[1.326,-5.662],[1.368,-5.803],[1.199,-5.838],[0.926,-5.817],[0.779,-5.733],[0.772,-5.599],[0.926,-5.473],[1.22,-5.451],[1.403,-5.515],[1.403,-5.515]]]]},"properties":{"abbr":"VM","name":"ventromedial thalamic nucleus","plate":27,"ap_bregma_mm":-1.3,"area_mm2":0.3874,"traced_fraction":[0.976,0.996],"n_labels":2,"no_drawn_outline":false}},{"type":"Feature","geometry":{"type":"MultiPolygon","coordinates":[[[[5.399,-5.093],[7.033,-5.641],[6.872,-5.902],[6.844,-5.979],[6.851,-5.909],[6.816,-5.986],[6.626,-6.183],[6.612,-6.183],[5.357,-5.55],[5.329,-5.416],[5.399,-5.093],[5.399,-5.093]]],[[[-5.202,-5.247],[-5.146,-5.655],[-6.534,-6.267],[-6.857,-5.817],[-5.202,-5.247],[-5.202,-5.247]]]]},"properties":{"abbr":"DI","name":"dysgranular insular cortex","plate":27,"ap_bregma_mm":-1.3,"area_mm2":1.6473,"traced_fraction":[1.0,1.0],"n_labels":2,"no_drawn_outline":false}},{"type":"Feature","geometry":{"type":"MultiPolygon","coordinates":[[[[0.05,-5.465],[0.19,-5.494],[0.344,-5.648],[0.491,-5.852],[0.526,-5.916],[0.253,-6.014],[0.12,-6.162],[0.071,-6.028],[0.113,-5.803],[0.036,-5.662],[-0.056,-5.705],[-0.098,-5.803],[-0.056,-6.021],[-0.098,-6.155],[-0.105,-6.162],[-0.126,-6.169],[-0.161,-6.134],[-0.287,-6.0],[-0.553,-5.937],[-0.231,-5.529],[-0.062,-5.473],[0.05,-5.465],[0.05,-5.465]]]]},"properties":{"abbr":"Re","name":"reuniens thalamic nucleus","plate":27,"ap_bregma_mm":-1.3,"area_mm2":0.3776,"traced_fraction":[1.0],"n_labels":2,"no_drawn_outline":false}},{"type":"Feature","geometry":{"type":"MultiPolygon","coordinates":[[[[5.329,-5.416],[5.357,-5.55],[5.301,-6.169],[5.196,-6.45],[4.979,-6.485],[4.873,-6.422],[4.965,-6.105],[5.329,-5.416],[5.329,-5.416]]],[[[-5.146,-5.662],[-4.914,-6.253],[-4.886,-6.338],[-4.893,-6.506],[-5.125,-6.267],[-5.181,-6.035],[-5.146,-5.662],[-5.146,-5.662]]]]},"properties":{"abbr":"Cl","name":"claustrum","plate":27,"ap_bregma_mm":-1.3,"area_mm2":0.3594,"traced_fraction":[1.0,0.923],"n_labels":2,"no_drawn_outline":false}},{"type":"Feature","geometry":{"type":"MultiPolygon","coordinates":[[[[3.787,-5.972],[3.857,-6.042],[3.997,-6.049],[3.997,-6.302],[3.836,-6.436],[3.576,-6.324],[3.275,-6.26],[3.632,-6.077],[3.787,-5.972],[3.787,-5.972]]],[[[-3.758,-6.063],[-3.715,-6.098],[-3.442,-6.359],[-3.702,-6.443],[-3.842,-6.619],[-3.919,-6.499],[-4.045,-6.45],[-4.073,-6.429],[-4.073,-6.141],[-3.87,-6.141],[-3.758,-6.063],[-3.758,-6.063]]]]},"properties":{"abbr":"ASt","name":"amygdalostriatal transition area","plate":27,"ap_bregma_mm":-1.3,"area_mm2":0.3629,"traced_fraction":[0.764,0.674],"n_labels":2,"no_drawn_outline":true}},{"type":"Feature","geometry":{"type":"MultiPolygon","coordinates":[[[[2.006,-5.873],[1.824,-6.12],[1.494,-6.239],[1.059,-6.19],[0.828,-6.035],[0.989,-5.923],[1.165,-5.887],[1.22,-5.972],[1.522,-5.993],[2.006,-5.873],[2.006,-5.873]]],[[[-1.402,-5.972],[-0.75,-6.183],[-0.701,-6.246],[-0.736,-6.338],[-1.212,-6.373],[-1.64,-6.295],[-1.808,-6.204],[-1.43,-6.204],[-1.381,-6.084],[-1.458,-5.979],[-1.402,-5.972],[-1.402,-5.972]]]]},"properties":{"abbr":"ZIR","name":"zona incerta, rostral part","plate":27,"ap_bregma_mm":-1.3,"area_mm2":0.4624,"traced_fraction":[0.994,0.973],"n_labels":2,"no_drawn_outline":false}},{"type":"Feature","geometry":{"type":"MultiPolygon","coordinates":[[[[0.526,-5.916],[0.582,-6.056],[0.358,-6.373],[0.281,-6.373],[0.12,-6.162],[0.253,-6.014],[0.526,-5.916],[0.526,-5.916]]],[[[-0.553,-5.937],[-0.385,-5.951],[-0.161,-6.134],[-0.182,-6.309],[-0.182,-6.394],[-0.196,-6.408],[-0.287,-6.415],[-0.546,-6.169],[-0.595,-6.028],[-0.553,-5.937],[-0.553,-5.937]]]]},"properties":{"abbr":"VRe","name":"ventral reuniens thalamic nucleus","plate":27,"ap_bregma_mm":-1.3,"area_mm2":0.2477,"traced_fraction":[1.0,0.904],"n_labels":2,"no_drawn_outline":false}},{"type":"Feature","geometry":{"type":"MultiPolygon","coordinates":[[[[-0.056,-6.021],[0.071,-6.028],[0.12,-6.162],[0.281,-6.373],[0.169,-6.387],[0.008,-6.324],[-0.14,-6.366],[-0.182,-6.309],[-0.161,-6.134],[-0.126,-6.169],[-0.105,-6.162],[-0.098,-6.155],[-0.056,-6.021],[-0.056,-6.021]]]]},"properties":{"abbr":"PaXi","name":"paraxiphoid nucleus of thalamus","plate":27,"ap_bregma_mm":-1.3,"area_mm2":0.0957,"traced_fraction":[0.915],"n_labels":1,"no_drawn_outline":false}},{"type":"Feature","geometry":{"type":"MultiPolygon","coordinates":[[[[5.357,-5.55],[6.612,-6.183],[6.605,-6.204],[6.598,-6.218],[6.584,-6.232],[6.549,-6.274],[6.549,-6.274],[6.507,-6.324],[6.29,-6.549],[6.142,-6.605],[6.058,-6.935],[5.813,-6.851],[5.778,-6.837],[5.196,-6.45],[5.301,-6.169],[5.357,-5.55],[5.357,-5.55]]],[[[-5.146,-5.655],[-5.146,-5.662],[-5.181,-6.035],[-5.125,-6.267],[-4.893,-6.506],[-4.893,-6.513],[-4.907,-6.52],[-5.854,-6.816],[-5.889,-6.816],[-6.183,-6.816],[-6.162,-6.612],[-6.31,-6.534],[-6.492,-6.33],[-6.513,-6.33],[-6.534,-6.267],[-5.146,-5.655],[-5.146,-5.655]]]]},"properties":{"abbr":"AI","name":"agranular insular cortex","plate":27,"ap_bregma_mm":-1.3,"area_mm2":2.0587,"traced_fraction":[1.0,0.969],"n_labels":2,"no_drawn_outline":false}},{"type":"Feature","geometry":{"type":"MultiPolygon","coordinates":[[[[-4.816,-6.204],[-4.508,-6.387],[-4.837,-6.499],[-4.886,-6.338],[-4.914,-6.253],[-4.816,-6.204],[-4.816,-6.204]]]]},"properties":{"abbr":"LaD","name":"lateral amygdaloid nucleus, dorsal part","plate":27,"ap_bregma_mm":-1.3,"area_mm2":0.0613,"traced_fraction":[1.0],"n_labels":1,"no_drawn_outline":false}},{"type":"Feature","geometry":{"type":"MultiPolygon","coordinates":[[[[4.916,-6.049],[4.965,-6.105],[4.425,-6.33],[4.067,-6.366],[3.878,-6.528],[3.836,-6.436],[3.997,-6.302],[4.228,-6.211],[4.67,-6.162],[4.916,-6.049],[4.916,-6.049]]]]},"properties":{"abbr":"IMG","name":"amygdaloid intramedullary gray","plate":27,"ap_bregma_mm":-1.3,"area_mm2":0.1161,"traced_fraction":[1.0],"n_labels":2,"no_drawn_outline":false}},{"type":"Feature","geometry":{"type":"MultiPolygon","coordinates":[[[[-3.715,-6.098],[-3.049,-6.352],[-2.741,-6.647],[-3.028,-6.513],[-3.288,-6.457],[-3.442,-6.359],[-3.715,-6.098],[-3.715,-6.098]]],[[[2.896,-6.26],[2.931,-6.373],[2.609,-6.57],[2.434,-6.767],[2.349,-6.612],[2.693,-6.359],[2.714,-6.345],[2.812,-6.317],[2.812,-6.26],[2.896,-6.26],[2.896,-6.26]]]]},"properties":{"abbr":"B","name":"basal nucleus (Meynert)","plate":27,"ap_bregma_mm":-1.3,"area_mm2":0.2017,"traced_fraction":[1.0,0.836],"n_labels":3,"no_drawn_outline":false}},{"type":"Feature","geometry":{"type":"MultiPolygon","coordinates":[[[[-2.867,-5.803],[-2.04,-6.141],[-1.907,-6.324],[-1.921,-6.584],[-2.075,-6.682],[-2.369,-6.703],[-2.671,-6.584],[-2.923,-6.394],[-3.028,-6.246],[-3.042,-6.035],[-3.007,-5.909],[-2.867,-5.803],[-2.867,-5.803]]],[[[1.95,-6.563],[1.838,-6.485],[1.809,-6.38],[1.929,-6.366],[2.055,-6.197],[2.342,-6.028],[2.476,-5.986],[2.651,-6.028],[2.644,-6.232],[2.455,-6.464],[2.195,-6.549],[1.978,-6.499],[1.95,-6.563],[1.95,-6.563]]]]},"properties":{"abbr":"EP","name":"entopeduncular nucleus","plate":27,"ap_bregma_mm":-1.3,"area_mm2":0.958,"traced_fraction":[1.0,0.958],"n_labels":2,"no_drawn_outline":false}},{"type":"Feature","geometry":{"type":"MultiPolygon","coordinates":[[[[0.169,-6.387],[0.071,-6.661],[0.092,-6.893],[0.169,-6.971],[0.078,-7.252],[0.015,-7.252],[0.029,-6.542],[-0.02,-6.464],[-0.062,-6.584],[-0.133,-6.57],[-0.196,-6.408],[-0.182,-6.394],[-0.14,-6.366],[0.008,-6.324],[0.169,-6.387],[0.169,-6.387]]]]},"properties":{"abbr":"PaMP","name":"paraventricular hypothalamic nucleus, medial parvicellular part","plate":27,"ap_bregma_mm":-1.3,"area_mm2":0.1193,"traced_fraction":[0.978],"n_labels":1,"no_drawn_outline":false}},{"type":"Feature","geometry":{"type":"MultiPolygon","coordinates":[[[[0.779,-5.733],[0.926,-5.817],[1.199,-5.838],[1.165,-5.887],[0.989,-5.923],[0.828,-6.035],[1.059,-6.19],[1.494,-6.239],[1.824,-6.12],[1.809,-6.38],[1.838,-6.485],[1.95,-6.563],[2.118,-6.619],[2.349,-6.612],[2.434,-6.767],[2.265,-7.118],[2.111,-7.118],[2.09,-6.879],[1.894,-6.816],[1.796,-6.907],[1.781,-7.034],[1.901,-7.104],[2.034,-7.069],[2.069,-7.132],[2.006,-7.224],[1.936,-7.231],[1.487,-7.442],[1.003,-7.843],[0.835,-7.667],[1.017,-7.343],[1.01,-7.111],[0.891,-6.942],[0.667,-6.851],[0.421,-6.851],[0.26,-6.957],[0.204,-6.935],[0.498,-6.528],[0.484,-6.415],[0.358,-6.373],[0.582,-6.056],[0.526,-5.916],[0.491,-5.852],[0.688,-5.831],[0.779,-5.733],[0.779,-5.733]]],[[[0.863,-6.605],[0.891,-6.675],[0.856,-6.858],[1.017,-6.978],[1.101,-6.949],[1.101,-6.858],[0.989,-6.682],[1.024,-6.64],[1.108,-6.605],[1.108,-6.457],[0.989,-6.415],[0.8,-6.457],[0.8,-6.605],[0.863,-6.605],[0.863,-6.605]]]]},"properties":{"abbr":"ns","name":"nigrostriatal bundle","plate":27,"ap_bregma_mm":-1.3,"area_mm2":1.8569,"traced_fraction":[0.963,0.706],"n_labels":1,"no_drawn_outline":false}},{"type":"Feature","geometry":{"type":"MultiPolygon","coordinates":[[[[1.024,-6.64],[0.863,-6.605],[0.8,-6.605],[0.8,-6.457],[0.989,-6.415],[1.108,-6.457],[1.108,-6.605],[1.024,-6.64],[1.024,-6.64]]],[[[-0.939,-6.682],[-1.023,-6.689],[-1.163,-6.612],[-0.974,-6.464],[-0.834,-6.52],[-0.939,-6.682],[-0.939,-6.682]]]]},"properties":{"abbr":"ANS","name":"accessory neurosecretory nuclei","plate":27,"ap_bregma_mm":-1.3,"area_mm2":0.0977,"traced_fraction":[0.518,0.841],"n_labels":2,"no_drawn_outline":false}},{"type":"Feature","geometry":{"type":"MultiPolygon","coordinates":[[[[4.965,-6.105],[4.873,-6.422],[4.726,-6.844],[4.698,-6.907],[4.67,-6.921],[4.523,-6.76],[4.425,-6.33],[4.965,-6.105],[4.965,-6.105]]]]},"properties":{"abbr":"La","name":"lateral amygdaloid nucleus","plate":27,"ap_bregma_mm":-1.3,"area_mm2":0.227,"traced_fraction":[1.0],"n_labels":1,"no_drawn_outline":false}},{"type":"Feature","geometry":{"type":"MultiPolygon","coordinates":[[[[-4.508,-6.387],[-4.319,-6.443],[-4.578,-7.006],[-4.718,-7.048],[-4.767,-7.041],[-4.844,-6.591],[-4.837,-6.499],[-4.508,-6.387],[-4.508,-6.387]]]]},"properties":{"abbr":"LaV","name":"lateral amygdaloid nucleus, ventral part","plate":27,"ap_bregma_mm":-1.3,"area_mm2":0.2177,"traced_fraction":[0.936],"n_labels":1,"no_drawn_outline":false}},{"type":"Feature","geometry":{"type":"MultiPolygon","coordinates":[[[[0.281,-6.373],[0.358,-6.373],[0.484,-6.415],[0.498,-6.528],[0.204,-6.935],[0.169,-6.971],[0.071,-6.774],[0.099,-6.499],[0.169,-6.387],[0.281,-6.373],[0.281,-6.373]]],[[[-0.196,-6.408],[-0.133,-6.57],[-0.062,-6.584],[-0.07,-6.668],[-0.133,-6.661],[-0.147,-6.907],[-0.21,-6.985],[-0.476,-6.577],[-0.434,-6.464],[-0.287,-6.415],[-0.196,-6.408],[-0.196,-6.408]]]]},"properties":{"abbr":"PaMM","name":"paraventricular hypothalamic nucleus, medial magnocellular part","plate":27,"ap_bregma_mm":-1.3,"area_mm2":0.2874,"traced_fraction":[0.954,0.908],"n_labels":2,"no_drawn_outline":false}},{"type":"Feature","geometry":{"type":"MultiPolygon","coordinates":[[[[3.275,-6.26],[3.576,-6.324],[3.513,-6.633],[3.408,-6.738],[3.401,-6.745],[3.394,-6.753],[3.387,-6.753],[3.38,-6.76],[3.373,-6.76],[2.98,-6.738],[2.938,-6.689],[2.959,-6.499],[3.149,-6.302],[3.275,-6.26],[3.275,-6.26]]],[[[-3.288,-6.457],[-3.028,-6.513],[-3.028,-6.605],[-2.895,-6.753],[-2.951,-6.893],[-3.105,-6.978],[-3.19,-7.013],[-3.456,-6.816],[-3.449,-6.647],[-3.288,-6.457],[-3.288,-6.457]]]]},"properties":{"abbr":"CeL","name":"central amygdaloid nucleus, lateral division","plate":27,"ap_bregma_mm":-1.3,"area_mm2":0.4482,"traced_fraction":[0.965,1.0],"n_labels":2,"no_drawn_outline":false}},{"type":"Feature","geometry":{"type":"MultiPolygon","coordinates":[[[[3.149,-6.302],[2.959,-6.499],[2.938,-6.689],[2.602,-6.83],[2.405,-7.055],[2.272,-7.16],[2.265,-7.118],[2.434,-6.767],[2.609,-6.57],[2.931,-6.373],[3.149,-6.302],[3.149,-6.302]]],[[[-3.028,-6.513],[-2.741,-6.647],[-2.594,-6.732],[-2.404,-7.062],[-2.559,-7.041],[-2.706,-6.893],[-2.951,-6.893],[-2.895,-6.753],[-3.028,-6.605],[-3.028,-6.513],[-3.028,-6.513]]]]},"properties":{"abbr":"MePD","name":"medial amygdaloid nucleus, posterodorsal part","plate":27,"ap_bregma_mm":-1.3,"area_mm2":0.3135,"traced_fraction":[0.997,0.888],"n_labels":2,"no_drawn_outline":false}},{"type":"Feature","geometry":{"type":"MultiPolygon","coordinates":[[[[-0.105,-5.416],[-0.062,-5.473],[-0.231,-5.529],[-0.553,-5.937],[-0.595,-6.028],[-0.546,-6.169],[-0.287,-6.415],[-0.434,-6.464],[-0.476,-6.577],[-0.21,-6.985],[-0.196,-7.013],[-0.245,-7.041],[-0.483,-6.83],[-0.75,-6.816],[-0.981,-6.999],[-1.114,-7.266],[-1.044,-7.526],[-1.1,-7.491],[-1.198,-7.153],[-1.233,-7.4],[-1.03,-7.765],[-1.107,-7.85],[-1.584,-7.47],[-2.026,-7.294],[-2.166,-7.238],[-2.194,-7.16],[-2.005,-7.217],[-1.844,-7.139],[-1.871,-6.978],[-1.977,-6.9],[-2.243,-6.935],[-2.348,-7.139],[-2.404,-7.062],[-2.594,-6.732],[-2.257,-6.802],[-1.886,-6.661],[-1.822,-6.436],[-1.907,-6.169],[-1.808,-6.204],[-1.64,-6.295],[-1.212,-6.373],[-0.736,-6.338],[-0.701,-6.246],[-0.75,-6.183],[-1.402,-5.972],[-0.988,-5.852],[-0.897,-5.937],[-0.743,-5.93],[-0.672,-5.859],[-0.645,-5.648],[-0.392,-5.613],[-0.308,-5.423],[-0.105,-5.416],[-0.105,-5.416]]],[[[-1.023,-6.689],[-1.128,-6.858],[-1.121,-6.942],[-1.023,-6.978],[-0.911,-6.816],[-0.939,-6.682],[-0.834,-6.52],[-0.974,-6.464],[-1.163,-6.612],[-1.023,-6.689],[-1.023,-6.689]]]]},"properties":{"abbr":"PLH","name":"peduncular part of lateral hypothalamus","plate":27,"ap_bregma_mm":-1.3,"area_mm2":1.7596,"traced_fraction":[0.973,0.911],"n_labels":1,"no_drawn_outline":false}},{"type":"Feature","geometry":{"type":"MultiPolygon","coordinates":[[[[0.989,-6.682],[1.101,-6.858],[1.101,-6.949],[1.017,-6.978],[0.856,-6.858],[0.891,-6.675],[0.989,-6.682],[0.989,-6.682]]],[[[-0.939,-6.682],[-0.911,-6.816],[-1.023,-6.978],[-1.128,-6.928],[-1.023,-6.689],[-0.939,-6.682],[-0.939,-6.682]]]]},"properties":{"abbr":"f","name":"fornix","plate":27,"ap_bregma_mm":-1.3,"area_mm2":0.0862,"traced_fraction":[1.0,0.981],"n_labels":2,"no_drawn_outline":false}},{"type":"Feature","geometry":{"type":"MultiPolygon","coordinates":[[[[2.98,-6.738],[3.373,-6.76],[3.38,-6.767],[3.541,-6.935],[3.646,-7.16],[3.38,-7.146],[3.135,-6.907],[3.086,-6.858],[2.98,-6.738],[2.98,-6.738]]],[[[-3.456,-6.816],[-3.19,-7.013],[-3.197,-7.027],[-3.456,-7.168],[-3.708,-7.182],[-3.715,-7.062],[-3.456,-6.816],[-3.456,-6.816]]]]},"properties":{"abbr":"CeM","name":"central amygdaloid nucleus, medial division","plate":27,"ap_bregma_mm":-1.3,"area_mm2":0.2486,"traced_fraction":[0.931,0.971],"n_labels":2,"no_drawn_outline":false}},{"type":"Feature","geometry":{"type":"MultiPolygon","coordinates":[[[[4.425,-6.33],[4.523,-6.76],[4.67,-6.921],[4.39,-7.301],[4.341,-7.583],[3.822,-7.47],[3.689,-7.16],[3.759,-6.858],[3.815,-6.858],[3.85,-6.696],[3.878,-6.528],[4.067,-6.366],[4.425,-6.33],[4.425,-6.33]]],[[[-4.319,-6.443],[-4.045,-6.45],[-3.919,-6.499],[-3.842,-6.619],[-3.715,-7.062],[-3.708,-7.182],[-3.8,-7.4],[-4.003,-7.561],[-4.269,-7.639],[-4.515,-7.618],[-4.501,-7.294],[-4.578,-7.006],[-4.319,-6.443],[-4.319,-6.443]]]]},"properties":{"abbr":"BLA","name":"basolateral amygdaloid nucleus, anterior part","plate":27,"ap_bregma_mm":-1.3,"area_mm2":1.5857,"traced_fraction":[0.977,0.985],"n_labels":2,"no_drawn_outline":false}},{"type":"Feature","geometry":{"type":"MultiPolygon","coordinates":[[[[4.873,-6.422],[4.979,-6.485],[5.021,-7.35],[4.796,-7.519],[4.726,-7.505],[4.712,-7.379],[4.712,-7.364],[4.712,-7.041],[4.712,-6.921],[4.726,-6.844],[4.873,-6.422],[4.873,-6.422]]],[[[-4.893,-6.513],[-4.844,-6.591],[-4.767,-7.041],[-4.767,-7.055],[-4.767,-7.111],[-4.781,-7.259],[-4.788,-7.393],[-4.935,-7.428],[-5.09,-7.343],[-5.076,-7.069],[-4.907,-6.52],[-4.893,-6.513],[-4.893,-6.513]]]]},"properties":{"abbr":"DEn","name":"dorsal endopiriform nucleus","plate":27,"ap_bregma_mm":-1.3,"area_mm2":0.4556,"traced_fraction":[0.956,1.0],"n_labels":2,"no_drawn_outline":false}},{"type":"Feature","geometry":{"type":"MultiPolygon","coordinates":[[[[2.111,-7.118],[2.069,-7.132],[2.034,-7.069],[1.901,-7.104],[1.781,-7.034],[1.796,-6.907],[1.894,-6.816],[2.09,-6.879],[2.111,-7.118],[2.111,-7.118]]]]},"properties":{"abbr":"VLH","name":"ventrolateral hypothalamic nucleus","plate":27,"ap_bregma_mm":-1.3,"area_mm2":0.0725,"traced_fraction":[0.882],"n_labels":2,"no_drawn_outline":false}},{"type":"Feature","geometry":{"type":"MultiPolygon","coordinates":[[[[2.938,-6.689],[2.98,-6.738],[3.086,-6.858],[3.023,-6.935],[3.023,-7.111],[2.735,-7.28],[2.279,-7.364],[2.272,-7.336],[2.321,-7.252],[2.398,-7.252],[2.405,-7.055],[2.602,-6.83],[2.938,-6.689],[2.938,-6.689]]],[[[-2.951,-6.893],[-2.706,-6.893],[-2.559,-7.041],[-2.404,-7.062],[-2.348,-7.139],[-2.341,-7.498],[-2.383,-7.512],[-2.755,-7.301],[-3.07,-7.287],[-3.105,-6.978],[-2.951,-6.893],[-2.951,-6.893]]]]},"properties":{"abbr":"MeAD","name":"medial amygdaloid nucleus, anterodorsal part","plate":27,"ap_bregma_mm":-1.3,"area_mm2":0.5846,"traced_fraction":[0.93,0.803],"n_labels":2,"no_drawn_outline":false}},{"type":"Feature","geometry":{"type":"MultiPolygon","coordinates":[[[[2.265,-7.118],[2.272,-7.16],[2.251,-7.28],[2.006,-7.224],[2.069,-7.132],[2.111,-7.118],[2.265,-7.118],[2.265,-7.118]]]]},"properties":{"abbr":"SO","name":"supraoptic nucleus","plate":27,"ap_bregma_mm":-1.3,"area_mm2":0.0307,"traced_fraction":[0.99],"n_labels":1,"no_drawn_outline":false}},{"type":"Feature","geometry":{"type":"MultiPolygon","coordinates":[[[[3.023,-7.111],[3.107,-7.168],[3.114,-7.175],[3.24,-7.4],[3.128,-7.568],[2.609,-7.681],[2.335,-7.611],[2.16,-7.737],[2.062,-7.695],[2.237,-7.498],[2.279,-7.364],[2.735,-7.28],[3.023,-7.111],[3.023,-7.111]]],[[[-2.383,-7.512],[-2.215,-7.66],[-2.082,-7.857],[-2.194,-8.004],[-2.362,-7.857],[-2.524,-7.815],[-2.741,-7.871],[-2.909,-8.004],[-3.126,-7.808],[-3.225,-7.498],[-3.162,-7.315],[-3.07,-7.287],[-2.755,-7.301],[-2.383,-7.512],[-2.383,-7.512]]]]},"properties":{"abbr":"MeAV","name":"medial amygdaloid nucleus, anteroventral part","plate":27,"ap_bregma_mm":-1.3,"area_mm2":0.8695,"traced_fraction":[0.959,0.955],"n_labels":2,"no_drawn_outline":false}},{"type":"Feature","geometry":{"type":"MultiPolygon","coordinates":[[[[3.135,-6.907],[3.38,-7.146],[3.646,-7.16],[3.689,-7.16],[3.822,-7.47],[3.724,-7.632],[3.717,-7.639],[3.717,-7.646],[3.71,-7.653],[3.703,-7.66],[3.597,-7.625],[3.24,-7.4],[3.114,-7.175],[3.114,-7.168],[3.163,-7.09],[3.135,-6.907],[3.135,-6.907]]],[[[-3.197,-7.027],[-3.211,-7.259],[-3.162,-7.315],[-3.225,-7.498],[-3.856,-8.033],[-3.884,-8.04],[-4.003,-7.561],[-3.8,-7.4],[-3.708,-7.182],[-3.456,-7.168],[-3.197,-7.027],[-3.197,-7.027]]]]},"properties":{"abbr":"BMA","name":"basomedial amygdaloid nucleus, anterior part","plate":27,"ap_bregma_mm":-1.3,"area_mm2":0.6796,"traced_fraction":[0.91,0.97],"n_labels":2,"no_drawn_outline":false}},{"type":"Feature","geometry":{"type":"MultiPolygon","coordinates":[[[[4.698,-6.907],[4.712,-6.921],[4.712,-7.041],[4.712,-7.364],[4.712,-7.379],[4.621,-7.547],[4.488,-7.597],[4.341,-7.583],[4.383,-7.315],[4.67,-6.921],[4.698,-6.907],[4.698,-6.907]]],[[[-4.578,-7.006],[-4.501,-7.294],[-4.515,-7.618],[-4.662,-7.575],[-4.788,-7.393],[-4.781,-7.259],[-4.739,-7.259],[-4.767,-7.111],[-4.767,-7.055],[-4.718,-7.048],[-4.578,-7.006],[-4.578,-7.006]]]]},"properties":{"abbr":"BLP","name":"basolateral amygdaloid nucleus, posterior part","plate":27,"ap_bregma_mm":-1.3,"area_mm2":0.2854,"traced_fraction":[1.0,0.956],"n_labels":2,"no_drawn_outline":false}},{"type":"Feature","geometry":{"type":"MultiPolygon","coordinates":[[[[5.196,-6.45],[5.778,-6.837],[5.68,-7.132],[5.392,-7.512],[5.287,-7.561],[5.273,-7.653],[5.119,-7.744],[4.986,-7.962],[4.845,-8.04],[4.733,-8.187],[4.418,-8.293],[4.355,-8.44],[4.593,-8.427],[4.888,-8.244],[5.308,-7.787],[5.54,-7.568],[5.792,-7.168],[5.813,-6.851],[6.058,-6.935],[5.876,-7.393],[5.483,-7.976],[5.063,-8.384],[4.509,-8.687],[4.565,-8.694],[4.495,-8.701],[4.495,-8.701],[4.25,-8.729],[4.25,-8.363],[4.186,-8.3],[3.899,-8.335],[3.499,-8.004],[3.359,-7.955],[3.527,-7.808],[3.597,-7.625],[3.703,-7.66],[3.71,-7.66],[3.717,-7.66],[3.724,-7.667],[3.731,-7.674],[3.906,-7.829],[3.941,-8.012],[4.032,-8.089],[4.305,-8.082],[4.397,-8.012],[4.439,-7.885],[4.845,-7.73],[5.007,-7.498],[5.021,-7.35],[4.979,-6.485],[5.196,-6.45],[5.196,-6.45]]],[[[-4.907,-6.52],[-5.076,-7.069],[-5.09,-7.343],[-5.048,-7.519],[-5.09,-7.688],[-5.237,-7.688],[-5.363,-7.632],[-5.482,-7.372],[-5.595,-7.357],[-5.749,-7.182],[-5.854,-6.816],[-4.907,-6.52],[-4.907,-6.52]]],[[[-3.856,-8.033],[-3.715,-8.244],[-3.863,-8.307],[-4.297,-8.448],[-4.361,-8.44],[-4.319,-8.166],[-4.066,-8.138],[-3.884,-8.04],[-3.856,-8.033],[-3.856,-8.033]]]]},"properties":{"abbr":"3","name":"layer 3 of cortex","plate":27,"ap_bregma_mm":-1.3,"area_mm2":2.5642,"traced_fraction":[0.963,0.933,0.991],"n_labels":4,"no_drawn_outline":false}},{"type":"Feature","geometry":{"type":"MultiPolygon","coordinates":[[[[-5.09,-7.343],[-4.935,-7.428],[-4.788,-7.393],[-4.662,-7.575],[-4.48,-8.047],[-4.319,-8.166],[-4.361,-8.44],[-4.368,-8.518],[-4.452,-8.511],[-4.508,-8.419],[-4.76,-8.314],[-5.216,-7.787],[-5.237,-7.688],[-5.09,-7.688],[-5.048,-7.54],[-5.09,-7.343],[-5.09,-7.343]]],[[[5.021,-7.35],[5.007,-7.498],[4.845,-7.73],[4.439,-7.885],[4.488,-7.597],[4.621,-7.547],[4.712,-7.379],[4.726,-7.505],[4.796,-7.519],[5.021,-7.35],[5.021,-7.35]]]]},"properties":{"abbr":"VEn","name":"ventral endopiriform nucleus","plate":27,"ap_bregma_mm":-1.3,"area_mm2":0.6371,"traced_fraction":[0.914,0.902],"n_labels":2,"no_drawn_outline":false}},{"type":"Feature","geometry":{"type":"MultiPolygon","coordinates":[[[[2.006,-7.224],[2.251,-7.28],[2.272,-7.336],[2.279,-7.364],[2.237,-7.498],[2.062,-7.695],[1.76,-7.8],[1.382,-8.068],[1.361,-8.082],[1.361,-8.082],[1.347,-8.089],[1.34,-8.096],[1.326,-8.103],[1.326,-8.103],[1.157,-8.215],[1.157,-8.215],[1.143,-8.223],[1.143,-8.223],[1.129,-8.23],[0.793,-8.279],[0.87,-8.11],[1.235,-7.744],[1.936,-7.231],[2.006,-7.224],[2.006,-7.224]]],[[[-2.061,-7.357],[-1.64,-7.54],[-1.227,-7.829],[-0.974,-8.124],[-0.974,-8.342],[-1.247,-8.251],[-1.668,-7.955],[-1.71,-7.941],[-2.082,-7.857],[-2.215,-7.66],[-2.229,-7.393],[-2.061,-7.357],[-2.061,-7.357]]]]},"properties":{"abbr":"opt","name":"optic tract","plate":27,"ap_bregma_mm":-1.3,"area_mm2":1.0748,"traced_fraction":[0.998,1.0],"n_labels":2,"no_drawn_outline":false}},{"type":"Feature","geometry":{"type":"MultiPolygon","coordinates":[[[[5.273,-7.653],[5.308,-7.787],[4.888,-8.244],[4.593,-8.427],[4.355,-8.44],[4.418,-8.293],[4.733,-8.187],[4.845,-8.04],[4.986,-7.962],[5.119,-7.744],[5.273,-7.653],[5.273,-7.653]]],[[[-5.216,-7.787],[-4.76,-8.314],[-4.508,-8.419],[-4.452,-8.511],[-4.613,-8.525],[-4.844,-8.405],[-5.069,-8.23],[-5.342,-7.857],[-5.321,-7.793],[-5.216,-7.787],[-5.216,-7.787]]]]},"properties":{"abbr":"Pir","name":"piriform cortex","plate":27,"ap_bregma_mm":-1.3,"area_mm2":0.3309,"traced_fraction":[0.933,0.943],"n_labels":2,"no_drawn_outline":false}},{"type":"Feature","geometry":{"type":"MultiPolygon","coordinates":[[[[4.341,-7.583],[4.488,-7.597],[4.439,-7.885],[4.397,-8.012],[4.305,-8.082],[4.032,-8.089],[3.941,-8.012],[3.906,-7.829],[3.731,-7.674],[3.724,-7.667],[3.717,-7.66],[3.71,-7.66],[3.71,-7.653],[3.717,-7.646],[3.717,-7.639],[3.724,-7.632],[3.822,-7.47],[4.341,-7.583],[4.341,-7.583]]],[[[-4.003,-7.561],[-3.884,-8.04],[-4.066,-8.138],[-4.319,-8.166],[-4.48,-8.047],[-4.662,-7.575],[-4.515,-7.618],[-4.269,-7.639],[-4.003,-7.561],[-4.003,-7.561]]]]},"properties":{"abbr":"BLV","name":"basolateral amygdaloid nucleus, ventral part","plate":27,"ap_bregma_mm":-1.3,"area_mm2":0.6375,"traced_fraction":[0.912,0.988],"n_labels":2,"no_drawn_outline":false}},{"type":"Feature","geometry":{"type":"MultiPolygon","coordinates":[[[[-1.016,-7.568],[-0.764,-7.73],[-0.378,-7.751],[-0.336,-7.744],[-0.336,-7.948],[-0.694,-7.948],[-0.715,-7.892],[-1.002,-7.66],[-1.016,-7.568],[-1.016,-7.568]]],[[[0.302,-7.688],[0.435,-7.772],[0.526,-7.822],[0.653,-7.793],[0.653,-7.934],[0.302,-7.934],[0.302,-7.688],[0.302,-7.688]]]]},"properties":{"abbr":"TuLH","name":"tuberal region of lateral hypothalamus","plate":27,"ap_bregma_mm":-1.3,"area_mm2":0.1647,"traced_fraction":[0.668,0.398],"n_labels":2,"no_drawn_outline":true}},{"type":"Feature","geometry":{"type":"MultiPolygon","coordinates":[[[[2.609,-7.681],[2.665,-7.815],[2.623,-8.089],[2.258,-7.934],[2.244,-7.913],[2.244,-7.913],[2.23,-7.892],[2.23,-7.892],[2.223,-7.878],[2.16,-7.737],[2.335,-7.611],[2.609,-7.681],[2.609,-7.681]]],[[[-2.194,-8.004],[-2.341,-8.194],[-2.832,-8.328],[-2.909,-8.004],[-2.783,-7.892],[-2.538,-7.815],[-2.362,-7.857],[-2.194,-8.004],[-2.194,-8.004]]]]},"properties":{"abbr":"BAOT","name":"bed nucleus of the accessory olfactory tract","plate":27,"ap_bregma_mm":-1.3,"area_mm2":0.3936,"traced_fraction":[1.0,0.944],"n_labels":2,"no_drawn_outline":false}},{"type":"Feature","geometry":{"type":"MultiPolygon","coordinates":[[[[3.24,-7.4],[3.597,-7.625],[3.527,-7.808],[3.359,-7.955],[3.352,-7.969],[3.156,-8.293],[3.149,-8.3],[3.128,-8.293],[3.128,-8.293],[3.107,-8.286],[3.107,-8.286],[3.086,-8.279],[2.623,-8.089],[2.665,-7.815],[2.609,-7.681],[3.128,-7.568],[3.24,-7.4],[3.24,-7.4]]],[[[-3.225,-7.498],[-3.126,-7.808],[-2.909,-8.004],[-2.832,-8.328],[-3.162,-8.434],[-3.19,-8.44],[-3.19,-8.44],[-3.218,-8.448],[-3.218,-8.448],[-3.358,-8.49],[-3.358,-8.49],[-3.379,-8.497],[-3.379,-8.497],[-3.393,-8.504],[-3.393,-8.504],[-3.414,-8.511],[-3.442,-8.525],[-3.463,-8.532],[-3.554,-8.553],[-3.652,-8.3],[-3.715,-8.244],[-3.856,-8.033],[-3.225,-7.498],[-3.225,-7.498]]]]},"properties":{"abbr":"ACo","name":"anterior cortical amygdaloid nucleus","plate":27,"ap_bregma_mm":-1.3,"area_mm2":1.0931,"traced_fraction":[0.997,0.959],"n_labels":2,"no_drawn_outline":false}},{"type":"Feature","geometry":{"type":"MultiPolygon","coordinates":[[[[3.899,-8.335],[3.885,-8.469],[3.436,-8.18],[3.352,-7.969],[3.359,-7.955],[3.499,-8.004],[3.899,-8.335],[3.899,-8.335]]],[[[-3.863,-8.307],[-3.849,-8.455],[-4.192,-8.539],[-4.297,-8.448],[-3.863,-8.307],[-3.863,-8.307]]]]},"properties":{"abbr":"PLCo","name":"posterolateral cortical amygdaloid nucleus","plate":27,"ap_bregma_mm":-1.3,"area_mm2":0.146,"traced_fraction":[0.929,0.921],"n_labels":2,"no_drawn_outline":false}},{"type":"Feature","geometry":{"type":"MultiPolygon","coordinates":[[[[0.204,-6.935],[0.26,-6.957],[0.176,-7.125],[0.155,-7.364],[0.302,-7.688],[0.302,-7.934],[0.653,-7.934],[0.653,-7.793],[0.835,-7.667],[1.003,-7.843],[0.681,-8.18],[0.127,-8.223],[0.099,-7.92],[0.078,-7.252],[0.169,-6.971],[0.204,-6.935],[0.204,-6.935]]],[[[-0.168,-7.055],[-0.091,-7.245],[-0.091,-7.252],[-0.091,-7.765],[-0.14,-7.765],[-0.14,-7.92],[-0.077,-7.92],[-0.161,-7.976],[-0.161,-8.223],[-0.792,-8.18],[-1.107,-7.85],[-1.03,-7.765],[-0.876,-7.899],[-0.715,-7.892],[-0.694,-7.948],[-0.336,-7.948],[-0.336,-7.744],[-0.196,-7.66],[-0.154,-7.47],[-0.147,-7.393],[-0.161,-7.238],[-0.182,-7.16],[-0.217,-7.083],[-0.168,-7.055],[-0.168,-7.055]]]]},"properties":{"abbr":"RChL","name":"retrochiasmatic area, lateral part","plate":27,"ap_bregma_mm":-1.3,"area_mm2":0.689,"traced_fraction":[0.728,0.703],"n_labels":2,"no_drawn_outline":true}},{"type":"Feature","geometry":{"type":"MultiPolygon","coordinates":[[[[-5.889,-6.816],[-5.854,-6.816],[-5.749,-7.182],[-5.595,-7.357],[-5.482,-7.372],[-5.363,-7.632],[-5.237,-7.688],[-5.216,-7.787],[-5.321,-7.793],[-5.342,-7.857],[-5.938,-7.132],[-5.889,-6.816],[-5.889,-6.816]]],[[[5.778,-6.837],[5.813,-6.851],[5.792,-7.168],[5.54,-7.568],[5.308,-7.787],[5.273,-7.653],[5.287,-7.561],[5.392,-7.512],[5.68,-7.132],[5.778,-6.837],[5.778,-6.837]]],[[[4.25,-8.363],[4.06,-8.511],[3.885,-8.469],[3.899,-8.335],[4.186,-8.3],[4.25,-8.363],[4.25,-8.363]]]]},"properties":{"abbr":"2","name":"layer 2 of cortex","plate":27,"ap_bregma_mm":-1.3,"area_mm2":0.3372,"traced_fraction":[0.951,0.949,0.897],"n_labels":4,"no_drawn_outline":false}},{"type":"Feature","geometry":{"type":"MultiPolygon","coordinates":[[[[1.627,-0.845],[2.405,-0.915],[2.441,-0.922],[2.441,-0.922],[3.086,-1.042],[3.184,-1.077],[2.805,-2.666],[1.964,-2.434],[1.599,-2.378],[1.627,-0.845],[1.627,-0.845]]],[[[-1.724,-0.88],[-1.549,-2.385],[-2.32,-2.462],[-2.825,-2.61],[-3.295,-1.217],[-2.46,-0.985],[-1.724,-0.88],[-1.724,-0.88]]]]},"properties":{"abbr":"S1Tr","name":"primary somatosensory cortex, trunk region","plate":27,"ap_bregma_mm":-1.3,"area_mm2":4.389,"traced_fraction":[1.0,0.999],"n_labels":2,"no_drawn_outline":false}},{"type":"Feature","geometry":{"type":"MultiPolygon","coordinates":[[[[-0.469,-3.039],[-0.476,-3.088],[-0.946,-2.765],[-1.458,-2.694],[-1.899,-2.765],[-1.907,-2.737],[-1.724,-2.638],[-1.654,-2.624],[-1.268,-2.603],[-0.932,-2.673],[-0.469,-3.039],[-0.469,-3.039]]],[[[1.466,-2.666],[1.557,-2.722],[1.55,-2.779],[1.157,-2.772],[0.863,-2.926],[0.414,-3.201],[0.393,-3.123],[0.526,-3.067],[0.751,-2.905],[1.207,-2.659],[1.466,-2.666],[1.466,-2.666]]]]},"properties":{"abbr":"alv","name":"alveus of the hippocampus","plate":27,"ap_bregma_mm":-1.3,"area_mm2":0.229,"traced_fraction":[0.995,0.95],"n_labels":2,"no_drawn_outline":false}},{"type":"Feature","geometry":{"type":"MultiPolygon","coordinates":[[[[-1.724,-2.638],[-1.907,-2.737],[-2.25,-2.842],[-2.72,-3.236],[-2.965,-3.714],[-2.965,-3.552],[-2.853,-3.398],[-2.895,-3.32],[-2.804,-3.285],[-2.839,-3.194],[-2.685,-3.116],[-2.531,-2.948],[-2.46,-2.729],[-1.991,-2.61],[-1.724,-2.638],[-1.724,-2.638]]]]},"properties":{"abbr":"LV","name":"lateral ventricle","plate":27,"ap_bregma_mm":-1.3,"area_mm2":0.1859,"traced_fraction":[1.0],"n_labels":1,"no_drawn_outline":false}},{"type":"Feature","geometry":{"type":"MultiPolygon","coordinates":[[[[0.036,-2.933],[0.05,-2.933],[0.085,-2.919],[0.253,-2.891],[0.309,-2.948],[-0.154,-2.962],[-0.126,-2.884],[0.036,-2.933],[0.036,-2.933]]]]},"properties":{"abbr":"IG","name":"indusium griseum","plate":27,"ap_bregma_mm":-1.3,"area_mm2":0.0198,"traced_fraction":[0.932],"n_labels":1,"no_drawn_outline":false}},{"type":"Feature","geometry":{"type":"MultiPolygon","coordinates":[[[[-0.469,-3.039],[-0.462,-3.039],[-0.182,-3.137],[0.148,-3.166],[0.155,-3.159],[0.211,-3.159],[0.393,-3.123],[0.414,-3.201],[0.414,-3.208],[0.337,-3.215],[0.085,-3.292],[-0.02,-3.278],[-0.126,-3.278],[-0.175,-3.271],[-0.294,-3.187],[-0.427,-3.13],[-0.476,-3.088],[-0.469,-3.039],[-0.469,-3.039]]]]},"properties":{"abbr":"vhc","name":"ventral hippocampal commissure","plate":27,"ap_bregma_mm":-1.3,"area_mm2":0.0922,"traced_fraction":[0.993],"n_labels":1,"no_drawn_outline":false}},{"type":"Feature","geometry":{"type":"MultiPolygon","coordinates":[[[[0.281,-3.454],[0.681,-3.7],[0.947,-3.651],[1.094,-3.672],[1.242,-3.573],[1.585,-3.552],[1.424,-3.623],[1.214,-3.686],[0.954,-3.855],[0.863,-3.827],[0.793,-3.77],[0.428,-3.918],[0.148,-3.918],[0.148,-4.178],[-0.041,-4.221],[-0.231,-4.143],[-0.224,-3.876],[-0.14,-3.799],[-0.041,-3.777],[0.015,-3.623],[0.176,-3.602],[0.183,-3.482],[0.281,-3.454],[0.281,-3.454]]],[[[0.015,-7.252],[0.043,-7.772],[0.001,-7.8],[-0.07,-7.779],[-0.091,-7.252],[-0.091,-7.245],[-0.07,-6.668],[-0.062,-6.584],[-0.02,-6.464],[0.029,-6.542],[0.015,-7.252],[0.015,-7.252]]]]},"properties":{"abbr":"3V","name":"3rd ventricle","plate":27,"ap_bregma_mm":-1.3,"area_mm2":0.5768,"traced_fraction":[0.831,0.97],"n_labels":2,"no_drawn_outline":false}},{"type":"Feature","geometry":{"type":"MultiPolygon","coordinates":[[[[-0.245,-3.341],[-0.14,-3.799],[-0.224,-3.876],[-0.231,-4.143],[-0.252,-4.136],[-0.287,-4.108],[-0.771,-3.707],[-0.245,-3.341],[-0.245,-3.341]]],[[[0.428,-3.918],[0.267,-4.164],[0.239,-4.171],[0.148,-4.178],[0.148,-3.918],[0.428,-3.918],[0.428,-3.918]]]]},"properties":{"abbr":"MHb","name":"medial habenular nucleus","plate":27,"ap_bregma_mm":-1.3,"area_mm2":0.2945,"traced_fraction":[0.821,0.5],"n_labels":2,"no_drawn_outline":false}},{"type":"Feature","geometry":{"type":"MultiPolygon","coordinates":[[[[1.648,-4.53],[1.578,-4.769],[1.431,-4.973],[1.256,-5.121],[1.052,-5.198],[1.157,-4.832],[1.298,-4.636],[1.648,-4.53],[1.648,-4.53]]],[[[-1.212,-4.65],[-1.03,-4.994],[-1.023,-5.001],[-0.974,-5.283],[-0.848,-5.501],[-0.834,-5.536],[-0.932,-5.578],[-1.142,-5.437],[-1.332,-5.395],[-1.409,-5.276],[-1.339,-5.142],[-1.493,-4.917],[-1.612,-4.579],[-1.212,-4.65],[-1.212,-4.65]]]]},"properties":{"abbr":"AVVL","name":"anteroventral thalamic nucleus, ventrolateral part","plate":27,"ap_bregma_mm":-1.3,"area_mm2":0.528,"traced_fraction":[0.957,0.971],"n_labels":1,"no_drawn_outline":false}},{"type":"Feature","geometry":{"type":"MultiPolygon","coordinates":[[[[0.758,-4.804],[0.47,-5.079],[0.442,-5.086],[0.022,-5.198],[-0.049,-5.198],[-0.056,-5.198],[-0.483,-5.114],[-0.806,-4.875],[-0.799,-4.847],[-0.469,-4.868],[-0.266,-5.05],[-0.168,-5.05],[-0.084,-4.98],[0.057,-4.973],[0.162,-5.043],[0.281,-5.036],[0.526,-4.825],[0.758,-4.804],[0.758,-4.804]]]]},"properties":{"abbr":"CM","name":"central medial thalamic nucleus","plate":27,"ap_bregma_mm":-1.3,"area_mm2":0.2329,"traced_fraction":[0.994],"n_labels":1,"no_drawn_outline":false}},{"type":"Feature","geometry":{"type":"MultiPolygon","coordinates":[[[[0.442,-5.086],[0.463,-5.121],[0.484,-5.219],[0.33,-5.374],[0.071,-5.409],[0.022,-5.198],[0.442,-5.086],[0.442,-5.086]]],[[[-0.483,-5.114],[-0.056,-5.198],[-0.062,-5.24],[-0.062,-5.247],[-0.07,-5.262],[-0.105,-5.416],[-0.308,-5.423],[-0.441,-5.367],[-0.483,-5.114],[-0.483,-5.114]]]]},"properties":{"abbr":"IAM","name":"interanteromedial thalamic nucleus","plate":27,"ap_bregma_mm":-1.3,"area_mm2":0.1934,"traced_fraction":[0.948,0.957],"n_labels":2,"no_drawn_outline":false}},{"type":"Feature","geometry":{"type":"MultiPolygon","coordinates":[[[[0.071,-6.028],[-0.056,-6.021],[-0.098,-5.803],[-0.056,-5.705],[0.036,-5.662],[0.113,-5.803],[0.071,-6.028],[0.071,-6.028]]]]},"properties":{"abbr":"Xi","name":"xiphoid thalamic nucleus","plate":27,"ap_bregma_mm":-1.3,"area_mm2":0.0557,"traced_fraction":[1.0],"n_labels":1,"no_drawn_outline":false}},{"type":"Feature","geometry":{"type":"MultiPolygon","coordinates":[[[[3.576,-6.324],[3.836,-6.436],[3.878,-6.528],[3.85,-6.696],[3.78,-6.745],[3.759,-6.858],[3.689,-7.16],[3.646,-7.16],[3.541,-6.935],[3.38,-6.767],[3.38,-6.76],[3.387,-6.753],[3.394,-6.753],[3.401,-6.745],[3.408,-6.738],[3.513,-6.633],[3.576,-6.324],[3.576,-6.324]]],[[[-3.442,-6.359],[-3.288,-6.457],[-3.449,-6.647],[-3.456,-6.816],[-3.715,-7.062],[-3.842,-6.619],[-3.702,-6.443],[-3.442,-6.359],[-3.442,-6.359]]]]},"properties":{"abbr":"CeC","name":"central amygdaloid nucleus, capsular part","plate":27,"ap_bregma_mm":-1.3,"area_mm2":0.4119,"traced_fraction":[0.961,0.979],"n_labels":2,"no_drawn_outline":false}},{"type":"Feature","geometry":{"type":"MultiPolygon","coordinates":[[[[3.086,-6.858],[3.135,-6.907],[3.163,-7.09],[3.114,-7.168],[3.107,-7.168],[3.023,-7.111],[3.023,-6.935],[3.086,-6.858],[3.086,-6.858]]]]},"properties":{"abbr":"cst","name":"commissural stria terminalis","plate":27,"ap_bregma_mm":-1.3,"area_mm2":0.0315,"traced_fraction":[1.0],"n_labels":1,"no_drawn_outline":false}},{"type":"Feature","geometry":{"type":"MultiPolygon","coordinates":[[[[-0.483,-6.83],[-0.245,-7.041],[-0.196,-7.013],[-0.168,-7.055],[-0.217,-7.083],[-0.182,-7.16],[-0.483,-7.16],[-0.483,-6.83],[-0.483,-6.83]]]]},"properties":{"abbr":"PaV","name":"paraventricular hypothalamic nucleus, ventral part","plate":27,"ap_bregma_mm":-1.3,"area_mm2":0.0606,"traced_fraction":[0.494],"n_labels":1,"no_drawn_outline":true}},{"type":"Feature","geometry":{"type":"MultiPolygon","coordinates":[[[[-0.483,-6.83],[-0.483,-7.16],[-0.182,-7.16],[-0.161,-7.238],[-0.511,-7.238],[-0.511,-7.393],[-0.147,-7.393],[-0.154,-7.47],[-0.378,-7.47],[-0.378,-7.751],[-0.764,-7.73],[-1.016,-7.568],[-1.044,-7.526],[-1.114,-7.266],[-0.981,-6.999],[-0.75,-6.816],[-0.483,-6.83],[-0.483,-6.83]]],[[[1.01,-7.111],[0.765,-7.604],[0.435,-7.772],[0.302,-7.688],[0.155,-7.364],[0.176,-7.125],[0.26,-6.957],[0.421,-6.851],[0.667,-6.851],[0.891,-6.942],[1.01,-7.111],[1.01,-7.111]]]]},"properties":{"abbr":"AHC","name":"anterior hypothalamic area, central part","plate":27,"ap_bregma_mm":-1.3,"area_mm2":1.0924,"traced_fraction":[0.527,1.0],"n_labels":2,"no_drawn_outline":false}},{"type":"Feature","geometry":{"type":"MultiPolygon","coordinates":[[[[-0.161,-7.238],[-0.147,-7.393],[-0.511,-7.393],[-0.511,-7.238],[-0.161,-7.238],[-0.161,-7.238]]]]},"properties":{"abbr":"SPa","name":"subparaventricular zone of the hypothalamus","plate":27,"ap_bregma_mm":-1.3,"area_mm2":0.0553,"traced_fraction":[0.213],"n_labels":1,"no_drawn_outline":true}},{"type":"Feature","geometry":{"type":"MultiPolygon","coordinates":[[[[1.01,-7.111],[1.017,-7.343],[0.835,-7.667],[0.653,-7.793],[0.526,-7.822],[0.435,-7.772],[0.765,-7.604],[1.01,-7.111],[1.01,-7.111]]],[[[-1.044,-7.526],[-1.016,-7.568],[-1.002,-7.66],[-0.715,-7.892],[-0.876,-7.899],[-1.03,-7.765],[-1.233,-7.4],[-1.198,-7.153],[-1.1,-7.491],[-1.044,-7.526],[-1.044,-7.526]]]]},"properties":{"abbr":"vlh","name":"ventrolateral hypothalamic tract","plate":27,"ap_bregma_mm":-1.3,"area_mm2":0.1581,"traced_fraction":[1.0,0.992],"n_labels":2,"no_drawn_outline":false}},{"type":"Feature","geometry":{"type":"MultiPolygon","coordinates":[[[[-0.154,-7.47],[-0.182,-7.639],[-0.336,-7.744],[-0.378,-7.751],[-0.378,-7.47],[-0.154,-7.47],[-0.154,-7.47]]]]},"properties":{"abbr":"Pe","name":"periventricular hypothalamic nucleus","plate":27,"ap_bregma_mm":-1.3,"area_mm2":0.0482,"traced_fraction":[0.496],"n_labels":1,"no_drawn_outline":true}},{"type":"Feature","geometry":{"type":"MultiPolygon","coordinates":[[[[-0.077,-7.92],[0.099,-7.92],[0.127,-8.223],[-0.161,-8.223],[-0.161,-7.976],[-0.077,-7.92],[-0.077,-7.92]]]]},"properties":{"abbr":"RCh","name":"retrochiasmatic area","plate":27,"ap_bregma_mm":-1.3,"area_mm2":0.0803,"traced_fraction":[0.416],"n_labels":1,"no_drawn_outline":true}},{"type":"Feature","geometry":{"type":"MultiPolygon","coordinates":[[[[1.936,-7.231],[1.235,-7.744],[0.87,-8.11],[0.793,-8.279],[-0.974,-8.342],[-0.974,-8.124],[-1.227,-7.829],[-1.64,-7.54],[-2.061,-7.357],[-2.026,-7.294],[-1.584,-7.47],[-1.107,-7.85],[-0.792,-8.18],[-0.161,-8.223],[0.127,-8.223],[0.681,-8.18],[1.003,-7.843],[1.487,-7.442],[1.936,-7.231],[1.936,-7.231]]]]},"properties":{"abbr":"sox","name":"supraoptic decussation","plate":27,"ap_bregma_mm":-1.3,"area_mm2":0.4278,"traced_fraction":[0.998],"n_labels":1,"no_drawn_outline":false}},{"type":"Feature","geometry":{"type":"MultiPolygon","coordinates":[[[[-0.049,-5.198],[0.022,-5.198],[0.071,-5.409],[0.05,-5.465],[-0.062,-5.473],[-0.105,-5.416],[-0.07,-5.262],[-0.062,-5.247],[-0.062,-5.24],[-0.049,-5.198],[-0.049,-5.198]]]]},"properties":{"abbr":"Rh","name":"rhomboid thalamic nucleus","plate":27,"ap_bregma_mm":-1.3,"area_mm2":0.035,"traced_fraction":[0.911],"n_labels":1,"no_drawn_outline":false}},{"type":"Feature","geometry":{"type":"Polygon","coordinates":[[[-1.844,-0.859],[-1.556,-0.859],[-1.724,-0.88],[-2.46,-0.985],[-3.295,-1.217],[-3.505,-1.274],[-3.87,-1.365],[-2.741,-1.006],[-1.844,-0.859],[-1.844,-0.859]]]},"properties":{"abbr":null,"name":"unnamed sealed face","plate":27,"ap_bregma_mm":-1.3,"index":0}},{"type":"Feature","geometry":{"type":"Polygon","coordinates":[[[3.955,-1.288],[4.439,-1.407],[4.817,-1.604],[4.888,-1.569],[5.0,-1.696],[5.427,-1.921],[5.981,-2.406],[6.465,-2.976],[6.605,-3.229],[6.654,-3.208],[6.746,-3.44],[6.479,-3.088],[5.862,-2.343],[5.631,-2.146],[4.986,-1.696],[3.955,-1.288],[3.955,-1.288]]]},"properties":{"abbr":null,"name":"unnamed sealed face","plate":27,"ap_bregma_mm":-1.3,"index":1}},{"type":"Feature","geometry":{"type":"Polygon","coordinates":[[[-4.332,-1.492],[-4.935,-1.738],[-5.496,-2.223],[-5.945,-2.694],[-6.268,-3.137],[-6.8,-4.01],[-7.039,-4.699],[-7.039,-5.374],[-7.088,-4.882],[-7.004,-4.41],[-6.597,-3.531],[-6.043,-2.758],[-5.658,-2.301],[-5.454,-2.153],[-5.454,-2.061],[-5.342,-2.047],[-5.027,-1.759],[-4.606,-1.555],[-4.473,-1.541],[-4.473,-1.499],[-4.332,-1.492],[-4.332,-1.492]]]},"properties":{"abbr":null,"name":"unnamed sealed face","plate":27,"ap_bregma_mm":-1.3,"index":2}},{"type":"Feature","geometry":{"type":"Polygon","coordinates":[[[2.013,-2.751],[2.034,-2.835],[2.391,-3.004],[2.377,-3.074],[2.49,-3.144],[2.462,-3.222],[1.957,-2.835],[1.557,-2.722],[1.466,-2.666],[2.013,-2.751],[2.013,-2.751]]]},"properties":{"abbr":null,"name":"unnamed sealed face","plate":27,"ap_bregma_mm":-1.3,"index":3}},{"type":"Feature","geometry":{"type":"Polygon","coordinates":[[[-2.46,-2.729],[-2.531,-2.948],[-2.685,-3.116],[-2.839,-3.194],[-2.804,-3.285],[-2.895,-3.32],[-2.853,-3.398],[-2.965,-3.552],[-2.965,-3.714],[-2.986,-3.735],[-3.049,-3.573],[-3.0,-3.271],[-3.056,-3.081],[-2.832,-2.884],[-2.46,-2.729],[-2.46,-2.729]]]},"properties":{"abbr":null,"name":"unnamed sealed face","plate":27,"ap_bregma_mm":-1.3,"index":4}},{"type":"Feature","geometry":{"type":"Polygon","coordinates":[[[2.763,-2.99],[2.882,-3.025],[2.665,-3.088],[2.784,-3.37],[2.735,-3.384],[2.728,-3.468],[2.672,-3.482],[2.574,-3.313],[2.609,-3.152],[2.518,-3.067],[2.672,-3.081],[2.763,-2.99],[2.763,-2.99]]]},"properties":{"abbr":null,"name":"unnamed sealed face","plate":27,"ap_bregma_mm":-1.3,"index":5}},{"type":"Feature","geometry":{"type":"Polygon","coordinates":[[[3.057,-3.735],[2.721,-3.51],[2.728,-3.468],[2.791,-3.384],[3.029,-3.609],[3.057,-3.735],[3.057,-3.735]]]},"properties":{"abbr":null,"name":"unnamed sealed face","plate":27,"ap_bregma_mm":-1.3,"index":6}},{"type":"Feature","geometry":{"type":"Polygon","coordinates":[[[-1.268,-3.559],[-0.771,-3.707],[-0.287,-4.108],[-0.343,-4.157],[-0.434,-4.122],[-0.63,-3.883],[-0.862,-3.792],[-0.974,-3.82],[-1.451,-3.616],[-1.675,-3.524],[-1.458,-3.496],[-1.268,-3.559],[-1.268,-3.559]]]},"properties":{"abbr":null,"name":"unnamed sealed face","plate":27,"ap_bregma_mm":-1.3,"index":7}},{"type":"Feature","geometry":{"type":"Polygon","coordinates":[[[0.863,-3.827],[0.554,-3.932],[0.421,-4.157],[0.274,-4.164],[0.267,-4.164],[0.428,-3.918],[0.793,-3.77],[0.863,-3.827],[0.863,-3.827]]]},"properties":{"abbr":null,"name":"unnamed sealed face","plate":27,"ap_bregma_mm":-1.3,"index":8}},{"type":"Feature","geometry":{"type":"Polygon","coordinates":[[[7.278,-4.896],[7.285,-5.156],[7.222,-5.388],[6.942,-5.866],[6.872,-5.902],[7.033,-5.641],[7.194,-5.311],[7.278,-4.896],[7.278,-4.896]]]},"properties":{"abbr":null,"name":"unnamed sealed face","plate":27,"ap_bregma_mm":-1.3,"index":9}},{"type":"Feature","geometry":{"type":"Polygon","coordinates":[[[0.33,-5.374],[0.379,-5.522],[0.344,-5.648],[0.19,-5.494],[0.05,-5.465],[0.071,-5.409],[0.33,-5.374],[0.33,-5.374]]]},"properties":{"abbr":null,"name":"unnamed sealed face","plate":27,"ap_bregma_mm":-1.3,"index":10}},{"type":"Feature","geometry":{"type":"Polygon","coordinates":[[[3.632,-6.077],[3.275,-6.26],[3.149,-6.302],[2.931,-6.373],[2.896,-6.26],[3.359,-6.105],[3.632,-6.077],[3.632,-6.077]]]},"properties":{"abbr":null,"name":"unnamed sealed face","plate":27,"ap_bregma_mm":-1.3,"index":11}},{"type":"Feature","geometry":{"type":"Polygon","coordinates":[[[-4.802,-6.176],[-4.438,-6.302],[-4.157,-6.274],[-4.157,-6.408],[-4.073,-6.429],[-4.045,-6.45],[-4.319,-6.443],[-4.508,-6.387],[-4.816,-6.204],[-4.802,-6.176],[-4.802,-6.176]]]},"properties":{"abbr":null,"name":"unnamed sealed face","plate":27,"ap_bregma_mm":-1.3,"index":12}},{"type":"Feature","geometry":{"type":"Polygon","coordinates":[[[6.507,-6.324],[6.304,-6.556],[6.29,-6.774],[6.241,-6.696],[6.199,-6.788],[6.129,-6.774],[6.093,-7.034],[6.023,-7.083],[6.023,-7.182],[5.813,-7.519],[5.834,-7.583],[5.378,-8.159],[5.028,-8.419],[5.007,-8.497],[4.565,-8.694],[4.509,-8.687],[5.063,-8.384],[5.483,-7.976],[5.876,-7.393],[6.058,-6.935],[6.142,-6.605],[6.29,-6.549],[6.507,-6.324],[6.507,-6.324]]]},"properties":{"abbr":null,"name":"unnamed sealed face","plate":27,"ap_bregma_mm":-1.3,"index":13}},{"type":"Feature","geometry":{"type":"Polygon","coordinates":[[[-0.07,-6.668],[-0.091,-7.245],[-0.168,-7.055],[-0.196,-7.013],[-0.21,-6.985],[-0.147,-6.907],[-0.133,-6.661],[-0.07,-6.668],[-0.07,-6.668]]]},"properties":{"abbr":null,"name":"unnamed sealed face","plate":27,"ap_bregma_mm":-1.3,"index":14}},{"type":"Feature","geometry":{"type":"Polygon","coordinates":[[[-2.026,-7.294],[-2.061,-7.357],[-2.229,-7.393],[-2.215,-7.66],[-2.383,-7.512],[-2.341,-7.498],[-2.348,-7.139],[-2.243,-6.935],[-1.977,-6.9],[-1.871,-6.978],[-1.844,-7.139],[-2.005,-7.217],[-2.194,-7.16],[-2.166,-7.238],[-2.026,-7.294],[-2.026,-7.294]]]},"properties":{"abbr":null,"name":"unnamed sealed face","plate":27,"ap_bregma_mm":-1.3,"index":15}},{"type":"Feature","geometry":{"type":"Polygon","coordinates":[[[-6.219,-6.942],[-5.861,-7.632],[-5.545,-8.054],[-4.999,-8.553],[-4.571,-8.771],[-5.083,-8.553],[-5.651,-7.983],[-6.036,-7.421],[-6.219,-6.942],[-6.219,-6.942]]]},"properties":{"abbr":null,"name":"unnamed sealed face","plate":27,"ap_bregma_mm":-1.3,"index":16}},{"type":"Feature","geometry":{"type":"Polygon","coordinates":[[[-3.105,-6.978],[-3.07,-7.287],[-3.162,-7.315],[-3.211,-7.259],[-3.197,-7.027],[-3.19,-7.013],[-3.105,-6.978],[-3.105,-6.978]]]},"properties":{"abbr":null,"name":"unnamed sealed face","plate":27,"ap_bregma_mm":-1.3,"index":17}},{"type":"Feature","geometry":{"type":"Polygon","coordinates":[[[-0.091,-7.252],[-0.07,-7.779],[-0.02,-7.8],[0.043,-7.772],[0.015,-7.252],[0.078,-7.252],[0.099,-7.92],[-0.077,-7.92],[-0.14,-7.92],[-0.14,-7.765],[-0.091,-7.765],[-0.091,-7.252],[-0.091,-7.252]]]},"properties":{"abbr":null,"name":"unnamed sealed face","plate":27,"ap_bregma_mm":-1.3,"index":18}},{"type":"Feature","geometry":{"type":"Polygon","coordinates":[[[-2.082,-7.857],[-1.71,-7.941],[-2.068,-7.878],[-2.334,-8.237],[-3.162,-8.434],[-2.832,-8.328],[-2.341,-8.194],[-2.194,-8.004],[-2.082,-7.857],[-2.082,-7.857]]]},"properties":{"abbr":null,"name":"unnamed sealed face","plate":27,"ap_bregma_mm":-1.3,"index":19}},{"type":"Feature","geometry":{"type":"Polygon","coordinates":[[[-0.974,-8.342],[0.793,-8.279],[1.129,-8.23],[0.442,-8.342],[-1.016,-8.37],[-1.36,-8.23],[-1.668,-7.955],[-1.247,-8.251],[-0.974,-8.342],[-0.974,-8.342]]]},"properties":{"abbr":null,"name":"unnamed sealed face","plate":27,"ap_bregma_mm":-1.3,"index":20}},{"type":"Feature","geometry":{"type":"MultiPolygon","coordinates":[[[[1.088,-0.813],[2.088,-0.848],[3.053,-1.042],[3.193,-1.024],[3.368,-1.13],[4.439,-1.412],[4.825,-1.605],[4.877,-1.57],[5.0,-1.694],[5.421,-1.922],[5.965,-2.398],[6.456,-2.979],[6.614,-3.243],[6.649,-3.208],[6.649,-3.296],[6.79,-3.507],[6.842,-3.507],[6.965,-3.806],[7.088,-3.947],[7.088,-4.053],[7.263,-4.422],[7.281,-5.127],[7.21,-5.391],[6.93,-5.866],[6.86,-5.901],[6.86,-5.972],[6.79,-5.989],[6.298,-6.553],[6.281,-6.764],[6.228,-6.676],[6.193,-6.782],[6.123,-6.764],[6.088,-7.028],[6.018,-7.081],[6.018,-7.169],[5.807,-7.521],[5.825,-7.574],[5.368,-8.155],[5.0,-8.436],[5.0,-8.489],[4.632,-8.683],[4.105,-8.736],[3.772,-8.665],[3.14,-8.296],[2.316,-8.014],[2.123,-7.732],[1.982,-7.715],[1.825,-7.785],[1.07,-8.26],[0.474,-8.331],[-1.0,-8.366],[-1.351,-8.225],[-1.684,-7.943],[-2.07,-7.873],[-2.333,-8.225],[-3.333,-8.472],[-4.21,-8.841],[-4.649,-8.753],[-5.088,-8.542],[-5.649,-7.979],[-6.035,-7.415],[-6.228,-6.975],[-6.175,-6.623],[-6.368,-6.535],[-6.509,-6.306],[-6.526,-6.359],[-6.86,-5.884],[-6.947,-5.655],[-7.018,-5.655],[-6.982,-5.567],[-7.07,-5.285],[-7.088,-4.898],[-7.0,-4.405],[-6.825,-3.947],[-6.579,-3.507],[-6.035,-2.75],[-5.649,-2.292],[-5.456,-2.151],[-5.456,-2.063],[-5.368,-2.063],[-5.035,-1.764],[-4.596,-1.553],[-4.456,-1.535],[-4.474,-1.5],[-4.263,-1.482],[-2.737,-1.007],[-1.807,-0.848],[-0.895,-0.848],[-0.439,-0.972],[0.0,-1.289],[0.14,-1.007],[0.193,-1.024],[0.316,-0.919],[1.07,-0.831],[1.088,-0.813]]]]},"properties":{"abbr":"brain_outline","name":"outline of the section","plate":27,"ap_bregma_mm":-1.3}}]}
