{"type":"FeatureCollection","name":"GerbilAtlas plate 49","note":"Region extents cut from the atlas drawing (METHODS.md, Region extents). Coordinates are [ML, DV] in mm, ML positive to the right of the plate as printed, DV negative below the dorsal surface; AP is the plate bregma. traced_fraction is the share of each polygon boundary the atlas actually draws; below 0.5 the boundary is an estimate. no_drawn_outline marks a feature that lies only inside boundaries the atlas draws round more than one name and prints nothing within, so the whole of its outline is where the extraction cut it. Not a segmentation.","plate":49,"ap_bregma_mm":-9.0,"features":[{"type":"Feature","geometry":{"type":"MultiPolygon","coordinates":[[[[0.209,-4.141],[0.125,-4.12],[-0.113,-4.12],[-0.219,-4.141],[-0.219,-3.783],[0.209,-3.783],[0.209,-4.141]]]]},"properties":{"abbr":"3Cb","name":"3rd cerebellar lobule","plate":49,"ap_bregma_mm":-9.0,"area_mm2":0.1464,"traced_fraction":[0.317],"n_labels":2,"no_drawn_outline":true}},{"type":"Feature","geometry":{"type":"MultiPolygon","coordinates":[[[[0.209,-4.141],[0.356,-4.219],[0.504,-4.359],[0.595,-4.423],[0.665,-4.451],[0.861,-4.542],[1.289,-4.704],[1.338,-4.746],[1.373,-4.803],[1.38,-4.894],[1.352,-4.943],[1.289,-4.985],[1.001,-5.0],[0.833,-5.028],[0.672,-5.077],[0.51,-5.168],[0.391,-5.288],[0.314,-5.428],[0.23,-5.738],[0.132,-5.907],[0.02,-6.019],[-0.001,-6.019],[-0.106,-5.907],[-0.177,-5.808],[-0.205,-5.745],[-0.226,-5.731],[-0.352,-5.337],[-0.415,-5.239],[-0.527,-5.126],[-0.597,-5.077],[-0.716,-5.028],[-1.067,-4.971],[-1.242,-4.922],[-1.34,-4.852],[-1.348,-4.824],[-1.327,-4.753],[-1.242,-4.676],[-1.046,-4.577],[-0.878,-4.521],[-0.85,-4.493],[-0.738,-4.472],[-0.632,-4.43],[-0.422,-4.219],[-0.219,-4.141],[-0.113,-4.12],[0.125,-4.12],[0.209,-4.141]]]]},"properties":{"abbr":"4V","name":"4th ventricle","plate":49,"ap_bregma_mm":-9.0,"area_mm2":2.2273,"traced_fraction":[1.0],"n_labels":1,"no_drawn_outline":false}},{"type":"Feature","geometry":{"type":"MultiPolygon","coordinates":[[[[1.794,-2.657],[1.913,-2.897],[1.913,-3.044],[1.808,-3.248],[1.787,-3.368],[1.773,-3.382],[1.822,-3.48],[1.822,-3.635],[1.716,-3.628],[1.569,-3.586],[1.45,-3.516],[1.359,-3.508],[1.296,-3.537],[1.198,-3.642],[1.156,-3.558],[1.114,-3.537],[1.065,-3.537],[0.91,-3.642],[0.882,-3.677],[0.833,-3.705],[0.798,-3.755],[0.756,-3.776],[0.602,-3.945],[0.539,-4.043],[0.51,-4.12],[0.504,-4.191],[0.532,-4.282],[0.595,-4.352],[0.679,-4.402],[0.665,-4.451],[0.532,-4.381],[0.356,-4.219],[0.209,-4.141],[0.209,-3.783],[-0.219,-3.783],[-0.219,-4.141],[-0.422,-4.219],[-0.443,-4.191],[-0.464,-4.085],[-0.541,-3.973],[-0.555,-3.973],[-0.632,-3.888],[-0.702,-3.839],[-0.815,-3.776],[-0.857,-3.769],[-0.857,-3.741],[-0.892,-3.691],[-0.955,-3.621],[-1.046,-3.551],[-1.067,-3.516],[-1.088,-3.501],[-1.137,-3.501],[-1.186,-3.522],[-1.242,-3.586],[-1.242,-3.642],[-1.186,-3.804],[-1.13,-3.916],[-1.298,-3.98],[-1.305,-3.959],[-1.277,-3.881],[-1.284,-3.825],[-1.312,-3.748],[-1.354,-3.705],[-1.495,-3.628],[-1.656,-3.586],[-1.796,-3.579],[-1.81,-3.579],[-1.873,-3.586],[-1.873,-3.473],[-1.831,-3.396],[-2.02,-2.995],[-2.02,-2.967],[-1.817,-2.559],[-1.621,-2.468],[-1.453,-2.292],[-1.053,-2.292],[-0.836,-2.517],[-0.815,-2.517],[-0.787,-2.468],[-0.688,-2.376],[-0.471,-2.25],[0.111,-2.242],[0.286,-2.257],[0.532,-2.32],[0.707,-2.411],[0.791,-2.489],[0.812,-2.489],[0.861,-2.545],[0.91,-2.636],[0.924,-2.693],[0.945,-2.693],[0.973,-2.657],[1.794,-2.657]]]]},"properties":{"abbr":"5Cb","name":"5th cerebellar lobule","plate":49,"ap_bregma_mm":-9.0,"area_mm2":5.0691,"traced_fraction":[0.592],"n_labels":1,"no_drawn_outline":true}},{"type":"Feature","geometry":{"type":"MultiPolygon","coordinates":[[[[1.709,-6.111],[1.674,-6.167],[1.66,-6.167],[1.632,-6.202],[1.604,-6.28],[1.604,-6.322],[1.618,-6.329],[1.639,-6.392],[1.745,-6.505],[1.569,-6.505],[1.506,-6.477],[1.471,-6.434],[1.436,-6.357],[1.443,-6.28],[1.485,-6.202],[1.555,-6.132],[1.59,-6.111],[1.66,-6.097],[1.709,-6.111]]]]},"properties":{"abbr":"5Sol","name":"trigeminal-solitary transition zone","plate":49,"ap_bregma_mm":-9.0,"area_mm2":0.0684,"traced_fraction":[1.0],"n_labels":1,"no_drawn_outline":false}},{"type":"Feature","geometry":{"type":"MultiPolygon","coordinates":[[[[1.366,-1.23],[1.359,-1.258],[1.401,-1.356],[1.436,-1.659],[1.471,-1.659],[1.737,-1.792],[1.737,-2.088],[1.808,-2.165],[1.815,-2.608],[1.794,-2.657],[0.973,-2.657],[0.945,-2.693],[0.924,-2.693],[0.91,-2.636],[0.861,-2.545],[0.812,-2.489],[0.791,-2.489],[0.707,-2.411],[0.532,-2.32],[0.286,-2.257],[0.111,-2.242],[-0.471,-2.25],[-0.688,-2.376],[-0.787,-2.468],[-0.815,-2.517],[-0.836,-2.517],[-1.053,-2.292],[-1.453,-2.292],[-1.453,-2.221],[-1.369,-2.067],[-1.369,-2.046],[-1.474,-1.827],[-1.495,-1.827],[-1.495,-1.813],[-1.474,-1.785],[-1.411,-1.588],[-1.348,-1.265],[-1.34,-1.237],[-1.327,-1.237],[-1.291,-1.187],[-1.13,-1.033],[-1.067,-1.005],[-1.018,-0.962],[-0.878,-0.906],[-0.681,-0.871],[-0.408,-0.857],[-0.015,-0.801],[0.356,-0.801],[0.777,-0.878],[1.128,-1.005],[1.142,-1.026],[1.184,-1.04],[1.324,-1.18],[1.345,-1.23],[1.366,-1.23]]]]},"properties":{"abbr":"6Cb","name":"6th cerebellar lobule","plate":49,"ap_bregma_mm":-9.0,"area_mm2":4.4649,"traced_fraction":[0.655],"n_labels":1,"no_drawn_outline":true}},{"type":"Feature","geometry":{"type":"MultiPolygon","coordinates":[[[[1.667,-7.018],[1.667,-7.377],[1.492,-7.377],[1.436,-7.377],[1.436,-7.117],[1.436,-7.102],[1.527,-7.053],[1.625,-7.018],[1.667,-7.018]]],[[[-1.453,-7.117],[-1.439,-7.117],[-1.404,-7.159],[-1.34,-7.187],[-1.348,-7.419],[-1.572,-7.419],[-1.572,-7.271],[-1.572,-7.229],[-1.558,-7.208],[-1.467,-7.117],[-1.453,-7.117]]]]},"properties":{"abbr":"7DI","name":"facial nucleus, dorsal intermediate subnucleus","plate":49,"ap_bregma_mm":-9.0,"area_mm2":0.1351,"traced_fraction":[0.287,0.219],"n_labels":2,"no_drawn_outline":true}},{"type":"Feature","geometry":{"type":"MultiPolygon","coordinates":[[[[-1.593,-7.011],[-1.502,-7.067],[-1.453,-7.117],[-1.467,-7.117],[-1.558,-7.208],[-1.572,-7.229],[-1.572,-7.271],[-2.091,-7.271],[-2.091,-7.236],[-2.105,-7.236],[-2.105,-7.222],[-2.02,-7.095],[-1.957,-7.046],[-1.824,-6.997],[-1.719,-6.99],[-1.593,-7.011]]],[[[2.081,-7.124],[2.144,-7.236],[1.752,-7.236],[1.752,-7.011],[1.829,-7.011],[1.927,-7.032],[2.081,-7.124]]]]},"properties":{"abbr":"7DL","name":"facial nucleus, dorsolateral subnucleus","plate":49,"ap_bregma_mm":-9.0,"area_mm2":0.2018,"traced_fraction":[0.566,0.478],"n_labels":2,"no_drawn_outline":true}},{"type":"Feature","geometry":{"type":"MultiPolygon","coordinates":[[[[1.436,-7.117],[1.436,-7.377],[1.492,-7.377],[1.499,-7.742],[1.499,-7.996],[1.443,-8.038],[1.387,-7.982],[1.387,-7.883],[0.917,-7.883],[0.903,-7.813],[0.91,-7.749],[0.966,-7.644],[1.001,-7.475],[1.05,-7.377],[1.142,-7.264],[1.254,-7.201],[1.352,-7.173],[1.415,-7.117],[1.436,-7.117]]],[[[-1.025,-7.574],[-1.011,-7.588],[-1.004,-7.644],[-0.99,-7.651],[-0.948,-7.749],[-0.941,-7.813],[-0.955,-7.876],[-1.319,-7.876],[-1.319,-8.129],[-1.369,-8.101],[-1.348,-8.08],[-1.348,-7.574],[-1.025,-7.574]]]]},"properties":{"abbr":"7DM","name":"facial nucleus, dorsomedial subnucleus","plate":49,"ap_bregma_mm":-9.0,"area_mm2":0.4666,"traced_fraction":[0.447,0.276],"n_labels":2,"no_drawn_outline":true}},{"type":"Feature","geometry":{"type":"MultiPolygon","coordinates":[[[[2.165,-7.377],[2.165,-7.412],[2.137,-7.482],[2.074,-7.567],[2.004,-7.63],[1.871,-7.714],[1.864,-7.377],[2.165,-7.377]]],[[[-2.105,-7.461],[-1.733,-7.461],[-1.726,-7.827],[-1.74,-7.848],[-1.915,-7.728],[-2.028,-7.623],[-2.105,-7.461]]]]},"properties":{"abbr":"7L","name":"facial nucleus, lateral subnucleus","plate":49,"ap_bregma_mm":-9.0,"area_mm2":0.159,"traced_fraction":[0.455,0.438],"n_labels":2,"no_drawn_outline":true}},{"type":"Feature","geometry":{"type":"MultiPolygon","coordinates":[[[[1.752,-7.011],[1.752,-7.236],[2.144,-7.236],[2.165,-7.285],[2.165,-7.377],[1.864,-7.377],[1.871,-7.714],[1.822,-7.757],[1.822,-7.778],[1.878,-7.841],[1.843,-7.855],[1.801,-7.799],[1.78,-7.799],[1.688,-7.869],[1.674,-7.742],[1.499,-7.742],[1.492,-7.377],[1.667,-7.377],[1.667,-7.018],[1.752,-7.011]]],[[[-1.34,-7.187],[-1.298,-7.194],[-1.2,-7.257],[-1.179,-7.257],[-1.074,-7.391],[-1.025,-7.574],[-1.348,-7.574],[-1.348,-8.08],[-1.369,-8.101],[-1.46,-8.052],[-1.502,-8.01],[-1.502,-7.736],[-1.691,-7.736],[-1.691,-7.785],[-1.726,-7.827],[-1.733,-7.461],[-2.105,-7.461],[-2.126,-7.356],[-2.091,-7.356],[-2.091,-7.271],[-1.572,-7.271],[-1.572,-7.419],[-1.348,-7.419],[-1.34,-7.187]]]]},"properties":{"abbr":"7VI","name":"facial nucleus, ventral intermediate subnucleus","plate":49,"ap_bregma_mm":-9.0,"area_mm2":0.5965,"traced_fraction":[0.252,0.236],"n_labels":2,"no_drawn_outline":true}},{"type":"Feature","geometry":{"type":"MultiPolygon","coordinates":[[[[-0.955,-7.876],[-0.955,-7.946],[-1.018,-8.059],[-1.109,-8.143],[-1.221,-8.179],[-1.27,-8.164],[-1.319,-8.129],[-1.319,-7.876],[-0.955,-7.876]]],[[[0.917,-7.883],[1.387,-7.883],[1.387,-7.982],[1.443,-8.038],[1.373,-8.094],[1.366,-8.143],[1.303,-8.235],[1.31,-8.263],[1.296,-8.263],[1.275,-8.298],[1.268,-8.207],[1.247,-8.179],[1.093,-8.15],[0.994,-8.073],[0.931,-7.968],[0.917,-7.883]]]]},"properties":{"abbr":"7VM","name":"facial nucleus, ventromedial subnucleus","plate":49,"ap_bregma_mm":-9.0,"area_mm2":0.2102,"traced_fraction":[0.509,0.6],"n_labels":2,"no_drawn_outline":true}},{"type":"Feature","geometry":{"type":"MultiPolygon","coordinates":[[[[2.726,-3.825],[3.133,-3.825],[3.182,-3.93],[3.217,-3.959],[3.133,-4.064],[3.133,-4.275],[3.077,-4.275],[3.07,-4.324],[3.028,-4.359],[3.021,-4.521],[2.859,-4.472],[2.705,-4.451],[2.572,-4.444],[2.488,-4.465],[2.369,-4.465],[2.369,-4.423],[2.418,-4.296],[2.46,-4.127],[2.488,-3.994],[2.523,-3.994],[2.516,-4.177],[2.537,-4.268],[2.593,-4.338],[2.621,-4.352],[2.691,-4.345],[2.74,-4.282],[2.768,-4.17],[2.768,-4.043],[2.726,-3.825]]],[[[-2.862,-3.846],[-2.89,-3.916],[-2.897,-4.001],[-2.918,-4.064],[-2.904,-4.219],[-2.883,-4.268],[-3.135,-4.268],[-3.135,-4.036],[-3.29,-3.909],[-3.29,-3.888],[-3.248,-3.846],[-2.862,-3.846]]]]},"properties":{"abbr":"PM","name":"paramedian lobule","plate":49,"ap_bregma_mm":-9.0,"area_mm2":0.4302,"traced_fraction":[0.753,0.509],"n_labels":4,"no_drawn_outline":true}},{"type":"Feature","geometry":{"type":"MultiPolygon","coordinates":[[[[3.834,-3.368],[3.792,-3.389],[3.715,-3.347],[3.617,-3.34],[3.385,-3.241],[3.343,-3.248],[3.175,-3.206],[2.964,-3.185],[2.93,-3.164],[2.782,-3.15],[2.789,-3.122],[2.677,-2.897],[1.913,-2.897],[1.794,-2.657],[1.815,-2.608],[1.913,-2.51],[1.983,-2.482],[2.305,-2.158],[2.305,-1.722],[2.439,-1.476],[2.446,-1.23],[2.593,-1.223],[2.852,-1.251],[3.035,-1.307],[3.322,-1.448],[3.511,-1.406],[3.722,-1.42],[3.848,-1.469],[3.96,-1.539],[3.967,-1.56],[4.065,-1.623],[4.15,-1.743],[4.227,-1.898],[4.311,-2.165],[4.339,-2.411],[4.339,-2.538],[4.318,-2.665],[4.297,-2.728],[4.22,-2.861],[4.058,-2.988],[4.016,-3.086],[3.981,-3.122],[3.953,-3.178],[3.82,-3.319],[3.834,-3.368]]],[[[-2.588,-1.237],[-2.588,-1.279],[-2.539,-1.363],[-2.539,-1.391],[-2.476,-1.497],[-2.252,-1.968],[-2.224,-2.003],[-2.224,-2.186],[-1.922,-2.489],[-1.852,-2.517],[-1.817,-2.559],[-2.02,-2.967],[-2.02,-2.995],[-2.63,-2.995],[-2.771,-3.129],[-2.897,-3.129],[-2.925,-3.192],[-2.988,-3.185],[-3.29,-3.206],[-3.311,-3.213],[-3.318,-3.234],[-3.381,-3.241],[-3.549,-3.312],[-3.675,-3.347],[-3.731,-3.396],[-3.886,-3.262],[-3.872,-3.213],[-3.914,-3.15],[-3.921,-2.995],[-3.942,-2.918],[-3.998,-2.833],[-4.173,-2.671],[-4.222,-2.587],[-4.243,-2.51],[-4.243,-2.376],[-4.215,-2.278],[-4.082,-2.017],[-4.026,-1.778],[-3.942,-1.61],[-3.794,-1.441],[-3.654,-1.349],[-3.479,-1.293],[-3.346,-1.286],[-3.191,-1.314],[-3.164,-1.321],[-3.128,-1.328],[-3.065,-1.335],[-2.89,-1.279],[-2.588,-1.237]]]]},"properties":{"abbr":"Crus1","name":"crus 1 of the ansiform lobule","plate":49,"ap_bregma_mm":-9.0,"area_mm2":7.0672,"traced_fraction":[0.627,0.585],"n_labels":6,"no_drawn_outline":true}},{"type":"Feature","geometry":{"type":"MultiPolygon","coordinates":[[[[1.913,-2.897],[2.677,-2.897],[2.789,-3.122],[2.782,-3.15],[2.93,-3.164],[2.964,-3.185],[3.175,-3.206],[3.343,-3.248],[3.385,-3.241],[3.617,-3.34],[3.715,-3.347],[3.792,-3.389],[3.785,-3.417],[3.729,-3.48],[3.729,-3.501],[3.701,-3.522],[3.694,-3.551],[3.519,-3.797],[3.49,-3.79],[3.42,-3.811],[3.371,-3.839],[3.35,-3.874],[3.273,-3.902],[3.217,-3.959],[3.182,-3.93],[3.133,-3.825],[2.726,-3.825],[2.677,-3.755],[2.628,-3.762],[2.579,-3.825],[2.523,-3.994],[2.488,-3.994],[2.488,-3.98],[2.509,-3.832],[2.509,-3.677],[2.502,-3.572],[2.481,-3.516],[2.439,-3.48],[2.439,-3.459],[2.418,-3.438],[2.362,-3.41],[2.256,-3.403],[2.207,-3.424],[2.137,-3.494],[2.116,-3.537],[2.102,-3.537],[2.067,-3.579],[1.983,-3.614],[1.822,-3.635],[1.822,-3.48],[1.773,-3.382],[1.787,-3.368],[1.808,-3.248],[1.913,-3.044],[1.913,-2.897]]],[[[-2.02,-2.995],[-1.929,-3.178],[-1.915,-3.234],[-1.838,-3.368],[-1.831,-3.403],[-1.873,-3.473],[-1.873,-3.586],[-1.978,-3.586],[-2.077,-3.551],[-2.133,-3.508],[-2.21,-3.452],[-2.294,-3.417],[-2.406,-3.424],[-2.469,-3.459],[-2.497,-3.487],[-2.497,-3.508],[-2.532,-3.537],[-2.588,-3.635],[-2.603,-3.719],[-2.609,-3.804],[-2.588,-3.909],[-2.567,-3.945],[-2.567,-3.973],[-2.511,-4.099],[-2.497,-4.198],[-2.504,-4.324],[-2.532,-4.317],[-2.525,-4.254],[-2.567,-4.071],[-2.638,-3.916],[-2.715,-3.797],[-2.75,-3.762],[-2.792,-3.755],[-2.82,-3.776],[-2.862,-3.846],[-3.248,-3.846],[-3.29,-3.888],[-3.29,-3.909],[-3.423,-3.832],[-3.521,-3.846],[-3.528,-3.818],[-3.57,-3.769],[-3.57,-3.748],[-3.64,-3.656],[-3.731,-3.396],[-3.675,-3.347],[-3.549,-3.312],[-3.381,-3.241],[-3.318,-3.234],[-3.318,-3.22],[-3.29,-3.206],[-2.988,-3.185],[-2.925,-3.192],[-2.897,-3.129],[-2.771,-3.129],[-2.63,-2.995],[-2.02,-2.995]]]]},"properties":{"abbr":"Crus2","name":"crus 2 of the ansiform lobule","plate":49,"ap_bregma_mm":-9.0,"area_mm2":2.2459,"traced_fraction":[0.541,0.564],"n_labels":2,"no_drawn_outline":true}},{"type":"Feature","geometry":{"type":"MultiPolygon","coordinates":[[[[-1.845,-4.803],[-1.873,-4.901],[-1.894,-4.915],[-1.901,-4.985],[-1.929,-5.056],[-2.014,-5.077],[-2.02,-5.091],[-2.175,-5.154],[-2.224,-5.161],[-2.252,-5.189],[-2.329,-5.225],[-2.371,-5.218],[-2.497,-5.274],[-2.581,-5.33],[-2.63,-5.344],[-2.659,-5.372],[-2.68,-5.372],[-2.708,-5.4],[-2.75,-5.414],[-2.855,-5.492],[-2.995,-5.562],[-2.995,-5.576],[-3.037,-5.597],[-3.044,-5.597],[-3.051,-5.555],[-3.037,-5.527],[-2.925,-5.379],[-2.89,-5.358],[-2.792,-5.253],[-2.757,-5.239],[-2.666,-5.161],[-2.609,-5.14],[-2.539,-5.091],[-2.35,-5.014],[-2.161,-4.964],[-1.915,-4.922],[-1.915,-4.901],[-1.943,-4.88],[-1.95,-4.852],[-1.887,-4.81],[-1.845,-4.803]]],[[[3.035,-5.541],[2.979,-5.541],[2.972,-5.527],[2.915,-5.506],[2.887,-5.492],[2.873,-5.499],[2.747,-5.407],[2.628,-5.351],[2.621,-5.337],[2.572,-5.323],[2.551,-5.302],[2.46,-5.281],[2.425,-5.274],[2.376,-5.239],[2.326,-5.232],[2.277,-5.196],[2.137,-5.154],[2.018,-5.077],[2.004,-5.049],[1.948,-5.028],[1.92,-4.943],[2.025,-4.929],[2.228,-4.957],[2.439,-5.014],[2.6,-5.084],[2.614,-5.105],[2.649,-5.112],[2.719,-5.161],[2.726,-5.182],[2.782,-5.211],[2.915,-5.344],[3.014,-5.478],[3.035,-5.541]]]]},"properties":{"abbr":"DCDp","name":"dorsal cochlear nucleus, deep core","plate":49,"ap_bregma_mm":-9.0,"area_mm2":0.4286,"traced_fraction":[1.0,1.0],"n_labels":2,"no_drawn_outline":false}},{"type":"Feature","geometry":{"type":"MultiPolygon","coordinates":[[[[2.705,-4.451],[2.705,-4.894],[2.488,-4.824],[2.347,-4.81],[2.347,-4.479],[2.369,-4.465],[2.488,-4.465],[2.572,-4.444],[2.705,-4.451]]],[[[1.892,-4.838],[1.906,-4.838],[2.242,-4.873],[2.474,-4.943],[2.705,-5.056],[2.838,-5.147],[2.901,-5.211],[2.915,-5.211],[2.958,-5.267],[2.979,-5.274],[3.063,-5.393],[3.126,-5.541],[3.035,-5.541],[3.014,-5.478],[2.915,-5.344],[2.782,-5.211],[2.726,-5.182],[2.719,-5.161],[2.649,-5.112],[2.614,-5.105],[2.6,-5.084],[2.439,-5.014],[2.228,-4.957],[2.025,-4.929],[1.92,-4.943],[1.899,-4.922],[1.885,-4.873],[1.892,-4.838]]],[[[-2.673,-4.929],[-2.673,-4.971],[-2.638,-4.971],[-2.638,-5.028],[-2.49,-4.971],[-2.35,-4.971],[-2.35,-5.014],[-2.539,-5.091],[-2.546,-5.105],[-2.666,-5.161],[-2.757,-5.239],[-2.792,-5.253],[-2.89,-5.358],[-2.925,-5.379],[-2.981,-5.316],[-2.995,-5.316],[-3.164,-5.541],[-3.177,-5.59],[-3.191,-5.597],[-3.198,-5.647],[-3.262,-5.64],[-3.29,-5.59],[-3.29,-5.562],[-3.241,-5.485],[-3.206,-5.379],[-3.191,-5.372],[-3.149,-5.274],[-3.086,-5.218],[-3.037,-5.133],[-2.981,-5.105],[-2.981,-5.091],[-2.918,-5.042],[-2.834,-4.992],[-2.673,-4.929]]]]},"properties":{"abbr":"DCFu","name":"dorsal cochlear nucleus, fusiform layer","plate":49,"ap_bregma_mm":-9.0,"area_mm2":0.4443,"traced_fraction":[0.573,1.0,0.921],"n_labels":2,"no_drawn_outline":false}},{"type":"Feature","geometry":{"type":"MultiPolygon","coordinates":[[[[2.347,-4.81],[2.488,-4.824],[2.705,-4.894],[2.712,-4.908],[2.838,-4.957],[2.838,-4.781],[3.182,-4.781],[3.259,-4.936],[3.294,-5.112],[3.315,-5.133],[3.42,-5.119],[3.441,-5.14],[3.434,-5.182],[3.42,-5.182],[3.42,-5.196],[3.364,-5.246],[3.35,-5.274],[3.35,-5.323],[3.392,-5.386],[3.49,-5.4],[3.49,-5.436],[3.469,-5.45],[3.441,-5.52],[3.427,-5.52],[3.413,-5.548],[3.392,-5.548],[3.322,-5.59],[3.308,-5.59],[3.231,-5.506],[3.21,-5.506],[3.175,-5.534],[3.126,-5.541],[3.063,-5.393],[2.979,-5.274],[2.958,-5.267],[2.936,-5.232],[2.838,-5.147],[2.705,-5.056],[2.474,-4.943],[2.242,-4.873],[1.906,-4.838],[1.934,-4.788],[2.004,-4.767],[2.039,-4.739],[2.214,-4.796],[2.347,-4.81]]],[[[-2.056,-4.788],[-2.056,-4.803],[-2.007,-4.838],[-2.007,-4.859],[-1.95,-4.852],[-1.943,-4.88],[-1.915,-4.901],[-1.915,-4.922],[-2.161,-4.964],[-2.35,-5.014],[-2.35,-4.971],[-2.49,-4.971],[-2.638,-5.028],[-2.638,-4.971],[-2.673,-4.971],[-2.673,-4.929],[-2.666,-4.915],[-2.609,-4.894],[-2.357,-4.817],[-2.056,-4.788]]]]},"properties":{"abbr":"DCMo","name":"dorsal cochlear nucleus, molecular layer","plate":49,"ap_bregma_mm":-9.0,"area_mm2":0.5221,"traced_fraction":[0.896,0.903],"n_labels":2,"no_drawn_outline":false}},{"type":"Feature","geometry":{"type":"MultiPolygon","coordinates":[[[[2.025,-5.998],[2.123,-6.111],[2.074,-6.111],[1.983,-6.083],[1.941,-6.09],[1.913,-6.287],[1.808,-6.505],[1.745,-6.505],[1.639,-6.392],[1.618,-6.329],[1.604,-6.322],[1.618,-6.23],[1.709,-6.111],[1.808,-6.069],[1.941,-6.069],[2.011,-5.998],[2.025,-5.998]]],[[[-1.719,-6.047],[-1.635,-6.09],[-1.579,-6.23],[-1.586,-6.343],[-1.628,-6.441],[-1.747,-6.477],[-1.901,-6.223],[-1.936,-6.09],[-1.936,-6.076],[-1.817,-6.04],[-1.719,-6.047]]]]},"properties":{"abbr":"DMSp5","name":"dorsomedial spinal trigeminal nucleus","plate":49,"ap_bregma_mm":-9.0,"area_mm2":0.2176,"traced_fraction":[1.0,0.989],"n_labels":1,"no_drawn_outline":false}},{"type":"Feature","geometry":{"type":"MultiPolygon","coordinates":[[[[0.504,-6.062],[0.56,-6.076],[0.581,-6.294],[0.553,-6.406],[0.461,-6.498],[0.405,-6.519],[0.188,-6.512],[0.188,-6.195],[0.153,-6.104],[0.314,-6.097],[0.504,-6.062]]],[[[-0.499,-6.097],[-0.142,-6.097],[-0.177,-6.195],[-0.184,-6.519],[-0.345,-6.519],[-0.429,-6.491],[-0.52,-6.406],[-0.527,-6.378],[-0.548,-6.364],[-0.562,-6.308],[-0.562,-6.251],[-0.548,-6.237],[-0.555,-6.216],[-0.541,-6.202],[-0.527,-6.104],[-0.499,-6.097]]]]},"properties":{"abbr":"DPGi","name":"dorsal paragigantocellular nucleus","plate":49,"ap_bregma_mm":-9.0,"area_mm2":0.3034,"traced_fraction":[1.0,1.0],"n_labels":1,"no_drawn_outline":false}},{"type":"Feature","geometry":{"type":"MultiPolygon","coordinates":[[[[-2.771,-5.907],[-2.722,-5.907],[-2.694,-5.921],[-2.729,-6.069],[-2.722,-6.35],[-2.743,-6.483],[-2.778,-6.554],[-2.82,-6.596],[-2.869,-6.617],[-2.932,-6.617],[-2.967,-6.638],[-3.093,-6.498],[-3.17,-6.336],[-3.177,-6.322],[-3.185,-6.308],[-3.191,-6.294],[-3.177,-6.273],[-3.206,-6.097],[-3.206,-5.991],[-3.191,-5.956],[-2.771,-5.956],[-2.771,-5.907]]],[[[2.761,-6.083],[3.224,-6.083],[3.203,-6.23],[3.161,-6.357],[3.042,-6.505],[3.014,-6.568],[3.014,-6.54],[2.894,-6.54],[2.866,-6.519],[2.831,-6.455],[2.81,-6.448],[2.775,-6.322],[2.761,-6.083]]],[[[3.014,-6.582],[3.007,-6.596],[3.0,-6.582],[3.014,-6.582]]]]},"properties":{"abbr":"Gca","name":"globular cell area, ventral cochlear nucleus","plate":49,"ap_bregma_mm":-9.0,"area_mm2":0.4437,"traced_fraction":[0.808,0.754,1.0],"n_labels":2,"no_drawn_outline":false}},{"type":"Feature","geometry":{"type":"MultiPolygon","coordinates":[[[[0.665,-6.273],[0.749,-6.498],[0.882,-6.765],[0.882,-6.786],[1.142,-7.264],[1.065,-7.356],[1.001,-7.475],[0.973,-7.623],[0.91,-7.749],[0.903,-7.813],[0.917,-7.883],[0.931,-7.968],[0.889,-7.961],[0.777,-7.897],[0.637,-7.841],[0.489,-7.799],[0.37,-7.799],[0.286,-7.82],[0.244,-7.848],[0.111,-7.693],[0.027,-7.658],[-0.029,-7.658],[-0.085,-7.679],[-0.142,-7.721],[-0.282,-7.876],[-0.415,-7.827],[-0.597,-7.813],[-0.738,-7.841],[-0.899,-7.932],[-0.955,-7.946],[-0.955,-7.876],[-0.941,-7.813],[-0.948,-7.749],[-0.99,-7.651],[-1.004,-7.644],[-1.011,-7.588],[-1.025,-7.574],[-1.074,-7.391],[-1.179,-7.257],[-1.039,-6.962],[-0.744,-6.448],[-0.674,-6.287],[-0.562,-6.308],[-0.548,-6.364],[-0.527,-6.378],[-0.52,-6.406],[-0.429,-6.491],[-0.345,-6.519],[-0.184,-6.519],[-0.155,-6.709],[-0.128,-6.793],[-0.092,-6.849],[-0.113,-6.863],[-0.184,-6.863],[-0.184,-7.004],[-0.057,-7.004],[-0.05,-6.884],[0.055,-6.891],[0.083,-6.877],[0.111,-6.898],[0.146,-6.969],[0.146,-7.004],[0.272,-7.004],[0.272,-6.856],[0.104,-6.856],[0.139,-6.758],[0.188,-6.512],[0.405,-6.519],[0.461,-6.498],[0.553,-6.406],[0.581,-6.294],[0.665,-6.273]]]]},"properties":{"abbr":"Gi","name":"gigantocellular reticular nucleus","plate":49,"ap_bregma_mm":-9.0,"area_mm2":2.5161,"traced_fraction":[0.885],"n_labels":2,"no_drawn_outline":false}},{"type":"Feature","geometry":{"type":"MultiPolygon","coordinates":[[[[0.244,-7.848],[0.244,-7.876],[0.279,-7.925],[0.328,-8.059],[0.391,-8.179],[0.412,-8.256],[0.23,-8.256],[0.181,-8.066],[0.111,-7.883],[0.055,-7.827],[-0.036,-7.82],[-0.121,-7.89],[-0.149,-7.939],[-0.149,-7.961],[-0.191,-8.031],[-0.198,-8.108],[-0.233,-8.193],[-0.247,-8.27],[-0.373,-8.242],[-0.443,-8.242],[-0.415,-8.136],[-0.296,-7.925],[-0.282,-7.876],[-0.142,-7.721],[-0.085,-7.679],[-0.029,-7.658],[0.027,-7.658],[0.111,-7.693],[0.244,-7.848]]]]},"properties":{"abbr":"GiA","name":"gigantocellular reticular nucleus, alpha part","plate":49,"ap_bregma_mm":-9.0,"area_mm2":0.1969,"traced_fraction":[1.0],"n_labels":1,"no_drawn_outline":false}},{"type":"Feature","geometry":{"type":"MultiPolygon","coordinates":[[[[2.347,-4.479],[2.347,-4.81],[2.214,-4.796],[2.039,-4.739],[2.004,-4.767],[1.934,-4.788],[1.906,-4.838],[1.892,-4.838],[1.878,-4.838],[1.85,-4.803],[1.843,-4.76],[1.815,-4.725],[1.815,-4.697],[1.829,-4.627],[1.871,-4.549],[1.955,-4.521],[2.074,-4.528],[2.347,-4.479]]],[[[3.322,-5.59],[3.35,-5.654],[3.357,-5.71],[3.357,-5.717],[3.35,-5.731],[3.273,-5.829],[3.259,-5.872],[3.21,-5.851],[3.112,-5.724],[3.035,-5.647],[3.021,-5.647],[2.964,-5.59],[2.979,-5.541],[3.035,-5.541],[3.126,-5.541],[3.154,-5.541],[3.231,-5.506],[3.308,-5.59],[3.322,-5.59]]],[[[-3.29,-5.59],[-3.262,-5.64],[-3.198,-5.647],[-3.044,-5.597],[-3.037,-5.597],[-3.037,-5.632],[-3.009,-5.682],[-3.016,-5.71],[-3.037,-5.71],[-3.107,-5.787],[-3.177,-5.893],[-3.191,-5.956],[-3.206,-5.991],[-3.206,-6.097],[-3.177,-6.223],[-3.177,-6.273],[-3.191,-6.294],[-3.234,-6.223],[-3.255,-6.118],[-3.269,-6.104],[-3.332,-5.78],[-3.332,-5.759],[-3.318,-5.632],[-3.29,-5.59]]],[[[3.385,-5.703],[3.364,-5.71],[3.364,-5.696],[3.385,-5.703]]],[[[3.357,-5.71],[3.364,-5.71],[3.357,-5.717],[3.357,-5.71]]]]},"properties":{"abbr":"GrC","name":"granule cell layer of cochlear nuclei","plate":49,"ap_bregma_mm":-9.0,"area_mm2":0.3088,"traced_fraction":[0.84,1.0,1.0,1.0,1.0],"n_labels":4,"no_drawn_outline":false}},{"type":"Feature","geometry":{"type":"MultiPolygon","coordinates":[[[[0.945,-6.167],[0.966,-6.237],[0.98,-6.244],[1.24,-6.737],[1.317,-6.842],[1.415,-6.941],[1.506,-7.004],[1.527,-7.053],[1.436,-7.102],[1.436,-7.117],[1.415,-7.117],[1.366,-7.166],[1.254,-7.201],[1.142,-7.264],[0.882,-6.786],[0.882,-6.765],[0.749,-6.498],[0.665,-6.273],[0.679,-6.251],[0.826,-6.202],[0.847,-6.181],[0.945,-6.167]]],[[[-0.962,-6.209],[-0.892,-6.216],[-0.772,-6.258],[-0.709,-6.266],[-0.674,-6.287],[-0.744,-6.448],[-1.039,-6.962],[-1.179,-7.257],[-1.2,-7.257],[-1.298,-7.194],[-1.34,-7.187],[-1.404,-7.159],[-1.439,-7.117],[-1.453,-7.117],[-1.474,-7.088],[-1.593,-7.011],[-1.397,-6.835],[-1.397,-6.821],[-1.34,-6.772],[-1.319,-6.73],[-1.186,-6.575],[-1.165,-6.533],[-1.116,-6.491],[-1.109,-6.441],[-1.046,-6.371],[-1.039,-6.343],[-0.976,-6.258],[-0.962,-6.209]]]]},"properties":{"abbr":"IRt","name":"intermediate reticular nucleus","plate":49,"ap_bregma_mm":-9.0,"area_mm2":0.7547,"traced_fraction":[1.0,0.966],"n_labels":2,"no_drawn_outline":false}},{"type":"Feature","geometry":{"type":"MultiPolygon","coordinates":[[[[-2.077,-3.551],[-1.978,-3.586],[-1.873,-3.586],[-1.81,-3.579],[-1.81,-3.846],[-2.077,-3.846],[-2.077,-3.551]]],[[[1.983,-3.614],[1.983,-3.867],[1.716,-3.867],[1.716,-3.628],[1.822,-3.635],[1.983,-3.614]]]]},"properties":{"abbr":"IntA","name":"interposed cerebellar nucleus, anterior part","plate":49,"ap_bregma_mm":-9.0,"area_mm2":0.1352,"traced_fraction":[0.327,0.338],"n_labels":2,"no_drawn_outline":true}},{"type":"Feature","geometry":{"type":"MultiPolygon","coordinates":[[[[2.509,-3.677],[2.151,-3.67],[2.13,-3.628],[2.13,-3.558],[2.116,-3.537],[2.137,-3.494],[2.207,-3.424],[2.256,-3.403],[2.362,-3.41],[2.418,-3.438],[2.439,-3.459],[2.439,-3.48],[2.481,-3.516],[2.502,-3.572],[2.509,-3.677]]],[[[-2.133,-3.508],[-2.147,-3.516],[-2.147,-3.719],[-2.603,-3.719],[-2.596,-3.656],[-2.56,-3.579],[-2.497,-3.508],[-2.497,-3.487],[-2.406,-3.424],[-2.294,-3.417],[-2.21,-3.452],[-2.133,-3.508]]]]},"properties":{"abbr":"IntDL","name":"interposed cerebellar nucleus, dorsolateral hump","plate":49,"ap_bregma_mm":-9.0,"area_mm2":0.1981,"traced_fraction":[0.618,0.557],"n_labels":2,"no_drawn_outline":true}},{"type":"Feature","geometry":{"type":"MultiPolygon","coordinates":[[[[-1.796,-3.579],[-1.656,-3.586],[-1.495,-3.628],[-1.354,-3.705],[-1.312,-3.748],[-1.284,-3.825],[-1.789,-3.825],[-1.796,-3.579]]]]},"properties":{"abbr":"IntDM","name":"interposed cerebellar nucleus, dorsomedial crest","plate":49,"ap_bregma_mm":-9.0,"area_mm2":0.0957,"traced_fraction":[0.5],"n_labels":1,"no_drawn_outline":true}},{"type":"Feature","geometry":{"type":"MultiPolygon","coordinates":[[[[-2.133,-3.508],[-2.077,-3.551],[-2.077,-3.846],[-1.81,-3.846],[-1.81,-3.579],[-1.796,-3.579],[-1.789,-3.825],[-1.284,-3.825],[-1.277,-3.881],[-1.305,-3.959],[-1.298,-3.98],[-1.34,-4.008],[-1.558,-4.078],[-1.684,-4.198],[-2.497,-4.198],[-2.511,-4.099],[-2.294,-4.099],[-2.294,-3.945],[-2.567,-3.945],[-2.588,-3.909],[-2.609,-3.804],[-2.603,-3.719],[-2.147,-3.719],[-2.147,-3.516],[-2.133,-3.508]]],[[[1.716,-3.628],[1.716,-3.867],[1.983,-3.867],[1.983,-3.614],[2.067,-3.579],[2.102,-3.537],[2.116,-3.537],[2.13,-3.558],[2.13,-3.628],[2.151,-3.67],[2.509,-3.677],[2.509,-3.832],[2.488,-3.98],[2.263,-3.98],[2.263,-4.127],[2.46,-4.127],[2.418,-4.296],[1.639,-4.296],[1.625,-4.296],[1.576,-4.24],[1.45,-4.163],[1.233,-3.952],[1.198,-3.902],[1.156,-3.797],[1.198,-3.642],[1.296,-3.537],[1.359,-3.508],[1.429,-3.508],[1.569,-3.586],[1.716,-3.628]]]]},"properties":{"abbr":"IntP","name":"interposed cerebellar nucleus, posterior part","plate":49,"ap_bregma_mm":-9.0,"area_mm2":1.1612,"traced_fraction":[0.296,0.489],"n_labels":2,"no_drawn_outline":true}},{"type":"Feature","geometry":{"type":"MultiPolygon","coordinates":[[[[-2.497,-4.198],[-1.684,-4.198],[-1.782,-4.373],[-1.838,-4.535],[-1.901,-4.528],[-1.978,-4.486],[-2.133,-4.472],[-2.245,-4.479],[-2.259,-4.507],[-2.596,-4.521],[-2.596,-4.479],[-2.511,-4.359],[-2.504,-4.324],[-2.497,-4.198]]],[[[1.639,-4.296],[2.418,-4.296],[2.369,-4.423],[2.369,-4.465],[2.347,-4.479],[2.074,-4.528],[1.955,-4.521],[1.871,-4.549],[1.829,-4.549],[1.815,-4.493],[1.688,-4.367],[1.639,-4.296]]]]},"properties":{"abbr":"IntPPC","name":"interposed cerebellar nucleus, posterior parvicellular part","plate":49,"ap_bregma_mm":-9.0,"area_mm2":0.3764,"traced_fraction":[0.682,0.61],"n_labels":2,"no_drawn_outline":true}},{"type":"Feature","geometry":{"type":"MultiPolygon","coordinates":[[[[0.931,-7.968],[0.994,-8.073],[0.966,-8.08],[0.938,-8.115],[0.77,-8.235],[0.525,-8.298],[0.419,-8.27],[0.412,-8.256],[0.391,-8.179],[0.356,-8.122],[0.279,-7.925],[0.244,-7.876],[0.244,-7.848],[0.335,-7.806],[0.489,-7.799],[0.637,-7.841],[0.777,-7.897],[0.889,-7.961],[0.931,-7.968]]],[[[-0.282,-7.876],[-0.296,-7.925],[-0.415,-8.136],[-0.443,-8.242],[-0.541,-8.249],[-0.548,-8.263],[-0.583,-8.27],[-0.604,-8.249],[-0.751,-8.235],[-0.759,-8.221],[-0.808,-8.214],[-0.843,-8.186],[-0.878,-8.179],[-1.018,-8.059],[-0.955,-7.946],[-0.899,-7.932],[-0.738,-7.841],[-0.597,-7.813],[-0.45,-7.82],[-0.282,-7.876]]]]},"properties":{"abbr":"LPGiA","name":"lateral paragigantocellular nucleus, alpha part","plate":49,"ap_bregma_mm":-9.0,"area_mm2":0.4636,"traced_fraction":[1.0,1.0],"n_labels":2,"no_drawn_outline":false}},{"type":"Feature","geometry":{"type":"MultiPolygon","coordinates":[[[[-1.018,-8.059],[-0.878,-8.179],[-0.843,-8.186],[-0.808,-8.214],[-0.759,-8.221],[-0.751,-8.235],[-0.759,-8.368],[-0.73,-8.376],[-0.766,-8.397],[-0.772,-8.389],[-0.787,-8.376],[-0.92,-8.376],[-1.018,-8.347],[-1.13,-8.291],[-1.221,-8.207],[-1.221,-8.179],[-1.109,-8.143],[-1.018,-8.059]]],[[[0.994,-8.073],[1.093,-8.15],[1.247,-8.179],[1.268,-8.207],[1.275,-8.298],[1.254,-8.333],[1.254,-8.354],[1.268,-8.361],[1.135,-8.439],[1.128,-8.46],[1.022,-8.53],[0.945,-8.565],[0.749,-8.481],[0.714,-8.389],[0.588,-8.376],[0.546,-8.354],[0.525,-8.298],[0.77,-8.235],[0.938,-8.115],[0.966,-8.08],[0.994,-8.073]]],[[[-0.885,-8.319],[-0.885,-8.354],[-0.871,-8.354],[-0.871,-8.319],[-0.885,-8.319]]],[[[-0.772,-8.411],[-0.766,-8.411],[-0.766,-8.425],[-0.78,-8.425],[-0.772,-8.411]]]]},"properties":{"abbr":"LPGiE","name":"lateral paragigantocellular nucleus, external part","plate":49,"ap_bregma_mm":-9.0,"area_mm2":0.2864,"traced_fraction":[1.0,0.908,1.0,1.0],"n_labels":2,"no_drawn_outline":false}},{"type":"Feature","geometry":{"type":"MultiPolygon","coordinates":[[[[2.705,-4.451],[2.796,-4.458],[3.021,-4.521],[3.231,-4.634],[3.273,-4.669],[3.28,-4.704],[3.147,-4.676],[3.14,-4.704],[3.182,-4.781],[2.838,-4.781],[2.838,-4.957],[2.712,-4.908],[2.705,-4.894],[2.705,-4.451]]],[[[-2.259,-4.507],[-2.231,-4.521],[-2.119,-4.521],[-2.056,-4.535],[-1.986,-4.571],[-1.943,-4.613],[-1.915,-4.683],[-1.922,-4.739],[-1.986,-4.781],[-2.056,-4.788],[-2.357,-4.817],[-2.609,-4.894],[-2.666,-4.915],[-2.673,-4.929],[-2.834,-4.992],[-2.974,-4.852],[-2.974,-4.817],[-2.925,-4.767],[-2.904,-4.718],[-2.918,-4.585],[-2.799,-4.542],[-2.596,-4.521],[-2.259,-4.507]]]]},"properties":{"abbr":"LR4V","name":"lateral recess of the 4th ventricle","plate":49,"ap_bregma_mm":-9.0,"area_mm2":0.4786,"traced_fraction":[0.583,1.0],"n_labels":2,"no_drawn_outline":false}},{"type":"Feature","geometry":{"type":"MultiPolygon","coordinates":[[[[-1.936,-5.084],[-1.382,-5.084],[-1.376,-5.133],[-1.397,-5.182],[-1.446,-5.52],[-1.502,-5.689],[-1.817,-5.689],[-1.929,-5.661],[-2.028,-5.597],[-2.035,-5.555],[-2.035,-5.513],[-2.007,-5.443],[-1.992,-5.281],[-1.965,-5.218],[-1.936,-5.084]]],[[[1.429,-5.112],[1.969,-5.112],[2.011,-5.232],[2.032,-5.527],[1.997,-5.534],[1.913,-5.611],[1.836,-5.654],[1.667,-5.696],[1.52,-5.703],[1.478,-5.64],[1.436,-5.499],[1.422,-5.386],[1.422,-5.147],[1.429,-5.112]]]]},"properties":{"abbr":"LVe","name":"lateral vestibular nucleus","plate":49,"ap_bregma_mm":-9.0,"area_mm2":0.6502,"traced_fraction":[0.786,0.775],"n_labels":2,"no_drawn_outline":false}},{"type":"Feature","geometry":{"type":"MultiPolygon","coordinates":[[[[-2.532,-4.317],[-2.581,-4.388],[-2.701,-4.409],[-2.82,-4.367],[-2.869,-4.31],[-2.883,-4.268],[-2.904,-4.219],[-2.918,-4.064],[-2.897,-4.001],[-2.89,-3.916],[-2.862,-3.846],[-2.82,-3.776],[-2.792,-3.755],[-2.75,-3.762],[-2.715,-3.797],[-2.638,-3.916],[-2.567,-4.071],[-2.532,-4.205],[-2.532,-4.317]]],[[[2.726,-3.825],[2.768,-4.043],[2.768,-4.17],[2.74,-4.282],[2.691,-4.345],[2.621,-4.352],[2.593,-4.338],[2.537,-4.268],[2.516,-4.177],[2.523,-3.994],[2.579,-3.825],[2.628,-3.762],[2.677,-3.755],[2.726,-3.825]]],[[[-2.567,-3.945],[-2.294,-3.945],[-2.294,-4.099],[-2.511,-4.099],[-2.567,-3.973],[-2.567,-3.945]]],[[[2.488,-3.98],[2.488,-3.994],[2.46,-4.127],[2.263,-4.127],[2.263,-3.98],[2.488,-3.98]]]]},"properties":{"abbr":"Lat","name":"lateral (dentate) cerebellar nucleus","plate":49,"ap_bregma_mm":-9.0,"area_mm2":0.368,"traced_fraction":[1.0,1.0,0.277,0.299],"n_labels":4,"no_drawn_outline":false}},{"type":"Feature","geometry":{"type":"MultiPolygon","coordinates":[[[[-1.376,-5.133],[-1.354,-5.147],[-1.235,-5.379],[-1.018,-5.654],[-0.681,-5.97],[-0.618,-6.012],[-0.555,-6.033],[-0.499,-6.083],[-0.499,-6.097],[-0.527,-6.104],[-1.263,-6.04],[-1.46,-6.012],[-1.649,-6.012],[-1.628,-5.956],[-1.572,-5.893],[-1.523,-5.78],[-1.502,-5.689],[-1.446,-5.52],[-1.397,-5.182],[-1.376,-5.133]]],[[[1.422,-5.147],[1.422,-5.386],[1.436,-5.499],[1.478,-5.64],[1.52,-5.703],[1.576,-5.815],[1.759,-6.026],[1.703,-6.047],[1.625,-6.054],[1.436,-6.047],[1.282,-6.062],[0.56,-6.076],[0.504,-6.062],[0.504,-6.047],[0.553,-6.012],[0.609,-5.991],[0.749,-5.893],[1.015,-5.64],[1.029,-5.64],[1.177,-5.485],[1.324,-5.281],[1.38,-5.175],[1.422,-5.147]]]]},"properties":{"abbr":"MVeMC","name":"medial vestibular nucleus, magnocellular part","plate":49,"ap_bregma_mm":-9.0,"area_mm2":0.8765,"traced_fraction":[0.998,1.0],"n_labels":2,"no_drawn_outline":false}},{"type":"Feature","geometry":{"type":"MultiPolygon","coordinates":[[[[-1.34,-4.852],[-1.242,-4.922],[-1.067,-4.971],[-0.716,-5.028],[-0.597,-5.077],[-0.527,-5.126],[-0.415,-5.239],[-0.352,-5.337],[-0.226,-5.731],[-0.359,-5.745],[-0.457,-5.794],[-0.527,-5.865],[-0.555,-5.921],[-0.555,-6.033],[-0.576,-6.033],[-0.681,-5.97],[-1.018,-5.654],[-1.235,-5.379],[-1.354,-5.147],[-1.376,-5.133],[-1.382,-5.084],[-1.397,-5.028],[-1.397,-4.894],[-1.34,-4.852]]],[[[1.38,-4.894],[1.429,-4.908],[1.429,-5.112],[1.422,-5.147],[1.38,-5.175],[1.324,-5.281],[1.205,-5.45],[1.029,-5.64],[1.015,-5.64],[0.749,-5.893],[0.609,-5.991],[0.553,-6.012],[0.532,-5.879],[0.476,-5.808],[0.398,-5.759],[0.314,-5.738],[0.23,-5.738],[0.314,-5.428],[0.391,-5.288],[0.51,-5.168],[0.672,-5.077],[0.833,-5.028],[1.001,-5.0],[1.289,-4.985],[1.324,-4.971],[1.38,-4.894]]]]},"properties":{"abbr":"MVePC","name":"medial vestibular nucleus, parvicellular part","plate":49,"ap_bregma_mm":-9.0,"area_mm2":1.4046,"traced_fraction":[1.0,1.0],"n_labels":2,"no_drawn_outline":false}},{"type":"Feature","geometry":{"type":"MultiPolygon","coordinates":[[[[0.798,-3.755],[0.938,-3.832],[1.078,-3.98],[1.099,-3.98],[1.121,-4.226],[1.128,-4.303],[1.149,-4.359],[1.149,-4.479],[1.044,-4.486],[0.931,-4.472],[0.679,-4.402],[0.595,-4.352],[0.532,-4.282],[0.504,-4.191],[0.51,-4.12],[0.539,-4.043],[0.602,-3.945],[0.756,-3.776],[0.798,-3.755]]],[[[-0.857,-3.769],[-0.815,-3.776],[-0.702,-3.839],[-0.632,-3.888],[-0.555,-3.973],[-0.541,-3.973],[-0.464,-4.085],[-0.443,-4.191],[-0.422,-4.219],[-0.632,-4.43],[-0.738,-4.472],[-0.85,-4.493],[-1.011,-4.338],[-1.067,-4.219],[-1.06,-4.008],[-1.032,-3.987],[-0.969,-3.888],[-0.857,-3.783],[-0.857,-3.769]]]]},"properties":{"abbr":"Med","name":"medial (fastigial) cerebellar nucleus","plate":49,"ap_bregma_mm":-9.0,"area_mm2":0.6444,"traced_fraction":[1.0,1.0],"n_labels":2,"no_drawn_outline":false}},{"type":"Feature","geometry":{"type":"MultiPolygon","coordinates":[[[[-0.857,-3.769],[-0.857,-3.783],[-0.969,-3.888],[-1.032,-3.987],[-1.06,-4.008],[-1.088,-3.98],[-1.116,-3.916],[-1.13,-3.916],[-1.186,-3.804],[-1.242,-3.642],[-1.242,-3.586],[-1.186,-3.522],[-1.137,-3.501],[-1.088,-3.501],[-1.067,-3.516],[-1.067,-3.53],[-0.969,-3.621],[-0.955,-3.621],[-0.892,-3.691],[-0.857,-3.741],[-0.857,-3.769]]],[[[1.198,-3.642],[1.156,-3.797],[1.142,-3.797],[1.121,-3.832],[1.099,-3.98],[1.078,-3.98],[0.938,-3.832],[0.798,-3.755],[0.798,-3.741],[0.91,-3.642],[1.065,-3.537],[1.114,-3.537],[1.156,-3.558],[1.198,-3.642]]]]},"properties":{"abbr":"MedDL","name":"medial cerebellar nucleus, dorsolateral protuberance","plate":49,"ap_bregma_mm":-9.0,"area_mm2":0.2072,"traced_fraction":[1.0,1.0],"n_labels":2,"no_drawn_outline":false}},{"type":"Feature","geometry":{"type":"MultiPolygon","coordinates":[[[[-1.34,-4.008],[-1.34,-4.184],[-1.235,-4.184],[-1.228,-4.289],[-1.256,-4.317],[-1.369,-4.359],[-1.397,-4.388],[-1.439,-4.402],[-1.593,-4.507],[-1.621,-4.542],[-1.768,-4.641],[-1.803,-4.627],[-1.782,-4.655],[-1.796,-4.704],[-1.81,-4.704],[-1.81,-4.725],[-1.845,-4.803],[-1.887,-4.81],[-1.95,-4.852],[-2.007,-4.859],[-2.007,-4.838],[-2.02,-4.838],[-2.056,-4.788],[-1.986,-4.781],[-1.922,-4.739],[-1.915,-4.683],[-1.943,-4.613],[-2.035,-4.542],[-2.119,-4.521],[-2.231,-4.521],[-2.259,-4.507],[-2.245,-4.479],[-2.133,-4.472],[-1.978,-4.486],[-1.901,-4.528],[-1.838,-4.535],[-1.782,-4.373],[-1.684,-4.198],[-1.558,-4.078],[-1.34,-4.008]]],[[[1.45,-4.163],[1.576,-4.24],[1.625,-4.296],[1.639,-4.296],[1.688,-4.367],[1.815,-4.493],[1.829,-4.549],[1.695,-4.542],[1.618,-4.528],[1.527,-4.535],[1.513,-4.521],[1.24,-4.5],[1.149,-4.479],[1.149,-4.359],[1.128,-4.303],[1.121,-4.226],[1.408,-4.226],[1.436,-4.163],[1.45,-4.163]]]]},"properties":{"abbr":"MedL","name":"medial cerebellar nucleus, lateral part","plate":49,"ap_bregma_mm":-9.0,"area_mm2":0.4171,"traced_fraction":[0.898,0.835],"n_labels":2,"no_drawn_outline":false}},{"type":"Feature","geometry":{"type":"MultiPolygon","coordinates":[[[[2.46,-5.281],[2.551,-5.302],[2.558,-5.316],[2.621,-5.337],[2.628,-5.351],[2.747,-5.407],[2.873,-5.499],[2.887,-5.534],[2.908,-5.534],[2.915,-5.506],[2.972,-5.527],[2.979,-5.541],[2.964,-5.59],[3.021,-5.647],[3.0,-5.654],[2.964,-5.724],[2.908,-5.759],[2.824,-5.759],[2.74,-5.724],[2.733,-5.71],[2.691,-5.703],[2.6,-5.471],[2.509,-5.372],[2.509,-5.358],[2.467,-5.33],[2.46,-5.281]]],[[[-2.399,-5.288],[-2.63,-5.724],[-2.694,-5.921],[-2.722,-5.907],[-2.771,-5.907],[-2.89,-5.9],[-2.96,-5.858],[-3.002,-5.801],[-3.016,-5.71],[-3.009,-5.682],[-2.981,-5.668],[-2.904,-5.583],[-2.701,-5.443],[-2.532,-5.351],[-2.497,-5.316],[-2.434,-5.288],[-2.399,-5.288]]]]},"properties":{"abbr":"Oca","name":"octopus cell area, ventral cochlear nucleus","plate":49,"ap_bregma_mm":-9.0,"area_mm2":0.2831,"traced_fraction":[1.0,1.0],"n_labels":2,"no_drawn_outline":false}},{"type":"Feature","geometry":{"type":"MultiPolygon","coordinates":[[[[-1.502,-8.01],[-1.621,-7.932],[-1.656,-7.925],[-1.726,-7.876],[-1.74,-7.848],[-1.726,-7.827],[-1.691,-7.785],[-1.691,-7.736],[-1.502,-7.736],[-1.502,-8.01]]],[[[1.499,-7.742],[1.674,-7.742],[1.688,-7.869],[1.499,-7.996],[1.499,-7.742]]]]},"properties":{"abbr":"P7","name":"perifacial zone","plate":49,"ap_bregma_mm":-9.0,"area_mm2":0.0794,"traced_fraction":[0.386,0.373],"n_labels":2,"no_drawn_outline":true}},{"type":"Feature","geometry":{"type":"MultiPolygon","coordinates":[[[[-1.523,-6.111],[-1.404,-6.118],[-1.348,-6.139],[-1.263,-6.146],[-1.067,-6.174],[-0.962,-6.209],[-0.997,-6.294],[-1.074,-6.413],[-1.109,-6.441],[-1.116,-6.491],[-1.165,-6.533],[-1.186,-6.575],[-1.242,-6.631],[-1.34,-6.772],[-1.397,-6.821],[-1.397,-6.835],[-1.593,-7.011],[-1.719,-6.99],[-1.824,-6.997],[-1.901,-7.018],[-2.02,-7.095],[-2.07,-7.067],[-2.035,-6.983],[-1.986,-6.772],[-1.908,-6.596],[-1.831,-6.526],[-1.747,-6.477],[-1.628,-6.441],[-1.593,-6.441],[-1.53,-6.413],[-1.446,-6.315],[-1.453,-6.216],[-1.516,-6.146],[-1.523,-6.111]]],[[[1.555,-6.132],[1.485,-6.202],[1.443,-6.28],[1.436,-6.357],[1.471,-6.434],[1.506,-6.477],[1.569,-6.505],[1.745,-6.505],[1.808,-6.505],[1.878,-6.533],[1.934,-6.582],[1.983,-6.694],[2.011,-6.898],[2.032,-6.955],[2.06,-6.976],[2.067,-7.018],[2.123,-7.088],[2.081,-7.124],[1.927,-7.032],[1.829,-7.011],[1.752,-7.011],[1.667,-7.018],[1.625,-7.018],[1.527,-7.053],[1.506,-7.004],[1.415,-6.941],[1.317,-6.842],[1.24,-6.737],[0.98,-6.244],[0.966,-6.237],[0.945,-6.167],[1.078,-6.139],[1.296,-6.125],[1.541,-6.118],[1.555,-6.132]]]]},"properties":{"abbr":"PCRt","name":"parvicellular reticular nucleus","plate":49,"ap_bregma_mm":-9.0,"area_mm2":1.035,"traced_fraction":[0.959,0.998],"n_labels":2,"no_drawn_outline":false}},{"type":"Feature","geometry":{"type":"MultiPolygon","coordinates":[[[[-3.886,-3.262],[-3.731,-3.396],[-3.64,-3.656],[-3.57,-3.748],[-3.57,-3.769],[-3.528,-3.818],[-3.521,-3.846],[-3.423,-3.832],[-3.29,-3.909],[-3.135,-4.036],[-3.135,-4.268],[-2.883,-4.268],[-2.869,-4.31],[-2.82,-4.367],[-2.701,-4.409],[-2.581,-4.388],[-2.532,-4.317],[-2.504,-4.324],[-2.511,-4.359],[-2.596,-4.479],[-2.596,-4.521],[-2.799,-4.542],[-2.918,-4.585],[-2.953,-4.585],[-3.086,-4.634],[-3.142,-4.662],[-3.149,-4.683],[-3.185,-4.683],[-3.283,-4.725],[-3.374,-4.796],[-3.43,-4.866],[-3.444,-4.866],[-3.521,-4.978],[-3.57,-5.084],[-3.619,-5.288],[-3.619,-5.386],[-3.633,-5.386],[-3.647,-5.422],[-3.689,-5.45],[-3.766,-5.45],[-3.829,-5.422],[-3.935,-5.316],[-3.928,-5.309],[-3.942,-5.309],[-3.963,-5.288],[-4.075,-5.239],[-4.425,-5.203],[-4.58,-5.147],[-4.629,-5.105],[-4.657,-5.098],[-4.755,-5.0],[-4.811,-4.901],[-4.839,-4.796],[-4.846,-4.585],[-4.888,-4.381],[-4.888,-4.198],[-4.846,-3.994],[-4.79,-3.846],[-4.699,-3.733],[-4.664,-3.719],[-4.587,-3.649],[-4.271,-3.466],[-4.257,-3.459],[-4.243,-3.452],[-4.222,-3.438],[-4.005,-3.312],[-3.97,-3.297],[-3.907,-3.297],[-3.886,-3.262]]],[[[3.834,-3.368],[3.869,-3.452],[3.932,-3.473],[4.058,-3.579],[4.22,-3.656],[4.626,-3.769],[4.731,-3.825],[4.844,-3.937],[4.9,-4.057],[4.935,-4.254],[4.935,-4.465],[4.921,-4.521],[4.837,-4.683],[4.703,-4.817],[4.647,-4.838],[4.64,-4.852],[4.57,-4.887],[4.297,-4.957],[4.206,-5.0],[4.171,-5.014],[4.157,-5.021],[4.142,-5.028],[4.129,-5.035],[4.009,-5.091],[3.925,-5.154],[3.813,-5.232],[3.645,-5.386],[3.61,-5.4],[3.61,-5.309],[3.574,-5.196],[3.568,-5.084],[3.504,-4.929],[3.42,-4.81],[3.371,-4.76],[3.308,-4.725],[3.301,-4.704],[3.28,-4.704],[3.273,-4.669],[3.231,-4.634],[3.021,-4.521],[3.028,-4.359],[3.07,-4.324],[3.077,-4.275],[3.133,-4.275],[3.133,-4.064],[3.217,-3.959],[3.273,-3.902],[3.35,-3.874],[3.371,-3.839],[3.42,-3.811],[3.49,-3.79],[3.519,-3.797],[3.553,-3.733],[3.652,-3.614],[3.701,-3.522],[3.729,-3.501],[3.729,-3.48],[3.785,-3.417],[3.792,-3.389],[3.834,-3.368]]]]},"properties":{"abbr":"PFl","name":"paraflocculus","plate":49,"ap_bregma_mm":-9.0,"area_mm2":4.9564,"traced_fraction":[0.836,0.863],"n_labels":2,"no_drawn_outline":false}},{"type":"Feature","geometry":{"type":"MultiPolygon","coordinates":[[[[-1.656,-7.925],[-1.621,-7.932],[-1.502,-8.01],[-1.46,-8.052],[-1.369,-8.101],[-1.319,-8.129],[-1.312,-8.143],[-1.221,-8.179],[-1.221,-8.207],[-1.13,-8.291],[-1.053,-8.333],[-0.92,-8.376],[-0.955,-8.467],[-0.941,-8.537],[-0.927,-8.537],[-0.927,-8.551],[-1.13,-8.481],[-1.348,-8.347],[-1.354,-8.298],[-1.446,-8.207],[-1.467,-8.15],[-1.628,-7.989],[-1.656,-7.925]]]]},"properties":{"abbr":"PPy","name":"parapyramidal nucleus","plate":49,"ap_bregma_mm":-9.0,"area_mm2":0.1166,"traced_fraction":[1.0],"n_labels":2,"no_drawn_outline":false}},{"type":"Feature","geometry":{"type":"MultiPolygon","coordinates":[[[[-0.226,-5.731],[-0.205,-5.745],[-0.177,-5.808],[-0.106,-5.907],[-0.001,-6.019],[-0.022,-6.033],[-0.029,-6.069],[-0.142,-6.097],[-0.499,-6.097],[-0.499,-6.083],[-0.555,-6.033],[-0.555,-5.921],[-0.527,-5.865],[-0.457,-5.794],[-0.359,-5.745],[-0.226,-5.731]]],[[[0.23,-5.738],[0.349,-5.745],[0.398,-5.759],[0.476,-5.808],[0.532,-5.879],[0.553,-6.012],[0.539,-6.012],[0.504,-6.062],[0.314,-6.097],[0.153,-6.104],[0.034,-6.062],[0.02,-6.019],[0.132,-5.907],[0.23,-5.738]]]]},"properties":{"abbr":"Pr","name":"prepositus nucleus","plate":49,"ap_bregma_mm":-9.0,"area_mm2":0.2803,"traced_fraction":[1.0,1.0],"n_labels":2,"no_drawn_outline":false}},{"type":"Feature","geometry":{"type":"MultiPolygon","coordinates":[[[[0.23,-8.256],[0.16,-8.291],[0.062,-8.425],[0.041,-8.411],[0.034,-8.326],[0.006,-8.27],[-0.029,-8.27],[-0.064,-8.298],[-0.092,-8.418],[-0.106,-8.418],[-0.142,-8.361],[-0.247,-8.27],[-0.233,-8.193],[-0.198,-8.108],[-0.191,-8.031],[-0.149,-7.961],[-0.149,-7.939],[-0.121,-7.89],[-0.036,-7.82],[0.055,-7.827],[0.111,-7.883],[0.181,-8.066],[0.23,-8.256]]]]},"properties":{"abbr":"RMg","name":"raphe magnus nucleus","plate":49,"ap_bregma_mm":-9.0,"area_mm2":0.1801,"traced_fraction":[1.0],"n_labels":1,"no_drawn_outline":false}},{"type":"Feature","geometry":{"type":"MultiPolygon","coordinates":[[[[0.062,-8.425],[0.041,-8.481],[0.041,-8.523],[0.034,-8.579],[0.027,-8.587],[0.027,-8.593],[-0.015,-8.579],[-0.05,-8.587],[-0.057,-8.579],[-0.071,-8.572],[-0.078,-8.537],[-0.092,-8.418],[-0.064,-8.298],[-0.029,-8.27],[0.006,-8.27],[0.027,-8.298],[0.041,-8.411],[0.062,-8.425]]],[[[-0.057,-8.587],[-0.05,-8.587],[-0.057,-8.593],[-0.057,-8.587]]]]},"properties":{"abbr":"RPa","name":"raphe pallidus nucleus","plate":49,"ap_bregma_mm":-9.0,"area_mm2":0.0362,"traced_fraction":[1.0,1.0],"n_labels":1,"no_drawn_outline":false}},{"type":"Feature","geometry":{"type":"MultiPolygon","coordinates":[[[[-1.376,-1.23],[-1.382,-1.251],[-1.348,-1.265],[-1.411,-1.588],[-1.474,-1.785],[-1.495,-1.813],[-1.495,-1.827],[-1.474,-1.827],[-1.369,-2.046],[-1.369,-2.067],[-1.453,-2.221],[-1.453,-2.292],[-1.621,-2.468],[-1.817,-2.559],[-1.852,-2.517],[-1.922,-2.489],[-2.224,-2.186],[-2.224,-2.003],[-2.252,-1.968],[-2.364,-1.722],[-2.539,-1.391],[-2.539,-1.363],[-2.588,-1.279],[-2.588,-1.237],[-2.231,-1.23],[-1.936,-1.124],[-1.726,-1.082],[-1.53,-1.103],[-1.453,-1.145],[-1.404,-1.216],[-1.376,-1.23]]],[[[2.446,-1.23],[2.439,-1.476],[2.305,-1.722],[2.305,-2.158],[1.983,-2.482],[1.913,-2.51],[1.815,-2.608],[1.808,-2.165],[1.737,-2.088],[1.737,-1.792],[1.471,-1.659],[1.436,-1.659],[1.401,-1.356],[1.415,-1.356],[1.429,-1.328],[1.429,-1.3],[1.464,-1.223],[1.506,-1.166],[1.59,-1.11],[1.766,-1.089],[1.934,-1.124],[2.214,-1.244],[2.298,-1.251],[2.446,-1.23]]]]},"properties":{"abbr":"Sim","name":"simple lobule","plate":49,"ap_bregma_mm":-9.0,"area_mm2":2.0944,"traced_fraction":[0.474,0.381],"n_labels":2,"no_drawn_outline":true}},{"type":"Feature","geometry":{"type":"MultiPolygon","coordinates":[[[[-1.649,-6.012],[-1.46,-6.012],[-1.263,-6.04],[-1.263,-6.146],[-1.348,-6.139],[-1.404,-6.118],[-1.523,-6.111],[-1.635,-6.09],[-1.719,-6.047],[-1.705,-6.026],[-1.649,-6.012]]],[[[1.759,-6.026],[1.808,-6.069],[1.709,-6.111],[1.66,-6.097],[1.59,-6.111],[1.555,-6.132],[1.541,-6.118],[1.296,-6.125],[1.282,-6.062],[1.436,-6.047],[1.625,-6.054],[1.703,-6.047],[1.759,-6.026]]]]},"properties":{"abbr":"Sol","name":"nucleus of the solitary tract","plate":49,"ap_bregma_mm":-9.0,"area_mm2":0.0726,"traced_fraction":[0.949,0.988],"n_labels":2,"no_drawn_outline":false}},{"type":"Feature","geometry":{"type":"MultiPolygon","coordinates":[[[[2.495,-6.723],[2.502,-6.793],[2.46,-6.99],[2.397,-7.109],[2.32,-7.187],[2.235,-7.166],[2.123,-7.088],[2.067,-7.018],[2.06,-6.976],[2.277,-6.877],[2.495,-6.723]]],[[[-1.986,-6.772],[-2.035,-6.983],[-2.07,-7.067],[-2.147,-7.166],[-2.189,-7.187],[-2.252,-7.194],[-2.364,-7.053],[-2.406,-6.969],[-2.406,-6.941],[-2.357,-6.913],[-2.273,-6.898],[-2.014,-6.772],[-1.986,-6.772]]]]},"properties":{"abbr":"Sp5I","name":"spinal trigeminal nucleus, interpolar part","plate":49,"ap_bregma_mm":-9.0,"area_mm2":0.2015,"traced_fraction":[1.0,0.989],"n_labels":2,"no_drawn_outline":false}},{"type":"Feature","geometry":{"type":"MultiPolygon","coordinates":[[[[-1.943,-6.083],[-1.936,-6.09],[-1.901,-6.223],[-1.747,-6.477],[-1.831,-6.526],[-1.908,-6.596],[-1.986,-6.772],[-2.014,-6.772],[-2.238,-6.884],[-2.357,-6.913],[-2.406,-6.941],[-2.434,-6.898],[-2.476,-6.779],[-2.476,-6.645],[-2.399,-6.491],[-2.28,-6.329],[-2.245,-6.244],[-2.182,-6.181],[-2.182,-6.167],[-2.161,-6.16],[-2.098,-6.146],[-1.971,-6.083],[-1.943,-6.083]]],[[[2.123,-6.111],[2.158,-6.132],[2.263,-6.244],[2.432,-6.483],[2.488,-6.624],[2.495,-6.723],[2.277,-6.877],[2.06,-6.976],[2.032,-6.955],[2.011,-6.898],[1.983,-6.694],[1.934,-6.582],[1.878,-6.533],[1.808,-6.505],[1.913,-6.287],[1.941,-6.09],[1.983,-6.083],[2.074,-6.111],[2.123,-6.111]]]]},"properties":{"abbr":"Sp5O","name":"spinal trigeminal nucleus, oral part","plate":49,"ap_bregma_mm":-9.0,"area_mm2":0.7106,"traced_fraction":[0.994,1.0],"n_labels":2,"no_drawn_outline":false}},{"type":"Feature","geometry":{"type":"MultiPolygon","coordinates":[[[[2.032,-5.527],[2.053,-5.611],[2.074,-5.64],[2.053,-5.647],[2.039,-5.928],[2.018,-5.977],[2.025,-5.998],[2.011,-5.998],[1.941,-6.069],[1.808,-6.069],[1.759,-6.026],[1.576,-5.815],[1.52,-5.703],[1.667,-5.696],[1.836,-5.654],[1.913,-5.611],[1.997,-5.534],[2.032,-5.527]]],[[[-2.028,-5.597],[-1.929,-5.661],[-1.817,-5.689],[-1.502,-5.689],[-1.523,-5.78],[-1.572,-5.893],[-1.628,-5.956],[-1.649,-6.012],[-1.691,-6.019],[-1.719,-6.047],[-1.817,-6.04],[-1.936,-6.076],[-1.943,-6.076],[-2.02,-5.998],[-2.063,-5.907],[-2.07,-5.724],[-2.049,-5.626],[-2.028,-5.597]]]]},"properties":{"abbr":"SpVe","name":"spinal vestibular nucleus","plate":49,"ap_bregma_mm":-9.0,"area_mm2":0.352,"traced_fraction":[1.0,1.0],"n_labels":2,"no_drawn_outline":false}},{"type":"Feature","geometry":{"type":"MultiPolygon","coordinates":[[[[3.021,-5.647],[3.035,-5.647],[3.112,-5.724],[3.21,-5.851],[3.259,-5.872],[3.245,-5.893],[3.245,-6.005],[3.224,-6.083],[2.761,-6.083],[2.691,-5.703],[2.733,-5.71],[2.74,-5.724],[2.824,-5.759],[2.908,-5.759],[2.943,-5.745],[3.0,-5.654],[3.021,-5.647]]],[[[-3.016,-5.71],[-3.002,-5.801],[-2.96,-5.858],[-2.89,-5.9],[-2.771,-5.907],[-2.771,-5.956],[-3.191,-5.956],[-3.177,-5.893],[-3.142,-5.836],[-3.072,-5.745],[-3.037,-5.71],[-3.016,-5.71]]]]},"properties":{"abbr":"VCP","name":"ventral cochlear nucleus, posterior part","plate":49,"ap_bregma_mm":-9.0,"area_mm2":0.2245,"traced_fraction":[0.774,0.634],"n_labels":2,"no_drawn_outline":true}},{"type":"Feature","geometry":{"type":"MultiPolygon","coordinates":[[[[-1.067,-4.219],[-1.011,-4.338],[-0.85,-4.493],[-0.878,-4.521],[-1.046,-4.577],[-1.242,-4.676],[-1.327,-4.753],[-1.348,-4.824],[-1.34,-4.852],[-1.397,-4.894],[-1.425,-4.859],[-1.446,-4.76],[-1.495,-4.648],[-1.572,-4.563],[-1.621,-4.542],[-1.593,-4.507],[-1.439,-4.402],[-1.397,-4.388],[-1.369,-4.359],[-1.256,-4.317],[-1.228,-4.289],[-1.067,-4.219]]],[[[0.679,-4.402],[0.931,-4.472],[1.044,-4.486],[1.149,-4.479],[1.24,-4.5],[1.513,-4.521],[1.527,-4.535],[1.464,-4.613],[1.443,-4.662],[1.422,-4.81],[1.429,-4.908],[1.38,-4.894],[1.373,-4.803],[1.338,-4.746],[1.289,-4.704],[0.861,-4.542],[0.665,-4.451],[0.679,-4.402]]]]},"properties":{"abbr":"VeCb","name":"vestibulocerebellar nucleus","plate":49,"ap_bregma_mm":-9.0,"area_mm2":0.3412,"traced_fraction":[1.0,1.0],"n_labels":2,"no_drawn_outline":false}},{"type":"Feature","geometry":{"type":"MultiPolygon","coordinates":[[[[-2.035,-5.555],[-2.028,-5.597],[-2.049,-5.626],[-2.07,-5.724],[-2.063,-5.907],[-2.02,-5.998],[-1.943,-6.076],[-1.943,-6.083],[-1.971,-6.083],[-2.098,-6.146],[-2.161,-6.16],[-2.154,-6.118],[-2.112,-6.054],[-2.098,-5.991],[-2.105,-5.942],[-2.14,-5.9],[-2.182,-5.879],[-2.245,-5.872],[-2.245,-5.851],[-2.161,-5.745],[-2.098,-5.618],[-2.063,-5.569],[-2.035,-5.555]]],[[[2.074,-5.64],[2.221,-5.808],[2.263,-5.829],[2.341,-5.9],[2.355,-5.935],[2.242,-5.9],[2.158,-5.9],[2.039,-5.928],[2.053,-5.647],[2.074,-5.64]]]]},"properties":{"abbr":"X","name":"nucleus X","plate":49,"ap_bregma_mm":-9.0,"area_mm2":0.1003,"traced_fraction":[1.0,1.0],"n_labels":2,"no_drawn_outline":false}},{"type":"Feature","geometry":{"type":"MultiPolygon","coordinates":[[[[-2.918,-4.585],[-2.904,-4.718],[-2.925,-4.767],[-2.974,-4.817],[-2.974,-4.852],[-2.834,-4.992],[-2.918,-5.042],[-2.946,-4.978],[-3.009,-4.964],[-3.03,-4.985],[-3.044,-5.035],[-3.051,-5.126],[-3.037,-5.133],[-3.086,-5.218],[-3.149,-5.274],[-3.227,-5.295],[-3.318,-5.372],[-3.437,-5.407],[-3.472,-5.45],[-3.479,-5.506],[-3.458,-5.541],[-3.43,-5.555],[-3.29,-5.562],[-3.29,-5.59],[-3.318,-5.632],[-3.332,-5.759],[-3.353,-5.766],[-3.528,-5.675],[-3.619,-5.576],[-3.626,-5.506],[-3.598,-5.443],[-3.598,-5.4],[-3.619,-5.386],[-3.619,-5.288],[-3.521,-5.288],[-3.402,-5.239],[-3.367,-5.211],[-3.297,-5.098],[-3.198,-5.014],[-3.142,-4.894],[-3.135,-4.788],[-3.149,-4.683],[-3.142,-4.662],[-3.086,-4.634],[-2.953,-4.585],[-2.918,-4.585]]]]},"properties":{"abbr":"chp","name":"choroid plexus","plate":49,"ap_bregma_mm":-9.0,"area_mm2":0.2649,"traced_fraction":[0.994],"n_labels":1,"no_drawn_outline":false}},{"type":"Feature","geometry":{"type":"MultiPolygon","coordinates":[[[[1.695,-4.542],[1.703,-4.577],[1.716,-4.577],[1.752,-4.641],[1.766,-4.641],[1.815,-4.697],[1.815,-4.725],[1.843,-4.76],[1.85,-4.803],[1.878,-4.838],[1.892,-4.838],[1.885,-4.873],[1.899,-4.922],[1.92,-4.943],[1.948,-5.028],[1.969,-5.112],[1.429,-5.112],[1.429,-4.908],[1.422,-4.81],[1.443,-4.662],[1.464,-4.613],[1.527,-4.535],[1.618,-4.528],[1.695,-4.542]]],[[[-1.621,-4.542],[-1.572,-4.563],[-1.495,-4.648],[-1.453,-4.739],[-1.425,-4.859],[-1.397,-4.894],[-1.397,-5.028],[-1.382,-5.084],[-1.936,-5.084],[-1.929,-5.056],[-1.901,-4.985],[-1.894,-4.915],[-1.873,-4.901],[-1.845,-4.803],[-1.81,-4.725],[-1.796,-4.725],[-1.796,-4.704],[-1.782,-4.655],[-1.768,-4.641],[-1.621,-4.542]]]]},"properties":{"abbr":"das","name":"dorsal acoustic stria","plate":49,"ap_bregma_mm":-9.0,"area_mm2":0.446,"traced_fraction":[0.765,0.737],"n_labels":2,"no_drawn_outline":false}},{"type":"Feature","geometry":{"type":"MultiPolygon","coordinates":[[[[-2.175,-5.154],[-2.175,-5.175],[-2.098,-5.182],[-2.049,-5.203],[-2.007,-5.281],[-1.992,-5.281],[-2.007,-5.443],[-2.035,-5.513],[-2.035,-5.555],[-2.049,-5.555],[-2.084,-5.597],[-2.161,-5.745],[-2.245,-5.851],[-2.245,-5.872],[-2.322,-5.921],[-2.434,-6.054],[-2.645,-6.455],[-2.743,-6.483],[-2.722,-6.35],[-2.729,-6.069],[-2.694,-5.921],[-2.63,-5.724],[-2.399,-5.288],[-2.329,-5.225],[-2.252,-5.189],[-2.224,-5.161],[-2.175,-5.154]]],[[[2.137,-5.154],[2.277,-5.196],[2.326,-5.232],[2.376,-5.239],[2.411,-5.267],[2.46,-5.281],[2.467,-5.33],[2.509,-5.358],[2.509,-5.372],[2.6,-5.471],[2.691,-5.703],[2.761,-6.083],[2.775,-6.322],[2.81,-6.448],[2.796,-6.54],[2.761,-6.519],[2.747,-6.462],[2.593,-6.174],[2.53,-6.09],[2.369,-5.935],[2.355,-5.935],[2.341,-5.9],[2.263,-5.829],[2.221,-5.808],[2.074,-5.64],[2.053,-5.611],[2.032,-5.527],[2.011,-5.232],[2.039,-5.218],[2.06,-5.182],[2.137,-5.154]]]]},"properties":{"abbr":"icp","name":"inferior cerebellar peduncle (restiform body)","plate":49,"ap_bregma_mm":-9.0,"area_mm2":0.9157,"traced_fraction":[0.996,1.0],"n_labels":2,"no_drawn_outline":false}},{"type":"Feature","geometry":{"type":"MultiPolygon","coordinates":[[[[-0.443,-8.242],[-0.373,-8.242],[-0.247,-8.27],[-0.142,-8.361],[-0.106,-8.418],[-0.092,-8.418],[-0.078,-8.537],[-0.1,-8.537],[-0.184,-8.474],[-0.289,-8.432],[-0.464,-8.425],[-0.611,-8.453],[-0.787,-8.544],[-0.822,-8.544],[-0.822,-8.509],[-0.772,-8.432],[-0.73,-8.411],[-0.716,-8.368],[-0.667,-8.347],[-0.583,-8.27],[-0.548,-8.263],[-0.541,-8.249],[-0.443,-8.242]]],[[[0.412,-8.256],[0.419,-8.27],[0.525,-8.298],[0.546,-8.354],[0.489,-8.389],[0.447,-8.446],[0.251,-8.439],[0.174,-8.46],[0.069,-8.523],[0.041,-8.523],[0.041,-8.481],[0.062,-8.425],[0.125,-8.326],[0.188,-8.27],[0.23,-8.256],[0.412,-8.256]]]]},"properties":{"abbr":"ml","name":"medial lemniscus","plate":49,"ap_bregma_mm":-9.0,"area_mm2":0.1919,"traced_fraction":[1.0,1.0],"n_labels":2,"no_drawn_outline":false}},{"type":"Feature","geometry":{"type":"MultiPolygon","coordinates":[[[[0.034,-6.062],[0.153,-6.104],[0.188,-6.195],[0.188,-6.512],[0.139,-6.758],[0.104,-6.856],[0.09,-6.856],[0.083,-6.877],[0.055,-6.891],[-0.05,-6.884],[-0.092,-6.849],[-0.128,-6.793],[-0.155,-6.709],[-0.184,-6.519],[-0.177,-6.195],[-0.142,-6.097],[-0.029,-6.069],[0.034,-6.062]]]]},"properties":{"abbr":"mlf","name":"medial longitudinal fasciculus","plate":49,"ap_bregma_mm":-9.0,"area_mm2":0.2632,"traced_fraction":[1.0],"n_labels":1,"no_drawn_outline":false}},{"type":"Feature","geometry":{"type":"MultiPolygon","coordinates":[[[[-0.078,-8.537],[-0.071,-8.572],[-0.057,-8.579],[-0.057,-8.587],[-0.057,-8.593],[-0.064,-8.593],[-0.078,-8.601],[-0.092,-8.608],[-0.17,-8.643],[-0.422,-8.826],[-0.52,-8.826],[-0.611,-8.776],[-0.625,-8.755],[-0.723,-8.699],[-0.73,-8.678],[-0.899,-8.565],[-0.885,-8.537],[-0.843,-8.551],[-0.822,-8.544],[-0.787,-8.544],[-0.611,-8.453],[-0.464,-8.425],[-0.289,-8.432],[-0.212,-8.46],[-0.1,-8.537],[-0.078,-8.537]]],[[[0.447,-8.446],[0.447,-8.502],[0.497,-8.558],[0.539,-8.572],[0.63,-8.572],[0.679,-8.551],[0.686,-8.544],[0.721,-8.544],[0.749,-8.481],[0.945,-8.565],[0.784,-8.65],[0.644,-8.699],[0.468,-8.72],[0.279,-8.699],[0.09,-8.601],[0.027,-8.593],[0.027,-8.587],[0.034,-8.579],[0.041,-8.523],[0.069,-8.523],[0.174,-8.46],[0.251,-8.439],[0.447,-8.446]]]]},"properties":{"abbr":"py","name":"pyramidal tract","plate":49,"ap_bregma_mm":-9.0,"area_mm2":0.3448,"traced_fraction":[1.0,0.941],"n_labels":2,"no_drawn_outline":false}},{"type":"Feature","geometry":{"type":"MultiPolygon","coordinates":[[[[-2.07,-7.067],[-2.02,-7.095],[-2.105,-7.222],[-2.105,-7.236],[-2.091,-7.236],[-2.091,-7.271],[-2.091,-7.356],[-2.126,-7.356],[-2.105,-7.461],[-2.028,-7.623],[-1.915,-7.728],[-1.74,-7.848],[-1.726,-7.876],[-1.656,-7.925],[-1.628,-7.989],[-1.467,-8.15],[-1.446,-8.207],[-1.516,-8.179],[-1.67,-8.059],[-1.838,-7.961],[-1.943,-7.876],[-1.971,-7.869],[-2.161,-7.679],[-2.231,-7.553],[-2.28,-7.426],[-2.308,-7.398],[-2.308,-7.363],[-2.245,-7.335],[-2.238,-7.243],[-2.252,-7.194],[-2.189,-7.187],[-2.147,-7.166],[-2.07,-7.067]]],[[[2.123,-7.088],[2.179,-7.138],[2.32,-7.187],[2.313,-7.313],[2.347,-7.356],[2.362,-7.356],[2.172,-7.595],[2.032,-7.707],[2.018,-7.707],[2.004,-7.63],[2.074,-7.567],[2.137,-7.482],[2.165,-7.412],[2.165,-7.377],[2.165,-7.285],[2.144,-7.236],[2.081,-7.124],[2.123,-7.088]]]]},"properties":{"abbr":"rs","name":"rubrospinal tract","plate":49,"ap_bregma_mm":-9.0,"area_mm2":0.2592,"traced_fraction":[0.971,0.986],"n_labels":2,"no_drawn_outline":false}},{"type":"Feature","geometry":{"type":"MultiPolygon","coordinates":[[[[1.156,-3.797],[1.17,-3.811],[1.177,-3.86],[1.233,-3.952],[1.45,-4.163],[1.436,-4.163],[1.408,-4.226],[1.121,-4.226],[1.099,-3.98],[1.121,-3.832],[1.142,-3.797],[1.156,-3.797]]],[[[-1.13,-3.916],[-1.116,-3.916],[-1.088,-3.98],[-1.06,-4.008],[-1.067,-4.219],[-1.228,-4.289],[-1.235,-4.184],[-1.34,-4.184],[-1.34,-4.008],[-1.298,-3.98],[-1.13,-3.916]]]]},"properties":{"abbr":"scp","name":"superior cerebellar peduncle","plate":49,"ap_bregma_mm":-9.0,"area_mm2":0.1549,"traced_fraction":[0.754,0.699],"n_labels":2,"no_drawn_outline":true}},{"type":"Feature","geometry":{"type":"MultiPolygon","coordinates":[[[[-2.245,-5.872],[-2.182,-5.879],[-2.14,-5.9],[-2.105,-5.942],[-2.098,-5.991],[-2.112,-6.054],[-2.154,-6.118],[-2.161,-6.16],[-2.175,-6.16],[-2.245,-6.244],[-2.28,-6.329],[-2.399,-6.491],[-2.476,-6.645],[-2.476,-6.779],[-2.434,-6.898],[-2.406,-6.941],[-2.406,-6.969],[-2.364,-7.053],[-2.252,-7.194],[-2.238,-7.313],[-2.259,-7.349],[-2.308,-7.363],[-2.385,-7.335],[-2.441,-7.278],[-2.497,-7.194],[-2.56,-7.046],[-2.617,-6.969],[-2.673,-6.849],[-2.708,-6.73],[-2.708,-6.659],[-2.645,-6.455],[-2.434,-6.054],[-2.322,-5.921],[-2.245,-5.872]]],[[[2.355,-5.935],[2.439,-5.998],[2.593,-6.174],[2.747,-6.462],[2.761,-6.519],[2.796,-6.54],[2.803,-6.709],[2.747,-6.828],[2.747,-6.849],[2.775,-6.856],[2.733,-6.891],[2.6,-7.117],[2.586,-7.138],[2.565,-7.173],[2.551,-7.194],[2.544,-7.208],[2.53,-7.229],[2.516,-7.236],[2.481,-7.243],[2.411,-7.328],[2.362,-7.356],[2.347,-7.356],[2.313,-7.313],[2.32,-7.187],[2.397,-7.109],[2.46,-6.99],[2.502,-6.793],[2.495,-6.723],[2.488,-6.624],[2.432,-6.483],[2.263,-6.244],[2.158,-6.132],[2.123,-6.111],[2.025,-5.998],[2.018,-5.977],[2.039,-5.928],[2.158,-5.9],[2.242,-5.9],[2.355,-5.935]]]]},"properties":{"abbr":"sp5","name":"spinal trigeminal tract","plate":49,"ap_bregma_mm":-9.0,"area_mm2":0.7845,"traced_fraction":[0.996,1.0],"n_labels":2,"no_drawn_outline":false}},{"type":"Feature","geometry":{"type":"MultiPolygon","coordinates":[[[[0.104,-6.856],[0.272,-6.856],[0.272,-7.004],[0.146,-7.004],[0.146,-6.969],[0.111,-6.898],[0.083,-6.877],[0.083,-6.863],[0.104,-6.856]]]]},"properties":{"abbr":"ts","name":"tectospinal tract","plate":49,"ap_bregma_mm":-9.0,"area_mm2":0.0222,"traced_fraction":[0.158],"n_labels":2,"no_drawn_outline":true}},{"type":"Feature","geometry":{"type":"MultiPolygon","coordinates":[[[[-2.645,-6.455],[-2.708,-6.659],[-2.708,-6.73],[-2.673,-6.849],[-2.617,-6.969],[-2.56,-7.046],[-2.497,-7.194],[-2.441,-7.278],[-2.385,-7.335],[-2.308,-7.363],[-2.308,-7.398],[-2.28,-7.426],[-2.189,-7.637],[-1.971,-7.869],[-1.943,-7.876],[-1.859,-7.946],[-1.67,-8.059],[-1.516,-8.179],[-1.446,-8.207],[-1.354,-8.298],[-1.348,-8.347],[-1.439,-8.312],[-1.607,-8.193],[-1.943,-8.031],[-2.119,-7.883],[-2.14,-7.841],[-2.259,-7.707],[-2.469,-7.342],[-2.75,-6.941],[-2.834,-6.751],[-2.862,-6.73],[-2.855,-6.723],[-2.876,-6.716],[-2.876,-6.702],[-2.904,-6.702],[-2.932,-6.687],[-2.967,-6.638],[-2.932,-6.617],[-2.869,-6.617],[-2.82,-6.596],[-2.778,-6.554],[-2.743,-6.483],[-2.645,-6.455]]],[[[2.516,-7.236],[2.523,-7.243],[2.347,-7.532],[2.2,-7.679],[2.123,-7.778],[2.032,-7.827],[2.011,-7.841],[2.011,-7.834],[1.976,-7.757],[2.032,-7.707],[2.172,-7.595],[2.362,-7.356],[2.411,-7.328],[2.481,-7.243],[2.516,-7.236]]]]},"properties":{"abbr":"tz","name":"trapezoid body","plate":49,"ap_bregma_mm":-9.0,"area_mm2":0.3121,"traced_fraction":[1.0,0.985],"n_labels":2,"no_drawn_outline":false}},{"type":"Feature","geometry":{"type":"MultiPolygon","coordinates":[[[[-1.263,-6.04],[-0.527,-6.104],[-0.541,-6.202],[-0.555,-6.216],[-0.548,-6.237],[-0.562,-6.251],[-0.562,-6.308],[-0.674,-6.287],[-0.709,-6.266],[-0.772,-6.258],[-0.892,-6.216],[-0.962,-6.209],[-1.067,-6.174],[-1.263,-6.146],[-1.263,-6.04]]],[[[1.282,-6.062],[1.296,-6.125],[1.078,-6.139],[0.945,-6.167],[0.847,-6.181],[0.826,-6.202],[0.707,-6.237],[0.665,-6.273],[0.581,-6.294],[0.56,-6.076],[1.282,-6.062]]]]},"properties":{"abbr":"vesp","name":"vestibulospinal tract","plate":49,"ap_bregma_mm":-9.0,"area_mm2":0.1921,"traced_fraction":[0.973,0.992],"n_labels":2,"no_drawn_outline":false}},{"type":"Feature","geometry":{"type":"MultiPolygon","coordinates":[[[[2.004,-7.63],[2.018,-7.707],[2.032,-7.707],[1.976,-7.757],[2.011,-7.834],[2.011,-7.841],[1.913,-7.904],[1.878,-7.841],[1.822,-7.778],[1.822,-7.757],[1.871,-7.714],[2.004,-7.63]]]]},"properties":{"abbr":"vsc","name":"ventral spinocerebellar tract","plate":49,"ap_bregma_mm":-9.0,"area_mm2":0.0299,"traced_fraction":[0.924],"n_labels":1,"no_drawn_outline":false}},{"type":"Feature","geometry":{"type":"Polygon","coordinates":[[[-3.149,-4.683],[-3.135,-4.788],[-3.142,-4.894],[-3.198,-5.014],[-3.297,-5.098],[-3.367,-5.211],[-3.402,-5.239],[-3.521,-5.288],[-3.619,-5.288],[-3.57,-5.084],[-3.521,-4.978],[-3.444,-4.866],[-3.43,-4.866],[-3.374,-4.796],[-3.283,-4.725],[-3.185,-4.683],[-3.149,-4.683]]]},"properties":{"abbr":null,"name":"unnamed sealed face","plate":49,"ap_bregma_mm":-9.0,"index":0}},{"type":"Feature","geometry":{"type":"Polygon","coordinates":[[[3.28,-4.704],[3.301,-4.704],[3.308,-4.725],[3.371,-4.76],[3.504,-4.929],[3.568,-5.084],[3.574,-5.196],[3.61,-5.309],[3.61,-5.4],[3.645,-5.386],[3.631,-5.428],[3.631,-5.506],[3.589,-5.576],[3.462,-5.668],[3.385,-5.703],[3.364,-5.696],[3.364,-5.71],[3.357,-5.71],[3.35,-5.654],[3.322,-5.59],[3.392,-5.548],[3.413,-5.548],[3.42,-5.527],[3.441,-5.52],[3.469,-5.45],[3.49,-5.436],[3.49,-5.4],[3.406,-5.393],[3.371,-5.365],[3.35,-5.323],[3.35,-5.274],[3.42,-5.182],[3.434,-5.182],[3.441,-5.14],[3.42,-5.119],[3.315,-5.133],[3.294,-5.112],[3.259,-4.936],[3.182,-4.781],[3.175,-4.753],[3.147,-4.725],[3.147,-4.676],[3.28,-4.704]]]},"properties":{"abbr":null,"name":"unnamed sealed face","plate":49,"ap_bregma_mm":-9.0,"index":1}},{"type":"Feature","geometry":{"type":"Polygon","coordinates":[[[-1.929,-5.056],[-1.936,-5.084],[-1.965,-5.218],[-1.992,-5.281],[-2.007,-5.281],[-2.049,-5.203],[-2.098,-5.182],[-2.175,-5.175],[-2.175,-5.154],[-2.02,-5.091],[-2.014,-5.077],[-1.929,-5.056]]]},"properties":{"abbr":null,"name":"unnamed sealed face","plate":49,"ap_bregma_mm":-9.0,"index":2}},{"type":"Feature","geometry":{"type":"Polygon","coordinates":[[[-2.329,-5.225],[-2.399,-5.288],[-2.434,-5.288],[-2.497,-5.316],[-2.532,-5.351],[-2.701,-5.443],[-2.904,-5.583],[-2.981,-5.668],[-3.009,-5.682],[-3.023,-5.675],[-3.037,-5.597],[-2.995,-5.576],[-2.995,-5.562],[-2.855,-5.492],[-2.75,-5.414],[-2.708,-5.4],[-2.68,-5.372],[-2.659,-5.372],[-2.63,-5.344],[-2.581,-5.33],[-2.497,-5.274],[-2.371,-5.218],[-2.329,-5.225]]]},"properties":{"abbr":null,"name":"unnamed sealed face","plate":49,"ap_bregma_mm":-9.0,"index":3}},{"type":"Feature","geometry":{"type":"Polygon","coordinates":[[[-3.149,-5.274],[-3.191,-5.372],[-3.206,-5.379],[-3.241,-5.485],[-3.29,-5.562],[-3.43,-5.555],[-3.458,-5.541],[-3.479,-5.506],[-3.472,-5.45],[-3.437,-5.407],[-3.318,-5.372],[-3.227,-5.295],[-3.149,-5.274]]]},"properties":{"abbr":null,"name":"unnamed sealed face","plate":49,"ap_bregma_mm":-9.0,"index":4}},{"type":"Feature","geometry":{"type":"Polygon","coordinates":[[[-2.925,-5.379],[-3.037,-5.527],[-3.051,-5.555],[-3.044,-5.597],[-3.198,-5.647],[-3.198,-5.618],[-3.164,-5.541],[-2.995,-5.316],[-2.981,-5.316],[-2.925,-5.379]]]},"properties":{"abbr":null,"name":"unnamed sealed face","plate":49,"ap_bregma_mm":-9.0,"index":5}},{"type":"Feature","geometry":{"type":"Polygon","coordinates":[[[-1.635,-6.09],[-1.523,-6.111],[-1.516,-6.146],[-1.453,-6.216],[-1.446,-6.315],[-1.53,-6.413],[-1.593,-6.441],[-1.628,-6.441],[-1.586,-6.343],[-1.579,-6.23],[-1.635,-6.09]]]},"properties":{"abbr":null,"name":"unnamed sealed face","plate":49,"ap_bregma_mm":-9.0,"index":6}},{"type":"Feature","geometry":{"type":"Polygon","coordinates":[[[2.81,-6.448],[2.831,-6.455],[2.866,-6.519],[2.894,-6.54],[3.014,-6.54],[3.014,-6.568],[3.014,-6.582],[3.0,-6.582],[3.007,-6.596],[2.985,-6.694],[2.936,-6.737],[2.838,-6.772],[2.775,-6.856],[2.754,-6.856],[2.747,-6.828],[2.803,-6.709],[2.796,-6.54],[2.81,-6.448]]]},"properties":{"abbr":null,"name":"unnamed sealed face","plate":49,"ap_bregma_mm":-9.0,"index":7}},{"type":"Feature","geometry":{"type":"Polygon","coordinates":[[[1.878,-7.841],[1.913,-7.904],[1.885,-7.932],[1.724,-8.024],[1.555,-8.179],[1.443,-8.249],[1.436,-8.27],[1.268,-8.361],[1.254,-8.354],[1.254,-8.333],[1.275,-8.298],[1.296,-8.263],[1.31,-8.263],[1.303,-8.235],[1.366,-8.143],[1.373,-8.094],[1.443,-8.038],[1.499,-7.996],[1.688,-7.869],[1.78,-7.799],[1.801,-7.799],[1.843,-7.855],[1.878,-7.841]]]},"properties":{"abbr":null,"name":"unnamed sealed face","plate":49,"ap_bregma_mm":-9.0,"index":8}},{"type":"Feature","geometry":{"type":"Polygon","coordinates":[[[-0.751,-8.235],[-0.604,-8.249],[-0.583,-8.27],[-0.667,-8.347],[-0.716,-8.368],[-0.73,-8.411],[-0.772,-8.432],[-0.822,-8.509],[-0.822,-8.544],[-0.843,-8.551],[-0.885,-8.537],[-0.899,-8.565],[-0.927,-8.551],[-0.92,-8.544],[-0.941,-8.537],[-0.955,-8.467],[-0.92,-8.376],[-0.787,-8.376],[-0.772,-8.389],[-0.772,-8.411],[-0.78,-8.425],[-0.766,-8.425],[-0.766,-8.411],[-0.766,-8.397],[-0.73,-8.376],[-0.759,-8.368],[-0.751,-8.235]]]},"properties":{"abbr":null,"name":"unnamed sealed face","plate":49,"ap_bregma_mm":-9.0,"index":9}},{"type":"Feature","geometry":{"type":"Polygon","coordinates":[[[0.546,-8.354],[0.588,-8.376],[0.714,-8.389],[0.749,-8.481],[0.721,-8.544],[0.686,-8.544],[0.679,-8.551],[0.63,-8.572],[0.539,-8.572],[0.497,-8.558],[0.447,-8.502],[0.447,-8.446],[0.489,-8.389],[0.546,-8.354]]]},"properties":{"abbr":null,"name":"unnamed sealed face","plate":49,"ap_bregma_mm":-9.0,"index":10}},{"type":"Feature","geometry":{"type":"MultiPolygon","coordinates":[[[[-0.436,-8.819],[-0.513,-8.819],[-0.555,-8.804],[-0.906,-8.558],[-1.158,-8.46],[-1.319,-8.354],[-1.425,-8.312],[-1.607,-8.193],[-1.95,-8.017],[-2.02,-7.968],[-2.105,-7.89],[-2.252,-7.707],[-2.476,-7.335],[-2.757,-6.92],[-2.834,-6.751],[-2.946,-6.666],[-3.086,-6.498],[-3.234,-6.209],[-3.29,-6.005],[-3.325,-5.794],[-3.36,-5.752],[-3.451,-5.717],[-3.535,-5.661],[-3.619,-5.569],[-3.626,-5.506],[-3.696,-5.443],[-3.759,-5.443],[-3.829,-5.414],[-3.97,-5.281],[-4.089,-5.232],[-4.418,-5.196],[-4.552,-5.154],[-4.664,-5.084],[-4.748,-5.0],[-4.804,-4.908],[-4.839,-4.781],[-4.846,-4.599],[-4.888,-4.359],[-4.888,-4.212],[-4.846,-4.001],[-4.783,-3.832],[-4.706,-3.741],[-4.552,-3.628],[-4.047,-3.333],[-3.963,-3.297],[-3.907,-3.297],[-3.872,-3.22],[-3.914,-3.136],[-3.921,-3.002],[-3.949,-2.904],[-4.005,-2.826],[-4.166,-2.671],[-4.222,-2.58],[-4.243,-2.489],[-4.243,-2.383],[-4.215,-2.285],[-4.082,-2.003],[-4.026,-1.785],[-3.949,-1.623],[-3.879,-1.525],[-3.802,-1.448],[-3.668,-1.356],[-3.563,-1.314],[-3.43,-1.286],[-3.283,-1.293],[-3.079,-1.335],[-2.911,-1.286],[-2.673,-1.244],[-2.532,-1.23],[-2.245,-1.23],[-1.929,-1.124],[-1.712,-1.082],[-1.537,-1.103],[-1.453,-1.152],[-1.397,-1.223],[-1.333,-1.237],[-1.172,-1.068],[-1.116,-1.026],[-0.976,-0.941],[-0.871,-0.906],[-0.667,-0.871],[-0.436,-0.857],[0.006,-0.801],[0.335,-0.801],[0.763,-0.878],[1.078,-0.983],[1.184,-1.047],[1.31,-1.173],[1.352,-1.244],[1.345,-1.23],[1.464,-1.223],[1.499,-1.173],[1.59,-1.11],[1.745,-1.089],[1.92,-1.124],[2.193,-1.237],[2.263,-1.251],[2.481,-1.223],[2.698,-1.23],[2.838,-1.251],[3.021,-1.307],[3.259,-1.427],[3.336,-1.448],[3.525,-1.406],[3.708,-1.42],[3.869,-1.483],[4.051,-1.617],[4.135,-1.736],[4.22,-1.905],[4.297,-2.144],[4.325,-2.299],[4.332,-2.517],[4.304,-2.678],[4.255,-2.791],[4.206,-2.861],[4.051,-2.988],[4.002,-3.086],[3.918,-3.206],[3.813,-3.319],[3.862,-3.445],[3.848,-3.445],[3.925,-3.473],[4.058,-3.579],[4.227,-3.656],[4.633,-3.776],[4.731,-3.832],[4.83,-3.93],[4.886,-4.036],[4.928,-4.268],[4.928,-4.444],[4.914,-4.507],[4.83,-4.676],[4.703,-4.803],[4.577,-4.873],[4.283,-4.957],[4.023,-5.077],[3.841,-5.203],[3.645,-5.372],[3.624,-5.436],[3.624,-5.499],[3.574,-5.576],[3.441,-5.668],[3.364,-5.703],[3.259,-5.843],[3.238,-5.9],[3.238,-5.984],[3.189,-6.244],[3.147,-6.364],[3.021,-6.526],[2.979,-6.687],[2.93,-6.73],[2.873,-6.744],[2.831,-6.772],[2.782,-6.842],[2.733,-6.884],[2.362,-7.496],[2.123,-7.764],[1.716,-8.024],[1.52,-8.193],[1.352,-8.312],[1.233,-8.368],[1.001,-8.53],[0.77,-8.643],[0.63,-8.692],[0.433,-8.713],[0.286,-8.692],[0.076,-8.593],[-0.036,-8.572],[-0.177,-8.643],[-0.422,-8.812],[-0.436,-8.819]]]]},"properties":{"abbr":"brain_outline","name":"outline of the section","plate":49,"ap_bregma_mm":-9.0}}]}
