{"type":"FeatureCollection","name":"GerbilAtlas plate 24","note":"Region extents cut from the atlas drawing (METHODS.md, Region extents). Coordinates are [ML, DV] in mm, ML positive to the right of the plate as printed, DV negative below the dorsal surface; AP is the plate bregma. traced_fraction is the share of each polygon boundary the atlas actually draws; below 0.5 the boundary is an estimate. no_drawn_outline marks a feature that lies only inside boundaries the atlas draws round more than one name and prints nothing within, so the whole of its outline is where the extraction cut it. Not a segmentation.","plate":24,"ap_bregma_mm":-0.25,"features":[{"type":"Feature","geometry":{"type":"MultiPolygon","coordinates":[[[[1.873,-1.028],[1.887,-2.737],[1.558,-2.744],[1.432,-2.737],[1.368,-2.42],[1.326,-2.104],[1.249,-1.745],[1.235,-1.598],[1.144,-1.197],[1.123,-1.042],[1.376,-1.021],[1.873,-1.028]]],[[[-1.134,-1.112],[-1.156,-1.204],[-1.17,-1.401],[-1.352,-2.807],[-1.597,-2.807],[-1.794,-2.807],[-1.99,-1.126],[-1.134,-1.112]]]]},"properties":{"abbr":"M1","name":"primary motor cortex","plate":24,"ap_bregma_mm":-0.25,"area_mm2":2.1278,"traced_fraction":[1.0,1.0],"n_labels":2,"no_drawn_outline":false}},{"type":"Feature","geometry":{"type":"MultiPolygon","coordinates":[[[[1.095,-1.035],[1.123,-1.042],[1.144,-1.197],[1.235,-1.598],[1.249,-1.745],[1.326,-2.104],[1.334,-2.209],[1.432,-2.737],[1.214,-2.772],[1.123,-2.8],[0.913,-2.343],[0.695,-1.963],[0.471,-1.647],[0.191,-1.351],[0.191,-1.337],[0.226,-1.309],[0.373,-1.225],[0.576,-1.147],[0.703,-1.119],[0.709,-1.098],[0.737,-1.098],[0.934,-1.063],[1.018,-1.049],[1.053,-1.042],[1.095,-1.035]]],[[[-1.134,-1.112],[-1.113,-1.112],[-1.113,-1.133],[-1.001,-1.126],[-0.931,-1.133],[-0.868,-1.14],[-0.798,-1.147],[-0.728,-1.154],[-0.728,-1.169],[-0.553,-1.19],[-0.37,-1.239],[-0.265,-1.295],[-0.174,-1.38],[-0.321,-1.541],[-0.433,-1.703],[-0.524,-1.872],[-0.602,-1.97],[-1.085,-2.849],[-1.128,-2.856],[-1.177,-2.835],[-1.352,-2.807],[-1.317,-2.603],[-1.156,-1.204],[-1.134,-1.112]]]]},"properties":{"abbr":"M2","name":"secondary motor cortex","plate":24,"ap_bregma_mm":-0.25,"area_mm2":2.0971,"traced_fraction":[1.0,1.0],"n_labels":2,"no_drawn_outline":false}},{"type":"Feature","geometry":{"type":"MultiPolygon","coordinates":[[[[1.873,-1.028],[2.154,-1.049],[2.175,-1.063],[2.54,-1.105],[2.603,-1.112],[2.659,-1.119],[2.659,-1.133],[2.764,-1.147],[2.939,-1.197],[2.911,-1.281],[2.848,-1.647],[2.771,-1.942],[2.722,-2.238],[2.589,-2.821],[2.056,-2.744],[1.887,-2.737],[1.873,-1.028]]],[[[-2.046,-1.126],[-1.99,-1.126],[-1.794,-2.807],[-2.355,-2.871],[-2.768,-1.302],[-2.488,-1.218],[-2.053,-1.147],[-2.046,-1.126]]]]},"properties":{"abbr":"S1HL","name":"primary somatosensory cortex, hindlimb region","plate":24,"ap_bregma_mm":-0.25,"area_mm2":2.6395,"traced_fraction":[0.996,1.0],"n_labels":2,"no_drawn_outline":false}},{"type":"Feature","geometry":{"type":"MultiPolygon","coordinates":[[[[2.939,-1.197],[3.465,-1.33],[3.472,-1.33],[3.493,-1.337],[3.514,-1.344],[3.535,-1.351],[3.675,-1.401],[3.696,-1.408],[3.717,-1.415],[3.738,-1.422],[3.752,-1.429],[3.809,-1.45],[3.83,-1.457],[3.837,-1.457],[3.837,-1.464],[3.837,-1.471],[3.816,-1.492],[3.78,-1.619],[3.633,-1.97],[3.598,-2.097],[3.514,-2.287],[3.451,-2.491],[3.402,-2.575],[3.353,-2.744],[3.248,-3.011],[2.897,-2.899],[2.589,-2.821],[2.722,-2.238],[2.771,-1.942],[2.848,-1.647],[2.911,-1.281],[2.939,-1.197]]],[[[-2.768,-1.302],[-2.355,-2.871],[-2.558,-2.906],[-2.789,-2.976],[-3.014,-3.025],[-3.554,-1.534],[-3.329,-1.457],[-3.224,-1.436],[-3.224,-1.422],[-3.196,-1.415],[-3.147,-1.415],[-3.147,-1.401],[-3.119,-1.394],[-3.091,-1.387],[-3.07,-1.38],[-3.042,-1.372],[-3.014,-1.365],[-2.999,-1.351],[-2.971,-1.351],[-2.944,-1.344],[-2.929,-1.351],[-2.768,-1.302]]]]},"properties":{"abbr":"S1FL","name":"primary somatosensory cortex, forelimb region","plate":24,"ap_bregma_mm":-0.25,"area_mm2":2.5451,"traced_fraction":[0.996,0.995],"n_labels":2,"no_drawn_outline":false}},{"type":"Feature","geometry":{"type":"MultiPolygon","coordinates":[[[[0.191,-1.351],[0.471,-1.647],[0.695,-1.963],[0.913,-2.343],[1.123,-2.8],[1.102,-2.828],[1.011,-2.885],[0.962,-2.828],[0.815,-2.73],[0.583,-2.617],[0.254,-2.533],[-0.02,-2.512],[-0.335,-2.554],[-0.524,-2.617],[-0.651,-2.681],[-0.742,-2.744],[-0.959,-2.969],[-1.001,-2.948],[-1.022,-2.927],[-1.022,-2.892],[-1.057,-2.892],[-1.057,-2.871],[-1.085,-2.849],[-0.602,-1.97],[-0.524,-1.872],[-0.433,-1.703],[-0.321,-1.541],[-0.174,-1.38],[-0.16,-1.38],[-0.097,-1.45],[-0.048,-1.527],[-0.013,-1.527],[-0.006,-1.52],[0.036,-1.485],[0.029,-1.478],[0.043,-1.464],[0.057,-1.45],[0.086,-1.422],[0.099,-1.408],[0.149,-1.358],[0.163,-1.365],[0.17,-1.351],[0.191,-1.351]]]]},"properties":{"abbr":"Cg1","name":"cingulate cortex, area 1","plate":24,"ap_bregma_mm":-0.25,"area_mm2":1.6517,"traced_fraction":[0.983],"n_labels":2,"no_drawn_outline":false}},{"type":"Feature","geometry":{"type":"MultiPolygon","coordinates":[[[[4.103,-1.569],[4.348,-1.64],[4.678,-1.787],[4.881,-1.921],[4.881,-1.935],[4.916,-1.949],[4.993,-2.02],[5.015,-2.02],[5.021,-2.027],[5.028,-2.048],[5.049,-2.048],[5.057,-2.069],[5.162,-2.132],[5.162,-2.146],[5.316,-2.252],[5.316,-2.266],[5.365,-2.294],[5.491,-2.413],[5.316,-2.596],[5.302,-2.596],[5.028,-2.871],[5.015,-2.871],[4.755,-3.145],[4.741,-3.145],[4.58,-3.314],[4.566,-3.314],[4.426,-3.461],[4.411,-3.461],[4.243,-3.637],[4.201,-3.665],[4.047,-3.504],[4.033,-3.504],[3.816,-3.314],[3.605,-3.18],[3.402,-3.082],[3.563,-2.751],[3.598,-2.646],[3.647,-2.575],[3.647,-2.547],[3.703,-2.449],[3.865,-2.069],[3.914,-1.991],[3.984,-1.809],[4.033,-1.731],[4.075,-1.612],[4.103,-1.569]]],[[[-3.792,-1.619],[-3.68,-1.921],[-3.624,-2.027],[-3.603,-2.111],[-3.518,-2.28],[-3.483,-2.406],[-3.441,-2.477],[-3.399,-2.624],[-3.357,-2.695],[-3.217,-3.06],[-3.189,-3.096],[-3.378,-3.18],[-3.441,-3.222],[-3.554,-3.271],[-3.792,-3.419],[-3.813,-3.447],[-3.96,-3.553],[-3.995,-3.595],[-4.009,-3.595],[-4.143,-3.75],[-4.619,-3.321],[-4.633,-3.321],[-4.781,-3.18],[-4.9,-3.089],[-5.138,-2.864],[-5.152,-2.864],[-5.299,-2.723],[-5.412,-2.639],[-5.468,-2.575],[-5.44,-2.533],[-5.391,-2.505],[-5.391,-2.491],[-5.327,-2.442],[-5.292,-2.427],[-5.292,-2.413],[-4.823,-2.09],[-4.36,-1.844],[-4.241,-1.801],[-4.093,-1.724],[-3.792,-1.619]]]]},"properties":{"abbr":"S1BF","name":"primary somatosensory cortex, barrel field","plate":24,"ap_bregma_mm":-0.25,"area_mm2":4.8917,"traced_fraction":[0.997,0.999],"n_labels":2,"no_drawn_outline":false}},{"type":"Feature","geometry":{"type":"MultiPolygon","coordinates":[[[[3.837,-1.457],[3.851,-1.464],[3.837,-1.464],[3.837,-1.457]]],[[[3.851,-1.464],[3.872,-1.471],[3.872,-1.485],[3.998,-1.52],[4.103,-1.569],[4.075,-1.612],[4.054,-1.689],[3.984,-1.809],[3.914,-1.991],[3.865,-2.069],[3.703,-2.449],[3.647,-2.547],[3.647,-2.575],[3.598,-2.646],[3.563,-2.751],[3.402,-3.082],[3.248,-3.011],[3.353,-2.744],[3.402,-2.575],[3.451,-2.491],[3.514,-2.287],[3.598,-2.097],[3.633,-1.97],[3.759,-1.675],[3.816,-1.492],[3.837,-1.471],[3.851,-1.464]]],[[[-3.554,-1.534],[-3.014,-3.025],[-3.189,-3.096],[-3.217,-3.06],[-3.357,-2.695],[-3.399,-2.624],[-3.441,-2.477],[-3.483,-2.406],[-3.518,-2.28],[-3.603,-2.111],[-3.624,-2.027],[-3.68,-1.921],[-3.792,-1.619],[-3.743,-1.591],[-3.554,-1.534]]]]},"properties":{"abbr":"S1DZ","name":"primary somatosensory cortex, dysgranular zone","plate":24,"ap_bregma_mm":-0.25,"area_mm2":0.7471,"traced_fraction":[1.0,0.996,0.992],"n_labels":2,"no_drawn_outline":false}},{"type":"Feature","geometry":{"type":"MultiPolygon","coordinates":[[[[1.011,-2.885],[0.92,-2.997],[0.801,-3.18],[0.745,-3.236],[0.653,-3.293],[0.625,-3.293],[0.506,-3.349],[0.38,-3.384],[0.212,-3.398],[0.184,-3.363],[0.114,-3.349],[0.057,-3.356],[0.057,-3.3],[0.036,-3.229],[0.015,-3.201],[-0.013,-3.194],[-0.048,-3.25],[-0.251,-3.25],[-0.251,-3.419],[-0.475,-3.384],[-0.581,-3.328],[-0.644,-3.314],[-0.679,-3.264],[-0.763,-3.215],[-0.84,-3.138],[-0.84,-3.124],[-0.952,-3.004],[-0.959,-2.969],[-0.742,-2.744],[-0.651,-2.681],[-0.524,-2.617],[-0.335,-2.554],[-0.02,-2.512],[0.254,-2.533],[0.583,-2.617],[0.815,-2.73],[0.962,-2.828],[1.011,-2.885]]]]},"properties":{"abbr":"Cg2","name":"cingulate cortex, area 2","plate":24,"ap_bregma_mm":-0.25,"area_mm2":1.2411,"traced_fraction":[0.934],"n_labels":2,"no_drawn_outline":false}},{"type":"Feature","geometry":{"type":"MultiPolygon","coordinates":[[[[1.432,-2.737],[1.558,-2.744],[1.558,-2.856],[1.376,-2.871],[1.214,-2.913],[1.102,-2.99],[0.948,-3.159],[0.948,-3.173],[0.843,-3.271],[0.688,-3.328],[0.667,-3.328],[0.653,-3.293],[0.745,-3.236],[0.801,-3.18],[0.92,-2.997],[1.011,-2.885],[1.102,-2.828],[1.123,-2.8],[1.214,-2.772],[1.432,-2.737]]],[[[-1.597,-2.807],[-1.352,-2.807],[-1.177,-2.835],[-1.128,-2.856],[-1.085,-2.849],[-1.057,-2.871],[-1.057,-2.892],[-1.022,-2.892],[-1.022,-2.927],[-1.001,-2.948],[-0.959,-2.969],[-0.952,-3.004],[-0.84,-3.124],[-0.84,-3.138],[-0.763,-3.215],[-0.679,-3.264],[-0.644,-3.314],[-0.714,-3.307],[-0.861,-3.236],[-1.036,-3.11],[-1.142,-3.004],[-1.282,-2.92],[-1.492,-2.885],[-1.597,-2.892],[-1.597,-2.807]]]]},"properties":{"abbr":"cg","name":"cingulum","plate":24,"ap_bregma_mm":-0.25,"area_mm2":0.2387,"traced_fraction":[0.971,0.942],"n_labels":2,"no_drawn_outline":false}},{"type":"Feature","geometry":{"type":"MultiPolygon","coordinates":[[[[5.491,-2.413],[5.54,-2.442],[5.646,-2.554],[5.667,-2.561],[5.667,-2.575],[5.709,-2.596],[5.709,-2.61],[5.877,-2.8],[5.954,-2.927],[5.968,-2.927],[5.975,-2.934],[5.968,-2.948],[5.982,-2.948],[5.989,-2.962],[5.982,-2.969],[5.996,-2.969],[6.003,-2.983],[6.045,-3.053],[6.052,-3.067],[6.08,-3.117],[6.094,-3.138],[6.101,-3.152],[6.115,-3.173],[6.108,-3.187],[6.129,-3.201],[6.143,-3.215],[6.136,-3.243],[6.15,-3.25],[6.269,-3.504],[6.291,-3.525],[6.291,-3.546],[6.312,-3.567],[6.312,-3.588],[6.41,-3.757],[6.466,-3.919],[5.225,-4.122],[4.489,-4.207],[4.44,-4.045],[4.383,-3.926],[4.32,-3.82],[4.201,-3.665],[4.243,-3.637],[4.566,-3.314],[4.58,-3.314],[4.741,-3.145],[4.755,-3.145],[5.015,-2.871],[5.028,-2.871],[5.19,-2.702],[5.204,-2.702],[5.302,-2.596],[5.316,-2.596],[5.491,-2.413]]],[[[-5.468,-2.575],[-5.412,-2.639],[-5.397,-2.639],[-5.201,-2.821],[-5.138,-2.864],[-4.9,-3.089],[-4.886,-3.089],[-4.682,-3.279],[-4.619,-3.321],[-4.143,-3.75],[-4.149,-3.778],[-4.283,-3.954],[-4.36,-4.08],[-4.416,-4.2],[-4.472,-4.397],[-4.493,-4.432],[-4.514,-4.418],[-4.71,-4.39],[-4.991,-4.319],[-5.433,-4.235],[-6.337,-4.01],[-6.435,-3.975],[-6.344,-3.743],[-6.253,-3.56],[-6.253,-3.553],[-6.246,-3.539],[-6.239,-3.525],[-6.239,-3.518],[-6.218,-3.511],[-6.211,-3.475],[-6.204,-3.461],[-6.197,-3.447],[-6.19,-3.433],[-6.183,-3.419],[-6.183,-3.412],[-6.162,-3.405],[-6.162,-3.384],[-6.155,-3.37],[-6.12,-3.307],[-6.113,-3.321],[-6.113,-3.3],[-6.106,-3.286],[-6.099,-3.271],[-6.092,-3.257],[-6.092,-3.25],[-6.071,-3.25],[-6.05,-3.194],[-5.986,-3.117],[-5.986,-3.096],[-5.965,-3.067],[-5.951,-3.067],[-5.951,-3.046],[-5.93,-3.018],[-5.923,-3.025],[-5.916,-3.004],[-5.902,-3.004],[-5.902,-2.983],[-5.888,-2.962],[-5.874,-2.969],[-5.86,-2.934],[-5.846,-2.934],[-5.776,-2.842],[-5.594,-2.667],[-5.58,-2.667],[-5.58,-2.652],[-5.468,-2.575]]]]},"properties":{"abbr":"S1ULp","name":"primary somatosensory cortex, upper lip region","plate":24,"ap_bregma_mm":-0.25,"area_mm2":4.6803,"traced_fraction":[1.0,1.0],"n_labels":2,"no_drawn_outline":false}},{"type":"Feature","geometry":{"type":"MultiPolygon","coordinates":[[[[1.887,-2.737],[2.056,-2.744],[2.589,-2.821],[2.897,-2.899],[3.248,-3.011],[3.402,-3.082],[3.605,-3.18],[3.816,-3.314],[4.033,-3.504],[4.047,-3.504],[4.201,-3.665],[4.32,-3.82],[4.383,-3.926],[4.44,-4.045],[4.489,-4.207],[4.524,-4.425],[4.545,-4.917],[4.517,-5.199],[4.468,-5.438],[4.404,-5.621],[4.383,-5.649],[4.348,-5.642],[4.426,-5.431],[4.482,-5.156],[4.489,-4.966],[4.468,-4.727],[4.383,-4.319],[4.313,-4.115],[4.236,-3.961],[4.166,-3.869],[4.103,-3.813],[4.103,-3.799],[3.612,-3.349],[3.381,-3.215],[3.184,-3.138],[2.841,-3.032],[2.638,-2.99],[2.154,-2.948],[1.789,-2.955],[1.775,-2.856],[1.558,-2.856],[1.558,-2.744],[1.887,-2.737]]],[[[-3.441,-3.222],[-3.434,-3.307],[-3.582,-3.391],[-3.778,-3.539],[-4.044,-3.799],[-4.149,-3.933],[-4.156,-3.961],[-4.241,-4.08],[-4.318,-4.235],[-4.395,-4.46],[-4.444,-4.685],[-4.465,-4.854],[-4.472,-5.339],[-4.437,-5.571],[-4.381,-5.761],[-4.304,-5.93],[-4.29,-5.937],[-4.29,-5.958],[-4.192,-6.099],[-4.22,-6.127],[-4.241,-6.127],[-4.304,-6.036],[-4.353,-6.0],[-4.36,-5.951],[-4.465,-5.761],[-4.549,-5.41],[-4.563,-5.142],[-4.577,-5.093],[-4.57,-5.044],[-4.514,-4.622],[-4.514,-4.537],[-4.493,-4.488],[-4.493,-4.432],[-4.472,-4.397],[-4.416,-4.2],[-4.36,-4.08],[-4.283,-3.954],[-4.149,-3.778],[-4.143,-3.75],[-4.009,-3.595],[-3.995,-3.595],[-3.96,-3.553],[-3.813,-3.447],[-3.792,-3.419],[-3.554,-3.271],[-3.441,-3.222]]]]},"properties":{"abbr":"ec","name":"external capsule","plate":24,"ap_bregma_mm":-0.25,"area_mm2":0.9368,"traced_fraction":[0.988,0.996],"n_labels":2,"no_drawn_outline":false}},{"type":"Feature","geometry":{"type":"MultiPolygon","coordinates":[[[[-0.742,-3.44],[-0.686,-3.447],[-0.644,-3.475],[-0.454,-3.525],[-0.23,-3.56],[-0.013,-3.574],[0.324,-3.546],[0.471,-3.518],[0.569,-3.482],[0.66,-3.475],[0.73,-3.497],[0.927,-3.518],[0.997,-3.546],[1.011,-3.581],[1.025,-3.771],[1.067,-3.926],[1.088,-3.947],[1.081,-3.996],[1.109,-4.158],[1.074,-4.158],[0.934,-4.038],[0.716,-3.919],[0.555,-3.876],[0.408,-3.876],[0.345,-3.89],[0.219,-3.883],[0.149,-3.862],[0.022,-3.785],[-0.006,-3.785],[-0.027,-3.736],[-0.055,-3.729],[-0.097,-3.792],[-0.272,-3.848],[-0.588,-3.855],[-0.798,-3.897],[-1.001,-3.982],[-1.121,-4.066],[-1.156,-4.066],[-1.149,-3.982],[-1.128,-3.975],[-1.085,-3.897],[-1.05,-3.715],[-0.994,-3.581],[-0.91,-3.525],[-0.777,-3.482],[-0.742,-3.44]]]]},"properties":{"abbr":"LSD","name":"lateral septal nucleus, dorsal part","plate":24,"ap_bregma_mm":-0.25,"area_mm2":0.7797,"traced_fraction":[1.0],"n_labels":2,"no_drawn_outline":false}},{"type":"Feature","geometry":{"type":"MultiPolygon","coordinates":[[[[-0.006,-3.785],[0.015,-3.919],[0.092,-4.059],[0.022,-4.137],[-0.027,-4.284],[-0.041,-4.298],[-0.069,-4.298],[-0.09,-4.263],[-0.111,-4.137],[-0.188,-4.038],[-0.139,-3.961],[-0.132,-3.919],[-0.118,-3.911],[-0.097,-3.792],[-0.055,-3.729],[-0.027,-3.736],[-0.006,-3.785]]]]},"properties":{"abbr":"SHi","name":"septohippocampal nucleus","plate":24,"ap_bregma_mm":-0.25,"area_mm2":0.0779,"traced_fraction":[0.984],"n_labels":1,"no_drawn_outline":false}},{"type":"Feature","geometry":{"type":"MultiPolygon","coordinates":[[[[-1.156,-3.736],[-1.149,-3.982],[-1.156,-4.066],[-1.219,-4.186],[-1.282,-4.242],[-1.338,-4.256],[-1.401,-4.348],[-1.408,-4.474],[-1.387,-4.495],[-1.387,-4.559],[-1.38,-4.629],[-1.317,-4.734],[-1.008,-4.875],[-0.931,-4.945],[-1.079,-4.945],[-1.233,-4.896],[-1.331,-4.84],[-1.38,-4.833],[-1.387,-4.826],[-1.38,-4.833],[-1.317,-4.988],[-1.303,-5.1],[-1.31,-5.1],[-1.443,-5.065],[-1.52,-4.988],[-1.562,-4.917],[-1.583,-4.84],[-1.576,-4.671],[-1.534,-4.537],[-1.471,-4.432],[-1.457,-4.305],[-1.415,-4.186],[-1.282,-4.003],[-1.191,-3.764],[-1.156,-3.736]]]]},"properties":{"abbr":"chp","name":"choroid plexus","plate":24,"ap_bregma_mm":-0.25,"area_mm2":0.2377,"traced_fraction":[1.0],"n_labels":1,"no_drawn_outline":false}},{"type":"Feature","geometry":{"type":"MultiPolygon","coordinates":[[[[-6.435,-3.975],[-6.337,-4.01],[-5.433,-4.235],[-4.991,-4.319],[-4.71,-4.39],[-4.514,-4.418],[-4.493,-4.432],[-4.493,-4.488],[-4.514,-4.537],[-4.808,-4.509],[-6.554,-4.425],[-6.533,-4.235],[-6.519,-4.235],[-6.484,-4.087],[-6.435,-3.975]]],[[[1.516,-4.77],[1.565,-4.777],[1.544,-4.966],[1.558,-5.086],[1.551,-5.185],[1.509,-5.192],[1.362,-5.339],[1.298,-5.494],[1.228,-5.614],[1.179,-5.628],[1.165,-5.621],[1.158,-5.578],[1.158,-5.431],[1.193,-5.227],[1.186,-5.135],[1.214,-5.072],[1.291,-5.009],[1.298,-4.981],[1.347,-4.959],[1.404,-4.889],[1.432,-4.875],[1.453,-4.833],[1.474,-4.826],[1.502,-4.77],[1.516,-4.77]]],[[[-1.443,-5.065],[-1.31,-5.1],[-1.303,-5.163],[-1.24,-5.29],[-1.233,-5.621],[-1.212,-5.726],[-1.184,-5.782],[-1.184,-5.825],[-1.247,-5.832],[-1.31,-5.803],[-1.359,-5.74],[-1.408,-5.642],[-1.457,-5.487],[-1.499,-5.402],[-1.555,-5.353],[-1.541,-5.135],[-1.52,-5.135],[-1.443,-5.065]]]]},"properties":{"abbr":"st","name":"stria terminalis","plate":24,"ap_bregma_mm":-0.25,"area_mm2":0.8803,"traced_fraction":[1.0,1.0,1.0],"n_labels":3,"no_drawn_outline":false}},{"type":"Feature","geometry":{"type":"MultiPolygon","coordinates":[[[[-0.006,-3.785],[0.022,-3.785],[0.107,-3.841],[0.219,-3.883],[0.345,-3.89],[0.408,-3.876],[0.555,-3.876],[0.695,-3.911],[0.892,-4.01],[1.074,-4.158],[1.109,-4.158],[1.158,-4.277],[1.186,-4.298],[1.179,-4.326],[1.046,-4.326],[1.046,-4.467],[1.228,-4.467],[1.256,-4.58],[1.221,-4.685],[1.123,-4.777],[0.829,-4.966],[0.716,-5.086],[0.674,-5.093],[0.478,-5.185],[0.443,-5.149],[0.52,-5.072],[0.597,-5.023],[0.681,-4.91],[0.695,-4.762],[0.653,-4.573],[0.534,-4.305],[0.499,-4.249],[0.401,-4.151],[0.331,-4.101],[0.233,-4.059],[0.092,-4.059],[0.015,-3.919],[-0.006,-3.785]]],[[[-0.097,-3.792],[-0.118,-3.911],[-0.132,-3.919],[-0.139,-3.961],[-0.188,-4.038],[-0.258,-4.031],[-0.314,-4.045],[-0.469,-4.115],[-0.553,-4.172],[-0.672,-4.319],[-0.714,-4.411],[-0.756,-4.559],[-0.77,-4.791],[-0.742,-4.896],[-0.707,-4.966],[-0.63,-5.065],[-0.461,-5.213],[-0.496,-5.262],[-0.581,-5.234],[-0.609,-5.199],[-0.658,-5.17],[-0.7,-5.17],[-0.735,-5.093],[-0.749,-5.093],[-0.749,-5.079],[-0.805,-5.037],[-0.833,-4.995],[-0.931,-4.945],[-1.008,-4.875],[-1.317,-4.734],[-1.366,-4.664],[-1.387,-4.559],[-1.212,-4.559],[-1.212,-4.411],[-1.338,-4.411],[-1.331,-4.362],[-1.282,-4.277],[-1.282,-4.242],[-1.219,-4.186],[-1.156,-4.066],[-1.121,-4.066],[-1.001,-3.982],[-0.798,-3.897],[-0.588,-3.855],[-0.272,-3.848],[-0.097,-3.792]]]]},"properties":{"abbr":"SFi","name":"septofimbrial nucleus","plate":24,"ap_bregma_mm":-0.25,"area_mm2":1.3448,"traced_fraction":[0.91,0.914],"n_labels":2,"no_drawn_outline":false}},{"type":"Feature","geometry":{"type":"MultiPolygon","coordinates":[[[[4.348,-5.642],[4.299,-5.74],[4.208,-5.874],[4.152,-5.923],[4.124,-5.972],[3.843,-6.24],[3.752,-6.38],[3.675,-6.465],[3.647,-6.521],[3.57,-6.556],[3.458,-6.514],[3.381,-6.507],[3.381,-6.493],[3.353,-6.493],[3.353,-6.507],[3.262,-6.507],[3.15,-6.486],[2.897,-6.345],[2.806,-6.317],[2.504,-6.275],[2.406,-6.204],[2.287,-6.085],[2.224,-5.979],[2.189,-5.839],[2.182,-5.677],[2.147,-5.417],[2.105,-5.269],[2.056,-5.163],[1.951,-5.044],[1.901,-5.016],[1.754,-4.952],[1.663,-4.945],[1.656,-4.798],[1.621,-4.77],[1.565,-4.777],[1.516,-4.77],[1.523,-4.727],[1.453,-4.65],[1.418,-4.551],[1.39,-4.376],[1.291,-4.08],[1.277,-4.073],[1.277,-4.052],[1.263,-4.045],[1.263,-4.024],[1.179,-3.876],[1.158,-3.806],[1.123,-3.771],[1.123,-3.694],[1.095,-3.602],[1.102,-3.497],[1.13,-3.426],[1.186,-3.356],[1.2,-3.356],[1.298,-3.25],[1.313,-3.25],[1.411,-3.159],[1.425,-3.131],[1.418,-3.067],[1.439,-3.046],[1.551,-3.004],[1.789,-2.955],[2.154,-2.948],[2.638,-2.99],[2.841,-3.032],[3.184,-3.138],[3.381,-3.215],[3.612,-3.349],[4.103,-3.799],[4.103,-3.813],[4.166,-3.869],[4.236,-3.961],[4.313,-4.115],[4.383,-4.319],[4.468,-4.727],[4.489,-4.966],[4.482,-5.156],[4.426,-5.431],[4.348,-5.642]]],[[[-1.45,-3.11],[-1.429,-3.166],[-1.373,-3.222],[-1.268,-3.279],[-1.191,-3.349],[-1.156,-3.426],[-1.142,-3.426],[-1.128,-3.454],[-1.128,-3.567],[-1.156,-3.736],[-1.191,-3.764],[-1.282,-4.003],[-1.415,-4.186],[-1.457,-4.305],[-1.471,-4.432],[-1.534,-4.537],[-1.576,-4.671],[-1.583,-4.84],[-1.562,-4.917],[-1.52,-4.988],[-1.443,-5.065],[-1.52,-5.135],[-1.541,-5.135],[-1.548,-5.107],[-1.576,-5.079],[-1.618,-5.079],[-1.667,-5.114],[-1.681,-5.093],[-1.829,-5.058],[-2.018,-5.058],[-2.074,-5.079],[-2.13,-5.121],[-2.277,-5.304],[-2.327,-5.402],[-2.361,-5.529],[-2.369,-5.698],[-2.355,-5.888],[-2.383,-6.05],[-2.432,-6.176],[-2.642,-6.577],[-2.944,-6.577],[-3.07,-6.556],[-3.259,-6.556],[-3.336,-6.563],[-3.469,-6.626],[-3.631,-6.64],[-3.652,-6.64],[-3.981,-6.289],[-4.037,-6.275],[-4.051,-6.261],[-4.058,-6.225],[-4.135,-6.155],[-4.135,-6.141],[-4.192,-6.099],[-4.29,-5.958],[-4.29,-5.937],[-4.304,-5.93],[-4.381,-5.761],[-4.437,-5.571],[-4.472,-5.339],[-4.465,-4.854],[-4.444,-4.685],[-4.395,-4.46],[-4.318,-4.235],[-4.241,-4.08],[-4.156,-3.961],[-4.149,-3.933],[-4.044,-3.799],[-3.778,-3.539],[-3.582,-3.391],[-3.434,-3.307],[-3.273,-3.229],[-2.803,-3.089],[-2.397,-3.011],[-1.955,-3.018],[-1.534,-3.082],[-1.45,-3.11]]]]},"properties":{"abbr":"CPu","name":"caudate putamen (striatum)","plate":24,"ap_bregma_mm":-0.25,"area_mm2":16.5967,"traced_fraction":[1.0,1.0],"n_labels":2,"no_drawn_outline":false}},{"type":"Feature","geometry":{"type":"MultiPolygon","coordinates":[[[[6.466,-3.919],[6.48,-3.926],[6.487,-3.947],[6.494,-3.968],[6.501,-3.996],[6.508,-4.024],[6.529,-4.277],[6.508,-4.587],[5.589,-4.495],[4.93,-4.453],[4.706,-4.425],[4.524,-4.425],[4.489,-4.207],[5.225,-4.122],[6.466,-3.919]]]]},"properties":{"abbr":"S1","name":"primary somatosensory cortex","plate":24,"ap_bregma_mm":-0.25,"area_mm2":0.8575,"traced_fraction":[1.0],"n_labels":1,"no_drawn_outline":false}},{"type":"Feature","geometry":{"type":"MultiPolygon","coordinates":[[[[-0.188,-4.038],[-0.111,-4.137],[-0.09,-4.263],[-0.069,-4.298],[-0.041,-4.298],[-0.027,-4.284],[0.022,-4.137],[0.092,-4.059],[0.233,-4.059],[0.331,-4.101],[0.401,-4.151],[0.513,-4.27],[0.576,-4.383],[0.653,-4.573],[0.695,-4.762],[0.681,-4.91],[0.639,-4.981],[0.443,-5.149],[0.303,-5.227],[0.233,-5.318],[0.191,-5.459],[0.177,-5.754],[0.17,-5.754],[0.128,-5.712],[0.092,-5.606],[0.078,-5.29],[0.057,-5.199],[-0.006,-5.135],[-0.076,-5.142],[-0.125,-5.206],[-0.146,-5.297],[-0.146,-5.522],[-0.16,-5.628],[-0.188,-5.719],[-0.223,-5.733],[-0.23,-5.606],[-0.216,-5.536],[-0.216,-5.41],[-0.23,-5.346],[-0.251,-5.304],[-0.307,-5.255],[-0.398,-5.22],[-0.461,-5.213],[-0.63,-5.065],[-0.63,-5.051],[-0.693,-4.988],[-0.742,-4.896],[-0.77,-4.791],[-0.756,-4.559],[-0.714,-4.411],[-0.672,-4.319],[-0.553,-4.172],[-0.469,-4.115],[-0.314,-4.045],[-0.258,-4.031],[-0.188,-4.038]]]]},"properties":{"abbr":"TS","name":"triangular septal nucleus","plate":24,"ap_bregma_mm":-0.25,"area_mm2":1.494,"traced_fraction":[1.0],"n_labels":1,"no_drawn_outline":false}},{"type":"Feature","geometry":{"type":"MultiPolygon","coordinates":[[[[-6.554,-4.425],[-4.808,-4.509],[-4.514,-4.537],[-4.514,-4.622],[-4.57,-5.044],[-4.64,-5.058],[-5.005,-5.227],[-5.047,-5.234],[-5.489,-5.417],[-6.253,-5.684],[-6.26,-5.691],[-6.267,-5.677],[-6.281,-5.649],[-6.288,-5.635],[-6.295,-5.621],[-6.302,-5.606],[-6.316,-5.578],[-6.323,-5.564],[-6.33,-5.55],[-6.337,-5.536],[-6.351,-5.508],[-6.372,-5.466],[-6.386,-5.438],[-6.407,-5.396],[-6.421,-5.374],[-6.421,-5.367],[-6.519,-4.981],[-6.561,-4.587],[-6.554,-4.425]]],[[[4.524,-4.425],[4.706,-4.425],[4.93,-4.453],[5.589,-4.495],[6.508,-4.587],[6.459,-4.952],[6.389,-5.206],[6.269,-5.473],[6.185,-5.606],[6.122,-5.571],[5.996,-5.536],[5.596,-5.374],[5.463,-5.304],[4.993,-5.114],[4.818,-5.023],[4.545,-4.917],[4.524,-4.425]]],[[[-6.428,-5.367],[-6.421,-5.367],[-6.421,-5.374],[-6.428,-5.367]]]]},"properties":{"abbr":"S2","name":"secondary somatosensory cortex","plate":24,"ap_bregma_mm":-0.25,"area_mm2":3.3006,"traced_fraction":[1.0,1.0,1.0],"n_labels":2,"no_drawn_outline":false}},{"type":"Feature","geometry":{"type":"MultiPolygon","coordinates":[[[[1.186,-4.298],[1.305,-4.397],[1.334,-4.453],[1.355,-4.537],[1.355,-4.671],[1.298,-4.819],[1.256,-4.882],[1.242,-4.882],[1.242,-4.896],[1.179,-4.952],[1.172,-4.988],[1.095,-5.023],[1.011,-5.114],[0.92,-5.185],[0.836,-5.22],[0.801,-5.22],[0.773,-5.22],[0.737,-5.199],[0.716,-5.142],[0.716,-5.086],[0.829,-4.966],[1.074,-4.812],[1.221,-4.685],[1.256,-4.58],[1.228,-4.467],[1.179,-4.326],[1.186,-4.298]]]]},"properties":{"abbr":"LV","name":"lateral ventricle","plate":24,"ap_bregma_mm":-0.25,"area_mm2":0.1749,"traced_fraction":[1.0],"n_labels":1,"no_drawn_outline":false}},{"type":"Feature","geometry":{"type":"MultiPolygon","coordinates":[[[[1.663,-4.945],[1.67,-5.037],[1.649,-5.177],[1.635,-5.803],[1.614,-5.923],[1.579,-6.007],[1.565,-6.014],[1.565,-6.043],[1.537,-6.043],[1.509,-5.972],[1.509,-5.916],[1.53,-5.832],[1.558,-5.543],[1.551,-5.185],[1.558,-5.086],[1.544,-4.966],[1.565,-4.777],[1.621,-4.77],[1.656,-4.798],[1.663,-4.945]]],[[[-1.541,-5.135],[-1.555,-5.353],[-1.569,-5.768],[-1.555,-5.803],[-1.548,-5.937],[-1.541,-6.169],[-1.562,-6.24],[-1.597,-6.232],[-1.618,-6.197],[-1.632,-5.888],[-1.681,-5.557],[-1.751,-5.318],[-1.745,-5.227],[-1.667,-5.114],[-1.618,-5.079],[-1.576,-5.079],[-1.548,-5.107],[-1.541,-5.135]]]]},"properties":{"abbr":"ic","name":"internal capsule","plate":24,"ap_bregma_mm":-0.25,"area_mm2":0.2563,"traced_fraction":[1.0,0.983],"n_labels":2,"no_drawn_outline":false}},{"type":"Feature","geometry":{"type":"MultiPolygon","coordinates":[[[[0.17,-5.754],[0.071,-5.754],[0.05,-5.628],[0.022,-5.585],[-0.013,-5.571],[-0.055,-5.578],[-0.083,-5.6],[-0.139,-5.733],[-0.132,-5.754],[-0.223,-5.775],[-0.223,-5.733],[-0.188,-5.719],[-0.16,-5.628],[-0.146,-5.522],[-0.146,-5.297],[-0.125,-5.206],[-0.076,-5.142],[-0.006,-5.135],[0.057,-5.199],[0.078,-5.29],[0.092,-5.606],[0.128,-5.712],[0.17,-5.754]]]]},"properties":{"abbr":"LTer","name":"lemina terminalis","plate":24,"ap_bregma_mm":-0.25,"area_mm2":0.1166,"traced_fraction":[1.0],"n_labels":1,"no_drawn_outline":false}},{"type":"Feature","geometry":{"type":"MultiPolygon","coordinates":[[[[4.545,-4.917],[4.818,-5.023],[4.993,-5.114],[5.463,-5.304],[5.596,-5.374],[5.996,-5.536],[6.122,-5.571],[6.185,-5.606],[6.15,-5.677],[6.136,-5.677],[6.115,-5.733],[6.101,-5.733],[6.066,-5.803],[5.989,-5.895],[5.393,-5.606],[5.036,-5.452],[4.622,-5.234],[4.517,-5.199],[4.545,-4.917]]],[[[-4.57,-5.044],[-4.577,-5.093],[-4.563,-5.142],[-4.549,-5.41],[-4.577,-5.41],[-4.928,-5.578],[-5.138,-5.656],[-5.376,-5.768],[-5.58,-5.839],[-5.699,-5.902],[-5.797,-5.93],[-5.874,-5.972],[-6.063,-6.043],[-6.078,-6.043],[-6.113,-5.958],[-6.141,-5.937],[-6.148,-5.916],[-6.148,-5.909],[-6.19,-5.81],[-6.211,-5.803],[-6.211,-5.789],[-6.218,-5.775],[-6.225,-5.761],[-6.232,-5.747],[-6.239,-5.733],[-6.246,-5.719],[-6.253,-5.705],[-6.26,-5.691],[-6.253,-5.684],[-5.489,-5.417],[-5.047,-5.234],[-5.005,-5.227],[-4.64,-5.058],[-4.57,-5.044]]]]},"properties":{"abbr":"GI","name":"granular insular cortex","plate":24,"ap_bregma_mm":-0.25,"area_mm2":1.1511,"traced_fraction":[1.0,1.0],"n_labels":2,"no_drawn_outline":false}},{"type":"Feature","geometry":{"type":"MultiPolygon","coordinates":[[[[1.663,-4.945],[1.754,-4.952],[1.901,-5.016],[1.951,-5.044],[2.056,-5.163],[2.105,-5.269],[2.147,-5.417],[2.175,-5.606],[2.189,-5.839],[2.224,-5.979],[2.287,-6.085],[2.406,-6.204],[2.504,-6.275],[2.434,-6.387],[2.035,-6.303],[1.951,-6.275],[1.74,-6.19],[1.621,-6.113],[1.565,-6.043],[1.565,-6.014],[1.579,-6.007],[1.614,-5.923],[1.635,-5.803],[1.649,-5.177],[1.67,-5.037],[1.663,-4.945]]],[[[-1.667,-5.114],[-1.745,-5.227],[-1.751,-5.318],[-1.681,-5.557],[-1.632,-5.888],[-1.618,-6.197],[-1.597,-6.232],[-1.632,-6.247],[-1.709,-6.324],[-1.913,-6.443],[-1.997,-6.479],[-2.306,-6.584],[-2.495,-6.619],[-2.565,-6.647],[-2.628,-6.577],[-2.642,-6.577],[-2.432,-6.176],[-2.383,-6.05],[-2.355,-5.888],[-2.369,-5.698],[-2.361,-5.529],[-2.327,-5.402],[-2.277,-5.304],[-2.13,-5.121],[-2.074,-5.079],[-2.018,-5.058],[-1.829,-5.058],[-1.681,-5.093],[-1.667,-5.114]]]]},"properties":{"abbr":"GP","name":"globus pallidus","plate":24,"ap_bregma_mm":-0.25,"area_mm2":1.718,"traced_fraction":[1.0,1.0],"n_labels":2,"no_drawn_outline":false}},{"type":"Feature","geometry":{"type":"MultiPolygon","coordinates":[[[[1.298,-4.981],[1.291,-5.009],[1.214,-5.072],[1.186,-5.135],[1.193,-5.227],[1.158,-5.431],[1.158,-5.578],[1.165,-5.621],[1.179,-5.628],[1.13,-5.789],[1.046,-5.888],[0.934,-5.944],[0.787,-5.958],[0.646,-5.796],[0.562,-5.635],[0.513,-5.614],[0.506,-5.55],[0.66,-5.487],[0.724,-5.431],[0.78,-5.325],[0.801,-5.22],[0.836,-5.22],[0.92,-5.185],[1.011,-5.114],[1.095,-5.023],[1.172,-4.988],[1.298,-4.981]]],[[[-1.31,-5.1],[-1.303,-5.1],[-1.092,-5.114],[-0.763,-5.297],[-0.763,-5.311],[-0.742,-5.311],[-0.735,-5.353],[-0.623,-5.55],[-0.644,-5.642],[-0.637,-5.768],[-0.665,-5.789],[-0.7,-5.895],[-0.714,-5.902],[-0.84,-5.902],[-0.84,-6.064],[-0.826,-6.064],[-0.861,-6.099],[-0.959,-6.085],[-1.05,-6.043],[-1.134,-5.951],[-1.184,-5.825],[-1.184,-5.782],[-1.212,-5.726],[-1.233,-5.621],[-1.24,-5.29],[-1.303,-5.163],[-1.31,-5.1]]]]},"properties":{"abbr":"STMA","name":"bed nucleus of the stria terminalis, medial division, anterior part","plate":24,"ap_bregma_mm":-0.25,"area_mm2":0.8341,"traced_fraction":[1.0,0.916],"n_labels":2,"no_drawn_outline":false}},{"type":"Feature","geometry":{"type":"MultiPolygon","coordinates":[[[[0.443,-5.149],[0.478,-5.185],[0.471,-5.381],[0.492,-5.529],[0.506,-5.55],[0.513,-5.614],[0.541,-5.761],[0.52,-5.825],[0.485,-5.86],[0.331,-5.796],[0.205,-5.775],[0.177,-5.754],[0.191,-5.459],[0.233,-5.318],[0.303,-5.227],[0.443,-5.149]]],[[[-0.461,-5.213],[-0.398,-5.22],[-0.307,-5.255],[-0.251,-5.304],[-0.23,-5.346],[-0.216,-5.41],[-0.216,-5.536],[-0.23,-5.606],[-0.223,-5.733],[-0.223,-5.775],[-0.37,-5.81],[-0.469,-5.853],[-0.524,-5.895],[-0.602,-5.839],[-0.637,-5.768],[-0.644,-5.642],[-0.623,-5.55],[-0.524,-5.381],[-0.496,-5.262],[-0.461,-5.213]]]]},"properties":{"abbr":"f","name":"fornix","plate":24,"ap_bregma_mm":-0.25,"area_mm2":0.3918,"traced_fraction":[1.0,1.0],"n_labels":2,"no_drawn_outline":false}},{"type":"Feature","geometry":{"type":"MultiPolygon","coordinates":[[[[1.551,-5.185],[1.558,-5.543],[1.53,-5.832],[1.509,-5.916],[1.256,-5.909],[1.263,-5.74],[1.249,-5.649],[1.228,-5.614],[1.298,-5.494],[1.362,-5.339],[1.509,-5.192],[1.551,-5.185]]],[[[-1.555,-5.353],[-1.499,-5.402],[-1.457,-5.487],[-1.408,-5.642],[-1.359,-5.74],[-1.31,-5.803],[-1.345,-5.86],[-1.345,-5.937],[-1.548,-5.937],[-1.555,-5.803],[-1.569,-5.768],[-1.555,-5.353]]]]},"properties":{"abbr":"STLP","name":"bed nucleus of the stria terminalis, lateral division, posterior part","plate":24,"ap_bregma_mm":-0.25,"area_mm2":0.2601,"traced_fraction":[0.892,0.865],"n_labels":2,"no_drawn_outline":false}},{"type":"Feature","geometry":{"type":"MultiPolygon","coordinates":[[[[4.517,-5.199],[4.622,-5.234],[5.036,-5.452],[5.393,-5.606],[5.989,-5.895],[5.954,-5.958],[5.751,-6.204],[5.758,-6.218],[5.709,-6.275],[5.695,-6.275],[5.702,-6.289],[5.695,-6.296],[5.659,-6.317],[5.667,-6.331],[5.659,-6.338],[5.646,-6.338],[5.653,-6.352],[5.638,-6.366],[5.625,-6.366],[5.596,-6.408],[4.916,-6.036],[4.383,-5.677],[4.383,-5.649],[4.404,-5.621],[4.468,-5.438],[4.517,-5.199]]],[[[-4.549,-5.41],[-4.465,-5.761],[-4.521,-5.775],[-5.089,-6.057],[-5.425,-6.197],[-5.685,-6.324],[-5.797,-6.359],[-5.867,-6.401],[-5.881,-6.401],[-5.923,-6.338],[-5.965,-6.24],[-6.057,-6.092],[-6.063,-6.043],[-5.874,-5.972],[-5.797,-5.93],[-5.699,-5.902],[-5.58,-5.839],[-5.376,-5.768],[-5.138,-5.656],[-4.928,-5.578],[-4.577,-5.41],[-4.549,-5.41]]]]},"properties":{"abbr":"DI","name":"dysgranular insular cortex","plate":24,"ap_bregma_mm":-0.25,"area_mm2":1.4866,"traced_fraction":[1.0,1.0],"n_labels":2,"no_drawn_outline":false}},{"type":"Feature","geometry":{"type":"MultiPolygon","coordinates":[[[[0.513,-5.614],[0.562,-5.635],[0.646,-5.796],[0.787,-5.958],[0.801,-5.993],[0.801,-6.057],[0.78,-6.092],[0.681,-6.071],[0.639,-6.043],[0.541,-5.916],[0.485,-5.874],[0.485,-5.86],[0.52,-5.825],[0.541,-5.761],[0.513,-5.614]]],[[[-0.637,-5.768],[-0.602,-5.839],[-0.524,-5.895],[-0.595,-6.05],[-0.595,-6.106],[-0.637,-6.134],[-0.763,-6.162],[-0.805,-6.19],[-0.861,-6.169],[-0.861,-6.099],[-0.826,-6.064],[-0.798,-6.021],[-0.777,-6.014],[-0.777,-5.993],[-0.749,-5.972],[-0.714,-5.902],[-0.7,-5.895],[-0.665,-5.789],[-0.637,-5.768]]]]},"properties":{"abbr":"BAC","name":"bed nucleus of the anterior commissure","plate":24,"ap_bregma_mm":-0.25,"area_mm2":0.1329,"traced_fraction":[1.0,1.0],"n_labels":2,"no_drawn_outline":false}},{"type":"Feature","geometry":{"type":"MultiPolygon","coordinates":[[[[1.228,-5.614],[1.249,-5.649],[1.263,-5.74],[1.256,-5.909],[1.214,-6.057],[1.123,-6.134],[0.906,-6.19],[0.815,-6.183],[0.808,-6.176],[0.808,-6.134],[0.78,-6.092],[0.801,-6.057],[0.801,-5.993],[0.787,-5.958],[0.934,-5.944],[1.046,-5.888],[1.13,-5.789],[1.179,-5.628],[1.228,-5.614]]],[[[-1.31,-5.803],[-1.247,-5.832],[-1.184,-5.825],[-1.134,-5.951],[-1.05,-6.043],[-0.959,-6.085],[-0.861,-6.099],[-0.861,-6.169],[-0.924,-6.211],[-1.107,-6.211],[-1.191,-6.19],[-1.275,-6.134],[-1.324,-6.036],[-1.345,-5.937],[-1.345,-5.86],[-1.31,-5.803]]]]},"properties":{"abbr":"STLI","name":"bed nucleus of the stria terminalis, lateral division, intermediate part","plate":24,"ap_bregma_mm":-0.25,"area_mm2":0.2409,"traced_fraction":[1.0,0.981],"n_labels":2,"no_drawn_outline":false}},{"type":"Feature","geometry":{"type":"MultiPolygon","coordinates":[[[[4.348,-5.761],[4.377,-5.81],[4.39,-5.902],[4.39,-5.979],[4.369,-6.05],[4.285,-6.155],[4.138,-6.225],[4.131,-6.183],[4.103,-6.127],[4.082,-6.113],[4.082,-6.092],[4.194,-5.972],[4.306,-5.789],[4.348,-5.761]]],[[[-4.353,-6.0],[-4.304,-6.036],[-4.241,-6.127],[-4.22,-6.127],[-4.192,-6.099],[-4.149,-6.127],[-4.135,-6.155],[-4.17,-6.169],[-4.17,-6.19],[-4.1,-6.232],[-4.079,-6.261],[-4.093,-6.261],[-4.121,-6.296],[-4.128,-6.408],[-4.177,-6.408],[-4.304,-6.247],[-4.353,-6.106],[-4.353,-6.0]]]]},"properties":{"abbr":"DCl","name":"dorsal part of claustrum","plate":24,"ap_bregma_mm":-0.25,"area_mm2":0.1235,"traced_fraction":[1.0,0.951],"n_labels":2,"no_drawn_outline":false}},{"type":"Feature","geometry":{"type":"MultiPolygon","coordinates":[[[[-0.034,-6.268],[-0.041,-6.303],[0.022,-6.31],[0.057,-6.359],[0.05,-6.422],[0.015,-6.507],[-0.006,-6.535],[-0.034,-6.535],[-0.069,-6.528],[-0.125,-6.394],[-0.153,-6.401],[-0.181,-6.429],[-0.23,-6.373],[-0.244,-6.373],[-0.244,-6.345],[-0.272,-6.338],[-0.272,-6.261],[-0.16,-6.254],[-0.034,-6.268]]]]},"properties":{"abbr":"MnPO","name":"median preoptic nucleus","plate":24,"ap_bregma_mm":-0.25,"area_mm2":0.056,"traced_fraction":[0.957],"n_labels":1,"no_drawn_outline":false}},{"type":"Feature","geometry":{"type":"MultiPolygon","coordinates":[[[[0.808,-6.176],[0.815,-6.183],[0.794,-6.254],[0.752,-6.296],[0.66,-6.331],[0.667,-6.373],[0.338,-6.373],[0.226,-6.352],[0.184,-6.38],[0.177,-6.338],[0.142,-6.289],[0.149,-6.268],[0.275,-6.261],[0.296,-6.247],[0.611,-6.232],[0.73,-6.204],[0.773,-6.176],[0.808,-6.176]]],[[[-0.272,-6.261],[-0.272,-6.338],[-0.321,-6.373],[-0.342,-6.359],[-0.609,-6.359],[-0.616,-6.331],[-0.602,-6.275],[-0.511,-6.261],[-0.272,-6.261]]]]},"properties":{"abbr":"STMV","name":"bed nucleus of the stria terminalis, medial division, ventral part","plate":24,"ap_bregma_mm":-0.25,"area_mm2":0.1096,"traced_fraction":[0.897,0.929],"n_labels":2,"no_drawn_outline":false}},{"type":"Feature","geometry":{"type":"MultiPolygon","coordinates":[[[[1.256,-5.909],[1.509,-5.916],[1.509,-5.972],[1.537,-6.043],[1.516,-6.204],[1.488,-6.275],[1.425,-6.338],[1.341,-6.373],[1.263,-6.429],[1.116,-6.5],[1.011,-6.514],[0.955,-6.514],[0.815,-6.479],[0.688,-6.394],[0.667,-6.373],[0.66,-6.331],[0.752,-6.296],[0.794,-6.254],[0.815,-6.183],[0.906,-6.19],[1.123,-6.134],[1.214,-6.057],[1.256,-5.909]]],[[[-1.548,-5.937],[-1.345,-5.937],[-1.324,-6.036],[-1.275,-6.134],[-1.191,-6.19],[-1.107,-6.211],[-0.924,-6.211],[-0.861,-6.169],[-0.805,-6.19],[-0.798,-6.24],[-0.784,-6.247],[-0.784,-6.275],[-0.728,-6.331],[-0.728,-6.38],[-0.833,-6.521],[-0.959,-6.591],[-1.085,-6.619],[-1.184,-6.605],[-1.303,-6.549],[-1.331,-6.549],[-1.338,-6.549],[-1.513,-6.345],[-1.562,-6.268],[-1.562,-6.24],[-1.541,-6.169],[-1.548,-5.937]]]]},"properties":{"abbr":"STLV","name":"bed nucleus of the stria terminalis, lateral division, ventral part","plate":24,"ap_bregma_mm":-0.25,"area_mm2":0.6196,"traced_fraction":[0.903,0.913],"n_labels":2,"no_drawn_outline":false}},{"type":"Feature","geometry":{"type":"MultiPolygon","coordinates":[[[[4.082,-6.113],[4.103,-6.127],[4.138,-6.225],[4.145,-6.296],[4.103,-6.415],[4.103,-6.451],[4.089,-6.451],[4.026,-6.521],[3.935,-6.528],[3.872,-6.472],[3.851,-6.38],[3.872,-6.331],[3.984,-6.225],[4.047,-6.134],[4.082,-6.113]]],[[[-4.079,-6.261],[-4.072,-6.261],[-4.051,-6.261],[-4.037,-6.275],[-4.037,-6.296],[-3.939,-6.394],[-3.925,-6.451],[-3.904,-6.619],[-3.911,-6.739],[-3.96,-6.746],[-4.058,-6.669],[-4.079,-6.612],[-4.079,-6.57],[-4.128,-6.457],[-4.128,-6.408],[-4.121,-6.296],[-4.093,-6.261],[-4.079,-6.261]]]]},"properties":{"abbr":"VCl","name":"ventral part of claustrum","plate":24,"ap_bregma_mm":-0.25,"area_mm2":0.1486,"traced_fraction":[1.0,1.0],"n_labels":2,"no_drawn_outline":false}},{"type":"Feature","geometry":{"type":"MultiPolygon","coordinates":[[[[4.383,-5.677],[4.916,-6.036],[5.596,-6.408],[5.554,-6.472],[5.407,-6.535],[5.393,-6.549],[5.4,-6.57],[5.393,-6.612],[5.4,-6.69],[5.421,-6.922],[5.386,-7.041],[5.337,-7.147],[5.316,-7.147],[5.218,-7.091],[5.078,-7.048],[5.015,-7.006],[4.951,-6.999],[4.243,-6.711],[4.166,-6.669],[4.124,-6.669],[4.117,-6.486],[4.103,-6.451],[4.103,-6.415],[4.145,-6.296],[4.138,-6.225],[4.285,-6.155],[4.369,-6.05],[4.39,-5.979],[4.39,-5.902],[4.377,-5.81],[4.348,-5.761],[4.348,-5.726],[4.383,-5.677]]],[[[-4.465,-5.761],[-4.36,-5.951],[-4.353,-6.0],[-4.353,-6.106],[-4.304,-6.247],[-4.177,-6.408],[-4.128,-6.408],[-4.128,-6.457],[-4.079,-6.57],[-4.079,-6.612],[-4.164,-6.626],[-4.5,-6.739],[-5.061,-6.887],[-5.103,-6.908],[-5.159,-6.922],[-5.503,-6.992],[-5.545,-7.013],[-5.566,-7.006],[-5.573,-7.006],[-5.594,-6.816],[-5.587,-6.802],[-5.608,-6.718],[-5.65,-6.64],[-5.664,-6.64],[-5.664,-6.619],[-5.692,-6.584],[-5.832,-6.465],[-5.867,-6.401],[-5.797,-6.359],[-5.685,-6.324],[-5.425,-6.197],[-5.089,-6.057],[-4.521,-5.775],[-4.465,-5.761]]]]},"properties":{"abbr":"AI","name":"agranular insular cortex","plate":24,"ap_bregma_mm":-0.25,"area_mm2":2.3585,"traced_fraction":[1.0,0.988],"n_labels":2,"no_drawn_outline":false}},{"type":"Feature","geometry":{"type":"MultiPolygon","coordinates":[[[[2.504,-6.275],[2.806,-6.317],[2.897,-6.345],[3.15,-6.486],[3.262,-6.507],[3.353,-6.507],[3.381,-6.507],[3.458,-6.514],[3.57,-6.556],[3.535,-6.584],[3.444,-6.598],[3.423,-6.577],[3.353,-6.556],[3.269,-6.556],[3.248,-6.57],[3.241,-6.598],[3.205,-6.598],[3.044,-6.542],[2.771,-6.415],[2.673,-6.401],[2.659,-6.429],[2.659,-6.493],[2.673,-6.528],[2.715,-6.563],[2.806,-6.598],[2.974,-6.788],[3.22,-6.901],[3.184,-7.013],[3.114,-7.034],[3.037,-7.091],[2.876,-7.098],[2.841,-7.084],[2.82,-7.055],[2.82,-7.041],[2.876,-7.013],[2.876,-6.971],[2.855,-6.943],[2.82,-6.929],[2.771,-6.936],[2.743,-6.957],[2.729,-6.999],[2.659,-6.978],[2.624,-6.957],[2.624,-6.943],[2.659,-6.936],[2.659,-6.887],[2.638,-6.851],[2.553,-6.837],[2.511,-6.858],[2.497,-6.858],[2.476,-6.823],[2.441,-6.69],[2.427,-6.472],[2.434,-6.387],[2.504,-6.275]]],[[[-2.642,-6.577],[-2.628,-6.577],[-2.565,-6.647],[-2.537,-6.767],[-2.537,-6.858],[-2.565,-6.985],[-2.607,-7.062],[-2.642,-7.098],[-2.733,-7.126],[-2.796,-7.119],[-2.852,-7.105],[-3.133,-7.112],[-3.182,-7.084],[-3.224,-7.027],[-3.14,-6.943],[-3.049,-6.908],[-3.007,-6.872],[-2.993,-6.816],[-2.993,-6.704],[-3.007,-6.661],[-3.063,-6.655],[-3.105,-6.683],[-3.161,-6.64],[-3.217,-6.64],[-3.427,-6.725],[-3.476,-6.76],[-3.575,-6.718],[-3.631,-6.661],[-3.631,-6.64],[-3.469,-6.626],[-3.336,-6.563],[-3.259,-6.556],[-3.07,-6.556],[-2.944,-6.577],[-2.642,-6.577]]]]},"properties":{"abbr":"IPAC","name":"interstitial nucleus of the posterior limb of the anterior commissure","plate":24,"ap_bregma_mm":-0.25,"area_mm2":0.7019,"traced_fraction":[0.99,1.0],"n_labels":4,"no_drawn_outline":false}},{"type":"Feature","geometry":{"type":"MultiPolygon","coordinates":[[[[-0.784,-6.247],[-0.602,-6.275],[-0.616,-6.331],[-0.609,-6.359],[-0.342,-6.359],[-0.321,-6.373],[-0.391,-6.415],[-0.433,-6.479],[-0.447,-6.521],[-0.433,-6.612],[-0.749,-6.612],[-0.833,-6.521],[-0.728,-6.38],[-0.728,-6.331],[-0.784,-6.275],[-0.784,-6.247]]],[[[0.338,-6.373],[0.667,-6.373],[0.688,-6.394],[0.674,-6.394],[0.667,-6.451],[0.667,-6.598],[0.401,-6.598],[0.387,-6.472],[0.338,-6.373]]]]},"properties":{"abbr":"PS","name":"parastrial nucleus","plate":24,"ap_bregma_mm":-0.25,"area_mm2":0.172,"traced_fraction":[0.742,0.497],"n_labels":2,"no_drawn_outline":true}},{"type":"Feature","geometry":{"type":"MultiPolygon","coordinates":[[[[4.348,-5.642],[4.383,-5.649],[4.383,-5.677],[4.348,-5.726],[4.348,-5.761],[4.306,-5.789],[4.194,-5.972],[4.11,-6.057],[4.082,-6.092],[4.082,-6.113],[4.047,-6.134],[3.984,-6.225],[3.872,-6.331],[3.851,-6.38],[3.822,-6.387],[3.752,-6.457],[3.64,-6.647],[3.619,-6.647],[3.584,-6.676],[3.549,-6.725],[3.528,-6.788],[3.465,-6.844],[3.332,-6.894],[3.22,-6.901],[2.974,-6.788],[2.806,-6.598],[2.715,-6.563],[2.673,-6.528],[2.659,-6.493],[2.659,-6.429],[2.673,-6.401],[2.771,-6.415],[3.044,-6.542],[3.156,-6.584],[3.241,-6.598],[3.318,-6.619],[3.409,-6.619],[3.444,-6.598],[3.493,-6.598],[3.57,-6.556],[3.647,-6.521],[3.675,-6.465],[3.731,-6.408],[3.843,-6.24],[3.956,-6.127],[3.97,-6.127],[4.208,-5.874],[4.299,-5.74],[4.348,-5.642]]],[[[-0.132,-5.754],[0.071,-5.754],[0.17,-5.754],[0.177,-5.754],[0.205,-5.775],[0.331,-5.796],[0.485,-5.86],[0.485,-5.874],[0.541,-5.916],[0.639,-6.043],[0.541,-6.05],[0.408,-6.014],[0.092,-5.993],[-0.391,-6.036],[-0.595,-6.106],[-0.602,-6.071],[-0.56,-5.951],[-0.524,-5.895],[-0.469,-5.853],[-0.37,-5.81],[-0.223,-5.775],[-0.132,-5.754]]],[[[-4.037,-6.275],[-3.981,-6.289],[-3.757,-6.521],[-3.757,-6.535],[-3.652,-6.64],[-3.631,-6.64],[-3.631,-6.661],[-3.575,-6.718],[-3.476,-6.76],[-3.448,-6.781],[-3.28,-6.774],[-3.147,-6.732],[-3.105,-6.683],[-3.063,-6.655],[-3.007,-6.661],[-2.993,-6.704],[-2.993,-6.816],[-3.007,-6.872],[-3.049,-6.908],[-3.14,-6.943],[-3.224,-7.027],[-3.301,-7.034],[-3.329,-7.027],[-3.371,-6.985],[-3.413,-6.894],[-3.554,-6.837],[-3.631,-6.823],[-3.694,-6.753],[-3.841,-6.514],[-3.876,-6.486],[-3.876,-6.472],[-3.925,-6.451],[-3.939,-6.394],[-4.037,-6.296],[-4.037,-6.275]]]]},"properties":{"abbr":"acp","name":"anterior commissure, posterior part","plate":24,"ap_bregma_mm":-0.25,"area_mm2":0.7156,"traced_fraction":[1.0,1.0,1.0],"n_labels":3,"no_drawn_outline":false}},{"type":"Feature","geometry":{"type":"MultiPolygon","coordinates":[[[[3.851,-6.38],[3.872,-6.472],[3.935,-6.528],[4.026,-6.521],[4.089,-6.451],[4.103,-6.451],[4.117,-6.486],[4.124,-6.669],[4.103,-6.774],[4.082,-6.844],[4.005,-6.978],[3.865,-7.133],[3.809,-7.168],[3.788,-7.161],[3.738,-7.069],[3.675,-6.887],[3.647,-6.76],[3.64,-6.647],[3.752,-6.457],[3.822,-6.387],[3.851,-6.38]]],[[[-3.925,-6.451],[-3.876,-6.472],[-3.876,-6.486],[-3.841,-6.514],[-3.694,-6.753],[-3.631,-6.823],[-3.603,-6.929],[-3.609,-6.999],[-3.645,-7.048],[-3.715,-7.076],[-3.82,-7.076],[-3.932,-7.027],[-4.023,-6.929],[-4.058,-6.837],[-4.072,-6.718],[-4.058,-6.669],[-3.96,-6.746],[-3.911,-6.739],[-3.904,-6.619],[-3.925,-6.451]]]]},"properties":{"abbr":"DEn","name":"dorsal endopiriform nucleus","plate":24,"ap_bregma_mm":-0.25,"area_mm2":0.4083,"traced_fraction":[1.0,1.0],"n_labels":2,"no_drawn_outline":false}},{"type":"Feature","geometry":{"type":"MultiPolygon","coordinates":[[[[1.537,-6.043],[1.565,-6.043],[1.621,-6.113],[1.705,-6.169],[1.81,-6.225],[1.951,-6.275],[1.951,-6.591],[2.035,-6.591],[2.035,-6.303],[2.434,-6.387],[2.427,-6.472],[2.441,-6.69],[2.476,-6.823],[2.497,-6.858],[2.511,-6.858],[2.511,-6.88],[2.567,-6.922],[2.567,-6.971],[2.595,-6.971],[2.603,-6.943],[2.624,-6.943],[2.624,-6.957],[2.659,-6.978],[2.729,-6.999],[2.75,-7.027],[2.743,-7.309],[2.708,-7.337],[2.645,-7.302],[2.54,-7.28],[2.371,-7.287],[2.245,-7.323],[2.238,-7.287],[1.979,-7.287],[1.979,-7.048],[1.621,-7.048],[1.572,-6.901],[1.502,-6.753],[1.404,-6.612],[1.298,-6.507],[1.263,-6.429],[1.341,-6.373],[1.425,-6.338],[1.488,-6.275],[1.516,-6.204],[1.537,-6.043]]],[[[-1.597,-6.232],[-1.562,-6.24],[-1.562,-6.268],[-1.513,-6.345],[-1.338,-6.549],[-1.338,-6.556],[-1.471,-6.661],[-1.548,-6.739],[-1.618,-6.837],[-1.695,-6.985],[-1.751,-7.182],[-2.116,-7.182],[-2.116,-7.449],[-2.221,-7.449],[-2.221,-7.498],[-2.34,-7.463],[-2.53,-7.456],[-2.614,-7.47],[-2.74,-7.527],[-2.789,-7.477],[-2.796,-7.259],[-2.817,-7.245],[-2.796,-7.203],[-2.796,-7.119],[-2.733,-7.126],[-2.642,-7.098],[-2.607,-7.062],[-2.565,-6.985],[-2.537,-6.858],[-2.537,-6.767],[-2.565,-6.647],[-2.495,-6.619],[-2.306,-6.584],[-1.997,-6.479],[-1.997,-6.711],[-1.913,-6.711],[-1.913,-6.443],[-1.73,-6.338],[-1.632,-6.247],[-1.597,-6.232]]]]},"properties":{"abbr":"VP","name":"ventral pallidum","plate":24,"ap_bregma_mm":-0.25,"area_mm2":1.8825,"traced_fraction":[0.651,0.681],"n_labels":2,"no_drawn_outline":true}},{"type":"Feature","geometry":{"type":"MultiPolygon","coordinates":[[[[1.263,-6.429],[1.298,-6.507],[1.404,-6.612],[1.502,-6.753],[1.572,-6.901],[1.621,-7.048],[1.663,-7.337],[1.663,-7.421],[1.684,-7.491],[1.481,-7.555],[1.39,-7.639],[1.397,-7.71],[1.474,-7.808],[1.558,-7.857],[1.663,-7.892],[1.649,-8.026],[1.263,-7.963],[1.235,-7.906],[1.172,-7.85],[1.06,-7.752],[0.99,-7.674],[0.927,-7.569],[0.899,-7.548],[0.829,-7.456],[0.737,-7.224],[0.737,-7.048],[0.787,-6.88],[0.906,-6.676],[1.011,-6.556],[1.011,-6.514],[1.116,-6.5],[1.263,-6.429]]],[[[-1.331,-6.549],[-1.303,-6.549],[-1.184,-6.605],[-1.085,-6.619],[-1.085,-6.655],[-1.008,-6.746],[-0.889,-6.971],[-0.854,-7.069],[-0.833,-7.189],[-0.826,-7.449],[-0.84,-7.583],[-0.861,-7.639],[-1.001,-7.892],[-1.107,-8.04],[-1.282,-8.04],[-1.289,-8.054],[-1.345,-8.075],[-1.387,-8.117],[-1.387,-8.16],[-1.597,-8.244],[-1.695,-8.251],[-1.702,-8.131],[-1.52,-8.082],[-1.485,-8.047],[-1.471,-7.977],[-1.485,-7.906],[-1.52,-7.843],[-1.717,-7.653],[-1.759,-7.506],[-1.772,-7.365],[-1.751,-7.182],[-1.695,-6.985],[-1.618,-6.837],[-1.548,-6.739],[-1.408,-6.605],[-1.338,-6.556],[-1.331,-6.549]]]]},"properties":{"abbr":"LPO","name":"lateral preoptic area","plate":24,"ap_bregma_mm":-0.25,"area_mm2":2.0675,"traced_fraction":[0.973,0.975],"n_labels":2,"no_drawn_outline":false}},{"type":"Feature","geometry":{"type":"MultiPolygon","coordinates":[[[[0.688,-6.394],[0.815,-6.479],[0.955,-6.514],[1.011,-6.514],[1.011,-6.556],[0.906,-6.676],[0.787,-6.88],[0.737,-7.048],[0.737,-7.224],[-0.013,-7.224],[-0.013,-7.098],[0.24,-7.098],[0.24,-6.767],[0.303,-6.774],[0.373,-6.732],[0.401,-6.661],[0.401,-6.598],[0.667,-6.598],[0.667,-6.451],[0.674,-6.394],[0.688,-6.394]]],[[[-0.833,-6.521],[-0.749,-6.612],[-0.433,-6.612],[-0.419,-6.669],[-0.37,-6.746],[-0.384,-6.746],[-0.454,-6.816],[-0.454,-7.189],[-0.833,-7.189],[-0.854,-7.069],[-0.889,-6.971],[-1.008,-6.746],[-1.085,-6.655],[-1.085,-6.619],[-0.959,-6.591],[-0.833,-6.521]]]]},"properties":{"abbr":"MPA","name":"medial preoptic area","plate":24,"ap_bregma_mm":-0.25,"area_mm2":0.7039,"traced_fraction":[0.508,0.497],"n_labels":2,"no_drawn_outline":true}},{"type":"Feature","geometry":{"type":"MultiPolygon","coordinates":[[[[0.135,-6.268],[0.142,-6.289],[0.177,-6.338],[0.184,-6.38],[0.135,-6.451],[0.12,-6.598],[0.163,-6.711],[0.24,-6.767],[0.24,-7.098],[-0.013,-7.098],[-0.027,-7.013],[-0.034,-6.535],[-0.006,-6.535],[0.015,-6.507],[0.057,-6.394],[0.05,-6.338],[0.022,-6.31],[-0.041,-6.303],[-0.034,-6.268],[0.135,-6.268]]]]},"properties":{"abbr":"Pe","name":"periventricular hypothalamic nucleus","plate":24,"ap_bregma_mm":-0.25,"area_mm2":0.1641,"traced_fraction":[0.758],"n_labels":1,"no_drawn_outline":false}},{"type":"Feature","geometry":{"type":"MultiPolygon","coordinates":[[[[1.621,-7.048],[1.979,-7.048],[1.979,-7.287],[1.972,-7.428],[1.684,-7.491],[1.663,-7.421],[1.663,-7.337],[1.621,-7.048]]],[[[-1.751,-7.182],[-1.772,-7.365],[-1.759,-7.506],[-1.717,-7.653],[-1.759,-7.653],[-1.822,-7.618],[-1.955,-7.583],[-1.955,-7.449],[-2.116,-7.449],[-2.116,-7.182],[-1.751,-7.182]]]]},"properties":{"abbr":"SIB","name":"substantia innominata, basal part","plate":24,"ap_bregma_mm":-0.25,"area_mm2":0.264,"traced_fraction":[0.546,0.481],"n_labels":2,"no_drawn_outline":true}},{"type":"Feature","geometry":{"type":"MultiPolygon","coordinates":[[[[3.64,-6.647],[3.647,-6.76],[3.675,-6.887],[3.738,-7.069],[3.788,-7.161],[3.809,-7.168],[3.801,-7.238],[3.837,-7.372],[3.689,-7.379],[3.577,-7.358],[3.458,-7.316],[3.402,-7.28],[3.374,-7.245],[3.423,-7.217],[3.458,-7.168],[3.437,-7.084],[3.36,-7.027],[3.184,-7.013],[3.22,-6.901],[3.332,-6.894],[3.465,-6.844],[3.528,-6.788],[3.549,-6.725],[3.584,-6.676],[3.619,-6.647],[3.64,-6.647]]],[[[-3.631,-6.823],[-3.554,-6.837],[-3.413,-6.894],[-3.371,-6.985],[-3.329,-7.027],[-3.301,-7.034],[-3.301,-7.062],[-3.364,-7.168],[-3.364,-7.266],[-3.315,-7.337],[-3.294,-7.4],[-3.631,-7.386],[-3.778,-7.351],[-3.806,-7.323],[-3.771,-7.238],[-3.722,-7.175],[-3.715,-7.076],[-3.645,-7.048],[-3.609,-6.999],[-3.603,-6.929],[-3.631,-6.823]]]]},"properties":{"abbr":"IEn","name":"intermediate endopiriform nucleus","plate":24,"ap_bregma_mm":-0.25,"area_mm2":0.405,"traced_fraction":[1.0,0.978],"n_labels":2,"no_drawn_outline":false}},{"type":"Feature","geometry":{"type":"MultiPolygon","coordinates":[[[[-4.072,-6.718],[-4.058,-6.837],[-4.023,-6.929],[-3.995,-6.964],[-3.932,-7.027],[-3.869,-7.062],[-3.82,-7.076],[-3.715,-7.076],[-3.722,-7.175],[-3.771,-7.238],[-3.806,-7.323],[-3.848,-7.323],[-3.946,-7.323],[-4.023,-7.302],[-4.1,-7.224],[-4.149,-7.126],[-4.177,-7.02],[-4.177,-6.887],[-4.135,-6.753],[-4.114,-6.725],[-4.072,-6.718]]],[[[4.103,-6.774],[4.138,-6.788],[4.187,-6.837],[4.236,-6.929],[4.243,-7.076],[4.215,-7.175],[4.152,-7.287],[4.005,-7.428],[3.893,-7.435],[3.837,-7.372],[3.801,-7.238],[3.809,-7.168],[3.865,-7.133],[3.984,-7.006],[4.054,-6.901],[4.103,-6.774]]]]},"properties":{"abbr":"VEn","name":"ventral endopiriform nucleus","plate":24,"ap_bregma_mm":-0.25,"area_mm2":0.3088,"traced_fraction":[0.976,0.996],"n_labels":2,"no_drawn_outline":false}},{"type":"Feature","geometry":{"type":"MultiPolygon","coordinates":[[[[-5.103,-6.908],[-5.082,-6.95],[-5.005,-7.02],[-4.949,-7.105],[-4.893,-7.161],[-4.808,-7.21],[-4.738,-7.28],[-4.689,-7.393],[-4.598,-7.498],[-4.549,-7.653],[-4.591,-7.674],[-4.591,-7.702],[-4.661,-7.78],[-4.794,-7.71],[-4.879,-7.611],[-4.914,-7.484],[-4.991,-7.393],[-5.096,-7.189],[-5.138,-7.062],[-5.159,-6.922],[-5.103,-6.908]]],[[[4.951,-6.999],[5.015,-7.006],[5.078,-7.048],[5.049,-7.203],[4.972,-7.309],[4.937,-7.386],[4.93,-7.512],[4.741,-7.506],[4.699,-7.463],[4.769,-7.351],[4.769,-7.189],[4.797,-7.154],[4.881,-7.133],[4.902,-7.112],[4.909,-7.062],[4.951,-6.999]]],[[[-3.624,-7.97],[-3.596,-7.97],[-3.596,-8.174],[-3.645,-8.181],[-3.68,-8.209],[-3.792,-8.202],[-3.939,-8.082],[-3.932,-8.054],[-3.918,-8.005],[-3.911,-8.005],[-3.904,-7.998],[-3.799,-7.956],[-3.757,-7.92],[-3.715,-7.92],[-3.666,-7.963],[-3.624,-7.97]]],[[[3.682,-8.026],[3.759,-8.033],[3.83,-8.082],[3.837,-8.096],[3.9,-8.103],[3.998,-8.075],[4.166,-8.061],[4.194,-8.124],[4.194,-8.153],[4.18,-8.153],[4.138,-8.209],[4.047,-8.223],[3.935,-8.3],[3.851,-8.307],[3.745,-8.286],[3.689,-8.251],[3.682,-8.23],[3.682,-8.026]]]]},"properties":{"abbr":"2","name":"layer 2 of cortex","plate":24,"ap_bregma_mm":-0.25,"area_mm2":0.4735,"traced_fraction":[0.945,0.87,0.86,0.893],"n_labels":4,"no_drawn_outline":false}},{"type":"Feature","geometry":{"type":"MultiPolygon","coordinates":[[[[-4.079,-6.612],[-4.058,-6.669],[-4.072,-6.718],[-4.114,-6.725],[-4.135,-6.753],[-4.177,-6.887],[-4.177,-7.02],[-4.149,-7.126],[-4.1,-7.224],[-4.023,-7.302],[-3.946,-7.323],[-3.848,-7.323],[-3.834,-7.442],[-3.841,-7.695],[-3.624,-7.695],[-3.624,-7.97],[-3.666,-7.963],[-3.715,-7.92],[-3.757,-7.92],[-3.799,-7.956],[-3.904,-7.998],[-3.911,-8.005],[-3.918,-8.005],[-4.044,-7.906],[-4.262,-7.815],[-4.374,-7.702],[-4.444,-7.681],[-4.5,-7.681],[-4.549,-7.653],[-4.598,-7.498],[-4.689,-7.393],[-4.738,-7.28],[-4.808,-7.21],[-4.893,-7.161],[-4.949,-7.105],[-5.005,-7.02],[-5.082,-6.95],[-5.103,-6.908],[-5.061,-6.887],[-4.5,-6.739],[-4.164,-6.626],[-4.079,-6.612]]],[[[4.124,-6.669],[4.166,-6.669],[4.243,-6.711],[4.951,-6.999],[4.909,-7.062],[4.902,-7.112],[4.881,-7.133],[4.797,-7.154],[4.769,-7.189],[4.769,-7.351],[4.699,-7.463],[4.524,-7.639],[4.489,-7.71],[4.334,-7.885],[4.334,-7.899],[4.166,-8.061],[3.998,-8.075],[3.9,-8.103],[3.837,-8.096],[3.83,-8.082],[3.83,-7.85],[4.089,-7.85],[4.047,-7.702],[4.005,-7.428],[4.152,-7.287],[4.215,-7.175],[4.243,-7.076],[4.236,-6.929],[4.187,-6.837],[4.138,-6.788],[4.103,-6.774],[4.124,-6.669]]]]},"properties":{"abbr":"3","name":"layer 3 of cortex","plate":24,"ap_bregma_mm":-0.25,"area_mm2":1.6189,"traced_fraction":[0.906,0.889],"n_labels":4,"no_drawn_outline":false}},{"type":"Feature","geometry":{"type":"MultiPolygon","coordinates":[[[[-0.034,-6.535],[-0.027,-7.013],[-0.013,-7.098],[-0.013,-7.224],[0.737,-7.224],[0.801,-7.4],[0.899,-7.548],[0.808,-7.639],[0.05,-7.639],[0.057,-7.681],[0.107,-7.773],[0.107,-7.829],[0.092,-7.829],[0.008,-7.731],[-0.006,-7.59],[-0.027,-7.583],[-0.048,-7.639],[-0.861,-7.639],[-0.84,-7.583],[-0.826,-7.449],[-0.833,-7.189],[-0.454,-7.189],[-0.454,-6.816],[-0.384,-6.746],[-0.37,-6.746],[-0.328,-6.774],[-0.265,-6.774],[-0.188,-6.718],[-0.16,-6.598],[-0.181,-6.429],[-0.153,-6.401],[-0.125,-6.394],[-0.069,-6.528],[-0.034,-6.535]]]]},"properties":{"abbr":"MPO","name":"medial preoptic nucleus","plate":24,"ap_bregma_mm":-0.25,"area_mm2":0.9484,"traced_fraction":[0.496],"n_labels":2,"no_drawn_outline":true}},{"type":"Feature","geometry":{"type":"MultiPolygon","coordinates":[[[[-5.159,-6.922],[-5.138,-7.062],[-5.096,-7.189],[-4.991,-7.393],[-4.914,-7.484],[-4.879,-7.611],[-4.794,-7.71],[-4.661,-7.78],[-4.598,-7.871],[-4.486,-7.949],[-4.367,-8.005],[-4.297,-8.026],[-4.17,-8.033],[-4.093,-8.068],[-3.981,-8.075],[-3.932,-8.054],[-3.939,-8.082],[-3.792,-8.202],[-3.68,-8.209],[-3.645,-8.181],[-3.596,-8.174],[-3.554,-8.216],[-3.511,-8.23],[-3.42,-8.244],[-3.315,-8.237],[-3.273,-8.258],[-3.21,-8.265],[-3.21,-8.335],[-3.631,-8.342],[-3.75,-8.364],[-3.89,-8.42],[-3.911,-8.441],[-3.925,-8.49],[-4.22,-8.427],[-4.388,-8.364],[-4.556,-8.272],[-4.577,-8.272],[-4.808,-8.131],[-4.928,-8.04],[-4.942,-8.047],[-4.97,-8.026],[-4.963,-8.019],[-4.977,-8.005],[-4.984,-8.012],[-5.019,-7.984],[-5.033,-7.97],[-5.047,-7.956],[-5.04,-7.949],[-5.082,-7.92],[-5.124,-7.857],[-5.138,-7.857],[-5.152,-7.822],[-5.166,-7.822],[-5.355,-7.52],[-5.369,-7.52],[-5.369,-7.498],[-5.482,-7.28],[-5.552,-7.048],[-5.573,-7.041],[-5.573,-7.006],[-5.566,-7.006],[-5.545,-7.013],[-5.503,-6.992],[-5.159,-6.922]]],[[[5.078,-7.048],[5.218,-7.091],[5.316,-7.147],[5.337,-7.147],[5.344,-7.161],[5.337,-7.182],[5.323,-7.182],[5.33,-7.196],[5.323,-7.217],[5.316,-7.238],[5.309,-7.252],[5.302,-7.273],[5.288,-7.309],[5.274,-7.344],[5.267,-7.358],[5.26,-7.379],[5.246,-7.379],[5.204,-7.463],[5.176,-7.527],[5.183,-7.541],[5.183,-7.555],[5.162,-7.555],[5.12,-7.653],[5.092,-7.681],[5.092,-7.702],[5.042,-7.759],[5.042,-7.78],[5.028,-7.801],[5.015,-7.801],[5.021,-7.815],[5.015,-7.822],[5.0,-7.822],[4.972,-7.878],[4.958,-7.878],[4.902,-7.963],[4.888,-7.963],[4.86,-8.012],[4.846,-8.012],[4.839,-8.033],[4.769,-8.089],[4.769,-8.103],[4.383,-8.364],[4.145,-8.483],[4.019,-8.518],[3.935,-8.518],[3.935,-8.49],[3.872,-8.427],[3.745,-8.364],[3.745,-8.286],[3.851,-8.307],[3.935,-8.3],[4.047,-8.223],[4.138,-8.209],[4.18,-8.153],[4.194,-8.153],[4.194,-8.124],[4.369,-8.117],[4.545,-7.998],[4.734,-7.815],[4.755,-7.773],[4.888,-7.632],[4.923,-7.576],[4.93,-7.512],[4.937,-7.386],[4.972,-7.309],[5.049,-7.203],[5.078,-7.048]]]]},"properties":{"abbr":"1","name":"layer 1 of cortex","plate":24,"ap_bregma_mm":-0.25,"area_mm2":1.3689,"traced_fraction":[0.996,0.994],"n_labels":4,"no_drawn_outline":false}},{"type":"Feature","geometry":{"type":"MultiPolygon","coordinates":[[[[4.699,-7.463],[4.741,-7.506],[4.93,-7.512],[4.923,-7.576],[4.888,-7.632],[4.755,-7.773],[4.734,-7.815],[4.545,-7.998],[4.369,-8.117],[4.194,-8.124],[4.166,-8.061],[4.334,-7.899],[4.334,-7.885],[4.489,-7.71],[4.524,-7.639],[4.699,-7.463]]],[[[-4.549,-7.653],[-4.5,-7.681],[-4.444,-7.681],[-4.374,-7.702],[-4.262,-7.815],[-4.044,-7.906],[-3.918,-8.005],[-3.932,-8.054],[-3.981,-8.075],[-4.093,-8.068],[-4.17,-8.033],[-4.297,-8.026],[-4.367,-8.005],[-4.486,-7.949],[-4.598,-7.871],[-4.661,-7.78],[-4.591,-7.702],[-4.591,-7.674],[-4.549,-7.653]]]]},"properties":{"abbr":"Pir","name":"piriform cortex","plate":24,"ap_bregma_mm":-0.25,"area_mm2":0.3419,"traced_fraction":[0.897,0.934],"n_labels":2,"no_drawn_outline":false}},{"type":"Feature","geometry":{"type":"MultiPolygon","coordinates":[[[[0.899,-7.548],[0.927,-7.569],[0.99,-7.674],[1.06,-7.752],[1.046,-7.752],[1.004,-7.801],[0.969,-7.801],[0.885,-7.85],[0.59,-7.85],[0.59,-7.963],[0.506,-8.054],[0.338,-7.956],[0.107,-7.871],[0.107,-7.829],[0.107,-7.773],[0.057,-7.681],[0.05,-7.639],[0.808,-7.639],[0.899,-7.548]]],[[[-0.861,-7.639],[-0.048,-7.639],[-0.09,-7.794],[-0.076,-7.864],[-0.076,-7.885],[-0.09,-7.892],[-0.223,-7.935],[-0.363,-8.005],[-0.518,-8.117],[-0.56,-8.089],[-0.574,-7.892],[-1.001,-7.892],[-0.861,-7.639]]]]},"properties":{"abbr":"VMPO","name":"ventromedial preoptic nucleus","plate":24,"ap_bregma_mm":-0.25,"area_mm2":0.5208,"traced_fraction":[0.413,0.454],"n_labels":2,"no_drawn_outline":true}},{"type":"Feature","geometry":{"type":"MultiPolygon","coordinates":[[[[2.105,-7.393],[2.112,-7.449],[2.098,-7.477],[2.084,-7.604],[2.098,-7.688],[2.133,-7.773],[2.21,-7.829],[2.357,-7.871],[2.378,-7.899],[2.294,-7.92],[2.021,-7.942],[1.663,-7.892],[1.558,-7.857],[1.474,-7.808],[1.397,-7.71],[1.39,-7.639],[1.481,-7.555],[1.684,-7.491],[1.972,-7.428],[2.105,-7.393]]],[[[-2.088,-7.555],[-2.039,-7.555],[-1.955,-7.583],[-1.822,-7.618],[-1.759,-7.653],[-1.717,-7.653],[-1.52,-7.843],[-1.485,-7.906],[-1.471,-7.977],[-1.485,-8.047],[-1.52,-8.082],[-1.702,-8.131],[-1.99,-8.146],[-2.179,-8.131],[-2.221,-8.124],[-2.249,-8.103],[-2.242,-8.089],[-2.158,-8.075],[-2.046,-8.026],[-1.99,-7.977],[-1.969,-7.935],[-1.948,-7.843],[-1.955,-7.745],[-1.997,-7.667],[-2.081,-7.583],[-2.088,-7.555]]]]},"properties":{"abbr":"HDB","name":"nucleus of the horizontal limb of the diagonal band","plate":24,"ap_bregma_mm":-0.25,"area_mm2":0.5492,"traced_fraction":[1.0,1.0],"n_labels":2,"no_drawn_outline":false}},{"type":"Feature","geometry":{"type":"MultiPolygon","coordinates":[[[[1.06,-7.752],[1.172,-7.85],[1.165,-7.892],[1.039,-7.892],[1.039,-8.005],[1.011,-8.019],[1.004,-8.047],[0.892,-8.089],[0.688,-8.124],[0.597,-8.124],[0.506,-8.054],[0.59,-7.963],[0.59,-7.85],[0.885,-7.85],[0.969,-7.801],[1.004,-7.801],[1.046,-7.752],[1.06,-7.752]]],[[[-1.001,-7.892],[-0.574,-7.892],[-0.56,-8.089],[-0.518,-8.117],[-0.567,-8.16],[-0.623,-8.174],[-0.735,-8.174],[-0.994,-8.138],[-1.05,-8.068],[-1.107,-8.04],[-1.001,-7.892]]]]},"properties":{"abbr":"VLPO","name":"ventrolateral preoptic nucleus","plate":24,"ap_bregma_mm":-0.25,"area_mm2":0.2656,"traced_fraction":[0.498,0.585],"n_labels":2,"no_drawn_outline":true}},{"type":"Feature","geometry":{"type":"MultiPolygon","coordinates":[[[[2.659,-7.801],[2.701,-7.843],[3.192,-7.85],[3.199,-8.047],[3.178,-8.068],[3.178,-8.103],[3.22,-8.138],[3.297,-8.174],[3.36,-8.188],[3.542,-8.174],[3.682,-8.23],[3.689,-8.251],[3.745,-8.286],[3.745,-8.364],[3.619,-8.335],[3.304,-8.3],[3.135,-8.237],[2.981,-8.244],[2.918,-8.265],[2.876,-8.3],[2.841,-8.3],[2.834,-8.293],[2.827,-8.293],[2.813,-8.265],[2.736,-8.23],[2.722,-8.209],[2.61,-8.153],[2.595,-8.16],[2.589,-8.16],[2.582,-8.138],[2.567,-8.146],[2.532,-8.124],[2.49,-8.124],[2.49,-8.11],[2.399,-8.089],[2.224,-8.096],[2.168,-8.11],[1.979,-8.11],[1.649,-8.026],[1.663,-7.892],[2.021,-7.942],[2.294,-7.92],[2.378,-7.899],[2.54,-7.878],[2.659,-7.801]]],[[[-2.74,-7.871],[-2.614,-7.998],[-2.495,-8.068],[-2.376,-8.096],[-2.249,-8.103],[-2.221,-8.124],[-2.179,-8.131],[-1.99,-8.146],[-1.702,-8.131],[-1.695,-8.251],[-1.99,-8.286],[-2.2,-8.328],[-2.298,-8.328],[-2.481,-8.272],[-2.551,-8.272],[-2.551,-8.286],[-2.586,-8.286],[-2.593,-8.286],[-2.621,-8.286],[-2.754,-8.342],[-2.922,-8.441],[-2.922,-8.427],[-2.999,-8.364],[-3.098,-8.335],[-3.21,-8.335],[-3.21,-8.265],[-3.154,-8.258],[-3.105,-8.216],[-3.105,-8.146],[-3.14,-8.096],[-3.224,-8.082],[-3.266,-8.019],[-3.217,-7.97],[-3.189,-7.913],[-3.189,-7.871],[-2.74,-7.871]]],[[[-2.593,-8.286],[-2.586,-8.286],[-2.593,-8.293],[-2.593,-8.286]]]]},"properties":{"abbr":"ACo","name":"anterior cortical amygdaloid nucleus","plate":24,"ap_bregma_mm":-0.25,"area_mm2":0.9114,"traced_fraction":[0.841,0.835,1.0],"n_labels":2,"no_drawn_outline":false}},{"type":"Feature","geometry":{"type":"MultiPolygon","coordinates":[[[[0.107,-7.871],[0.338,-7.956],[0.506,-8.054],[0.597,-8.124],[0.688,-8.124],[0.892,-8.089],[1.004,-8.047],[1.06,-8.054],[1.102,-8.082],[1.095,-8.146],[1.116,-8.195],[1.123,-8.286],[0.976,-8.448],[0.892,-8.469],[0.892,-8.483],[0.625,-8.511],[0.541,-8.504],[0.38,-8.539],[0.275,-8.539],[0.092,-8.49],[0.057,-8.497],[0.036,-8.497],[0.029,-8.476],[-0.055,-8.469],[-0.195,-8.476],[-0.195,-8.497],[-0.279,-8.497],[-0.342,-8.504],[-0.405,-8.511],[-0.602,-8.532],[-0.868,-8.525],[-0.931,-8.483],[-0.945,-8.49],[-1.001,-8.434],[-1.008,-8.406],[-1.022,-8.406],[-1.057,-8.357],[-1.079,-8.3],[-1.079,-8.188],[-1.043,-8.181],[-0.994,-8.138],[-0.735,-8.174],[-0.623,-8.174],[-0.567,-8.16],[-0.518,-8.117],[-0.363,-8.005],[-0.223,-7.935],[-0.09,-7.892],[-0.09,-7.927],[0.099,-7.927],[0.107,-7.871]]]]},"properties":{"abbr":"och","name":"optic chiasm","plate":24,"ap_bregma_mm":-0.25,"area_mm2":0.9726,"traced_fraction":[0.956],"n_labels":1,"no_drawn_outline":false}},{"type":"Feature","geometry":{"type":"MultiPolygon","coordinates":[[[[-3.266,-8.019],[-3.224,-8.082],[-3.14,-8.096],[-3.105,-8.146],[-3.105,-8.216],[-3.154,-8.258],[-3.21,-8.265],[-3.273,-8.258],[-3.315,-8.237],[-3.42,-8.244],[-3.511,-8.23],[-3.554,-8.216],[-3.596,-8.174],[-3.596,-7.97],[-3.406,-7.949],[-3.35,-7.963],[-3.266,-8.019]]],[[[3.682,-8.026],[3.682,-8.23],[3.542,-8.174],[3.472,-8.174],[3.437,-8.188],[3.297,-8.174],[3.22,-8.138],[3.178,-8.103],[3.178,-8.068],[3.199,-8.047],[3.262,-8.019],[3.318,-8.019],[3.374,-8.047],[3.472,-8.047],[3.5,-8.033],[3.591,-8.033],[3.633,-8.019],[3.682,-8.026]]]]},"properties":{"abbr":"CxA","name":"cortex-amygdala transition zone","plate":24,"ap_bregma_mm":-0.25,"area_mm2":0.1869,"traced_fraction":[0.895,0.887],"n_labels":2,"no_drawn_outline":false}},{"type":"Feature","geometry":{"type":"MultiPolygon","coordinates":[[[[3.745,-8.364],[3.872,-8.427],[3.935,-8.49],[3.935,-8.518],[3.479,-8.49],[3.205,-8.455],[3.044,-8.406],[2.883,-8.321],[2.876,-8.3],[2.918,-8.265],[2.981,-8.244],[3.135,-8.237],[3.304,-8.3],[3.57,-8.328],[3.745,-8.364]]],[[[-3.21,-8.335],[-3.098,-8.335],[-2.999,-8.364],[-2.965,-8.385],[-2.922,-8.441],[-3.014,-8.504],[-3.161,-8.518],[-3.708,-8.518],[-3.925,-8.49],[-3.925,-8.469],[-3.89,-8.42],[-3.75,-8.364],[-3.631,-8.342],[-3.21,-8.335]]]]},"properties":{"abbr":"lo","name":"lateral olfactory tract","plate":24,"ap_bregma_mm":-0.25,"area_mm2":0.3096,"traced_fraction":[1.0,1.0],"n_labels":2,"no_drawn_outline":false}},{"type":"Feature","geometry":{"type":"MultiPolygon","coordinates":[[[[-1.794,-2.807],[-1.597,-2.807],[-1.597,-2.892],[-1.492,-2.885],[-1.282,-2.92],[-1.142,-3.004],[-1.036,-3.11],[-0.861,-3.236],[-0.714,-3.307],[-0.644,-3.314],[-0.581,-3.328],[-0.475,-3.384],[-0.251,-3.419],[0.008,-3.419],[0.212,-3.398],[0.38,-3.384],[0.506,-3.349],[0.625,-3.293],[0.653,-3.293],[0.667,-3.328],[0.688,-3.328],[0.843,-3.271],[0.948,-3.173],[0.948,-3.159],[1.102,-2.99],[1.214,-2.913],[1.376,-2.871],[1.558,-2.856],[1.775,-2.856],[1.789,-2.955],[1.551,-3.004],[1.439,-3.046],[1.418,-3.067],[1.376,-3.067],[1.2,-3.173],[0.941,-3.391],[0.85,-3.419],[0.695,-3.433],[0.667,-3.447],[0.66,-3.475],[0.569,-3.482],[0.471,-3.518],[0.324,-3.546],[-0.013,-3.574],[-0.23,-3.56],[-0.454,-3.525],[-0.602,-3.49],[-0.686,-3.447],[-0.742,-3.44],[-0.826,-3.398],[-0.931,-3.384],[-1.05,-3.349],[-1.128,-3.307],[-1.331,-3.131],[-1.38,-3.11],[-1.45,-3.11],[-1.534,-3.082],[-1.955,-3.018],[-2.397,-3.011],[-2.803,-3.089],[-3.273,-3.229],[-3.434,-3.307],[-3.441,-3.222],[-3.434,-3.208],[-3.189,-3.096],[-3.014,-3.025],[-2.789,-2.976],[-2.558,-2.906],[-2.355,-2.871],[-1.794,-2.807]]]]},"properties":{"abbr":"cc","name":"corpus callosum","plate":24,"ap_bregma_mm":-0.25,"area_mm2":0.8814,"traced_fraction":[0.989],"n_labels":1,"no_drawn_outline":false}},{"type":"Feature","geometry":{"type":"MultiPolygon","coordinates":[[[[0.639,-6.043],[0.681,-6.071],[0.78,-6.092],[0.808,-6.134],[0.808,-6.176],[0.773,-6.176],[0.73,-6.204],[0.611,-6.232],[0.296,-6.247],[0.275,-6.261],[0.149,-6.268],[0.135,-6.268],[-0.034,-6.268],[-0.16,-6.254],[-0.272,-6.261],[-0.511,-6.261],[-0.602,-6.275],[-0.784,-6.247],[-0.798,-6.24],[-0.805,-6.19],[-0.763,-6.162],[-0.679,-6.148],[-0.595,-6.106],[-0.391,-6.036],[0.092,-5.993],[0.352,-6.007],[0.541,-6.05],[0.639,-6.043]]]]},"properties":{"abbr":"aca","name":"anterior commissure, anterior part","plate":24,"ap_bregma_mm":-0.25,"area_mm2":0.3279,"traced_fraction":[1.0],"n_labels":1,"no_drawn_outline":false}},{"type":"Feature","geometry":{"type":"MultiPolygon","coordinates":[[[[3.184,-7.013],[3.36,-7.027],[3.437,-7.084],[3.458,-7.168],[3.423,-7.217],[3.374,-7.245],[3.241,-7.245],[3.171,-7.224],[3.121,-7.196],[3.037,-7.091],[3.114,-7.034],[3.184,-7.013]]],[[[-3.224,-7.027],[-3.182,-7.084],[-3.133,-7.112],[-2.852,-7.105],[-2.796,-7.119],[-2.796,-7.203],[-2.817,-7.245],[-2.936,-7.316],[-3.077,-7.365],[-3.224,-7.4],[-3.294,-7.4],[-3.315,-7.337],[-3.364,-7.266],[-3.364,-7.168],[-3.301,-7.062],[-3.301,-7.034],[-3.224,-7.027]]]]},"properties":{"abbr":"I","name":"intercalated nuclei of the amygdala","plate":24,"ap_bregma_mm":-0.25,"area_mm2":0.2121,"traced_fraction":[1.0,1.0],"n_labels":6,"no_drawn_outline":false}},{"type":"Feature","geometry":{"type":"MultiPolygon","coordinates":[[[[2.708,-7.337],[2.764,-7.442],[2.771,-7.59],[2.75,-7.674],[2.659,-7.801],[2.54,-7.878],[2.378,-7.899],[2.357,-7.871],[2.21,-7.829],[2.133,-7.773],[2.098,-7.688],[2.084,-7.604],[2.098,-7.477],[2.112,-7.449],[2.105,-7.393],[2.245,-7.323],[2.371,-7.287],[2.54,-7.28],[2.624,-7.295],[2.708,-7.337]]],[[[-2.221,-7.498],[-2.13,-7.548],[-2.088,-7.555],[-2.081,-7.583],[-1.997,-7.667],[-1.955,-7.745],[-1.948,-7.843],[-1.969,-7.935],[-1.99,-7.977],[-2.046,-8.026],[-2.158,-8.075],[-2.242,-8.089],[-2.249,-8.103],[-2.327,-8.103],[-2.495,-8.068],[-2.614,-7.998],[-2.74,-7.871],[-2.775,-7.822],[-2.817,-7.716],[-2.817,-7.618],[-2.74,-7.527],[-2.677,-7.491],[-2.53,-7.456],[-2.34,-7.463],[-2.221,-7.498]]]]},"properties":{"abbr":"MCPO","name":"magnocellular preoptic nucleus","plate":24,"ap_bregma_mm":-0.25,"area_mm2":0.7698,"traced_fraction":[1.0,1.0],"n_labels":2,"no_drawn_outline":false}},{"type":"Feature","geometry":{"type":"MultiPolygon","coordinates":[[[[2.75,-7.027],[2.778,-7.034],[2.778,-7.055],[2.82,-7.055],[2.841,-7.084],[2.876,-7.098],[3.037,-7.091],[3.065,-7.14],[3.171,-7.224],[3.241,-7.245],[3.374,-7.245],[3.402,-7.28],[3.458,-7.316],[3.577,-7.358],[3.689,-7.379],[3.837,-7.372],[3.893,-7.435],[4.005,-7.428],[4.04,-7.667],[4.089,-7.85],[3.83,-7.85],[3.83,-8.082],[3.759,-8.033],[3.682,-8.026],[3.633,-8.019],[3.591,-8.033],[3.5,-8.033],[3.472,-8.047],[3.374,-8.047],[3.318,-8.019],[3.262,-8.019],[3.199,-8.047],[3.192,-7.85],[2.701,-7.843],[2.659,-7.801],[2.75,-7.674],[2.771,-7.59],[2.771,-7.47],[2.708,-7.337],[2.743,-7.309],[2.75,-7.027]]],[[[-2.817,-7.245],[-2.796,-7.259],[-2.789,-7.477],[-2.74,-7.527],[-2.817,-7.618],[-2.817,-7.716],[-2.796,-7.78],[-2.74,-7.871],[-3.189,-7.871],[-3.189,-7.913],[-3.217,-7.97],[-3.266,-8.019],[-3.336,-7.97],[-3.406,-7.949],[-3.596,-7.97],[-3.624,-7.97],[-3.624,-7.695],[-3.841,-7.695],[-3.834,-7.442],[-3.848,-7.323],[-3.806,-7.323],[-3.778,-7.351],[-3.631,-7.386],[-3.294,-7.4],[-3.224,-7.4],[-3.077,-7.365],[-2.936,-7.316],[-2.817,-7.245]]]]},"properties":{"abbr":"AA","name":"anterior amygdaloid area","plate":24,"ap_bregma_mm":-0.25,"area_mm2":1.4192,"traced_fraction":[0.692,0.654],"n_labels":2,"no_drawn_outline":true}},{"type":"Feature","geometry":{"type":"Polygon","coordinates":[[[2.659,-1.119],[2.904,-1.14],[3.142,-1.197],[3.184,-1.218],[3.479,-1.288],[3.465,-1.316],[3.472,-1.33],[3.465,-1.33],[2.939,-1.197],[2.764,-1.147],[2.659,-1.133],[2.659,-1.119]]]},"properties":{"abbr":null,"name":"unnamed sealed face","plate":24,"ap_bregma_mm":-0.25,"index":0}},{"type":"Feature","geometry":{"type":"Polygon","coordinates":[[[-3.224,-1.422],[-3.224,-1.436],[-3.329,-1.457],[-3.554,-1.534],[-3.743,-1.591],[-3.792,-1.619],[-4.093,-1.724],[-4.241,-1.801],[-4.36,-1.844],[-4.823,-2.09],[-5.292,-2.413],[-5.292,-2.427],[-5.327,-2.442],[-5.391,-2.491],[-5.391,-2.505],[-5.44,-2.533],[-5.468,-2.575],[-5.58,-2.652],[-5.58,-2.667],[-5.594,-2.667],[-5.776,-2.842],[-5.846,-2.934],[-5.86,-2.934],[-5.874,-2.969],[-5.888,-2.962],[-5.727,-2.723],[-5.706,-2.716],[-5.678,-2.73],[-5.65,-2.709],[-5.313,-2.378],[-4.605,-1.942],[-4.577,-1.914],[-4.514,-1.886],[-4.486,-1.858],[-3.813,-1.576],[-3.224,-1.422]]]},"properties":{"abbr":null,"name":"unnamed sealed face","plate":24,"ap_bregma_mm":-0.25,"index":1}},{"type":"Feature","geometry":{"type":"Polygon","coordinates":[[[3.872,-1.471],[3.956,-1.499],[4.068,-1.485],[4.11,-1.534],[4.173,-1.576],[4.622,-1.71],[5.015,-2.005],[5.015,-2.02],[4.993,-2.02],[4.944,-1.97],[4.881,-1.935],[4.881,-1.921],[4.678,-1.787],[4.348,-1.64],[4.103,-1.569],[3.998,-1.52],[3.872,-1.485],[3.872,-1.471]]]},"properties":{"abbr":null,"name":"unnamed sealed face","plate":24,"ap_bregma_mm":-0.25,"index":2}},{"type":"Feature","geometry":{"type":"Polygon","coordinates":[[[5.021,-2.027],[5.049,-2.048],[5.028,-2.048],[5.021,-2.027]]]},"properties":{"abbr":null,"name":"unnamed sealed face","plate":24,"ap_bregma_mm":-0.25,"index":3}},{"type":"Feature","geometry":{"type":"Polygon","coordinates":[[[5.049,-2.048],[5.176,-2.076],[5.19,-2.146],[5.519,-2.35],[5.561,-2.413],[5.582,-2.42],[5.674,-2.561],[5.709,-2.568],[5.73,-2.554],[5.891,-2.758],[5.933,-2.793],[5.954,-2.821],[5.933,-2.842],[5.989,-2.856],[5.954,-2.892],[5.968,-2.927],[5.954,-2.927],[5.877,-2.8],[5.709,-2.61],[5.709,-2.596],[5.667,-2.575],[5.667,-2.561],[5.646,-2.554],[5.54,-2.442],[5.491,-2.413],[5.365,-2.294],[5.316,-2.266],[5.316,-2.252],[5.162,-2.146],[5.162,-2.132],[5.057,-2.069],[5.049,-2.048]]]},"properties":{"abbr":null,"name":"unnamed sealed face","plate":24,"ap_bregma_mm":-0.25,"index":4}},{"type":"Feature","geometry":{"type":"Polygon","coordinates":[[[5.975,-2.934],[5.982,-2.948],[5.968,-2.948],[5.975,-2.934]]]},"properties":{"abbr":null,"name":"unnamed sealed face","plate":24,"ap_bregma_mm":-0.25,"index":5}},{"type":"Feature","geometry":{"type":"Polygon","coordinates":[[[1.418,-3.067],[1.425,-3.131],[1.411,-3.159],[1.313,-3.25],[1.298,-3.25],[1.256,-3.307],[1.186,-3.356],[1.13,-3.426],[1.102,-3.497],[1.095,-3.602],[1.123,-3.694],[1.123,-3.771],[1.158,-3.806],[1.179,-3.876],[1.263,-4.024],[1.277,-4.073],[1.291,-4.08],[1.39,-4.376],[1.418,-4.551],[1.453,-4.65],[1.523,-4.727],[1.516,-4.77],[1.502,-4.77],[1.474,-4.826],[1.453,-4.833],[1.432,-4.875],[1.411,-4.882],[1.347,-4.959],[1.298,-4.981],[1.172,-4.988],[1.179,-4.952],[1.242,-4.896],[1.242,-4.882],[1.256,-4.882],[1.298,-4.819],[1.355,-4.671],[1.355,-4.537],[1.334,-4.453],[1.305,-4.397],[1.186,-4.298],[1.158,-4.277],[1.109,-4.158],[1.081,-3.996],[1.088,-3.947],[1.067,-3.926],[1.025,-3.771],[1.011,-3.581],[0.997,-3.546],[0.927,-3.518],[0.73,-3.497],[0.66,-3.475],[0.667,-3.447],[0.695,-3.433],[0.85,-3.419],[0.941,-3.391],[1.2,-3.173],[1.376,-3.067],[1.418,-3.067]]]},"properties":{"abbr":null,"name":"unnamed sealed face","plate":24,"ap_bregma_mm":-0.25,"index":6}},{"type":"Feature","geometry":{"type":"Polygon","coordinates":[[[-1.45,-3.11],[-1.38,-3.11],[-1.331,-3.131],[-1.128,-3.307],[-1.05,-3.349],[-0.931,-3.384],[-0.826,-3.398],[-0.742,-3.44],[-0.777,-3.482],[-0.91,-3.525],[-0.994,-3.581],[-1.05,-3.715],[-1.085,-3.897],[-1.107,-3.947],[-1.134,-3.982],[-1.149,-3.982],[-1.156,-3.736],[-1.128,-3.567],[-1.128,-3.454],[-1.142,-3.426],[-1.156,-3.426],[-1.191,-3.349],[-1.268,-3.279],[-1.373,-3.222],[-1.429,-3.166],[-1.45,-3.11]]]},"properties":{"abbr":null,"name":"unnamed sealed face","plate":24,"ap_bregma_mm":-0.25,"index":7}},{"type":"Feature","geometry":{"type":"Polygon","coordinates":[[[0.212,-3.398],[0.008,-3.419],[-0.251,-3.419],[-0.251,-3.25],[-0.048,-3.25],[-0.013,-3.194],[0.015,-3.201],[0.036,-3.229],[0.057,-3.3],[0.057,-3.356],[0.114,-3.349],[0.184,-3.363],[0.212,-3.398]]]},"properties":{"abbr":null,"name":"unnamed sealed face","plate":24,"ap_bregma_mm":-0.25,"index":8}},{"type":"Feature","geometry":{"type":"Polygon","coordinates":[[[6.508,-4.024],[6.55,-4.144],[6.536,-4.622],[6.431,-5.185],[6.115,-5.817],[5.758,-6.218],[5.751,-6.204],[5.954,-5.958],[5.989,-5.895],[6.066,-5.803],[6.101,-5.733],[6.115,-5.733],[6.136,-5.677],[6.15,-5.677],[6.185,-5.606],[6.269,-5.473],[6.389,-5.206],[6.459,-4.952],[6.508,-4.587],[6.529,-4.348],[6.508,-4.024]]]},"properties":{"abbr":null,"name":"unnamed sealed face","plate":24,"ap_bregma_mm":-0.25,"index":9}},{"type":"Feature","geometry":{"type":"Polygon","coordinates":[[[-1.282,-4.242],[-1.282,-4.277],[-1.331,-4.362],[-1.338,-4.411],[-1.212,-4.411],[-1.212,-4.559],[-1.387,-4.559],[-1.387,-4.495],[-1.408,-4.474],[-1.401,-4.348],[-1.338,-4.256],[-1.282,-4.242]]]},"properties":{"abbr":null,"name":"unnamed sealed face","plate":24,"ap_bregma_mm":-0.25,"index":10}},{"type":"Feature","geometry":{"type":"Polygon","coordinates":[[[-1.38,-4.833],[-1.331,-4.84],[-1.233,-4.896],[-1.134,-4.931],[-1.036,-4.952],[-0.931,-4.945],[-0.833,-4.995],[-0.833,-5.009],[-0.819,-5.009],[-0.812,-5.03],[-0.791,-5.037],[-0.749,-5.093],[-0.735,-5.093],[-0.7,-5.17],[-0.658,-5.17],[-0.609,-5.199],[-0.581,-5.234],[-0.496,-5.262],[-0.524,-5.381],[-0.623,-5.55],[-0.651,-5.515],[-0.665,-5.459],[-0.714,-5.396],[-0.742,-5.311],[-0.763,-5.311],[-0.763,-5.297],[-1.092,-5.114],[-1.303,-5.1],[-1.317,-4.988],[-1.38,-4.833]]]},"properties":{"abbr":null,"name":"unnamed sealed face","plate":24,"ap_bregma_mm":-0.25,"index":11}},{"type":"Feature","geometry":{"type":"Polygon","coordinates":[[[0.716,-5.086],[0.716,-5.142],[0.737,-5.199],[0.773,-5.22],[0.801,-5.22],[0.78,-5.325],[0.724,-5.431],[0.66,-5.487],[0.506,-5.55],[0.492,-5.529],[0.471,-5.381],[0.478,-5.185],[0.674,-5.093],[0.716,-5.086]]]},"properties":{"abbr":null,"name":"unnamed sealed face","plate":24,"ap_bregma_mm":-0.25,"index":12}},{"type":"Feature","geometry":{"type":"Polygon","coordinates":[[[-6.141,-5.937],[-6.127,-5.937],[-6.092,-6.021],[-6.063,-6.043],[-6.057,-6.092],[-5.965,-6.24],[-5.923,-6.338],[-5.881,-6.401],[-5.867,-6.401],[-5.832,-6.465],[-5.692,-6.584],[-5.664,-6.619],[-5.664,-6.64],[-5.902,-6.443],[-6.141,-5.937]]]},"properties":{"abbr":null,"name":"unnamed sealed face","plate":24,"ap_bregma_mm":-0.25,"index":13}},{"type":"Feature","geometry":{"type":"Polygon","coordinates":[[[-5.664,-6.64],[-5.65,-6.64],[-5.608,-6.718],[-5.587,-6.802],[-5.594,-6.816],[-5.643,-6.753],[-5.664,-6.746],[-5.699,-6.844],[-5.727,-6.746],[-5.741,-6.746],[-5.79,-6.823],[-5.79,-6.711],[-5.664,-6.64]]]},"properties":{"abbr":null,"name":"unnamed sealed face","plate":24,"ap_bregma_mm":-0.25,"index":14}},{"type":"Feature","geometry":{"type":"Polygon","coordinates":[[[-0.272,-6.338],[-0.251,-6.338],[-0.244,-6.373],[-0.23,-6.373],[-0.181,-6.429],[-0.16,-6.598],[-0.188,-6.718],[-0.265,-6.774],[-0.328,-6.774],[-0.37,-6.746],[-0.419,-6.669],[-0.433,-6.612],[-0.447,-6.563],[-0.433,-6.479],[-0.391,-6.415],[-0.321,-6.373],[-0.272,-6.338]]]},"properties":{"abbr":null,"name":"unnamed sealed face","plate":24,"ap_bregma_mm":-0.25,"index":15}},{"type":"Feature","geometry":{"type":"Polygon","coordinates":[[[0.338,-6.373],[0.387,-6.472],[0.401,-6.598],[0.401,-6.661],[0.373,-6.732],[0.303,-6.774],[0.24,-6.767],[0.163,-6.711],[0.12,-6.598],[0.135,-6.451],[0.184,-6.38],[0.226,-6.352],[0.338,-6.373]]]},"properties":{"abbr":null,"name":"unnamed sealed face","plate":24,"ap_bregma_mm":-0.25,"index":16}},{"type":"Feature","geometry":{"type":"Polygon","coordinates":[[[0.107,-7.829],[0.107,-7.871],[0.099,-7.927],[-0.09,-7.927],[-0.09,-7.892],[-0.076,-7.885],[-0.09,-7.794],[-0.048,-7.639],[-0.027,-7.583],[-0.006,-7.59],[0.008,-7.731],[0.036,-7.773],[0.107,-7.829]]]},"properties":{"abbr":null,"name":"unnamed sealed face","plate":24,"ap_bregma_mm":-0.25,"index":17}},{"type":"Feature","geometry":{"type":"Polygon","coordinates":[[[5.028,-7.801],[5.021,-7.815],[5.015,-7.801],[5.028,-7.801]]]},"properties":{"abbr":null,"name":"unnamed sealed face","plate":24,"ap_bregma_mm":-0.25,"index":18}},{"type":"Feature","geometry":{"type":"Polygon","coordinates":[[[5.015,-7.822],[5.007,-7.85],[5.042,-7.935],[4.951,-7.949],[4.741,-8.181],[4.355,-8.385],[4.39,-8.413],[4.39,-8.427],[4.341,-8.462],[4.012,-8.539],[3.865,-8.546],[3.227,-8.497],[2.834,-8.342],[2.827,-8.321],[2.841,-8.3],[2.876,-8.3],[2.883,-8.321],[3.044,-8.406],[3.205,-8.455],[3.479,-8.49],[3.935,-8.518],[4.019,-8.518],[4.145,-8.483],[4.383,-8.364],[4.769,-8.103],[4.769,-8.089],[4.783,-8.089],[4.783,-8.075],[4.804,-8.068],[4.846,-8.012],[4.86,-8.012],[4.888,-7.963],[4.902,-7.963],[4.958,-7.878],[4.972,-7.878],[5.0,-7.822],[5.015,-7.822]]]},"properties":{"abbr":null,"name":"unnamed sealed face","plate":24,"ap_bregma_mm":-0.25,"index":19}},{"type":"Feature","geometry":{"type":"Polygon","coordinates":[[[1.172,-7.85],[1.235,-7.906],[1.263,-7.963],[1.649,-8.026],[1.979,-8.11],[2.168,-8.11],[2.224,-8.096],[2.399,-8.089],[2.49,-8.11],[2.49,-8.124],[1.957,-8.146],[1.355,-7.984],[1.249,-7.984],[1.207,-8.061],[1.13,-8.075],[1.144,-8.272],[1.123,-8.286],[1.116,-8.195],[1.095,-8.146],[1.102,-8.082],[1.06,-8.054],[1.004,-8.047],[1.011,-8.019],[1.039,-8.005],[1.039,-7.892],[1.165,-7.892],[1.172,-7.85]]]},"properties":{"abbr":null,"name":"unnamed sealed face","plate":24,"ap_bregma_mm":-0.25,"index":20}},{"type":"Feature","geometry":{"type":"Polygon","coordinates":[[[-3.925,-8.49],[-3.708,-8.518],[-3.161,-8.518],[-3.014,-8.504],[-2.922,-8.441],[-2.754,-8.342],[-2.621,-8.286],[-2.593,-8.286],[-2.593,-8.293],[-3.007,-8.518],[-3.385,-8.567],[-4.023,-8.518],[-4.332,-8.427],[-4.661,-8.265],[-4.668,-8.251],[-4.752,-8.216],[-4.942,-8.047],[-4.928,-8.04],[-4.808,-8.131],[-4.577,-8.272],[-4.556,-8.272],[-4.388,-8.364],[-4.22,-8.427],[-3.925,-8.49]]]},"properties":{"abbr":null,"name":"unnamed sealed face","plate":24,"ap_bregma_mm":-0.25,"index":21}},{"type":"Feature","geometry":{"type":"Polygon","coordinates":[[[-1.107,-8.04],[-1.05,-8.068],[-0.994,-8.138],[-1.043,-8.181],[-1.079,-8.188],[-1.079,-8.3],[-1.057,-8.357],[-1.022,-8.406],[-1.008,-8.406],[-1.001,-8.434],[-1.015,-8.434],[-1.092,-8.35],[-1.128,-8.174],[-1.289,-8.124],[-1.387,-8.16],[-1.387,-8.117],[-1.345,-8.075],[-1.289,-8.054],[-1.282,-8.04],[-1.107,-8.04]]]},"properties":{"abbr":null,"name":"unnamed sealed face","plate":24,"ap_bregma_mm":-0.25,"index":22}},{"type":"Feature","geometry":{"type":"Polygon","coordinates":[[[-0.602,-8.532],[-0.875,-8.567],[-0.945,-8.49],[-0.931,-8.483],[-0.868,-8.525],[-0.602,-8.532]]]},"properties":{"abbr":null,"name":"unnamed sealed face","plate":24,"ap_bregma_mm":-0.25,"index":23}},{"type":"Feature","geometry":{"type":"MultiPolygon","coordinates":[[[[1.228,-0.989],[2.088,-1.007],[2.175,-1.06],[2.93,-1.148],[3.474,-1.289],[3.456,-1.324],[3.965,-1.5],[4.053,-1.482],[4.158,-1.57],[4.614,-1.711],[5.053,-2.046],[5.175,-2.081],[5.175,-2.134],[5.526,-2.363],[5.684,-2.574],[5.719,-2.556],[5.947,-2.82],[5.912,-2.838],[5.983,-2.855],[5.947,-2.891],[6.404,-3.665],[6.544,-4.158],[6.526,-4.616],[6.421,-5.179],[6.105,-5.813],[5.719,-6.253],[5.614,-6.394],[5.632,-6.447],[5.386,-6.57],[5.421,-6.958],[5.246,-7.398],[5.281,-7.539],[5.228,-7.468],[5.175,-7.539],[5.14,-7.715],[5.088,-7.697],[5.105,-7.82],[5.088,-7.715],[5.0,-7.838],[5.035,-7.926],[4.947,-7.943],[4.737,-8.172],[4.351,-8.384],[4.386,-8.419],[4.333,-8.454],[3.947,-8.542],[3.228,-8.489],[2.825,-8.331],[2.842,-8.296],[2.526,-8.12],[1.965,-8.137],[1.351,-7.979],[1.246,-7.979],[1.21,-8.049],[1.123,-8.067],[1.14,-8.26],[0.93,-8.489],[0.965,-8.525],[0.877,-8.472],[0.263,-8.56],[0.035,-8.489],[-0.246,-8.489],[-0.877,-8.56],[-1.088,-8.348],[-1.123,-8.172],[-1.298,-8.12],[-1.649,-8.26],[-2.228,-8.348],[-2.579,-8.278],[-3.0,-8.507],[-3.404,-8.56],[-4.035,-8.507],[-4.333,-8.419],[-4.754,-8.208],[-5.228,-7.803],[-5.333,-7.591],[-5.403,-7.591],[-5.368,-7.503],[-5.561,-7.134],[-5.596,-6.817],[-5.667,-6.729],[-5.702,-6.834],[-5.737,-6.729],[-5.789,-6.817],[-5.789,-6.711],[-5.667,-6.641],[-5.895,-6.447],[-6.158,-5.901],[-6.228,-5.901],[-6.211,-5.796],[-6.509,-5.197],[-6.579,-4.757],[-6.526,-4.105],[-6.298,-3.542],[-6.263,-3.56],[-6.07,-3.208],[-6.123,-3.172],[-5.982,-3.084],[-5.719,-2.715],[-5.684,-2.732],[-5.316,-2.38],[-4.474,-1.852],[-3.79,-1.57],[-2.947,-1.341],[-2.912,-1.289],[-2.158,-1.13],[-1.105,-1.112],[-0.421,-1.183],[-0.175,-1.324],[-0.018,-1.517],[0.175,-1.324],[0.158,-1.289],[0.439,-1.148],[1.228,-1.007],[1.228,-0.989]]]]},"properties":{"abbr":"brain_outline","name":"outline of the section","plate":24,"ap_bregma_mm":-0.25}}]}
