{"type":"FeatureCollection","name":"GerbilAtlas plate 01","note":"Region extents cut from the atlas drawing (METHODS.md, Region extents). Coordinates are [ML, DV] in mm, ML positive to the right of the plate as printed, DV negative below the dorsal surface; AP is the plate bregma. traced_fraction is the share of each polygon boundary the atlas actually draws; below 0.5 the boundary is an estimate. no_drawn_outline marks a feature that lies only inside boundaries the atlas draws round more than one name and prints nothing within, so the whole of its outline is where the extraction cut it. Not a segmentation.","plate":1,"ap_bregma_mm":7.8,"features":[{"type":"Feature","geometry":{"type":"MultiPolygon","coordinates":[[[[0.779,-4.491],[0.765,-4.709],[0.694,-4.659],[0.61,-4.638],[0.505,-4.631],[0.477,-4.666],[0.372,-4.68],[0.309,-4.716],[0.274,-4.758],[0.232,-4.772],[0.211,-4.807],[0.225,-4.906],[0.246,-4.906],[0.239,-4.934],[0.253,-4.976],[0.281,-5.004],[0.351,-5.11],[0.435,-5.285],[0.421,-5.285],[0.414,-5.306],[0.435,-5.454],[0.435,-5.553],[0.365,-5.904],[0.365,-5.982],[0.33,-6.01],[0.33,-6.094],[0.358,-6.122],[0.407,-6.228],[0.414,-6.277],[0.463,-6.291],[0.477,-6.298],[0.498,-6.34],[0.547,-6.368],[0.596,-6.375],[0.631,-6.354],[0.736,-6.368],[0.863,-6.326],[0.919,-6.319],[0.933,-6.397],[0.807,-6.46],[0.702,-6.481],[0.512,-6.46],[0.351,-6.418],[0.295,-6.39],[0.232,-6.326],[0.197,-6.242],[0.169,-6.059],[0.176,-5.954],[0.225,-5.834],[0.253,-5.412],[0.232,-5.271],[0.141,-5.067],[0.113,-4.955],[0.113,-4.842],[0.141,-4.737],[0.176,-4.666],[0.253,-4.582],[0.379,-4.519],[0.617,-4.455],[0.708,-4.455],[0.779,-4.491]]],[[[-1.002,-5.672],[-0.981,-5.672],[-0.967,-5.707],[-0.981,-5.714],[-0.981,-5.771],[-0.96,-5.785],[-0.974,-5.82],[-0.981,-5.946],[-1.058,-6.193],[-1.058,-6.256],[-1.044,-6.284],[-0.96,-6.34],[-0.862,-6.368],[-0.771,-6.375],[-0.659,-6.368],[-0.533,-6.312],[-0.483,-6.249],[-0.455,-6.157],[-0.455,-5.996],[-0.518,-5.679],[-0.533,-5.426],[-0.518,-5.412],[-0.525,-5.377],[-0.462,-5.229],[-0.385,-5.138],[-0.357,-5.081],[-0.329,-5.06],[-0.245,-4.906],[-0.245,-4.828],[-0.259,-4.8],[-0.357,-4.737],[-0.378,-4.737],[-0.399,-4.716],[-0.42,-4.716],[-0.427,-4.73],[-0.476,-4.716],[-0.518,-4.723],[-0.54,-4.702],[-0.652,-4.702],[-0.715,-4.723],[-0.862,-4.793],[-0.876,-4.814],[-0.939,-4.842],[-1.051,-4.927],[-1.114,-4.997],[-1.143,-5.053],[-1.135,-5.173],[-1.114,-5.229],[-1.086,-5.25],[-0.995,-5.567],[-1.016,-5.581],[-1.03,-5.581],[-1.058,-5.539],[-1.192,-5.152],[-1.192,-5.025],[-1.171,-4.976],[-1.107,-4.899],[-0.967,-4.786],[-0.82,-4.702],[-0.701,-4.652],[-0.476,-4.652],[-0.357,-4.68],[-0.259,-4.723],[-0.182,-4.814],[-0.196,-4.92],[-0.301,-5.11],[-0.413,-5.25],[-0.455,-5.342],[-0.476,-5.433],[-0.476,-5.595],[-0.413,-5.932],[-0.406,-6.073],[-0.406,-6.221],[-0.441,-6.291],[-0.491,-6.34],[-0.582,-6.39],[-0.757,-6.425],[-0.883,-6.418],[-0.967,-6.397],[-1.044,-6.361],[-1.093,-6.319],[-1.122,-6.249],[-1.122,-6.15],[-1.037,-5.939],[-1.016,-5.834],[-1.016,-5.7],[-1.002,-5.672]]]]},"properties":{"abbr":"Mi","name":"mitral cell layer of the olfactory bulb","plate":1,"ap_bregma_mm":7.8,"area_mm2":0.6908,"traced_fraction":[0.974,1.0],"n_labels":2,"no_drawn_outline":false}},{"type":"Feature","geometry":{"type":"MultiPolygon","coordinates":[[[[-0.063,-4.779],[-0.056,-4.821],[-0.07,-4.821],[-0.112,-5.004],[-0.182,-5.152],[-0.252,-5.25],[-0.294,-5.398],[-0.301,-5.567],[-0.273,-5.672],[-0.266,-5.883],[-0.245,-5.975],[-0.245,-6.101],[-0.231,-6.157],[-0.252,-6.214],[-0.259,-6.305],[-0.301,-6.382],[-0.392,-6.453],[-0.491,-6.474],[-0.575,-6.516],[-0.736,-6.523],[-0.799,-6.495],[-0.883,-6.495],[-1.002,-6.453],[-1.192,-6.411],[-1.248,-6.375],[-1.283,-6.333],[-1.311,-6.242],[-1.29,-6.052],[-1.234,-5.876],[-1.234,-5.665],[-1.276,-5.524],[-1.325,-5.447],[-1.374,-5.243],[-1.479,-5.039],[-1.479,-4.955],[-1.444,-4.87],[-1.206,-4.638],[-1.122,-4.589],[-0.974,-4.547],[-0.869,-4.469],[-0.813,-4.448],[-0.708,-4.469],[-0.533,-4.476],[-0.294,-4.547],[-0.189,-4.61],[-0.112,-4.744],[-0.063,-4.779]]],[[[0.779,-4.491],[0.919,-4.568],[1.08,-4.68],[1.136,-4.737],[1.178,-4.751],[1.178,-4.779],[1.22,-4.814],[1.255,-4.877],[1.283,-4.976],[1.241,-5.208],[1.164,-5.412],[1.143,-5.489],[1.143,-5.553],[1.108,-5.616],[1.094,-5.679],[1.108,-5.82],[1.101,-6.031],[1.143,-6.171],[1.157,-6.27],[1.143,-6.312],[1.115,-6.34],[0.933,-6.397],[0.919,-6.319],[0.968,-6.263],[0.975,-6.129],[0.912,-5.876],[0.912,-5.553],[0.933,-5.475],[1.045,-5.285],[1.059,-5.229],[1.059,-5.124],[1.038,-5.025],[0.996,-4.934],[0.996,-4.87],[0.926,-4.863],[0.912,-4.835],[0.863,-4.807],[0.863,-4.793],[0.765,-4.709],[0.779,-4.491]]],[[[-1.016,-5.581],[-1.002,-5.672],[-1.016,-5.7],[-1.016,-5.834],[-1.03,-5.911],[-1.122,-6.15],[-1.122,-6.249],[-1.093,-6.319],[-1.044,-6.361],[-0.967,-6.397],[-0.883,-6.418],[-0.757,-6.425],[-0.582,-6.39],[-0.491,-6.34],[-0.441,-6.291],[-0.406,-6.221],[-0.406,-6.073],[-0.413,-5.932],[-0.476,-5.595],[-0.476,-5.433],[-0.455,-5.342],[-0.413,-5.25],[-0.301,-5.11],[-0.196,-4.92],[-0.182,-4.814],[-0.259,-4.723],[-0.357,-4.68],[-0.476,-4.652],[-0.701,-4.652],[-0.715,-4.666],[-0.764,-4.673],[-0.771,-4.687],[-0.792,-4.687],[-0.967,-4.786],[-1.107,-4.899],[-1.185,-5.004],[-1.192,-5.152],[-1.058,-5.539],[-1.03,-5.581],[-1.016,-5.581]]]]},"properties":{"abbr":"EPl","name":"external plexiform layer of the olfactory bulb","plate":1,"ap_bregma_mm":7.8,"area_mm2":1.3152,"traced_fraction":[1.0,0.956,1.0],"n_labels":2,"no_drawn_outline":false}},{"type":"Feature","geometry":{"type":"MultiPolygon","coordinates":[[[[-0.063,-4.695],[-0.063,-4.779],[-0.112,-4.744],[-0.182,-4.617],[-0.294,-4.547],[-0.533,-4.476],[-0.708,-4.469],[-0.813,-4.448],[-0.869,-4.469],[-0.974,-4.547],[-1.164,-4.61],[-1.444,-4.87],[-1.479,-4.955],[-1.479,-5.039],[-1.374,-5.243],[-1.339,-5.405],[-1.276,-5.524],[-1.234,-5.665],[-1.234,-5.876],[-1.29,-6.052],[-1.311,-6.242],[-1.283,-6.333],[-1.248,-6.375],[-1.192,-6.411],[-1.079,-6.432],[-0.883,-6.495],[-0.799,-6.495],[-0.736,-6.523],[-0.575,-6.516],[-0.491,-6.474],[-0.392,-6.453],[-0.301,-6.382],[-0.259,-6.305],[-0.252,-6.214],[-0.231,-6.157],[-0.245,-6.101],[-0.245,-5.975],[-0.266,-5.883],[-0.273,-5.672],[-0.301,-5.567],[-0.294,-5.398],[-0.252,-5.25],[-0.182,-5.152],[-0.112,-5.004],[-0.07,-4.821],[-0.056,-4.821],[0.0,-4.821],[0.021,-4.709],[0.064,-4.61],[0.12,-4.54],[0.127,-4.512],[0.225,-4.42],[0.316,-4.378],[0.33,-4.371],[0.337,-4.385],[0.393,-4.385],[0.449,-4.364],[0.673,-4.371],[0.765,-4.406],[1.024,-4.469],[1.206,-4.589],[1.34,-4.737],[1.382,-4.828],[1.403,-4.962],[1.403,-5.081],[1.361,-5.208],[1.354,-5.335],[1.333,-5.391],[1.312,-5.567],[1.234,-5.785],[1.227,-5.939],[1.199,-5.996],[1.199,-6.031],[1.241,-6.087],[1.262,-6.15],[1.262,-6.277],[1.248,-6.319],[1.136,-6.425],[0.982,-6.481],[0.884,-6.537],[0.73,-6.579],[0.498,-6.579],[0.323,-6.53],[0.295,-6.502],[0.218,-6.467],[0.176,-6.425],[0.162,-6.361],[0.092,-6.256],[0.077,-5.961],[0.113,-5.693],[0.113,-5.37],[0.085,-5.159],[0.064,-5.067],[0.021,-4.976],[0.014,-4.87],[-0.007,-4.842],[-0.021,-4.842],[-0.021,-5.025],[-0.07,-5.095],[-0.14,-5.447],[-0.14,-5.602],[-0.161,-5.7],[-0.133,-5.785],[-0.133,-5.89],[-0.147,-5.946],[-0.133,-6.249],[-0.175,-6.425],[-0.203,-6.488],[-0.287,-6.558],[-0.385,-6.594],[-0.497,-6.608],[-0.75,-6.601],[-1.22,-6.481],[-1.283,-6.446],[-1.346,-6.382],[-1.444,-6.157],[-1.43,-6.024],[-1.458,-5.918],[-1.444,-5.644],[-1.465,-5.51],[-1.493,-5.468],[-1.528,-5.342],[-1.64,-5.194],[-1.647,-5.053],[-1.619,-4.983],[-1.591,-4.955],[-1.528,-4.835],[-1.486,-4.716],[-1.346,-4.554],[-1.29,-4.526],[-1.241,-4.476],[-1.241,-4.441],[-1.065,-4.385],[-0.925,-4.364],[-0.764,-4.364],[-0.462,-4.406],[-0.322,-4.455],[-0.168,-4.54],[-0.168,-4.554],[-0.105,-4.61],[-0.084,-4.673],[-0.063,-4.695]]],[[[0.933,-6.397],[1.115,-6.34],[1.143,-6.312],[1.157,-6.27],[1.143,-6.171],[1.101,-6.031],[1.108,-5.82],[1.094,-5.679],[1.108,-5.616],[1.143,-5.553],[1.143,-5.489],[1.164,-5.412],[1.241,-5.208],[1.283,-4.976],[1.255,-4.877],[1.22,-4.814],[1.178,-4.779],[1.178,-4.751],[1.136,-4.737],[1.08,-4.68],[0.919,-4.568],[0.779,-4.491],[0.708,-4.455],[0.617,-4.455],[0.379,-4.519],[0.253,-4.582],[0.176,-4.666],[0.141,-4.737],[0.113,-4.842],[0.113,-4.955],[0.141,-5.067],[0.232,-5.271],[0.253,-5.412],[0.225,-5.834],[0.183,-5.925],[0.169,-6.059],[0.197,-6.242],[0.232,-6.326],[0.295,-6.39],[0.351,-6.418],[0.512,-6.46],[0.702,-6.481],[0.807,-6.46],[0.933,-6.397]]]]},"properties":{"abbr":"Gl","name":"glomerular layer of the olfactory bulb","plate":1,"ap_bregma_mm":7.8,"area_mm2":1.4423,"traced_fraction":[1.0,0.999],"n_labels":2,"no_drawn_outline":false}},{"type":"Feature","geometry":{"type":"MultiPolygon","coordinates":[[[[-0.518,-4.723],[-0.638,-4.744],[-0.792,-4.807],[-0.974,-4.934],[-1.072,-5.067],[-1.086,-5.25],[-1.114,-5.229],[-1.135,-5.173],[-1.143,-5.053],[-1.114,-4.997],[-1.051,-4.927],[-0.939,-4.842],[-0.876,-4.814],[-0.862,-4.793],[-0.715,-4.723],[-0.652,-4.702],[-0.54,-4.702],[-0.518,-4.723]]]]},"properties":{"abbr":"IPl","name":"internal plexiform layer of the olfactory bulb","plate":1,"ap_bregma_mm":7.8,"area_mm2":0.0456,"traced_fraction":[1.0],"n_labels":2,"no_drawn_outline":false}},{"type":"Feature","geometry":{"type":"MultiPolygon","coordinates":[[[[0.477,-4.666],[0.568,-4.68],[0.589,-4.709],[0.666,-4.737],[0.758,-4.807],[0.807,-4.821],[0.821,-4.835],[0.821,-4.877],[0.926,-4.976],[0.961,-5.032],[0.989,-5.039],[1.003,-5.11],[0.996,-5.243],[0.905,-5.433],[0.884,-5.517],[0.835,-5.595],[0.835,-5.771],[0.863,-5.799],[0.842,-5.827],[0.842,-5.862],[0.87,-5.904],[0.87,-6.017],[0.905,-6.031],[0.905,-6.066],[0.926,-6.101],[0.926,-6.221],[0.863,-6.326],[0.736,-6.368],[0.631,-6.354],[0.624,-6.34],[0.554,-6.312],[0.477,-6.298],[0.463,-6.291],[0.449,-6.249],[0.428,-6.228],[0.407,-6.228],[0.358,-6.122],[0.379,-6.066],[0.365,-5.982],[0.365,-5.904],[0.435,-5.553],[0.435,-5.454],[0.449,-5.454],[0.47,-5.405],[0.47,-5.342],[0.435,-5.285],[0.351,-5.11],[0.281,-5.004],[0.295,-4.99],[0.295,-4.948],[0.267,-4.899],[0.26,-4.814],[0.274,-4.758],[0.309,-4.716],[0.372,-4.68],[0.477,-4.666]]],[[[-0.427,-4.73],[-0.413,-4.744],[-0.378,-4.737],[-0.357,-4.737],[-0.259,-4.8],[-0.245,-4.828],[-0.245,-4.906],[-0.329,-5.06],[-0.357,-5.081],[-0.385,-5.138],[-0.462,-5.229],[-0.525,-5.377],[-0.546,-5.384],[-0.546,-5.412],[-0.533,-5.426],[-0.518,-5.679],[-0.455,-5.996],[-0.455,-6.157],[-0.476,-6.235],[-0.533,-6.312],[-0.659,-6.368],[-0.771,-6.375],[-0.897,-6.361],[-1.002,-6.319],[-1.044,-6.284],[-1.058,-6.256],[-1.058,-6.193],[-0.981,-5.946],[-0.974,-5.82],[-0.96,-5.785],[-0.946,-5.75],[-0.967,-5.707],[-0.981,-5.672],[-0.967,-5.658],[-0.967,-5.609],[-0.995,-5.567],[-1.086,-5.25],[-1.072,-5.067],[-0.974,-4.934],[-0.792,-4.807],[-0.638,-4.744],[-0.518,-4.723],[-0.476,-4.716],[-0.427,-4.73]]],[[[-0.778,-5.539],[-0.778,-5.686],[-0.764,-5.707],[-0.785,-5.714],[-0.785,-5.764],[-0.778,-5.785],[-0.764,-5.785],[-0.771,-5.975],[-0.792,-5.989],[-0.785,-6.08],[-0.771,-6.094],[-0.729,-6.087],[-0.722,-6.024],[-0.701,-5.982],[-0.694,-5.869],[-0.68,-5.855],[-0.68,-5.82],[-0.694,-5.806],[-0.694,-5.665],[-0.715,-5.588],[-0.715,-5.391],[-0.708,-5.37],[-0.701,-5.335],[-0.715,-5.335],[-0.722,-5.32],[-0.694,-5.32],[-0.673,-5.243],[-0.624,-5.243],[-0.624,-5.145],[-0.568,-5.053],[-0.568,-5.025],[-0.603,-5.025],[-0.659,-5.095],[-0.743,-5.095],[-0.743,-5.166],[-0.771,-5.166],[-0.771,-5.243],[-0.75,-5.25],[-0.792,-5.419],[-0.792,-5.524],[-0.778,-5.539]]],[[[0.631,-5.447],[0.638,-5.546],[0.624,-5.63],[0.603,-5.665],[0.603,-5.714],[0.582,-5.735],[0.582,-5.757],[0.568,-5.757],[0.568,-5.904],[0.617,-5.911],[0.61,-5.989],[0.631,-6.024],[0.652,-6.024],[0.659,-6.003],[0.659,-5.918],[0.659,-5.904],[0.715,-5.904],[0.715,-5.757],[0.673,-5.757],[0.666,-5.735],[0.631,-5.742],[0.645,-5.672],[0.681,-5.679],[0.681,-5.581],[0.659,-5.546],[0.687,-5.51],[0.681,-5.44],[0.673,-5.433],[0.673,-5.412],[0.702,-5.384],[0.715,-5.138],[0.631,-5.138],[0.596,-5.102],[0.568,-5.102],[0.568,-5.285],[0.617,-5.285],[0.631,-5.447]]]]},"properties":{"abbr":"GrO","name":"granular cell layer of the olfactory bulb","plate":1,"ap_bregma_mm":7.8,"area_mm2":1.5733,"traced_fraction":[1.0,1.0,0.936,0.832],"n_labels":2,"no_drawn_outline":false}},{"type":"Feature","geometry":{"type":"MultiPolygon","coordinates":[[[[-0.028,-6.734],[-0.056,-6.741],[-0.322,-6.833],[-0.54,-6.847],[-0.792,-6.812],[-1.185,-6.685],[-1.381,-6.586],[-1.507,-6.474],[-1.654,-6.193],[-1.668,-6.165],[-1.682,-6.136],[-1.739,-6.038],[-1.802,-5.967],[-1.893,-5.904],[-1.928,-5.841],[-1.935,-5.7],[-1.844,-5.159],[-1.781,-4.955],[-1.64,-4.709],[-1.619,-4.702],[-1.563,-4.624],[-1.521,-4.603],[-1.423,-4.512],[-1.388,-4.505],[-1.311,-4.455],[-1.241,-4.441],[-1.241,-4.476],[-1.29,-4.526],[-1.346,-4.554],[-1.472,-4.695],[-1.507,-4.751],[-1.528,-4.835],[-1.591,-4.955],[-1.619,-4.983],[-1.647,-5.053],[-1.64,-5.194],[-1.528,-5.342],[-1.493,-5.468],[-1.465,-5.51],[-1.444,-5.644],[-1.458,-5.918],[-1.43,-6.024],[-1.444,-6.157],[-1.346,-6.382],[-1.283,-6.446],[-1.22,-6.481],[-0.75,-6.601],[-0.497,-6.608],[-0.385,-6.594],[-0.287,-6.558],[-0.203,-6.488],[-0.175,-6.425],[-0.133,-6.249],[-0.133,-6.108],[-0.147,-6.073],[-0.133,-5.785],[-0.161,-5.7],[-0.14,-5.602],[-0.14,-5.447],[-0.07,-5.095],[-0.021,-5.025],[-0.021,-4.842],[-0.007,-4.842],[0.014,-4.87],[0.021,-4.976],[0.064,-5.067],[0.085,-5.159],[0.113,-5.37],[0.113,-5.693],[0.077,-5.961],[0.092,-6.256],[0.141,-6.319],[0.176,-6.425],[0.218,-6.467],[0.295,-6.502],[0.323,-6.53],[0.498,-6.579],[0.73,-6.579],[0.828,-6.558],[0.933,-6.516],[0.982,-6.481],[1.122,-6.432],[1.171,-6.404],[1.248,-6.319],[1.262,-6.277],[1.262,-6.15],[1.241,-6.087],[1.199,-6.031],[1.199,-5.996],[1.227,-5.939],[1.234,-5.785],[1.312,-5.567],[1.333,-5.391],[1.354,-5.335],[1.361,-5.208],[1.403,-5.081],[1.403,-4.962],[1.382,-4.828],[1.354,-4.758],[1.262,-4.659],[1.262,-4.645],[1.206,-4.589],[1.024,-4.469],[0.765,-4.406],[0.673,-4.371],[0.449,-4.364],[0.393,-4.385],[0.337,-4.385],[0.33,-4.371],[0.414,-4.322],[0.582,-4.301],[0.702,-4.301],[0.905,-4.336],[1.178,-4.42],[1.283,-4.476],[1.417,-4.589],[1.536,-4.744],[1.627,-4.927],[1.683,-5.102],[1.718,-5.285],[1.718,-5.426],[1.69,-5.51],[1.676,-5.841],[1.641,-6.052],[1.55,-6.235],[1.417,-6.347],[1.34,-6.509],[1.319,-6.516],[1.304,-6.551],[1.199,-6.636],[1.038,-6.713],[0.631,-6.812],[0.393,-6.812],[0.239,-6.79],[0.014,-6.727],[-0.028,-6.734]]]]},"properties":{"abbr":"ON","name":"olfactory nerve layer","plate":1,"ap_bregma_mm":7.8,"area_mm2":2.2358,"traced_fraction":[1.0],"n_labels":2,"no_drawn_outline":false}},{"type":"Feature","geometry":{"type":"MultiPolygon","coordinates":[[[[-0.715,-5.391],[-0.715,-5.588],[-0.694,-5.665],[-0.694,-5.806],[-0.708,-5.82],[-0.708,-5.855],[-0.694,-5.869],[-0.701,-5.982],[-0.722,-6.024],[-0.75,-6.017],[-0.771,-5.975],[-0.764,-5.785],[-0.764,-5.707],[-0.778,-5.686],[-0.778,-5.539],[-0.764,-5.524],[-0.757,-5.419],[-0.736,-5.391],[-0.715,-5.391]]]]},"properties":{"abbr":"E","name":"ependyma and subependymal layer","plate":1,"ap_bregma_mm":7.8,"area_mm2":0.0394,"traced_fraction":[1.0],"n_labels":4,"no_drawn_outline":false}},{"type":"Feature","geometry":{"type":"Polygon","coordinates":[[[0.765,-4.709],[0.828,-4.772],[0.842,-4.772],[0.863,-4.807],[0.912,-4.835],[0.926,-4.863],[0.996,-4.87],[0.996,-4.934],[1.024,-4.983],[1.059,-5.124],[1.059,-5.229],[1.045,-5.285],[0.947,-5.447],[0.912,-5.553],[0.912,-5.876],[0.975,-6.129],[0.968,-6.263],[0.919,-6.319],[0.863,-6.326],[0.926,-6.221],[0.926,-6.101],[0.905,-6.066],[0.905,-6.031],[0.87,-6.017],[0.87,-5.904],[0.842,-5.862],[0.842,-5.827],[0.863,-5.799],[0.835,-5.771],[0.835,-5.595],[0.884,-5.517],[0.905,-5.433],[0.996,-5.243],[1.003,-5.11],[0.989,-5.039],[0.961,-5.032],[0.926,-4.976],[0.821,-4.877],[0.821,-4.835],[0.807,-4.821],[0.758,-4.807],[0.666,-4.737],[0.589,-4.709],[0.568,-4.68],[0.477,-4.666],[0.505,-4.631],[0.61,-4.638],[0.694,-4.659],[0.765,-4.709]]]},"properties":{"abbr":null,"name":"unnamed sealed face","plate":1,"ap_bregma_mm":7.8,"index":0}},{"type":"Feature","geometry":{"type":"Polygon","coordinates":[[[-0.715,-5.335],[-0.708,-5.37],[-0.715,-5.391],[-0.736,-5.391],[-0.757,-5.419],[-0.764,-5.524],[-0.778,-5.539],[-0.792,-5.524],[-0.792,-5.419],[-0.75,-5.25],[-0.771,-5.243],[-0.771,-5.166],[-0.743,-5.166],[-0.743,-5.095],[-0.659,-5.095],[-0.603,-5.025],[-0.568,-5.025],[-0.568,-5.053],[-0.624,-5.145],[-0.624,-5.243],[-0.673,-5.243],[-0.694,-5.32],[-0.722,-5.32],[-0.715,-5.335]]]},"properties":{"abbr":null,"name":"unnamed sealed face","plate":1,"ap_bregma_mm":7.8,"index":1}},{"type":"Feature","geometry":{"type":"Polygon","coordinates":[[[0.673,-5.433],[0.673,-5.44],[0.631,-5.447],[0.617,-5.285],[0.568,-5.285],[0.568,-5.102],[0.596,-5.102],[0.631,-5.138],[0.715,-5.138],[0.715,-5.285],[0.702,-5.285],[0.702,-5.384],[0.673,-5.412],[0.673,-5.433]]]},"properties":{"abbr":null,"name":"unnamed sealed face","plate":1,"ap_bregma_mm":7.8,"index":2}},{"type":"Feature","geometry":{"type":"Polygon","coordinates":[[[0.638,-5.546],[0.659,-5.546],[0.681,-5.581],[0.681,-5.679],[0.645,-5.672],[0.631,-5.742],[0.666,-5.735],[0.673,-5.757],[0.715,-5.757],[0.715,-5.904],[0.659,-5.904],[0.659,-5.918],[0.617,-5.911],[0.568,-5.904],[0.568,-5.757],[0.582,-5.757],[0.582,-5.735],[0.603,-5.714],[0.603,-5.665],[0.624,-5.63],[0.638,-5.546]]]},"properties":{"abbr":null,"name":"unnamed sealed face","plate":1,"ap_bregma_mm":7.8,"index":3}},{"type":"Feature","geometry":{"type":"MultiPolygon","coordinates":[[[[-0.336,-6.826],[-0.491,-6.84],[-0.68,-6.826],[-0.813,-6.797],[-1.178,-6.678],[-1.381,-6.579],[-1.5,-6.474],[-1.556,-6.39],[-1.724,-6.059],[-1.802,-5.967],[-1.886,-5.904],[-1.928,-5.834],[-1.935,-5.721],[-1.914,-5.553],[-1.844,-5.166],[-1.773,-4.941],[-1.682,-4.765],[-1.577,-4.638],[-1.43,-4.519],[-1.325,-4.462],[-1.058,-4.385],[-0.904,-4.364],[-0.792,-4.364],[-0.476,-4.406],[-0.315,-4.462],[-0.21,-4.519],[-0.147,-4.568],[-0.105,-4.624],[-0.077,-4.695],[0.021,-4.709],[0.049,-4.638],[0.134,-4.505],[0.218,-4.427],[0.393,-4.329],[0.484,-4.308],[0.673,-4.301],[0.926,-4.343],[1.185,-4.427],[1.283,-4.484],[1.389,-4.568],[1.48,-4.673],[1.543,-4.772],[1.62,-4.934],[1.669,-5.081],[1.711,-5.299],[1.711,-5.405],[1.683,-5.524],[1.676,-5.764],[1.634,-6.038],[1.543,-6.228],[1.41,-6.347],[1.354,-6.467],[1.291,-6.551],[1.178,-6.636],[1.045,-6.699],[0.702,-6.79],[0.603,-6.805],[0.421,-6.805],[0.246,-6.783],[0.0,-6.72],[-0.308,-6.819],[-0.336,-6.826]]]]},"properties":{"abbr":"brain_outline","name":"outline of the section","plate":1,"ap_bregma_mm":7.8}}]}
