{"type":"FeatureCollection","name":"GerbilAtlas plate 20","note":"Region extents cut from the atlas drawing (METHODS.md, Region extents). Coordinates are [ML, DV] in mm, ML positive to the right of the plate as printed, DV negative below the dorsal surface; AP is the plate bregma. traced_fraction is the share of each polygon boundary the atlas actually draws; below 0.5 the boundary is an estimate. no_drawn_outline marks a feature that lies only inside boundaries the atlas draws round more than one name and prints nothing within, so the whole of its outline is where the extraction cut it. Not a segmentation.","plate":20,"ap_bregma_mm":1.15,"features":[{"type":"Feature","geometry":{"type":"MultiPolygon","coordinates":[[[[-3.637,-6.497],[-3.616,-6.497],[-3.609,-6.483],[-3.378,-6.363],[-3.329,-6.356],[-3.308,-6.455],[-3.252,-6.539],[-3.217,-6.652],[-3.21,-6.736],[-3.168,-6.835],[-3.063,-6.933],[-2.944,-6.961],[-2.782,-6.94],[-2.6,-6.94],[-2.537,-6.968],[-2.488,-7.018],[-2.46,-7.081],[-2.418,-7.355],[-2.39,-7.398],[-2.362,-7.405],[-2.369,-7.461],[-2.341,-7.524],[-2.299,-7.566],[-2.208,-7.587],[-2.173,-7.609],[-2.166,-7.756],[-2.096,-7.848],[-2.047,-7.876],[-2.011,-7.876],[-1.983,-7.82],[-1.934,-7.813],[-1.885,-7.848],[-1.85,-7.932],[-1.822,-7.96],[-1.661,-7.96],[-1.577,-8.017],[-1.514,-8.066],[-1.493,-8.066],[-1.437,-8.108],[-1.353,-8.143],[-1.261,-8.164],[-1.128,-8.15],[-1.023,-8.094],[-0.89,-7.967],[-0.792,-7.904],[-0.757,-7.862],[-0.68,-7.82],[-0.645,-7.777],[-0.631,-7.721],[-0.519,-7.735],[-0.407,-7.707],[-0.259,-7.623],[-0.175,-7.545],[-0.14,-7.482],[-0.112,-7.454],[-0.084,-7.447],[-0.091,-7.524],[-0.112,-7.531],[-0.175,-7.623],[-0.217,-7.644],[-0.329,-7.742],[-0.392,-7.771],[-0.414,-7.799],[-0.484,-7.841],[-0.757,-7.975],[-0.939,-8.101],[-1.03,-8.193],[-1.114,-8.235],[-1.332,-8.242],[-1.479,-8.221],[-1.843,-8.122],[-1.955,-8.073],[-2.243,-7.799],[-2.299,-7.742],[-2.418,-7.672],[-2.446,-7.637],[-2.551,-7.566],[-2.516,-7.454],[-2.516,-7.334],[-2.537,-7.271],[-2.593,-7.201],[-2.712,-7.144],[-2.916,-7.102],[-3.189,-7.102],[-3.315,-6.968],[-3.637,-6.497]]],[[[0.189,-7.503],[0.231,-7.503],[0.357,-7.581],[0.491,-7.609],[0.645,-7.595],[0.722,-7.559],[0.75,-7.658],[0.778,-7.686],[0.82,-7.693],[0.82,-7.728],[0.848,-7.799],[0.946,-7.918],[1.044,-7.989],[1.17,-8.038],[1.339,-8.024],[1.486,-7.953],[1.591,-7.862],[1.647,-7.749],[1.703,-7.735],[1.738,-7.785],[1.766,-7.799],[1.892,-7.806],[1.984,-7.771],[2.004,-7.749],[2.033,-7.665],[2.061,-7.637],[2.117,-7.63],[2.152,-7.651],[2.194,-7.651],[2.243,-7.63],[2.348,-7.531],[2.369,-7.454],[2.348,-7.355],[2.369,-7.341],[2.369,-7.32],[2.488,-7.158],[2.551,-6.954],[2.642,-6.849],[2.775,-6.793],[2.944,-6.778],[3.021,-6.757],[3.14,-6.694],[3.217,-6.652],[3.259,-6.609],[3.287,-6.56],[3.308,-6.455],[3.378,-6.406],[3.427,-6.342],[3.7,-6.469],[3.729,-6.497],[3.75,-6.497],[3.596,-6.68],[3.574,-6.722],[3.371,-6.919],[3.21,-7.039],[3.203,-7.039],[3.189,-7.018],[2.887,-7.011],[2.804,-7.025],[2.698,-7.067],[2.614,-7.144],[2.586,-7.201],[2.579,-7.264],[2.593,-7.355],[2.621,-7.405],[2.383,-7.679],[2.327,-7.707],[2.243,-7.777],[2.11,-7.848],[1.864,-7.939],[1.857,-7.953],[1.738,-8.003],[1.388,-8.122],[1.205,-8.136],[1.128,-8.115],[1.009,-8.059],[0.736,-7.834],[0.701,-7.806],[0.666,-7.777],[0.673,-7.771],[0.659,-7.771],[0.624,-7.742],[0.561,-7.721],[0.54,-7.714],[0.519,-7.707],[0.498,-7.7],[0.477,-7.693],[0.455,-7.686],[0.308,-7.644],[0.217,-7.559],[0.189,-7.503]]]]},"properties":{"abbr":"1","name":"layer 1 of cortex","plate":20,"ap_bregma_mm":1.15,"area_mm2":1.4254,"traced_fraction":[1.0,1.0],"n_labels":4,"no_drawn_outline":false}},{"type":"Feature","geometry":{"type":"MultiPolygon","coordinates":[[[[-3.329,-6.356],[-3.308,-6.328],[-3.252,-6.314],[-3.252,-6.328],[-3.14,-6.448],[-3.119,-6.49],[-3.105,-6.588],[-3.07,-6.638],[-3.217,-6.652],[-3.252,-6.539],[-3.308,-6.455],[-3.329,-6.356]]],[[[-1.577,-8.017],[-1.57,-7.834],[-1.458,-7.904],[-1.339,-7.946],[-1.261,-7.989],[-1.198,-8.059],[-1.149,-8.059],[-1.037,-7.975],[-1.016,-7.869],[-0.995,-7.827],[-0.932,-7.763],[-0.862,-7.728],[-0.666,-7.686],[-0.631,-7.721],[-0.638,-7.763],[-0.68,-7.82],[-0.757,-7.862],[-0.792,-7.904],[-0.89,-7.967],[-1.023,-8.094],[-1.128,-8.15],[-1.261,-8.164],[-1.353,-8.143],[-1.437,-8.108],[-1.493,-8.066],[-1.514,-8.066],[-1.577,-8.017]]],[[[1.633,-7.559],[1.668,-7.552],[1.689,-7.566],[1.731,-7.566],[1.843,-7.609],[1.955,-7.489],[1.99,-7.475],[2.046,-7.475],[2.138,-7.51],[2.187,-7.51],[2.215,-7.475],[2.229,-7.391],[2.264,-7.32],[2.299,-7.32],[2.348,-7.355],[2.369,-7.426],[2.348,-7.531],[2.243,-7.63],[2.194,-7.651],[2.152,-7.651],[2.117,-7.63],[2.061,-7.637],[2.033,-7.665],[2.004,-7.749],[1.927,-7.799],[1.794,-7.806],[1.738,-7.785],[1.703,-7.735],[1.647,-7.749],[1.633,-7.742],[1.633,-7.559]]],[[[3.126,-6.511],[3.189,-6.441],[3.182,-6.335],[3.217,-6.307],[3.287,-6.286],[3.364,-6.307],[3.427,-6.342],[3.378,-6.406],[3.308,-6.455],[3.287,-6.56],[3.259,-6.609],[3.217,-6.652],[3.14,-6.694],[3.126,-6.511]]]]},"properties":{"abbr":"2","name":"layer 2 of cortex","plate":20,"ap_bregma_mm":1.15,"area_mm2":0.4177,"traced_fraction":[0.909,0.951,0.939,0.898],"n_labels":4,"no_drawn_outline":false}},{"type":"Feature","geometry":{"type":"MultiPolygon","coordinates":[[[[-3.252,-6.314],[-3.189,-6.265],[-2.845,-6.11],[-2.839,-6.307],[-2.867,-6.406],[-2.867,-6.49],[-2.845,-6.532],[-2.775,-6.595],[-2.684,-6.609],[-2.677,-6.757],[-2.831,-6.771],[-2.923,-6.75],[-3.007,-6.701],[-3.07,-6.638],[-3.105,-6.588],[-3.119,-6.49],[-3.14,-6.448],[-3.252,-6.328],[-3.252,-6.314]]],[[[-1.773,-7.496],[-1.766,-7.405],[-1.752,-7.384],[-1.731,-7.384],[-1.654,-7.461],[-1.465,-7.503],[-1.465,-7.538],[-1.486,-7.573],[-1.479,-7.637],[-1.437,-7.637],[-1.353,-7.581],[-1.304,-7.566],[-1.297,-7.587],[-1.304,-7.616],[-1.374,-7.637],[-1.409,-7.686],[-1.402,-7.763],[-1.36,-7.834],[-1.339,-7.834],[-1.332,-7.848],[-1.339,-7.946],[-1.458,-7.904],[-1.57,-7.834],[-1.619,-7.799],[-1.619,-7.545],[-1.668,-7.545],[-1.668,-7.517],[-1.703,-7.475],[-1.773,-7.496]]],[[[1.332,-7.461],[1.388,-7.475],[1.43,-7.447],[1.43,-7.461],[1.465,-7.489],[1.479,-7.63],[1.479,-7.644],[1.451,-7.658],[1.402,-7.721],[1.388,-7.721],[1.332,-7.686],[1.332,-7.461]]],[[[1.976,-7.179],[2.089,-7.011],[2.215,-6.771],[2.222,-6.736],[2.243,-6.715],[2.32,-6.722],[2.369,-6.708],[2.579,-6.567],[2.586,-6.56],[2.649,-6.539],[2.656,-6.518],[2.761,-6.504],[2.804,-6.476],[2.895,-6.37],[2.902,-6.314],[2.867,-6.173],[2.867,-6.11],[2.881,-6.082],[3.217,-6.23],[3.259,-6.251],[3.287,-6.286],[3.217,-6.307],[3.182,-6.335],[3.189,-6.441],[3.126,-6.511],[3.063,-6.56],[2.979,-6.595],[2.804,-6.617],[2.698,-6.645],[2.558,-6.708],[2.474,-6.764],[2.432,-6.807],[2.397,-6.884],[2.376,-7.088],[2.313,-7.208],[2.299,-7.32],[2.264,-7.32],[2.18,-7.264],[2.089,-7.236],[1.976,-7.179]]]]},"properties":{"abbr":"3","name":"layer 3 of cortex","plate":20,"ap_bregma_mm":1.15,"area_mm2":0.6664,"traced_fraction":[0.95,0.858,0.44,0.993],"n_labels":4,"no_drawn_outline":false}},{"type":"Feature","geometry":{"type":"MultiPolygon","coordinates":[[[[-3.876,-6.187],[-3.729,-6.089],[-3.616,-6.033],[-3.483,-5.934],[-3.364,-5.871],[-3.329,-5.836],[-3.028,-5.639],[-2.979,-5.667],[-2.937,-5.941],[-2.845,-6.047],[-2.845,-6.11],[-3.161,-6.251],[-3.252,-6.314],[-3.308,-6.328],[-3.329,-6.356],[-3.378,-6.363],[-3.609,-6.483],[-3.616,-6.497],[-3.637,-6.497],[-3.876,-6.187]]],[[[2.874,-5.997],[2.951,-5.941],[2.979,-5.85],[2.958,-5.66],[2.923,-5.526],[2.979,-5.526],[3.0,-5.561],[3.266,-5.702],[3.385,-5.786],[3.651,-5.927],[3.89,-6.075],[3.911,-6.103],[3.932,-6.103],[3.897,-6.166],[3.855,-6.342],[3.799,-6.441],[3.75,-6.497],[3.729,-6.497],[3.7,-6.469],[3.427,-6.342],[3.364,-6.307],[3.287,-6.286],[3.259,-6.251],[2.881,-6.082],[2.874,-5.997]]]]},"properties":{"abbr":"AI","name":"agranular insular cortex","plate":20,"ap_bregma_mm":1.15,"area_mm2":0.9095,"traced_fraction":[0.984,1.0],"n_labels":2,"no_drawn_outline":false}},{"type":"Feature","geometry":{"type":"MultiPolygon","coordinates":[[[[-1.899,-6.609],[-1.892,-6.553],[-1.85,-6.455],[-1.689,-6.272],[-1.605,-6.216],[-1.409,-6.131],[-1.255,-6.04],[-1.156,-5.948],[-1.142,-5.948],[-0.876,-5.66],[-0.813,-5.61],[-0.778,-5.603],[-0.778,-5.681],[-0.848,-5.779],[-0.848,-5.8],[-0.89,-5.871],[-0.988,-6.173],[-0.988,-6.286],[-0.939,-6.406],[-0.911,-6.56],[-0.911,-6.708],[-0.939,-6.785],[-0.995,-6.877],[-1.051,-6.933],[-1.178,-6.996],[-1.255,-7.018],[-1.374,-7.018],[-1.535,-6.996],[-1.654,-6.954],[-1.752,-6.87],[-1.794,-6.87],[-1.801,-6.799],[-1.836,-6.771],[-1.899,-6.609]]],[[[-1.633,-6.546],[-1.57,-6.609],[-1.465,-6.609],[-1.423,-6.687],[-1.367,-6.694],[-1.283,-6.652],[-1.219,-6.588],[-1.219,-6.476],[-1.227,-6.462],[-1.29,-6.441],[-1.304,-6.328],[-1.339,-6.307],[-1.388,-6.307],[-1.535,-6.384],[-1.619,-6.476],[-1.633,-6.546]]],[[[0.876,-5.596],[0.932,-5.603],[1.037,-5.674],[1.177,-5.814],[1.177,-5.828],[1.374,-6.04],[1.374,-6.054],[1.486,-6.152],[1.682,-6.265],[1.85,-6.321],[1.906,-6.384],[1.92,-6.434],[1.92,-6.504],[1.899,-6.595],[1.843,-6.722],[1.738,-6.835],[1.64,-6.891],[1.486,-6.912],[1.332,-6.898],[1.149,-6.807],[1.037,-6.715],[0.995,-6.659],[0.953,-6.553],[0.953,-6.398],[0.974,-6.342],[0.988,-6.23],[1.023,-6.138],[1.002,-5.934],[1.002,-5.836],[0.988,-5.8],[0.946,-5.765],[0.904,-5.667],[0.89,-5.66],[0.876,-5.596]]],[[[1.184,-6.265],[1.213,-6.356],[1.255,-6.406],[1.437,-6.511],[1.514,-6.532],[1.64,-6.532],[1.661,-6.525],[1.71,-6.469],[1.71,-6.427],[1.682,-6.398],[1.563,-6.377],[1.402,-6.307],[1.367,-6.272],[1.332,-6.194],[1.297,-6.152],[1.226,-6.159],[1.192,-6.194],[1.184,-6.265]]]]},"properties":{"abbr":"AcbC","name":"accumbens nucleus, core","plate":20,"ap_bregma_mm":1.15,"area_mm2":1.3249,"traced_fraction":[0.947,1.0,0.977,1.0],"n_labels":2,"no_drawn_outline":false}},{"type":"Feature","geometry":{"type":"MultiPolygon","coordinates":[[[[-0.778,-5.681],[-0.764,-5.681],[-0.659,-5.793],[-0.54,-5.955],[-0.477,-6.11],[-0.428,-6.166],[-0.456,-6.187],[-0.449,-6.398],[-0.512,-6.799],[-0.939,-6.785],[-0.911,-6.708],[-0.911,-6.56],[-0.939,-6.406],[-0.988,-6.286],[-0.988,-6.173],[-0.89,-5.871],[-0.848,-5.8],[-0.848,-5.779],[-0.778,-5.681]]],[[[0.61,-5.934],[0.722,-5.716],[0.834,-5.575],[0.876,-5.596],[0.89,-5.66],[0.904,-5.667],[0.946,-5.765],[0.946,-5.843],[0.981,-5.927],[1.002,-5.934],[1.023,-6.138],[0.988,-6.23],[0.974,-6.342],[0.953,-6.398],[0.953,-6.553],[0.995,-6.659],[1.037,-6.715],[1.037,-6.729],[0.932,-6.828],[0.932,-6.856],[0.897,-6.884],[0.897,-7.13],[0.883,-7.13],[0.701,-6.954],[0.673,-6.954],[0.645,-6.877],[0.54,-6.729],[0.512,-6.617],[0.512,-6.525],[0.54,-6.391],[0.561,-6.145],[0.61,-5.934]]]]},"properties":{"abbr":"AcbSh","name":"accumbens nucleus, shell","plate":20,"ap_bregma_mm":1.15,"area_mm2":0.9716,"traced_fraction":[0.867,0.877],"n_labels":2,"no_drawn_outline":false}},{"type":"Feature","geometry":{"type":"MultiPolygon","coordinates":[[[[-1.465,-7.503],[-1.437,-7.468],[-1.437,-7.426],[-1.248,-7.426],[-1.248,-7.538],[-1.255,-7.552],[-1.304,-7.566],[-1.353,-7.581],[-1.437,-7.637],[-1.479,-7.637],[-1.486,-7.573],[-1.465,-7.538],[-1.465,-7.503]]],[[[1.451,-7.362],[1.43,-7.447],[1.388,-7.475],[1.332,-7.461],[1.241,-7.433],[1.234,-7.426],[1.22,-7.391],[1.205,-7.433],[1.198,-7.433],[1.192,-7.327],[1.416,-7.327],[1.451,-7.362]]]]},"properties":{"abbr":"CB","name":"cell bridges of the ventral striatum","plate":20,"ap_bregma_mm":1.15,"area_mm2":0.0653,"traced_fraction":[0.571,0.539],"n_labels":2,"no_drawn_outline":true}},{"type":"Feature","geometry":{"type":"MultiPolygon","coordinates":[[[[-2.635,-3.528],[-2.572,-3.5],[-2.292,-3.429],[-1.927,-3.387],[-1.829,-3.387],[-1.619,-3.415],[-1.444,-3.471],[-1.24,-3.591],[-0.988,-3.844],[-0.904,-3.957],[-0.729,-4.147],[-0.568,-4.372],[-0.652,-4.386],[-0.652,-4.534],[-0.54,-4.534],[-0.54,-4.562],[-0.617,-4.724],[-0.68,-4.935],[-0.68,-4.991],[-0.729,-5.111],[-0.75,-5.209],[-0.778,-5.603],[-0.813,-5.61],[-0.876,-5.66],[-1.037,-5.828],[-1.037,-5.843],[-1.255,-6.04],[-1.381,-6.117],[-1.605,-6.216],[-1.689,-6.272],[-1.85,-6.455],[-1.892,-6.553],[-1.899,-6.609],[-1.998,-6.631],[-2.075,-6.68],[-2.173,-6.701],[-2.201,-6.722],[-2.313,-6.581],[-2.39,-6.539],[-2.467,-6.476],[-2.523,-6.377],[-2.523,-6.356],[-2.544,-6.342],[-2.607,-6.23],[-2.712,-5.955],[-2.747,-5.92],[-2.775,-5.828],[-2.86,-5.73],[-2.93,-5.575],[-2.93,-5.526],[-3.007,-5.322],[-3.007,-5.28],[-3.042,-5.167],[-3.07,-4.942],[-3.098,-4.492],[-3.056,-4.055],[-3.028,-3.95],[-2.909,-3.739],[-2.754,-3.598],[-2.635,-3.528]]],[[[0.617,-4.513],[0.778,-4.513],[0.778,-4.365],[0.715,-4.365],[0.687,-4.344],[0.939,-3.992],[1.093,-3.823],[1.142,-3.746],[1.304,-3.577],[1.444,-3.464],[1.521,-3.415],[1.71,-3.331],[2.012,-3.281],[2.194,-3.295],[2.523,-3.387],[2.81,-3.514],[2.923,-3.605],[3.056,-3.802],[3.098,-3.901],[3.133,-4.119],[3.14,-4.259],[3.105,-4.731],[3.035,-5.09],[2.895,-5.498],[2.881,-5.533],[2.838,-5.568],[2.782,-5.653],[2.705,-5.8],[2.691,-5.864],[2.649,-5.92],[2.495,-6.419],[2.334,-6.532],[2.32,-6.518],[2.152,-6.497],[2.018,-6.455],[1.99,-6.434],[1.92,-6.434],[1.906,-6.384],[1.85,-6.321],[1.682,-6.265],[1.486,-6.152],[1.374,-6.054],[1.374,-6.04],[1.304,-5.976],[1.177,-5.814],[1.037,-5.674],[0.932,-5.603],[0.876,-5.596],[0.834,-5.575],[0.841,-5.463],[0.813,-5.125],[0.799,-5.055],[0.764,-4.977],[0.722,-4.801],[0.617,-4.513]]]]},"properties":{"abbr":"CPu","name":"caudate putamen (striatum)","plate":20,"ap_bregma_mm":1.15,"area_mm2":11.8518,"traced_fraction":[0.955,0.955],"n_labels":2,"no_drawn_outline":false}},{"type":"Feature","geometry":{"type":"MultiPolygon","coordinates":[[[[-1.149,-3.218],[-1.072,-3.099],[-0.988,-2.93],[-0.911,-2.824],[-0.813,-2.634],[-0.568,-2.261],[-0.449,-2.043],[-0.168,-1.621],[-0.07,-1.684],[-0.07,-1.705],[-0.035,-1.741],[-0.014,-1.734],[-0.007,-1.705],[0.014,-1.705],[0.091,-1.614],[0.154,-1.579],[0.603,-2.121],[0.645,-2.191],[1.114,-2.768],[1.353,-3.092],[1.262,-3.155],[1.163,-3.26],[1.121,-3.331],[1.1,-3.338],[0.75,-3.106],[0.533,-3.0],[0.196,-2.88],[-0.007,-2.852],[-0.154,-2.894],[-0.357,-2.979],[-0.834,-3.232],[-1.023,-3.352],[-1.135,-3.232],[-1.149,-3.232],[-1.149,-3.218]]],[[[-0.042,-2.662],[-0.021,-2.74],[0.0,-2.747],[0.014,-2.733],[0.021,-2.5],[0.0,-2.5],[-0.021,-2.529],[-0.042,-2.662]]]]},"properties":{"abbr":"Cg1","name":"cingulate cortex, area 1","plate":20,"ap_bregma_mm":1.15,"area_mm2":2.0227,"traced_fraction":[1.0,1.0],"n_labels":2,"no_drawn_outline":false}},{"type":"Feature","geometry":{"type":"MultiPolygon","coordinates":[[[[-1.023,-3.352],[-0.834,-3.232],[-0.357,-2.979],[-0.154,-2.894],[-0.007,-2.852],[0.196,-2.88],[0.533,-3.0],[0.75,-3.106],[1.1,-3.338],[1.1,-3.359],[1.058,-3.422],[1.009,-3.464],[0.974,-3.528],[0.911,-3.591],[0.848,-3.69],[0.694,-3.872],[0.666,-3.922],[0.666,-3.957],[0.519,-4.105],[0.364,-4.168],[0.273,-4.168],[0.273,-4.154],[0.231,-4.126],[0.105,-4.112],[0.098,-4.055],[0.056,-3.957],[0.042,-3.957],[0.007,-3.999],[-0.021,-4.062],[-0.014,-4.098],[-0.147,-4.119],[-0.175,-4.168],[-0.21,-4.175],[-0.301,-4.147],[-0.357,-4.119],[-0.42,-4.062],[-0.519,-4.013],[-0.673,-3.865],[-0.715,-3.802],[-0.75,-3.725],[-0.834,-3.633],[-1.023,-3.352]]]]},"properties":{"abbr":"Cg2","name":"cingulate cortex, area 2","plate":20,"ap_bregma_mm":1.15,"area_mm2":1.8198,"traced_fraction":[1.0],"n_labels":2,"no_drawn_outline":false}},{"type":"Feature","geometry":{"type":"MultiPolygon","coordinates":[[[[-3.182,-5.174],[-3.168,-5.097],[-3.147,-5.076],[-3.105,-5.167],[-3.084,-5.273],[-3.042,-5.364],[-3.042,-5.399],[-2.986,-5.491],[-2.965,-5.575],[-2.979,-5.667],[-3.028,-5.639],[-3.084,-5.54],[-3.119,-5.441],[-3.161,-5.399],[-3.154,-5.329],[-3.168,-5.315],[-3.168,-5.223],[-3.182,-5.174]]],[[[2.923,-5.526],[2.923,-5.505],[2.979,-5.463],[3.021,-5.406],[3.07,-5.294],[3.077,-5.245],[3.119,-5.188],[3.189,-4.998],[3.21,-5.026],[3.231,-5.104],[3.231,-5.238],[3.196,-5.308],[3.189,-5.364],[2.979,-5.526],[2.923,-5.526]]]]},"properties":{"abbr":"DCl","name":"dorsal part of claustrum","plate":20,"ap_bregma_mm":1.15,"area_mm2":0.1037,"traced_fraction":[1.0,0.994],"n_labels":2,"no_drawn_outline":false}},{"type":"Feature","geometry":{"type":"MultiPolygon","coordinates":[[[[-2.845,-6.11],[-2.845,-6.047],[-2.817,-6.04],[-2.782,-6.004],[-2.747,-5.92],[-2.712,-5.955],[-2.607,-6.23],[-2.558,-6.321],[-2.523,-6.356],[-2.523,-6.377],[-2.467,-6.476],[-2.488,-6.546],[-2.53,-6.581],[-2.635,-6.609],[-2.684,-6.609],[-2.775,-6.595],[-2.845,-6.532],[-2.867,-6.49],[-2.867,-6.406],[-2.839,-6.307],[-2.845,-6.11]]],[[[2.495,-6.419],[2.649,-5.92],[2.691,-5.864],[2.726,-5.941],[2.768,-5.983],[2.804,-5.997],[2.874,-5.997],[2.881,-6.082],[2.867,-6.11],[2.867,-6.173],[2.902,-6.314],[2.895,-6.37],[2.874,-6.384],[2.867,-6.413],[2.761,-6.504],[2.656,-6.518],[2.614,-6.497],[2.495,-6.419]]]]},"properties":{"abbr":"DEn","name":"dorsal endopiriform nucleus","plate":20,"ap_bregma_mm":1.15,"area_mm2":0.3335,"traced_fraction":[1.0,1.0],"n_labels":2,"no_drawn_outline":false}},{"type":"Feature","geometry":{"type":"MultiPolygon","coordinates":[[[[-4.079,-5.976],[-4.009,-5.92],[-3.28,-5.491],[-3.161,-5.399],[-3.119,-5.441],[-3.084,-5.54],[-3.028,-5.639],[-3.329,-5.836],[-3.364,-5.871],[-3.483,-5.934],[-3.616,-6.033],[-3.729,-6.089],[-3.876,-6.187],[-4.079,-5.976]]],[[[2.979,-5.526],[3.189,-5.364],[3.553,-5.568],[3.771,-5.709],[3.96,-5.8],[4.072,-5.871],[4.107,-5.913],[4.03,-5.976],[3.932,-6.103],[3.911,-6.103],[3.827,-6.033],[3.42,-5.807],[3.266,-5.702],[3.0,-5.561],[2.979,-5.526]]]]},"properties":{"abbr":"DI","name":"dysgranular insular cortex","plate":20,"ap_bregma_mm":1.15,"area_mm2":0.5831,"traced_fraction":[1.0,1.0],"n_labels":2,"no_drawn_outline":false}},{"type":"Feature","geometry":{"type":"MultiPolygon","coordinates":[[[[-4.289,-5.807],[-4.163,-5.716],[-4.023,-5.653],[-3.876,-5.554],[-3.553,-5.385],[-3.231,-5.188],[-3.182,-5.174],[-3.168,-5.223],[-3.168,-5.315],[-3.154,-5.329],[-3.161,-5.399],[-3.28,-5.491],[-4.009,-5.92],[-4.079,-5.976],[-4.289,-5.807]]],[[[3.189,-5.364],[3.196,-5.308],[3.231,-5.238],[3.231,-5.104],[3.259,-5.104],[3.343,-5.146],[3.757,-5.392],[4.317,-5.688],[4.261,-5.786],[4.107,-5.913],[4.072,-5.871],[3.96,-5.8],[3.771,-5.709],[3.553,-5.568],[3.189,-5.364]]]]},"properties":{"abbr":"GI","name":"granular insular cortex","plate":20,"ap_bregma_mm":1.15,"area_mm2":0.5921,"traced_fraction":[1.0,0.997],"n_labels":2,"no_drawn_outline":false}},{"type":"Feature","geometry":{"type":"MultiPolygon","coordinates":[[[[-0.666,-7.686],[-0.666,-7.587],[-0.61,-7.447],[-0.526,-7.32],[-0.505,-7.32],[-0.343,-7.151],[-0.168,-7.137],[-0.077,-7.172],[-0.084,-7.243],[-0.063,-7.384],[-0.084,-7.447],[-0.112,-7.454],[-0.14,-7.482],[-0.175,-7.545],[-0.217,-7.587],[-0.322,-7.665],[-0.407,-7.707],[-0.519,-7.735],[-0.631,-7.721],[-0.666,-7.686]]],[[[0.098,-7.179],[0.133,-7.172],[0.21,-7.116],[0.434,-7.102],[0.484,-7.144],[0.512,-7.201],[0.561,-7.25],[0.603,-7.278],[0.659,-7.285],[0.659,-7.299],[0.673,-7.299],[0.729,-7.362],[0.771,-7.44],[0.729,-7.496],[0.722,-7.559],[0.645,-7.595],[0.491,-7.609],[0.357,-7.581],[0.231,-7.503],[0.189,-7.503],[0.182,-7.496],[0.161,-7.468],[0.168,-7.468],[0.161,-7.454],[0.154,-7.461],[0.14,-7.454],[0.112,-7.405],[0.119,-7.348],[0.098,-7.292],[0.098,-7.179]]]]},"properties":{"abbr":"HDB","name":"nucleus of the horizontal limb of the diagonal band","plate":20,"ap_bregma_mm":1.15,"area_mm2":0.475,"traced_fraction":[0.992,1.0],"n_labels":2,"no_drawn_outline":false}},{"type":"Feature","geometry":{"type":"MultiPolygon","coordinates":[[[[-2.341,-7.398],[-2.32,-7.362],[-2.313,-7.355],[-1.983,-7.151],[-1.857,-7.257],[-1.857,-7.454],[-1.843,-7.51],[-1.822,-7.531],[-1.766,-7.524],[-1.766,-7.587],[-1.808,-7.637],[-1.808,-7.714],[-1.787,-7.728],[-1.731,-7.714],[-1.71,-7.665],[-1.717,-7.616],[-1.689,-7.581],[-1.675,-7.581],[-1.668,-7.545],[-1.619,-7.545],[-1.619,-7.799],[-1.717,-7.785],[-1.738,-7.792],[-1.752,-7.82],[-1.787,-7.82],[-1.808,-7.799],[-1.822,-7.714],[-1.857,-7.679],[-1.955,-7.637],[-1.998,-7.644],[-2.032,-7.686],[-2.047,-7.728],[-2.061,-7.728],[-2.068,-7.665],[-2.053,-7.559],[-2.075,-7.51],[-2.18,-7.496],[-2.271,-7.419],[-2.341,-7.398]]],[[[-2.025,-7.503],[-1.998,-7.538],[-1.934,-7.524],[-1.92,-7.496],[-1.92,-7.44],[-1.934,-7.412],[-1.99,-7.412],[-2.011,-7.44],[-2.025,-7.503]]],[[[-1.304,-7.616],[-1.276,-7.623],[-1.269,-7.63],[-1.255,-7.644],[-1.184,-7.644],[-1.184,-7.834],[-1.248,-7.834],[-1.29,-7.855],[-1.332,-7.848],[-1.339,-7.834],[-1.36,-7.834],[-1.402,-7.763],[-1.409,-7.686],[-1.374,-7.637],[-1.304,-7.616]]],[[[0.722,-7.559],[0.729,-7.496],[0.771,-7.44],[0.834,-7.468],[0.855,-7.496],[0.855,-7.63],[0.848,-7.665],[0.82,-7.693],[0.792,-7.693],[0.75,-7.658],[0.722,-7.559]]],[[[1.43,-7.447],[1.451,-7.362],[1.598,-7.355],[1.787,-7.299],[1.829,-7.299],[1.801,-7.384],[1.822,-7.433],[1.871,-7.44],[1.906,-7.412],[1.913,-7.369],[1.934,-7.341],[1.934,-7.306],[1.857,-7.292],[1.906,-7.229],[1.976,-7.179],[2.089,-7.236],[2.18,-7.264],[2.264,-7.32],[2.229,-7.391],[2.215,-7.475],[2.187,-7.51],[2.138,-7.51],[2.046,-7.475],[1.99,-7.475],[1.955,-7.489],[1.843,-7.609],[1.731,-7.566],[1.689,-7.566],[1.668,-7.552],[1.633,-7.559],[1.57,-7.573],[1.5,-7.63],[1.479,-7.63],[1.465,-7.489],[1.43,-7.461],[1.43,-7.447]]]]},"properties":{"abbr":"ICj","name":"islands of Calleja","plate":20,"ap_bregma_mm":1.15,"area_mm2":0.4361,"traced_fraction":[0.913,1.0,0.697,1.0,0.947],"n_labels":6,"no_drawn_outline":false}},{"type":"Feature","geometry":{"type":"MultiPolygon","coordinates":[[[[-0.603,-7.081],[-0.512,-6.799],[-0.449,-6.398],[-0.456,-6.187],[-0.428,-6.166],[-0.371,-6.307],[-0.343,-6.434],[-0.322,-6.581],[-0.322,-6.757],[-0.378,-6.961],[-0.47,-7.116],[-0.519,-7.151],[-0.568,-7.151],[-0.589,-7.13],[-0.603,-7.081]]],[[[0.575,-5.934],[0.61,-5.934],[0.561,-6.145],[0.54,-6.391],[0.512,-6.525],[0.512,-6.617],[0.54,-6.729],[0.645,-6.877],[0.673,-6.954],[0.687,-7.172],[0.645,-7.201],[0.568,-7.137],[0.498,-7.039],[0.442,-6.884],[0.413,-6.736],[0.413,-6.469],[0.442,-6.258],[0.491,-6.103],[0.526,-6.054],[0.575,-5.934]]]]},"properties":{"abbr":"ICjM","name":"islands of Calleja, major island","plate":20,"ap_bregma_mm":1.15,"area_mm2":0.284,"traced_fraction":[0.997,1.0],"n_labels":2,"no_drawn_outline":false}},{"type":"Feature","geometry":{"type":"MultiPolygon","coordinates":[[[[-2.684,-6.609],[-2.635,-6.609],[-2.53,-6.581],[-2.488,-6.546],[-2.467,-6.476],[-2.39,-6.539],[-2.39,-6.567],[-2.32,-6.68],[-2.299,-6.771],[-2.264,-6.835],[-2.215,-6.87],[-2.145,-6.863],[-2.131,-6.891],[-2.173,-6.947],[-2.187,-7.039],[-2.159,-7.074],[-2.11,-7.102],[-2.075,-7.116],[-2.004,-7.116],[-1.983,-7.151],[-2.313,-7.355],[-2.292,-7.236],[-2.32,-7.032],[-2.355,-6.933],[-2.383,-6.891],[-2.481,-6.807],[-2.572,-6.771],[-2.677,-6.757],[-2.684,-6.609]]],[[[2.243,-6.715],[2.25,-6.666],[2.32,-6.574],[2.334,-6.532],[2.495,-6.419],[2.614,-6.497],[2.586,-6.56],[2.579,-6.567],[2.369,-6.708],[2.32,-6.722],[2.243,-6.715]]]]},"properties":{"abbr":"IEn","name":"intermediate endopiriform nucleus","plate":20,"ap_bregma_mm":1.15,"area_mm2":0.2343,"traced_fraction":[0.962,0.955],"n_labels":2,"no_drawn_outline":false}},{"type":"Feature","geometry":{"type":"MultiPolygon","coordinates":[[[[-2.201,-6.722],[-2.173,-6.701],[-2.075,-6.68],[-1.998,-6.631],[-1.899,-6.609],[-1.836,-6.771],[-1.801,-6.799],[-1.794,-6.87],[-1.752,-6.87],[-1.654,-6.954],[-1.535,-6.996],[-1.374,-7.018],[-1.255,-7.018],[-1.178,-6.996],[-1.051,-6.933],[-0.995,-6.877],[-0.939,-6.785],[-0.512,-6.799],[-0.603,-7.081],[-0.624,-7.081],[-0.708,-7.186],[-0.834,-7.299],[-0.911,-7.44],[-0.974,-7.51],[-1.016,-7.51],[-1.037,-7.468],[-1.037,-7.419],[-1.051,-7.405],[-1.086,-7.405],[-1.107,-7.419],[-1.114,-7.454],[-1.149,-7.503],[-1.248,-7.538],[-1.248,-7.426],[-1.437,-7.426],[-1.437,-7.468],[-1.465,-7.503],[-1.654,-7.461],[-1.731,-7.384],[-1.752,-7.384],[-1.766,-7.405],[-1.773,-7.496],[-1.766,-7.524],[-1.822,-7.531],[-1.843,-7.51],[-1.857,-7.454],[-1.857,-7.257],[-1.983,-7.151],[-2.004,-7.116],[-2.081,-6.933],[-2.117,-6.891],[-2.131,-6.891],[-2.145,-6.863],[-2.152,-6.821],[-2.201,-6.743],[-2.201,-6.722]]],[[[0.897,-7.13],[0.897,-6.884],[0.932,-6.856],[0.932,-6.828],[1.037,-6.729],[1.037,-6.715],[1.149,-6.807],[1.332,-6.898],[1.486,-6.912],[1.64,-6.891],[1.738,-6.835],[1.843,-6.722],[1.899,-6.595],[1.92,-6.504],[1.92,-6.434],[1.99,-6.434],[2.103,-6.483],[2.32,-6.518],[2.334,-6.532],[2.32,-6.574],[2.257,-6.652],[2.243,-6.715],[2.222,-6.736],[2.215,-6.771],[2.089,-7.011],[1.976,-7.179],[1.906,-7.229],[1.857,-7.292],[1.829,-7.299],[1.787,-7.299],[1.64,-7.348],[1.451,-7.362],[1.416,-7.327],[1.192,-7.327],[1.198,-7.433],[1.198,-7.44],[1.177,-7.51],[1.156,-7.51],[1.135,-7.489],[1.107,-7.419],[1.1,-7.292],[0.953,-7.194],[0.897,-7.144],[0.897,-7.13]]]]},"properties":{"abbr":"LAcbSh","name":"lateral accumbens shell","plate":20,"ap_bregma_mm":1.15,"area_mm2":1.4542,"traced_fraction":[0.832,0.827],"n_labels":2,"no_drawn_outline":false}},{"type":"Feature","geometry":{"type":"MultiPolygon","coordinates":[[[[-0.68,-4.991],[-0.68,-4.935],[-0.617,-4.724],[-0.54,-4.562],[-0.54,-4.534],[-0.519,-4.492],[-0.343,-4.478],[-0.28,-4.492],[-0.266,-4.661],[-0.21,-4.815],[-0.21,-4.85],[-0.399,-4.9],[-0.519,-4.928],[-0.631,-4.998],[-0.68,-4.991]]],[[[0.189,-4.85],[0.231,-4.703],[0.245,-4.513],[0.47,-4.485],[0.61,-4.485],[0.617,-4.513],[0.722,-4.801],[0.764,-4.977],[0.729,-4.977],[0.603,-4.921],[0.413,-4.886],[0.189,-4.85]]]]},"properties":{"abbr":"LSD","name":"lateral septal nucleus, dorsal part","plate":20,"ap_bregma_mm":1.15,"area_mm2":0.3424,"traced_fraction":[1.0,1.0],"n_labels":2,"no_drawn_outline":false}},{"type":"Feature","geometry":{"type":"MultiPolygon","coordinates":[[[[-0.54,-5.955],[-0.512,-5.892],[-0.477,-5.639],[-0.42,-5.441],[-0.414,-5.336],[-0.371,-5.167],[-0.371,-5.005],[-0.399,-4.9],[-0.21,-4.85],[-0.175,-4.886],[-0.133,-4.97],[-0.007,-5.09],[-0.035,-5.188],[-0.042,-5.273],[-0.049,-5.793],[-0.049,-5.821],[-0.091,-5.899],[-0.112,-6.04],[-0.189,-6.652],[-0.301,-7.046],[-0.343,-7.151],[-0.505,-7.32],[-0.526,-7.32],[-0.519,-7.271],[-0.47,-7.165],[-0.47,-7.116],[-0.378,-6.961],[-0.322,-6.757],[-0.322,-6.581],[-0.343,-6.434],[-0.371,-6.307],[-0.428,-6.166],[-0.477,-6.11],[-0.54,-5.955]]],[[[0.035,-5.083],[0.035,-5.069],[0.105,-4.998],[0.189,-4.85],[0.413,-4.886],[0.406,-5.048],[0.477,-5.245],[0.505,-5.371],[0.561,-5.8],[0.561,-5.913],[0.575,-5.934],[0.547,-6.011],[0.491,-6.103],[0.442,-6.258],[0.413,-6.469],[0.413,-6.736],[0.442,-6.884],[0.498,-7.039],[0.568,-7.137],[0.645,-7.201],[0.659,-7.285],[0.603,-7.278],[0.561,-7.25],[0.512,-7.201],[0.484,-7.144],[0.434,-7.102],[0.428,-7.06],[0.315,-6.842],[0.245,-6.652],[0.14,-6.047],[0.098,-5.8],[0.077,-5.223],[0.056,-5.118],[0.035,-5.083]]]]},"properties":{"abbr":"LSI","name":"lateral septal nucleus, intermediate part","plate":20,"ap_bregma_mm":1.15,"area_mm2":1.3456,"traced_fraction":[0.975,0.995],"n_labels":2,"no_drawn_outline":false}},{"type":"Feature","geometry":{"type":"MultiPolygon","coordinates":[[[[-0.778,-5.681],[-0.778,-5.603],[-0.75,-5.209],[-0.729,-5.111],[-0.68,-4.991],[-0.631,-4.998],[-0.519,-4.928],[-0.399,-4.9],[-0.371,-5.005],[-0.371,-5.167],[-0.414,-5.336],[-0.42,-5.441],[-0.477,-5.639],[-0.512,-5.892],[-0.54,-5.955],[-0.659,-5.793],[-0.764,-5.681],[-0.778,-5.681]]],[[[0.413,-4.886],[0.603,-4.921],[0.729,-4.977],[0.764,-4.977],[0.792,-5.033],[0.813,-5.125],[0.841,-5.463],[0.834,-5.575],[0.722,-5.716],[0.61,-5.934],[0.575,-5.934],[0.561,-5.913],[0.561,-5.8],[0.505,-5.371],[0.477,-5.245],[0.406,-5.048],[0.413,-4.886]]]]},"properties":{"abbr":"LSV","name":"lateral septal nucleus, ventral part","plate":20,"ap_bregma_mm":1.15,"area_mm2":0.5679,"traced_fraction":[1.0,1.0],"n_labels":2,"no_drawn_outline":false}},{"type":"Feature","geometry":{"type":"MultiPolygon","coordinates":[[[[0.61,-4.485],[0.61,-4.457],[0.659,-4.365],[0.687,-4.344],[0.715,-4.365],[0.778,-4.365],[0.778,-4.513],[0.617,-4.513],[0.61,-4.485]]]]},"properties":{"abbr":"LV","name":"lateral ventricle","plate":20,"ap_bregma_mm":1.15,"area_mm2":0.0231,"traced_fraction":[0.422],"n_labels":2,"no_drawn_outline":true}},{"type":"Feature","geometry":{"type":"MultiPolygon","coordinates":[[[[-0.049,-5.793],[-0.042,-5.273],[-0.035,-5.188],[-0.007,-5.09],[0.035,-5.083],[0.056,-5.118],[0.077,-5.223],[0.098,-5.8],[-0.049,-5.793]]]]},"properties":{"abbr":"Ld","name":"lambdoid septal zone","plate":20,"ap_bregma_mm":1.15,"area_mm2":0.0879,"traced_fraction":[0.92],"n_labels":1,"no_drawn_outline":false}},{"type":"Feature","geometry":{"type":"MultiPolygon","coordinates":[[[[-2.649,-1.607],[-2.159,-1.48],[-1.738,-1.41],[-1.437,-1.389],[-1.458,-3.148],[-1.689,-3.155],[-1.913,-3.19],[-1.969,-3.19],[-2.222,-3.239],[-2.649,-1.607]]],[[[1.346,-1.241],[1.731,-1.241],[2.061,-1.269],[2.425,-1.325],[2.572,-1.375],[2.411,-2.071],[2.383,-2.261],[2.229,-2.937],[2.208,-3.092],[2.11,-3.092],[2.025,-3.07],[1.696,-3.049],[1.647,-3.035],[1.612,-3.042],[1.346,-1.241]]]]},"properties":{"abbr":"M1","name":"primary motor cortex","plate":20,"ap_bregma_mm":1.15,"area_mm2":3.363,"traced_fraction":[1.0,1.0],"n_labels":2,"no_drawn_outline":false}},{"type":"Feature","geometry":{"type":"MultiPolygon","coordinates":[[[[-1.458,-3.148],[-1.437,-1.389],[-1.332,-1.375],[-0.694,-1.382],[-0.561,-1.41],[-0.371,-1.473],[-0.273,-1.522],[-0.182,-1.593],[-0.168,-1.621],[-0.449,-2.043],[-0.568,-2.261],[-0.813,-2.634],[-0.911,-2.824],[-0.988,-2.93],[-1.072,-3.099],[-1.149,-3.218],[-1.255,-3.183],[-1.395,-3.169],[-1.458,-3.148]]],[[[0.154,-1.579],[0.308,-1.459],[0.561,-1.333],[0.911,-1.255],[1.058,-1.241],[1.346,-1.241],[1.612,-3.042],[1.43,-3.063],[1.353,-3.092],[1.311,-3.021],[0.645,-2.191],[0.603,-2.121],[0.154,-1.579]]]]},"properties":{"abbr":"M2","name":"secondary motor cortex","plate":20,"ap_bregma_mm":1.15,"area_mm2":2.9229,"traced_fraction":[1.0,1.0],"n_labels":2,"no_drawn_outline":false}},{"type":"Feature","geometry":{"type":"MultiPolygon","coordinates":[[[[-0.112,-6.04],[-0.091,-5.899],[-0.049,-5.821],[-0.049,-5.793],[0.098,-5.8],[0.14,-6.047],[-0.112,-6.04]]]]},"properties":{"abbr":"MS","name":"medial septal nucleus","plate":20,"ap_bregma_mm":1.15,"area_mm2":0.0505,"traced_fraction":[0.789],"n_labels":1,"no_drawn_outline":false}},{"type":"Feature","geometry":{"type":"MultiPolygon","coordinates":[[[[-3.217,-6.652],[-3.07,-6.638],[-3.007,-6.701],[-2.923,-6.75],[-2.831,-6.771],[-2.677,-6.757],[-2.6,-6.764],[-2.481,-6.807],[-2.439,-6.835],[-2.355,-6.933],[-2.32,-7.032],[-2.299,-7.165],[-2.292,-7.257],[-2.313,-7.355],[-2.32,-7.362],[-2.341,-7.398],[-2.362,-7.405],[-2.39,-7.398],[-2.418,-7.355],[-2.46,-7.081],[-2.488,-7.018],[-2.537,-6.968],[-2.6,-6.94],[-2.782,-6.94],[-2.944,-6.961],[-3.063,-6.933],[-3.168,-6.835],[-3.21,-6.736],[-3.217,-6.652]]],[[[2.299,-7.32],[2.313,-7.208],[2.376,-7.088],[2.397,-6.884],[2.432,-6.807],[2.474,-6.764],[2.558,-6.708],[2.698,-6.645],[2.804,-6.617],[2.979,-6.595],[3.063,-6.56],[3.126,-6.511],[3.14,-6.694],[3.021,-6.757],[2.944,-6.778],[2.775,-6.793],[2.642,-6.849],[2.551,-6.954],[2.488,-7.158],[2.369,-7.32],[2.369,-7.341],[2.348,-7.355],[2.299,-7.32]]]]},"properties":{"abbr":"Pir","name":"piriform cortex","plate":20,"ap_bregma_mm":1.15,"area_mm2":0.4027,"traced_fraction":[0.97,0.957],"n_labels":2,"no_drawn_outline":false}},{"type":"Feature","geometry":{"type":"MultiPolygon","coordinates":[[[[-5.235,-3.542],[-5.221,-3.464],[-5.165,-3.317],[-5.06,-3.113],[-4.99,-3.028],[-4.962,-2.972],[-4.822,-2.817],[-4.619,-2.655],[-4.535,-2.571],[-4.366,-2.465],[-4.261,-2.606],[-4.191,-2.669],[-4.191,-2.683],[-4.03,-2.852],[-4.03,-2.866],[-3.806,-3.092],[-3.806,-3.106],[-3.539,-3.373],[-3.525,-3.373],[-3.504,-3.408],[-3.357,-3.542],[-3.343,-3.57],[-3.329,-3.57],[-3.126,-3.767],[-3.105,-3.774],[-3.154,-3.908],[-5.235,-3.542]]],[[[3.252,-3.661],[3.336,-3.619],[3.364,-3.584],[3.399,-3.57],[3.378,-3.514],[3.722,-3.507],[3.722,-3.331],[4.051,-3.077],[4.1,-3.021],[4.149,-2.993],[4.254,-2.887],[4.268,-2.887],[4.268,-2.873],[4.338,-2.824],[4.338,-2.81],[4.408,-2.761],[4.408,-2.747],[4.478,-2.697],[4.478,-2.683],[4.598,-2.592],[4.598,-2.578],[4.612,-2.578],[4.689,-2.5],[4.689,-2.451],[4.983,-2.676],[5.179,-2.873],[5.193,-2.909],[5.32,-3.07],[5.376,-3.183],[5.453,-3.373],[5.467,-3.485],[5.453,-3.5],[5.376,-3.514],[5.242,-3.521],[4.338,-3.64],[3.301,-3.746],[3.273,-3.718],[3.252,-3.661]]]]},"properties":{"abbr":"S1J","name":"primary somatosensory cortex, jaw region","plate":20,"ap_bregma_mm":1.15,"area_mm2":2.8242,"traced_fraction":[1.0,0.911],"n_labels":4,"no_drawn_outline":false}},{"type":"Feature","geometry":{"type":"MultiPolygon","coordinates":[[[[-4.366,-2.465],[-4.247,-2.381],[-4.247,-2.402],[-4.219,-2.423],[-3.96,-2.775],[-3.883,-2.845],[-3.883,-2.859],[-3.665,-3.092],[-3.665,-3.106],[-3.595,-3.162],[-3.406,-3.366],[-3.392,-3.366],[-3.308,-3.457],[-3.294,-3.457],[-3.168,-3.598],[-3.154,-3.598],[-3.056,-3.69],[-3.056,-3.711],[-3.105,-3.774],[-3.126,-3.767],[-3.329,-3.57],[-3.343,-3.57],[-3.357,-3.542],[-3.413,-3.5],[-3.504,-3.408],[-3.504,-3.394],[-3.539,-3.373],[-3.806,-3.106],[-3.806,-3.092],[-4.03,-2.866],[-4.03,-2.852],[-4.149,-2.733],[-4.191,-2.669],[-4.261,-2.606],[-4.366,-2.465]]],[[[3.343,-3.507],[3.343,-3.345],[3.553,-3.345],[3.609,-3.303],[3.658,-3.373],[3.687,-3.366],[3.722,-3.331],[3.722,-3.507],[3.378,-3.514],[3.371,-3.5],[3.343,-3.507]]]]},"properties":{"abbr":"S1DZ","name":"primary somatosensory cortex, dysgranular zone","plate":20,"ap_bregma_mm":1.15,"area_mm2":0.2644,"traced_fraction":[1.0,0.347],"n_labels":2,"no_drawn_outline":false}},{"type":"Feature","geometry":{"type":"MultiPolygon","coordinates":[[[[-4.247,-2.381],[-4.156,-2.317],[-3.665,-2.05],[-3.652,-2.043],[-3.588,-2.008],[-3.399,-1.902],[-3.399,-1.931],[-3.385,-1.938],[-3.154,-2.402],[-3.049,-2.578],[-2.656,-3.38],[-2.796,-3.45],[-2.93,-3.542],[-3.014,-3.654],[-3.056,-3.69],[-3.154,-3.598],[-3.168,-3.598],[-3.294,-3.457],[-3.308,-3.457],[-3.392,-3.366],[-3.406,-3.366],[-3.539,-3.232],[-3.539,-3.218],[-3.665,-3.106],[-3.665,-3.092],[-3.729,-3.035],[-3.729,-3.021],[-3.834,-2.916],[-3.883,-2.845],[-3.96,-2.775],[-4.219,-2.423],[-4.247,-2.402],[-4.247,-2.381]]],[[[2.874,-3.31],[2.923,-3.169],[2.993,-3.042],[3.154,-2.655],[3.567,-1.797],[3.96,-1.987],[4.037,-2.036],[4.198,-2.121],[4.584,-2.381],[4.584,-2.395],[4.57,-2.395],[4.366,-2.606],[4.352,-2.606],[4.352,-2.62],[4.324,-2.634],[4.275,-2.697],[4.261,-2.697],[4.177,-2.789],[4.163,-2.789],[4.121,-2.845],[4.044,-2.902],[4.044,-2.916],[4.016,-2.93],[3.939,-3.014],[3.925,-3.014],[3.911,-3.042],[3.897,-3.042],[3.827,-3.106],[3.827,-3.12],[3.813,-3.12],[3.764,-3.176],[3.75,-3.176],[3.609,-3.303],[3.553,-3.345],[3.343,-3.345],[3.343,-3.507],[3.329,-3.542],[3.364,-3.584],[3.336,-3.619],[3.252,-3.661],[3.189,-3.556],[3.098,-3.464],[2.874,-3.31]]]]},"properties":{"abbr":"S1FL","name":"primary somatosensory cortex, forelimb region","plate":20,"ap_bregma_mm":1.15,"area_mm2":2.761,"traced_fraction":[1.0,0.939],"n_labels":2,"no_drawn_outline":false}},{"type":"Feature","geometry":{"type":"MultiPolygon","coordinates":[[[[-3.399,-1.902],[-3.238,-1.811],[-3.021,-1.719],[-2.649,-1.607],[-2.222,-3.239],[-2.642,-3.38],[-2.656,-3.38],[-3.049,-2.578],[-3.063,-2.571],[-3.385,-1.938],[-3.399,-1.931],[-3.399,-1.902]]],[[[2.208,-3.092],[2.229,-2.937],[2.355,-2.402],[2.411,-2.071],[2.572,-1.375],[2.691,-1.403],[2.951,-1.508],[3.007,-1.544],[3.287,-1.649],[3.567,-1.797],[3.154,-2.655],[2.993,-3.042],[2.923,-3.169],[2.874,-3.31],[2.684,-3.225],[2.516,-3.169],[2.334,-3.134],[2.208,-3.092]]]]},"properties":{"abbr":"S1HL","name":"primary somatosensory cortex, hindlimb region","plate":20,"ap_bregma_mm":1.15,"area_mm2":2.5787,"traced_fraction":[1.0,1.0],"n_labels":2,"no_drawn_outline":false}},{"type":"Feature","geometry":{"type":"MultiPolygon","coordinates":[[[[-5.235,-3.542],[-3.154,-3.908],[-3.196,-4.091],[-3.21,-4.471],[-3.287,-4.492],[-3.862,-4.752],[-4.128,-4.85],[-4.247,-4.914],[-4.289,-4.921],[-4.394,-4.977],[-4.591,-5.048],[-4.759,-5.132],[-4.927,-5.195],[-4.934,-5.202],[-4.997,-5.125],[-5.039,-5.04],[-5.067,-5.019],[-5.151,-4.872],[-5.228,-4.703],[-5.292,-4.471],[-5.313,-4.133],[-5.27,-3.697],[-5.235,-3.542]]],[[[3.301,-3.746],[4.338,-3.64],[5.242,-3.521],[5.376,-3.514],[5.453,-3.5],[5.467,-3.485],[5.495,-3.633],[5.495,-3.732],[5.481,-3.95],[5.446,-4.062],[5.278,-4.365],[5.249,-4.386],[5.2,-4.471],[5.032,-4.675],[4.983,-4.738],[4.843,-4.914],[4.801,-4.879],[4.443,-4.738],[4.03,-4.548],[3.953,-4.527],[3.308,-4.231],[3.322,-4.133],[3.322,-3.957],[3.301,-3.746]]]]},"properties":{"abbr":"S1ULp","name":"primary somatosensory cortex, upper lip region","plate":20,"ap_bregma_mm":1.15,"area_mm2":4.3669,"traced_fraction":[1.0,1.0],"n_labels":2,"no_drawn_outline":false}},{"type":"Feature","geometry":{"type":"MultiPolygon","coordinates":[[[[-4.934,-5.202],[-4.927,-5.195],[-4.759,-5.132],[-4.591,-5.048],[-4.443,-4.998],[-4.289,-4.921],[-4.247,-4.914],[-4.128,-4.85],[-3.862,-4.752],[-3.287,-4.492],[-3.21,-4.471],[-3.196,-4.541],[-3.196,-4.738],[-3.147,-5.076],[-3.168,-5.097],[-3.182,-5.174],[-3.231,-5.188],[-3.553,-5.385],[-3.876,-5.554],[-4.023,-5.653],[-4.163,-5.716],[-4.289,-5.807],[-4.387,-5.751],[-4.521,-5.625],[-4.535,-5.625],[-4.878,-5.28],[-4.934,-5.202]]],[[[3.189,-4.998],[3.196,-4.879],[3.28,-4.513],[3.308,-4.231],[3.953,-4.527],[4.03,-4.548],[4.443,-4.738],[4.801,-4.879],[4.843,-4.914],[4.542,-5.357],[4.317,-5.688],[3.757,-5.392],[3.343,-5.146],[3.259,-5.104],[3.231,-5.104],[3.21,-5.026],[3.189,-4.998]]]]},"properties":{"abbr":"S2","name":"secondary somatosensory cortex","plate":20,"ap_bregma_mm":1.15,"area_mm2":2.4683,"traced_fraction":[1.0,1.0],"n_labels":2,"no_drawn_outline":false}},{"type":"Feature","geometry":{"type":"MultiPolygon","coordinates":[[[[-0.28,-4.492],[-0.07,-4.52],[0.245,-4.513],[0.245,-4.618],[0.217,-4.773],[0.189,-4.85],[0.119,-4.977],[0.035,-5.083],[-0.007,-5.09],[-0.133,-4.97],[-0.175,-4.886],[-0.21,-4.85],[-0.21,-4.815],[-0.266,-4.661],[-0.28,-4.492]]]]},"properties":{"abbr":"SHi","name":"septohippocampal nucleus","plate":20,"ap_bregma_mm":1.15,"area_mm2":0.2183,"traced_fraction":[0.989],"n_labels":1,"no_drawn_outline":false}},{"type":"Feature","geometry":{"type":"MultiPolygon","coordinates":[[[[-2.362,-7.405],[-2.341,-7.398],[-2.271,-7.419],[-2.18,-7.496],[-2.075,-7.51],[-2.053,-7.559],[-2.068,-7.665],[-2.061,-7.728],[-2.047,-7.728],[-2.032,-7.686],[-1.998,-7.644],[-1.955,-7.637],[-1.857,-7.679],[-1.822,-7.714],[-1.808,-7.799],[-1.787,-7.82],[-1.752,-7.82],[-1.745,-7.799],[-1.717,-7.785],[-1.619,-7.799],[-1.57,-7.834],[-1.577,-8.017],[-1.661,-7.96],[-1.822,-7.96],[-1.85,-7.932],[-1.885,-7.848],[-1.934,-7.813],[-1.983,-7.82],[-2.011,-7.876],[-2.047,-7.876],[-2.096,-7.848],[-2.166,-7.756],[-2.173,-7.609],[-2.208,-7.587],[-2.271,-7.581],[-2.341,-7.524],[-2.369,-7.461],[-2.362,-7.405]]],[[[0.82,-7.693],[0.848,-7.665],[0.855,-7.63],[0.883,-7.63],[0.925,-7.595],[0.988,-7.587],[0.988,-7.602],[1.079,-7.623],[1.107,-7.651],[1.114,-7.721],[1.093,-7.763],[1.093,-7.841],[1.163,-7.897],[1.262,-7.911],[1.29,-7.89],[1.325,-7.855],[1.388,-7.721],[1.402,-7.721],[1.409,-7.7],[1.479,-7.644],[1.479,-7.63],[1.5,-7.63],[1.57,-7.573],[1.633,-7.559],[1.633,-7.742],[1.647,-7.749],[1.591,-7.862],[1.486,-7.953],[1.339,-8.024],[1.17,-8.038],[1.044,-7.989],[0.946,-7.918],[0.848,-7.799],[0.82,-7.728],[0.82,-7.693]]]]},"properties":{"abbr":"Tu","name":"olfactory tubercle","plate":20,"ap_bregma_mm":1.15,"area_mm2":0.3481,"traced_fraction":[0.955,0.948],"n_labels":2,"no_drawn_outline":false}},{"type":"Feature","geometry":{"type":"MultiPolygon","coordinates":[[[[-2.979,-5.667],[-2.965,-5.575],[-2.93,-5.575],[-2.86,-5.73],[-2.775,-5.828],[-2.747,-5.92],[-2.782,-6.004],[-2.817,-6.04],[-2.845,-6.047],[-2.937,-5.941],[-2.979,-5.667]]],[[[2.691,-5.864],[2.705,-5.8],[2.782,-5.653],[2.838,-5.568],[2.881,-5.533],[2.895,-5.498],[2.923,-5.505],[2.923,-5.526],[2.958,-5.66],[2.979,-5.85],[2.951,-5.941],[2.874,-5.997],[2.804,-5.997],[2.768,-5.983],[2.726,-5.941],[2.691,-5.864]]]]},"properties":{"abbr":"VCl","name":"ventral part of claustrum","plate":20,"ap_bregma_mm":1.15,"area_mm2":0.152,"traced_fraction":[0.961,1.0],"n_labels":2,"no_drawn_outline":false}},{"type":"Feature","geometry":{"type":"MultiPolygon","coordinates":[[[[-0.343,-7.151],[-0.301,-7.046],[-0.189,-6.652],[-0.112,-6.04],[0.14,-6.047],[0.245,-6.652],[0.315,-6.842],[0.428,-7.06],[0.434,-7.102],[0.21,-7.116],[0.133,-7.172],[0.098,-7.179],[0.084,-7.137],[0.042,-7.109],[-0.021,-7.109],[-0.049,-7.123],[-0.077,-7.172],[-0.168,-7.137],[-0.343,-7.151]]]]},"properties":{"abbr":"VDB","name":"nucleus of the vertical limb of the diagonal band","plate":20,"ap_bregma_mm":1.15,"area_mm2":0.4986,"traced_fraction":[0.938],"n_labels":1,"no_drawn_outline":false}},{"type":"Feature","geometry":{"type":"MultiPolygon","coordinates":[[[[-2.131,-6.891],[-2.117,-6.891],[-2.081,-6.933],[-2.004,-7.116],[-2.075,-7.116],[-2.11,-7.102],[-2.159,-7.074],[-2.187,-7.039],[-2.173,-6.947],[-2.131,-6.891]]],[[[-0.911,-7.44],[-0.834,-7.299],[-0.708,-7.186],[-0.624,-7.081],[-0.603,-7.081],[-0.603,-7.102],[-0.568,-7.151],[-0.519,-7.151],[-0.47,-7.116],[-0.47,-7.165],[-0.519,-7.271],[-0.526,-7.32],[-0.61,-7.447],[-0.911,-7.44]]],[[[0.645,-7.201],[0.687,-7.172],[0.673,-6.954],[0.701,-6.954],[0.883,-7.13],[0.897,-7.13],[0.897,-7.144],[0.953,-7.194],[1.1,-7.292],[1.107,-7.419],[1.135,-7.489],[1.072,-7.531],[0.988,-7.531],[0.988,-7.587],[0.925,-7.595],[0.883,-7.63],[0.855,-7.63],[0.855,-7.496],[0.834,-7.468],[0.771,-7.44],[0.729,-7.362],[0.673,-7.299],[0.659,-7.299],[0.659,-7.285],[0.645,-7.201]]]]},"properties":{"abbr":"VP","name":"ventral pallidum","plate":20,"ap_bregma_mm":1.15,"area_mm2":0.2759,"traced_fraction":[1.0,0.814,0.91],"n_labels":3,"no_drawn_outline":false}},{"type":"Feature","geometry":{"type":"MultiPolygon","coordinates":[[[[-1.633,-6.546],[-1.619,-6.476],[-1.535,-6.384],[-1.388,-6.307],[-1.318,-6.314],[-1.297,-6.342],[-1.29,-6.441],[-1.227,-6.462],[-1.219,-6.476],[-1.219,-6.588],[-1.283,-6.652],[-1.367,-6.694],[-1.423,-6.687],[-1.465,-6.609],[-1.57,-6.609],[-1.633,-6.546]]],[[[1.184,-6.265],[1.192,-6.194],[1.241,-6.152],[1.297,-6.152],[1.332,-6.194],[1.367,-6.272],[1.402,-6.307],[1.563,-6.377],[1.682,-6.398],[1.71,-6.427],[1.71,-6.469],[1.661,-6.525],[1.64,-6.532],[1.514,-6.532],[1.437,-6.511],[1.255,-6.406],[1.22,-6.37],[1.184,-6.265]]]]},"properties":{"abbr":"aca","name":"anterior commissure, anterior part","plate":20,"ap_bregma_mm":1.15,"area_mm2":0.1999,"traced_fraction":[1.0,1.0],"n_labels":2,"no_drawn_outline":false}},{"type":"Feature","geometry":{"type":"MultiPolygon","coordinates":[[[[-2.642,-3.38],[-2.222,-3.239],[-1.969,-3.19],[-1.913,-3.19],[-1.899,-3.246],[-1.836,-3.232],[-1.437,-3.225],[-1.325,-3.246],[-1.248,-3.281],[-1.1,-3.394],[-1.1,-3.408],[-0.855,-3.661],[-0.792,-3.753],[-0.743,-3.802],[-0.715,-3.802],[-0.673,-3.865],[-0.519,-4.013],[-0.42,-4.062],[-0.357,-4.119],[-0.301,-4.147],[-0.21,-4.175],[-0.175,-4.168],[-0.14,-4.182],[-0.14,-4.217],[-0.007,-4.217],[-0.007,-4.196],[0.014,-4.196],[0.035,-4.175],[0.063,-4.175],[0.063,-4.189],[0.098,-4.196],[0.154,-4.196],[0.259,-4.182],[0.273,-4.168],[0.364,-4.168],[0.519,-4.105],[0.666,-3.957],[0.687,-3.957],[0.736,-3.908],[1.107,-3.422],[1.304,-3.232],[1.458,-3.169],[1.766,-3.12],[1.962,-3.127],[2.201,-3.176],[2.194,-3.295],[2.012,-3.281],[1.71,-3.331],[1.647,-3.352],[1.444,-3.464],[1.304,-3.577],[1.142,-3.746],[1.093,-3.823],[0.939,-3.992],[0.687,-4.344],[0.659,-4.365],[0.47,-4.365],[0.47,-4.485],[0.245,-4.513],[-0.07,-4.52],[-0.28,-4.492],[-0.343,-4.478],[-0.343,-4.386],[-0.554,-4.386],[-0.568,-4.372],[-0.645,-4.252],[-0.848,-4.02],[-0.848,-4.006],[-0.904,-3.957],[-0.939,-3.901],[-0.988,-3.858],[-0.988,-3.844],[-1.24,-3.591],[-1.444,-3.471],[-1.619,-3.415],[-1.829,-3.387],[-1.927,-3.387],[-2.292,-3.429],[-2.572,-3.5],[-2.635,-3.528],[-2.642,-3.38]]]]},"properties":{"abbr":"cc","name":"corpus callosum","plate":20,"ap_bregma_mm":1.15,"area_mm2":1.3208,"traced_fraction":[0.938],"n_labels":1,"no_drawn_outline":false}},{"type":"Feature","geometry":{"type":"MultiPolygon","coordinates":[[[[-1.913,-3.19],[-1.689,-3.155],[-1.458,-3.148],[-1.395,-3.169],[-1.255,-3.183],[-1.149,-3.218],[-1.149,-3.232],[-1.135,-3.232],[-1.023,-3.352],[-0.834,-3.633],[-0.75,-3.725],[-0.715,-3.802],[-0.743,-3.802],[-0.792,-3.753],[-0.855,-3.661],[-1.1,-3.408],[-1.1,-3.394],[-1.248,-3.281],[-1.325,-3.246],[-1.437,-3.225],[-1.836,-3.232],[-1.899,-3.246],[-1.913,-3.19]]],[[[0.666,-3.957],[0.666,-3.922],[0.694,-3.872],[0.848,-3.69],[0.911,-3.591],[0.974,-3.528],[1.009,-3.464],[1.058,-3.422],[1.072,-3.387],[1.093,-3.373],[1.1,-3.338],[1.121,-3.331],[1.163,-3.26],[1.262,-3.155],[1.353,-3.092],[1.43,-3.063],[1.612,-3.042],[1.647,-3.035],[1.696,-3.049],[2.025,-3.07],[2.11,-3.092],[2.208,-3.092],[2.334,-3.134],[2.32,-3.197],[2.201,-3.176],[1.962,-3.127],[1.766,-3.12],[1.458,-3.169],[1.304,-3.232],[1.107,-3.422],[0.736,-3.908],[0.687,-3.957],[0.666,-3.957]]]]},"properties":{"abbr":"cg","name":"cingulum","plate":20,"ap_bregma_mm":1.15,"area_mm2":0.2409,"traced_fraction":[0.998,0.995],"n_labels":2,"no_drawn_outline":false}},{"type":"Feature","geometry":{"type":"MultiPolygon","coordinates":[[[[-3.21,-4.471],[-3.196,-4.091],[-3.154,-3.908],[-3.105,-3.774],[-3.056,-3.711],[-3.056,-3.69],[-3.014,-3.654],[-2.93,-3.542],[-2.796,-3.45],[-2.656,-3.38],[-2.642,-3.38],[-2.635,-3.528],[-2.754,-3.598],[-2.909,-3.739],[-3.028,-3.95],[-3.056,-4.055],[-3.091,-4.337],[-3.091,-4.689],[-3.042,-5.167],[-3.007,-5.28],[-3.007,-5.322],[-2.93,-5.526],[-2.93,-5.575],[-2.965,-5.575],[-2.986,-5.491],[-3.042,-5.399],[-3.042,-5.364],[-3.084,-5.273],[-3.105,-5.167],[-3.147,-5.076],[-3.196,-4.738],[-3.196,-4.541],[-3.21,-4.471]]],[[[2.194,-3.295],[2.201,-3.176],[2.32,-3.197],[2.334,-3.134],[2.516,-3.169],[2.684,-3.225],[2.874,-3.31],[3.098,-3.464],[3.189,-3.556],[3.252,-3.661],[3.273,-3.718],[3.301,-3.746],[3.322,-3.957],[3.322,-4.133],[3.308,-4.231],[3.28,-4.513],[3.196,-4.879],[3.189,-4.998],[3.119,-5.188],[3.077,-5.245],[3.07,-5.294],[3.021,-5.406],[2.986,-5.456],[2.923,-5.505],[2.895,-5.498],[3.035,-5.09],[3.105,-4.731],[3.14,-4.259],[3.133,-4.119],[3.098,-3.901],[3.056,-3.802],[2.993,-3.704],[2.972,-3.69],[2.923,-3.605],[2.853,-3.542],[2.761,-3.485],[2.6,-3.415],[2.194,-3.295]]]]},"properties":{"abbr":"ec","name":"external capsule","plate":20,"ap_bregma_mm":1.15,"area_mm2":0.7627,"traced_fraction":[0.981,0.985],"n_labels":2,"no_drawn_outline":false}},{"type":"Feature","geometry":{"type":"MultiPolygon","coordinates":[[[[-3.189,-7.102],[-2.916,-7.102],[-2.712,-7.144],[-2.593,-7.201],[-2.537,-7.271],[-2.516,-7.334],[-2.516,-7.454],[-2.551,-7.566],[-2.698,-7.496],[-3.0,-7.299],[-3.007,-7.278],[-3.042,-7.264],[-3.105,-7.208],[-3.189,-7.102]]],[[[3.203,-7.039],[3.203,-7.046],[3.084,-7.137],[2.719,-7.334],[2.656,-7.391],[2.621,-7.405],[2.593,-7.355],[2.579,-7.264],[2.586,-7.201],[2.614,-7.144],[2.698,-7.067],[2.804,-7.025],[2.887,-7.011],[3.189,-7.018],[3.203,-7.039]]],[[[3.203,-7.046],[3.203,-7.039],[3.21,-7.039],[3.203,-7.046]]]]},"properties":{"abbr":"lo","name":"lateral olfactory tract","plate":20,"ap_bregma_mm":1.15,"area_mm2":0.2846,"traced_fraction":[1.0,1.0,1.0],"n_labels":2,"no_drawn_outline":false}},{"type":"Feature","geometry":{"type":"MultiPolygon","coordinates":[[[[-1.339,-7.946],[-1.332,-7.848],[-1.29,-7.855],[-1.248,-7.834],[-1.184,-7.834],[-1.184,-7.644],[-1.255,-7.644],[-1.269,-7.63],[-1.276,-7.623],[-1.297,-7.587],[-1.304,-7.566],[-1.255,-7.552],[-1.248,-7.538],[-1.149,-7.503],[-1.128,-7.482],[-1.107,-7.419],[-1.086,-7.405],[-1.051,-7.405],[-1.037,-7.419],[-1.037,-7.468],[-1.016,-7.51],[-0.974,-7.51],[-0.911,-7.44],[-0.61,-7.447],[-0.666,-7.587],[-0.666,-7.686],[-0.862,-7.728],[-0.932,-7.763],[-0.995,-7.827],[-1.037,-7.975],[-1.149,-8.059],[-1.198,-8.059],[-1.261,-7.989],[-1.339,-7.946]]],[[[0.988,-7.587],[0.988,-7.531],[1.072,-7.531],[1.135,-7.489],[1.156,-7.51],[1.177,-7.51],[1.198,-7.44],[1.205,-7.433],[1.234,-7.426],[1.241,-7.433],[1.332,-7.461],[1.332,-7.686],[1.388,-7.721],[1.325,-7.855],[1.262,-7.911],[1.205,-7.911],[1.135,-7.883],[1.093,-7.841],[1.093,-7.763],[1.114,-7.721],[1.107,-7.651],[1.079,-7.623],[0.988,-7.602],[0.988,-7.587]]]]},"properties":{"abbr":"mfb","name":"medial forebrain bundle","plate":20,"ap_bregma_mm":1.15,"area_mm2":0.3443,"traced_fraction":[0.789,0.684],"n_labels":2,"no_drawn_outline":false}},{"type":"Feature","geometry":{"type":"Polygon","coordinates":[[[-2.39,-6.539],[-2.313,-6.581],[-2.201,-6.722],[-2.201,-6.743],[-2.152,-6.821],[-2.145,-6.863],[-2.215,-6.87],[-2.264,-6.835],[-2.299,-6.771],[-2.32,-6.68],[-2.39,-6.567],[-2.39,-6.539]]]},"properties":{"abbr":null,"name":"unnamed sealed face","plate":20,"ap_bregma_mm":1.15,"index":0}},{"type":"Feature","geometry":{"type":"Polygon","coordinates":[[[-1.766,-7.524],[-1.773,-7.496],[-1.703,-7.475],[-1.682,-7.489],[-1.668,-7.545],[-1.675,-7.581],[-1.689,-7.581],[-1.717,-7.616],[-1.71,-7.665],[-1.731,-7.714],[-1.787,-7.728],[-1.808,-7.714],[-1.808,-7.637],[-1.766,-7.587],[-1.766,-7.524]]]},"properties":{"abbr":null,"name":"unnamed sealed face","plate":20,"ap_bregma_mm":1.15,"index":1}},{"type":"Feature","geometry":{"type":"Polygon","coordinates":[[[-0.568,-4.372],[-0.554,-4.386],[-0.343,-4.386],[-0.343,-4.478],[-0.519,-4.492],[-0.54,-4.534],[-0.652,-4.534],[-0.652,-4.386],[-0.568,-4.372]]]},"properties":{"abbr":null,"name":"unnamed sealed face","plate":20,"ap_bregma_mm":1.15,"index":2}},{"type":"Feature","geometry":{"type":"Polygon","coordinates":[[[-0.175,-4.168],[-0.147,-4.119],[-0.014,-4.098],[-0.021,-4.062],[0.042,-3.957],[0.056,-3.957],[0.084,-4.02],[0.105,-4.112],[0.231,-4.126],[0.259,-4.14],[0.273,-4.168],[0.259,-4.182],[0.154,-4.196],[0.098,-4.196],[0.063,-4.189],[0.063,-4.175],[0.035,-4.175],[0.028,-4.189],[-0.007,-4.196],[-0.007,-4.217],[-0.14,-4.217],[-0.14,-4.182],[-0.175,-4.168]]]},"properties":{"abbr":null,"name":"unnamed sealed face","plate":20,"ap_bregma_mm":1.15,"index":3}},{"type":"Feature","geometry":{"type":"Polygon","coordinates":[[[-0.091,-7.524],[-0.084,-7.447],[-0.063,-7.384],[-0.077,-7.348],[-0.077,-7.172],[-0.049,-7.123],[-0.021,-7.109],[0.042,-7.109],[0.084,-7.137],[0.098,-7.179],[0.098,-7.292],[0.119,-7.348],[0.112,-7.405],[0.14,-7.454],[0.049,-7.496],[0.049,-7.524],[0.035,-7.524],[0.007,-7.566],[-0.091,-7.524]]]},"properties":{"abbr":null,"name":"unnamed sealed face","plate":20,"ap_bregma_mm":1.15,"index":4}},{"type":"Feature","geometry":{"type":"Polygon","coordinates":[[[3.609,-3.303],[3.75,-3.176],[3.764,-3.176],[3.813,-3.12],[3.827,-3.12],[3.827,-3.106],[3.897,-3.042],[3.911,-3.042],[3.925,-3.014],[3.939,-3.014],[4.016,-2.93],[4.044,-2.916],[4.044,-2.902],[4.121,-2.845],[4.121,-2.831],[4.149,-2.817],[4.163,-2.789],[4.177,-2.789],[4.261,-2.697],[4.275,-2.697],[4.275,-2.683],[4.303,-2.669],[4.31,-2.648],[4.338,-2.634],[4.352,-2.606],[4.366,-2.606],[4.57,-2.395],[4.584,-2.395],[4.584,-2.381],[4.689,-2.451],[4.689,-2.5],[4.612,-2.578],[4.598,-2.578],[4.598,-2.592],[4.478,-2.683],[4.478,-2.697],[4.408,-2.747],[4.408,-2.761],[4.338,-2.81],[4.338,-2.824],[4.268,-2.873],[4.268,-2.887],[4.254,-2.887],[4.149,-2.993],[4.1,-3.021],[4.051,-3.077],[3.722,-3.331],[3.687,-3.366],[3.658,-3.373],[3.609,-3.303]]]},"properties":{"abbr":null,"name":"unnamed sealed face","plate":20,"ap_bregma_mm":1.15,"index":5}},{"type":"Feature","geometry":{"type":"MultiPolygon","coordinates":[[[[-1.135,-8.235],[-1.311,-8.242],[-1.507,-8.214],[-1.836,-8.122],[-1.955,-8.073],[-2.299,-7.749],[-2.572,-7.559],[-2.684,-7.503],[-2.937,-7.341],[-3.077,-7.236],[-3.308,-6.975],[-3.68,-6.441],[-3.883,-6.187],[-4.072,-5.99],[-4.275,-5.821],[-4.394,-5.744],[-4.555,-5.603],[-4.864,-5.294],[-4.976,-5.153],[-5.13,-4.914],[-5.228,-4.696],[-5.292,-4.463],[-5.313,-4.175],[-5.27,-3.718],[-5.221,-3.479],[-5.158,-3.31],[-5.053,-3.113],[-4.955,-2.972],[-4.843,-2.845],[-4.506,-2.557],[-4.163,-2.332],[-3.266,-1.832],[-3.014,-1.726],[-2.551,-1.586],[-2.145,-1.487],[-1.717,-1.417],[-1.29,-1.382],[-0.757,-1.382],[-0.575,-1.417],[-0.386,-1.48],[-0.273,-1.536],[-0.084,-1.691],[0.007,-1.712],[0.084,-1.628],[0.301,-1.473],[0.434,-1.396],[0.568,-1.339],[0.869,-1.269],[1.093,-1.248],[1.689,-1.248],[2.096,-1.283],[2.411,-1.333],[2.677,-1.41],[3.273,-1.656],[3.869,-1.952],[4.198,-2.135],[4.556,-2.367],[4.857,-2.585],[5.046,-2.747],[5.165,-2.873],[5.32,-3.092],[5.418,-3.303],[5.453,-3.415],[5.488,-3.661],[5.474,-3.943],[5.432,-4.077],[5.32,-4.288],[5.207,-4.449],[4.787,-4.984],[4.247,-5.793],[4.044,-5.962],[3.932,-6.089],[3.897,-6.159],[3.848,-6.335],[3.806,-6.419],[3.553,-6.736],[3.322,-6.954],[3.084,-7.13],[2.712,-7.341],[2.614,-7.412],[2.383,-7.672],[2.222,-7.785],[2.096,-7.848],[1.619,-8.045],[1.374,-8.122],[1.213,-8.136],[1.114,-8.108],[1.002,-8.052],[0.617,-7.742],[0.308,-7.644],[0.224,-7.566],[0.112,-7.405],[0.147,-7.447],[0.044,-7.503],[0.044,-7.521],[0.0,-7.565],[-0.105,-7.524],[-0.168,-7.609],[-0.329,-7.735],[-0.484,-7.834],[-0.764,-7.982],[-0.946,-8.108],[-1.037,-8.193],[-1.107,-8.228],[-1.135,-8.235]]]]},"properties":{"abbr":"brain_outline","name":"outline of the section","plate":20,"ap_bregma_mm":1.15}}]}
