{"type":"FeatureCollection","name":"GerbilAtlas plate 10","note":"Region extents cut from the atlas drawing (METHODS.md, Region extents). Coordinates are [ML, DV] in mm, ML positive to the right of the plate as printed, DV negative below the dorsal surface; AP is the plate bregma. traced_fraction is the share of each polygon boundary the atlas actually draws; below 0.5 the boundary is an estimate. no_drawn_outline marks a feature that lies only inside boundaries the atlas draws round more than one name and prints nothing within, so the whole of its outline is where the extraction cut it. Not a segmentation.","plate":10,"ap_bregma_mm":4.65,"features":[{"type":"Feature","geometry":{"type":"MultiPolygon","coordinates":[[[[-0.181,-3.319],[-0.194,-3.319],[-0.37,-3.488],[-0.384,-3.488],[-0.833,-3.938],[-0.847,-3.938],[-0.91,-4.002],[-0.91,-4.016],[-1.225,-4.318],[-1.246,-4.346],[-1.239,-4.367],[-1.295,-4.396],[-1.309,-4.445],[-1.365,-4.445],[-1.492,-4.473],[-2.06,-4.684],[-2.13,-4.726],[-2.249,-4.768],[-2.564,-4.937],[-2.62,-4.656],[-2.628,-4.234],[-2.599,-4.016],[-2.536,-3.805],[-2.424,-3.601],[-2.214,-3.376],[-2.172,-3.355],[-2.074,-3.263],[-1.807,-3.123],[-1.541,-3.059],[-1.099,-3.052],[-0.622,-3.094],[-0.412,-3.13],[-0.293,-3.193],[-0.181,-3.319]]],[[[2.526,-4.902],[2.491,-4.895],[2.245,-4.719],[2.049,-4.614],[1.664,-4.438],[1.579,-4.417],[1.425,-4.346],[1.355,-4.339],[1.278,-4.332],[1.271,-4.304],[1.25,-4.248],[0.85,-3.84],[0.85,-3.826],[0.752,-3.734],[0.752,-3.72],[0.472,-3.439],[0.457,-3.439],[0.345,-3.313],[0.366,-3.277],[0.493,-3.214],[0.64,-3.172],[0.822,-3.137],[1.222,-3.094],[1.72,-3.102],[1.958,-3.158],[2.07,-3.242],[2.119,-3.263],[2.491,-3.685],[2.582,-3.868],[2.61,-4.037],[2.61,-4.571],[2.589,-4.698],[2.526,-4.902]]]]},"properties":{"abbr":"M2","name":"secondary motor cortex","plate":10,"ap_bregma_mm":4.65,"area_mm2":4.9391,"traced_fraction":[1.0,1.0],"n_labels":2,"no_drawn_outline":false}},{"type":"Feature","geometry":{"type":"MultiPolygon","coordinates":[[[[0.345,-3.313],[0.429,-3.397],[0.429,-3.411],[0.472,-3.439],[0.752,-3.72],[0.752,-3.734],[0.85,-3.826],[0.85,-3.84],[1.25,-4.248],[1.271,-4.304],[0.444,-4.044],[0.247,-3.967],[0.17,-3.953],[0.17,-3.784],[0.205,-3.559],[0.268,-3.39],[0.345,-3.313]]],[[[-0.181,-3.319],[-0.096,-3.467],[-0.047,-3.615],[0.002,-3.924],[-0.012,-3.924],[-0.012,-3.953],[-0.026,-3.96],[-0.096,-3.974],[-0.202,-4.023],[-1.239,-4.367],[-1.246,-4.346],[-1.225,-4.318],[-1.155,-4.248],[-1.141,-4.248],[-0.847,-3.938],[-0.833,-3.938],[-0.384,-3.488],[-0.37,-3.488],[-0.3,-3.411],[-0.181,-3.319]]]]},"properties":{"abbr":"Cg1","name":"cingulate cortex, area 1","plate":10,"ap_bregma_mm":4.65,"area_mm2":0.91,"traced_fraction":[1.0,1.0],"n_labels":2,"no_drawn_outline":false}},{"type":"Feature","geometry":{"type":"MultiPolygon","coordinates":[[[[0.002,-3.924],[0.016,-4.199],[0.002,-4.818],[-0.089,-4.804],[-0.314,-4.726],[-0.657,-4.578],[-0.91,-4.494],[-1.085,-4.452],[-1.232,-4.452],[-1.309,-4.445],[-1.295,-4.396],[-1.239,-4.367],[-0.202,-4.023],[-0.096,-3.974],[-0.026,-3.96],[-0.012,-3.953],[-0.012,-3.924],[0.002,-3.924]]],[[[0.17,-3.953],[0.247,-3.967],[0.444,-4.044],[1.271,-4.304],[1.278,-4.332],[1.278,-4.339],[1.067,-4.389],[0.465,-4.593],[0.289,-4.67],[0.205,-4.698],[0.177,-4.691],[0.177,-4.578],[0.156,-4.466],[0.17,-3.953]]]]},"properties":{"abbr":"PrL","name":"prelimbic cortex","plate":10,"ap_bregma_mm":4.65,"area_mm2":0.9936,"traced_fraction":[1.0,1.0],"n_labels":2,"no_drawn_outline":false}},{"type":"Feature","geometry":{"type":"MultiPolygon","coordinates":[[[[1.278,-4.339],[1.278,-4.374],[1.264,-4.374],[0.934,-4.719],[0.857,-4.818],[0.408,-5.282],[0.352,-5.359],[0.254,-5.458],[0.219,-5.465],[0.219,-5.008],[0.184,-4.839],[0.177,-4.691],[0.205,-4.698],[0.289,-4.67],[0.465,-4.593],[1.067,-4.389],[1.278,-4.339]]],[[[0.002,-4.818],[-0.026,-5.289],[-0.054,-5.493],[-0.124,-5.676],[-0.181,-5.732],[-0.194,-5.732],[-0.23,-5.69],[-0.398,-5.401],[-0.741,-4.909],[-1.022,-4.614],[-1.19,-4.501],[-1.218,-4.466],[-1.232,-4.466],[-1.232,-4.452],[-1.085,-4.452],[-0.91,-4.494],[-0.657,-4.578],[-0.314,-4.726],[-0.089,-4.804],[0.002,-4.818]]]]},"properties":{"abbr":"MO","name":"medial orbital cortex","plate":10,"ap_bregma_mm":4.65,"area_mm2":1.0464,"traced_fraction":[1.0,1.0],"n_labels":2,"no_drawn_outline":false}},{"type":"Feature","geometry":{"type":"MultiPolygon","coordinates":[[[[1.355,-4.339],[1.425,-4.346],[1.579,-4.417],[1.664,-4.438],[2.049,-4.614],[2.245,-4.719],[2.491,-4.895],[2.526,-4.902],[2.456,-5.197],[2.372,-5.387],[2.302,-5.479],[2.273,-5.493],[2.217,-5.577],[2.161,-5.612],[2.126,-5.584],[2.035,-5.387],[1.825,-5.022],[1.565,-4.635],[1.537,-4.614],[1.418,-4.445],[1.376,-4.41],[1.348,-4.36],[1.355,-4.339]]],[[[-1.365,-4.445],[-1.52,-4.656],[-1.625,-4.881],[-1.758,-5.275],[-1.807,-5.38],[-1.807,-5.408],[-1.898,-5.605],[-1.919,-5.669],[-1.912,-5.711],[-2.018,-5.767],[-2.074,-5.774],[-2.088,-5.774],[-2.207,-5.662],[-2.333,-5.472],[-2.508,-5.127],[-2.564,-4.937],[-2.529,-4.909],[-2.06,-4.684],[-1.492,-4.473],[-1.365,-4.445]]]]},"properties":{"abbr":"DLO","name":"dorsolateral orbital cortex","plate":10,"ap_bregma_mm":4.65,"area_mm2":1.3212,"traced_fraction":[1.0,1.0],"n_labels":2,"no_drawn_outline":false}},{"type":"Feature","geometry":{"type":"MultiPolygon","coordinates":[[[[1.278,-4.374],[1.243,-4.663],[1.194,-4.895],[1.096,-5.19],[0.976,-5.429],[0.976,-5.472],[0.92,-5.542],[0.878,-5.563],[0.682,-5.633],[0.563,-5.655],[0.465,-5.64],[0.373,-5.605],[0.282,-5.612],[0.268,-5.584],[0.254,-5.591],[0.219,-5.465],[0.254,-5.458],[0.352,-5.359],[0.408,-5.282],[0.857,-4.818],[0.934,-4.719],[1.06,-4.6],[1.06,-4.585],[1.173,-4.48],[1.173,-4.466],[1.264,-4.374],[1.278,-4.374]]],[[[-1.309,-4.445],[-1.232,-4.452],[-1.232,-4.466],[-1.218,-4.466],[-1.19,-4.501],[-1.022,-4.614],[-0.741,-4.909],[-0.398,-5.401],[-0.23,-5.69],[-0.194,-5.732],[-0.181,-5.732],[-0.181,-5.753],[-0.202,-5.753],[-0.216,-5.781],[-0.37,-5.823],[-0.482,-5.816],[-0.573,-5.788],[-0.777,-5.69],[-0.854,-5.626],[-0.868,-5.563],[-0.952,-5.408],[-1.057,-5.169],[-1.183,-4.789],[-1.309,-4.487],[-1.309,-4.445]]]]},"properties":{"abbr":"VO","name":"ventral orbital cortex","plate":10,"ap_bregma_mm":4.65,"area_mm2":1.122,"traced_fraction":[1.0,1.0],"n_labels":2,"no_drawn_outline":false}},{"type":"Feature","geometry":{"type":"MultiPolygon","coordinates":[[[[1.278,-4.332],[1.355,-4.339],[1.348,-4.36],[1.376,-4.41],[1.418,-4.445],[1.537,-4.614],[1.565,-4.635],[1.825,-5.022],[2.035,-5.387],[2.126,-5.584],[2.161,-5.612],[2.161,-5.626],[2.112,-5.662],[2.056,-5.662],[1.86,-5.57],[1.537,-5.479],[1.278,-5.387],[1.145,-5.401],[0.976,-5.472],[0.976,-5.429],[1.096,-5.19],[1.194,-4.895],[1.243,-4.663],[1.278,-4.374],[1.278,-4.339],[1.278,-4.332]]],[[[-1.309,-4.445],[-1.309,-4.487],[-1.183,-4.789],[-1.057,-5.169],[-0.952,-5.408],[-0.868,-5.563],[-0.854,-5.626],[-0.777,-5.69],[-0.573,-5.788],[-0.482,-5.816],[-0.37,-5.823],[-0.216,-5.781],[-0.202,-5.802],[-0.181,-5.802],[-0.16,-5.852],[-0.16,-6.048],[-0.202,-6.048],[-0.209,-5.999],[-0.244,-5.957],[-0.272,-5.943],[-0.342,-5.95],[-0.384,-5.887],[-0.475,-5.887],[-0.587,-5.837],[-0.615,-5.837],[-0.777,-5.746],[-0.84,-5.704],[-0.875,-5.669],[-0.882,-5.633],[-0.931,-5.591],[-1.043,-5.535],[-1.155,-5.507],[-1.351,-5.507],[-1.45,-5.528],[-1.793,-5.676],[-1.912,-5.711],[-1.919,-5.669],[-1.898,-5.605],[-1.807,-5.408],[-1.807,-5.38],[-1.758,-5.275],[-1.625,-4.881],[-1.52,-4.656],[-1.365,-4.445],[-1.309,-4.445]]],[[[-0.16,-6.477],[-0.166,-6.513],[-0.173,-6.477],[-0.16,-6.477]]]]},"properties":{"abbr":"LO","name":"lateral orbital cortex","plate":10,"ap_bregma_mm":4.65,"area_mm2":1.3636,"traced_fraction":[1.0,1.0,1.0],"n_labels":2,"no_drawn_outline":false}},{"type":"Feature","geometry":{"type":"MultiPolygon","coordinates":[[[[2.056,-5.662],[2.07,-5.704],[2.091,-5.711],[2.119,-5.781],[2.119,-5.95],[2.084,-6.084],[1.979,-6.273],[1.832,-6.267],[1.832,-6.154],[1.811,-6.154],[1.839,-6.055],[1.839,-5.957],[1.804,-5.873],[1.706,-5.795],[1.607,-5.767],[1.481,-5.753],[1.229,-5.788],[1.054,-5.844],[0.864,-5.943],[0.738,-6.041],[0.717,-6.077],[0.626,-6.168],[0.605,-6.154],[0.605,-6.013],[0.647,-5.985],[0.668,-5.943],[0.703,-5.774],[0.766,-5.69],[0.801,-5.676],[0.808,-5.655],[0.864,-5.619],[0.878,-5.563],[0.92,-5.542],[0.976,-5.472],[1.145,-5.401],[1.278,-5.387],[1.537,-5.479],[1.86,-5.57],[2.056,-5.662]]],[[[-0.777,-5.746],[-0.783,-6.034],[-0.959,-5.943],[-1.071,-5.908],[-1.232,-5.859],[-1.421,-5.844],[-1.66,-5.894],[-1.772,-5.95],[-1.807,-5.992],[-1.807,-6.063],[-1.695,-6.309],[-1.674,-6.323],[-1.667,-6.358],[-1.639,-6.386],[-1.632,-6.421],[-1.597,-6.456],[-1.576,-6.506],[-1.541,-6.534],[-1.372,-6.752],[-1.274,-6.85],[-1.183,-6.97],[-1.043,-7.103],[-0.994,-7.124],[-0.882,-7.103],[-0.889,-7.244],[-0.833,-7.322],[-0.868,-7.357],[-0.875,-7.406],[-0.973,-7.392],[-1.127,-7.343],[-1.302,-7.237],[-1.26,-7.174],[-1.232,-7.146],[-1.211,-7.146],[-1.134,-7.258],[-1.043,-7.279],[-1.015,-7.3],[-0.987,-7.3],[-0.966,-7.279],[-0.966,-7.251],[-1.015,-7.181],[-1.155,-7.061],[-1.204,-7.04],[-1.26,-6.977],[-1.33,-6.977],[-1.33,-7.019],[-1.246,-7.11],[-1.267,-7.16],[-1.323,-7.223],[-1.337,-7.223],[-1.513,-7.054],[-1.59,-6.942],[-1.653,-6.801],[-1.667,-6.794],[-2.031,-6.091],[-2.088,-5.922],[-2.095,-5.837],[-2.081,-5.795],[-2.074,-5.774],[-2.018,-5.767],[-1.912,-5.711],[-1.793,-5.676],[-1.45,-5.528],[-1.351,-5.507],[-1.155,-5.507],[-1.043,-5.535],[-0.931,-5.591],[-0.882,-5.633],[-0.875,-5.669],[-0.777,-5.746]]]]},"properties":{"abbr":"dlo","name":"dorsal lateral olfactory tract","plate":10,"ap_bregma_mm":4.65,"area_mm2":1.372,"traced_fraction":[0.953,0.954],"n_labels":2,"no_drawn_outline":false}},{"type":"Feature","geometry":{"type":"MultiPolygon","coordinates":[[[[0.878,-5.563],[0.864,-5.619],[0.808,-5.655],[0.801,-5.676],[0.766,-5.69],[0.703,-5.774],[0.668,-5.943],[0.647,-5.985],[0.605,-6.013],[0.584,-5.936],[0.486,-5.774],[0.444,-5.739],[0.401,-5.739],[0.38,-5.753],[0.373,-5.781],[0.345,-5.788],[0.324,-5.816],[0.24,-5.852],[0.191,-5.852],[0.212,-5.739],[0.261,-5.619],[0.282,-5.612],[0.373,-5.605],[0.465,-5.64],[0.563,-5.655],[0.682,-5.633],[0.878,-5.563]]],[[[-0.777,-5.746],[-0.615,-5.837],[-0.587,-5.837],[-0.475,-5.887],[-0.496,-5.943],[-0.51,-6.21],[-0.538,-6.288],[-0.608,-6.182],[-0.699,-6.091],[-0.783,-6.034],[-0.777,-5.746]]]]},"properties":{"abbr":"GlA","name":"glomerular layer of the accessory olfactory bulb","plate":10,"ap_bregma_mm":4.65,"area_mm2":0.2122,"traced_fraction":[1.0,0.832],"n_labels":3,"no_drawn_outline":false}},{"type":"Feature","geometry":{"type":"MultiPolygon","coordinates":[[[[-1.421,-6.252],[-1.309,-6.365],[-1.057,-6.695],[-1.141,-6.773],[-1.148,-6.794],[-1.218,-6.794],[-1.274,-6.85],[-1.372,-6.752],[-1.541,-6.534],[-1.576,-6.506],[-1.583,-6.477],[-1.632,-6.421],[-1.639,-6.386],[-1.667,-6.358],[-1.674,-6.323],[-1.485,-6.316],[-1.421,-6.252]]]]},"properties":{"abbr":"AOL","name":"anterior olfactory nucleus, lateral part","plate":10,"ap_bregma_mm":4.65,"area_mm2":0.1684,"traced_fraction":[0.732],"n_labels":1,"no_drawn_outline":true}},{"type":"Feature","geometry":{"type":"MultiPolygon","coordinates":[[[[-1.071,-5.908],[-0.959,-5.943],[-0.783,-6.034],[-0.699,-6.091],[-0.608,-6.182],[-0.538,-6.288],[-0.545,-6.386],[-0.587,-6.477],[-0.657,-6.583],[-0.749,-6.66],[-0.826,-6.639],[-0.847,-6.499],[-0.819,-6.47],[-0.804,-6.372],[-0.938,-6.252],[-1.078,-6.182],[-1.071,-5.908]]],[[[0.717,-6.077],[0.78,-6.14],[0.836,-6.168],[0.878,-6.217],[0.948,-6.217],[0.878,-6.302],[0.885,-6.407],[0.899,-6.421],[0.878,-6.52],[0.808,-6.569],[0.759,-6.548],[0.682,-6.456],[0.661,-6.372],[0.626,-6.309],[0.626,-6.168],[0.717,-6.077]]]]},"properties":{"abbr":"AOM","name":"anterior olfactory nucleus, medial part","plate":10,"ap_bregma_mm":4.65,"area_mm2":0.2997,"traced_fraction":[0.889,0.824],"n_labels":2,"no_drawn_outline":false}},{"type":"Feature","geometry":{"type":"MultiPolygon","coordinates":[[[[1.811,-6.154],[1.832,-6.154],[1.832,-6.267],[1.979,-6.273],[1.895,-6.407],[1.804,-6.59],[1.586,-6.907],[1.544,-6.949],[1.516,-6.984],[1.495,-7.005],[1.488,-6.998],[1.432,-6.935],[1.39,-6.935],[1.432,-6.871],[1.432,-6.822],[1.39,-6.822],[1.292,-6.892],[1.292,-6.907],[1.236,-6.928],[1.236,-6.899],[1.257,-6.864],[1.32,-6.808],[1.39,-6.717],[1.537,-6.576],[1.748,-6.273],[1.797,-6.161],[1.811,-6.154]]]]},"properties":{"abbr":"lo","name":"lateral olfactory tract","plate":10,"ap_bregma_mm":4.65,"area_mm2":0.1914,"traced_fraction":[0.89],"n_labels":1,"no_drawn_outline":false}},{"type":"Feature","geometry":{"type":"MultiPolygon","coordinates":[[[[0.605,-6.013],[0.605,-6.154],[0.626,-6.168],[0.626,-6.309],[0.661,-6.372],[0.682,-6.456],[0.759,-6.548],[0.808,-6.569],[0.808,-6.59],[0.864,-6.646],[0.92,-6.759],[0.927,-6.956],[0.969,-6.998],[0.99,-6.998],[1.075,-7.054],[1.06,-7.146],[0.997,-7.265],[0.983,-7.265],[0.948,-7.237],[0.948,-7.223],[0.836,-7.167],[0.78,-7.16],[0.752,-7.153],[0.731,-7.124],[0.703,-7.124],[0.626,-7.096],[0.514,-6.998],[0.465,-6.935],[0.394,-6.773],[0.38,-6.71],[0.38,-6.112],[0.465,-6.112],[0.465,-5.964],[0.366,-5.964],[0.373,-5.781],[0.38,-5.753],[0.401,-5.739],[0.457,-5.746],[0.556,-5.88],[0.605,-6.013]]],[[[-0.342,-5.95],[-0.335,-6.224],[-0.356,-6.231],[-0.363,-6.717],[-0.384,-6.822],[-0.426,-6.942],[-0.496,-7.068],[-0.601,-7.188],[-0.65,-7.195],[-0.685,-7.223],[-0.713,-7.314],[-0.833,-7.322],[-0.889,-7.244],[-0.882,-7.103],[-0.868,-7.061],[-0.868,-6.942],[-0.882,-6.871],[-0.882,-6.829],[-0.861,-6.773],[-0.791,-6.717],[-0.749,-6.66],[-0.657,-6.583],[-0.587,-6.477],[-0.545,-6.386],[-0.538,-6.288],[-0.51,-6.21],[-0.496,-5.943],[-0.475,-5.887],[-0.384,-5.887],[-0.342,-5.95]]]]},"properties":{"abbr":"GrO","name":"granular cell layer of the olfactory bulb","plate":10,"ap_bregma_mm":4.65,"area_mm2":0.8726,"traced_fraction":[0.924,1.0],"n_labels":2,"no_drawn_outline":false}},{"type":"Feature","geometry":{"type":"MultiPolygon","coordinates":[[[[-0.307,-7.167],[-0.328,-7.223],[-0.475,-7.357],[-0.629,-7.406],[-0.875,-7.406],[-0.875,-7.371],[-0.833,-7.322],[-0.713,-7.314],[-0.65,-7.3],[-0.629,-7.279],[-0.594,-7.286],[-0.531,-7.265],[-0.363,-7.167],[-0.307,-7.167]]],[[[0.696,-7.209],[0.801,-7.223],[0.927,-7.265],[0.983,-7.265],[0.997,-7.265],[1.046,-7.335],[0.99,-7.364],[0.892,-7.385],[0.647,-7.385],[0.436,-7.286],[0.38,-7.272],[0.324,-7.223],[0.352,-7.209],[0.472,-7.209],[0.584,-7.23],[0.668,-7.23],[0.696,-7.209]]]]},"properties":{"abbr":"Gl","name":"glomerular layer of the olfactory bulb","plate":10,"ap_bregma_mm":4.65,"area_mm2":0.1372,"traced_fraction":[1.0,1.0],"n_labels":2,"no_drawn_outline":false}},{"type":"Feature","geometry":{"type":"MultiPolygon","coordinates":[[[[1.811,-6.154],[1.797,-6.161],[1.748,-6.273],[1.621,-6.442],[1.579,-6.52],[1.502,-6.618],[1.39,-6.717],[1.32,-6.653],[1.236,-6.646],[1.18,-6.583],[1.18,-6.569],[1.264,-6.492],[1.376,-6.33],[1.432,-6.189],[1.425,-6.091],[1.383,-6.069],[1.201,-6.084],[1.06,-6.14],[0.948,-6.217],[0.878,-6.217],[0.836,-6.168],[0.78,-6.14],[0.717,-6.077],[0.738,-6.041],[0.864,-5.943],[1.054,-5.844],[1.229,-5.788],[1.481,-5.753],[1.607,-5.767],[1.706,-5.795],[1.804,-5.873],[1.839,-5.957],[1.839,-6.055],[1.811,-6.154]]],[[[-1.071,-5.908],[-1.078,-6.182],[-1.26,-6.126],[-1.393,-6.126],[-1.442,-6.168],[-1.442,-6.21],[-1.421,-6.252],[-1.485,-6.316],[-1.674,-6.323],[-1.695,-6.309],[-1.807,-6.063],[-1.807,-5.992],[-1.772,-5.95],[-1.66,-5.894],[-1.421,-5.844],[-1.232,-5.859],[-1.071,-5.908]]]]},"properties":{"abbr":"AOD","name":"anterior olfactory nucleus, dorsal part","plate":10,"ap_bregma_mm":4.65,"area_mm2":0.7469,"traced_fraction":[0.892,0.803],"n_labels":2,"no_drawn_outline":false}},{"type":"Feature","geometry":{"type":"MultiPolygon","coordinates":[[[[1.18,-6.583],[1.033,-6.681],[0.99,-6.731],[0.976,-6.773],[0.983,-6.85],[1.011,-6.892],[1.096,-6.935],[1.145,-6.977],[1.075,-7.054],[0.99,-6.998],[0.969,-6.998],[0.927,-6.956],[0.92,-6.759],[0.878,-6.667],[0.808,-6.59],[0.808,-6.569],[0.878,-6.52],[0.878,-6.597],[0.892,-6.625],[0.906,-6.639],[0.941,-6.639],[1.011,-6.527],[1.046,-6.421],[1.039,-6.358],[0.969,-6.372],[0.899,-6.421],[0.885,-6.407],[0.878,-6.302],[0.948,-6.217],[1.06,-6.14],[1.201,-6.084],[1.383,-6.069],[1.425,-6.091],[1.432,-6.189],[1.404,-6.273],[1.327,-6.407],[1.264,-6.492],[1.18,-6.569],[1.18,-6.583]]],[[[-1.078,-6.182],[-0.938,-6.252],[-0.804,-6.372],[-0.812,-6.449],[-0.847,-6.499],[-0.868,-6.492],[-0.903,-6.428],[-0.973,-6.365],[-1.015,-6.358],[-1.036,-6.372],[-1.036,-6.435],[-0.959,-6.611],[-0.903,-6.681],[-0.847,-6.695],[-0.826,-6.639],[-0.749,-6.66],[-0.755,-6.681],[-0.861,-6.773],[-0.882,-6.829],[-0.882,-6.871],[-0.91,-6.864],[-1.057,-6.695],[-1.309,-6.365],[-1.421,-6.252],[-1.442,-6.21],[-1.442,-6.168],[-1.393,-6.126],[-1.26,-6.126],[-1.078,-6.182]]]]},"properties":{"abbr":"aci","name":"anterior commissure, intrabulbar part","plate":10,"ap_bregma_mm":4.65,"area_mm2":0.4453,"traced_fraction":[0.998,1.0],"n_labels":2,"no_drawn_outline":false}},{"type":"Feature","geometry":{"type":"MultiPolygon","coordinates":[[[[1.18,-6.583],[1.236,-6.646],[1.32,-6.653],[1.39,-6.717],[1.32,-6.808],[1.257,-6.864],[1.236,-6.899],[1.236,-6.928],[1.145,-6.977],[1.096,-6.935],[1.011,-6.892],[0.983,-6.85],[0.976,-6.773],[0.99,-6.731],[1.033,-6.681],[1.18,-6.583]]],[[[-1.057,-6.695],[-0.917,-6.843],[-0.917,-6.857],[-0.882,-6.871],[-0.868,-6.942],[-0.868,-7.061],[-0.882,-7.103],[-0.952,-7.124],[-0.994,-7.124],[-1.043,-7.103],[-1.183,-6.97],[-1.274,-6.85],[-1.218,-6.794],[-1.148,-6.794],[-1.141,-6.773],[-1.057,-6.695]]]]},"properties":{"abbr":"AOV","name":"anterior olfactory nucleus, ventral part","plate":10,"ap_bregma_mm":4.65,"area_mm2":0.1986,"traced_fraction":[0.831,0.822],"n_labels":2,"no_drawn_outline":false}},{"type":"Feature","geometry":{"type":"MultiPolygon","coordinates":[[[[-0.847,-6.499],[-0.826,-6.639],[-0.847,-6.695],[-0.903,-6.681],[-0.959,-6.611],[-1.036,-6.435],[-1.036,-6.372],[-0.994,-6.358],[-0.945,-6.386],[-0.882,-6.456],[-0.868,-6.492],[-0.847,-6.499]]],[[[0.878,-6.52],[0.899,-6.421],[1.004,-6.358],[1.046,-6.365],[1.046,-6.421],[1.011,-6.527],[0.941,-6.639],[0.906,-6.639],[0.892,-6.625],[0.878,-6.597],[0.878,-6.52]]]]},"properties":{"abbr":"E","name":"ependyma and subependymal layer","plate":10,"ap_bregma_mm":4.65,"area_mm2":0.0713,"traced_fraction":[1.0,1.0],"n_labels":3,"no_drawn_outline":false}},{"type":"Feature","geometry":{"type":"MultiPolygon","coordinates":[[[[0.324,-5.816],[0.338,-6.267],[0.317,-6.541],[0.317,-6.766],[0.394,-6.928],[0.415,-6.942],[0.436,-6.998],[0.493,-7.075],[0.535,-7.118],[0.661,-7.174],[0.696,-7.209],[0.668,-7.23],[0.584,-7.23],[0.472,-7.209],[0.352,-7.209],[0.324,-7.223],[0.282,-7.174],[0.296,-7.16],[0.296,-7.124],[0.226,-6.808],[0.212,-6.787],[0.17,-6.78],[0.156,-6.822],[0.142,-6.414],[0.184,-6.407],[0.205,-6.386],[0.219,-6.337],[0.212,-6.055],[0.198,-6.006],[0.163,-5.992],[0.191,-5.852],[0.24,-5.852],[0.324,-5.816]]],[[[0.156,-6.843],[0.17,-6.843],[0.163,-6.864],[0.156,-6.843]]]]},"properties":{"abbr":"Mi","name":"mitral cell layer of the olfactory bulb","plate":10,"ap_bregma_mm":4.65,"area_mm2":0.2252,"traced_fraction":[1.0,1.0],"n_labels":1,"no_drawn_outline":false}},{"type":"Feature","geometry":{"type":"MultiPolygon","coordinates":[[[[1.39,-6.935],[1.432,-6.935],[1.488,-6.998],[1.495,-7.005],[1.481,-7.026],[1.383,-7.132],[1.383,-7.146],[1.278,-7.244],[1.046,-7.335],[0.997,-7.265],[1.06,-7.146],[1.082,-7.146],[1.131,-7.11],[1.194,-7.04],[1.299,-6.998],[1.362,-6.942],[1.39,-6.935]]],[[[-1.302,-7.237],[-1.323,-7.223],[-1.267,-7.16],[-1.246,-7.11],[-1.33,-7.019],[-1.33,-6.977],[-1.26,-6.977],[-1.204,-7.04],[-1.155,-7.061],[-1.015,-7.181],[-0.973,-7.237],[-0.966,-7.279],[-0.987,-7.3],[-1.015,-7.3],[-1.043,-7.279],[-1.134,-7.258],[-1.211,-7.146],[-1.232,-7.146],[-1.302,-7.237]]]]},"properties":{"abbr":"AOE","name":"anterior olfactory nucleus, external part","plate":10,"ap_bregma_mm":4.65,"area_mm2":0.1364,"traced_fraction":[0.954,0.901],"n_labels":2,"no_drawn_outline":false}},{"type":"Feature","geometry":{"type":"MultiPolygon","coordinates":[[[[0.373,-5.781],[0.366,-5.964],[0.38,-6.112],[0.38,-6.71],[0.394,-6.773],[0.465,-6.935],[0.514,-6.998],[0.626,-7.096],[0.703,-7.124],[0.703,-7.146],[0.752,-7.153],[0.78,-7.16],[0.78,-7.181],[0.801,-7.195],[0.801,-7.223],[0.696,-7.209],[0.661,-7.174],[0.535,-7.118],[0.493,-7.075],[0.436,-6.998],[0.415,-6.942],[0.394,-6.928],[0.317,-6.766],[0.317,-6.541],[0.338,-6.267],[0.324,-5.816],[0.345,-5.788],[0.373,-5.781]]]]},"properties":{"abbr":"IPl","name":"internal plexiform layer of the olfactory bulb","plate":10,"ap_bregma_mm":4.65,"area_mm2":0.0901,"traced_fraction":[1.0],"n_labels":1,"no_drawn_outline":false}},{"type":"Feature","geometry":{"type":"Polygon","coordinates":[[[-0.16,-6.048],[-0.16,-6.477],[-0.173,-6.477],[-0.166,-6.513],[-0.194,-6.85],[-0.251,-7.068],[-0.307,-7.167],[-0.363,-7.167],[-0.531,-7.265],[-0.594,-7.286],[-0.629,-7.279],[-0.65,-7.3],[-0.713,-7.314],[-0.685,-7.223],[-0.65,-7.195],[-0.601,-7.188],[-0.496,-7.068],[-0.426,-6.942],[-0.384,-6.822],[-0.363,-6.717],[-0.356,-6.231],[-0.335,-6.224],[-0.342,-5.95],[-0.272,-5.943],[-0.244,-5.957],[-0.209,-5.999],[-0.202,-6.048],[-0.16,-6.048]]]},"properties":{"abbr":null,"name":"unnamed sealed face","plate":10,"ap_bregma_mm":4.65,"index":0}},{"type":"Feature","geometry":{"type":"Polygon","coordinates":[[[0.163,-5.992],[0.198,-6.006],[0.212,-6.055],[0.219,-6.337],[0.205,-6.386],[0.17,-6.414],[0.142,-6.414],[0.135,-6.105],[0.163,-5.992]]]},"properties":{"abbr":null,"name":"unnamed sealed face","plate":10,"ap_bregma_mm":4.65,"index":1}},{"type":"Feature","geometry":{"type":"Polygon","coordinates":[[[0.282,-7.174],[0.219,-7.089],[0.17,-6.935],[0.163,-6.864],[0.17,-6.843],[0.156,-6.843],[0.156,-6.822],[0.17,-6.78],[0.198,-6.78],[0.226,-6.808],[0.296,-7.124],[0.296,-7.16],[0.282,-7.174]]]},"properties":{"abbr":null,"name":"unnamed sealed face","plate":10,"ap_bregma_mm":4.65,"index":2}},{"type":"Feature","geometry":{"type":"Polygon","coordinates":[[[1.39,-6.935],[1.362,-6.942],[1.299,-6.998],[1.194,-7.04],[1.131,-7.11],[1.082,-7.146],[1.06,-7.146],[1.075,-7.054],[1.145,-6.977],[1.236,-6.928],[1.292,-6.907],[1.292,-6.892],[1.39,-6.822],[1.432,-6.822],[1.432,-6.871],[1.39,-6.935]]]},"properties":{"abbr":null,"name":"unnamed sealed face","plate":10,"ap_bregma_mm":4.65,"index":3}},{"type":"Feature","geometry":{"type":"MultiPolygon","coordinates":[[[[-0.643,-7.399],[-0.882,-7.399],[-0.994,-7.378],[-1.141,-7.328],[-1.344,-7.209],[-1.506,-7.054],[-1.583,-6.942],[-2.025,-6.098],[-2.088,-5.908],[-2.095,-5.844],[-2.081,-5.802],[-2.095,-5.76],[-2.144,-5.725],[-2.221,-5.633],[-2.34,-5.451],[-2.508,-5.113],[-2.564,-4.951],[-2.62,-4.635],[-2.628,-4.269],[-2.607,-4.051],[-2.529,-3.791],[-2.417,-3.594],[-2.228,-3.39],[-2.081,-3.27],[-1.968,-3.2],[-1.8,-3.123],[-1.527,-3.059],[-1.141,-3.052],[-0.587,-3.102],[-0.426,-3.13],[-0.3,-3.193],[-0.188,-3.313],[-0.11,-3.453],[-0.054,-3.622],[-0.012,-3.861],[0.002,-4.044],[0.009,-4.346],[-0.005,-4.839],[-0.04,-5.338],[-0.068,-5.507],[-0.131,-5.669],[-0.188,-5.732],[-0.188,-5.809],[-0.166,-5.859],[-0.166,-6.47],[-0.202,-6.836],[-0.265,-7.075],[-0.342,-7.223],[-0.468,-7.343],[-0.622,-7.392],[-0.643,-7.399]]],[[[0.976,-7.357],[0.871,-7.378],[0.654,-7.378],[0.352,-7.251],[0.247,-7.132],[0.219,-7.075],[0.17,-6.92],[0.149,-6.787],[0.135,-6.119],[0.212,-5.746],[0.261,-5.626],[0.212,-5.444],[0.219,-5.022],[0.184,-4.818],[0.177,-4.6],[0.156,-4.438],[0.17,-3.805],[0.205,-3.566],[0.268,-3.39],[0.359,-3.284],[0.478,-3.221],[0.619,-3.179],[0.836,-3.137],[1.25,-3.094],[1.698,-3.102],[1.951,-3.158],[2.119,-3.27],[2.477,-3.678],[2.568,-3.84],[2.603,-4.058],[2.603,-4.543],[2.582,-4.684],[2.533,-4.839],[2.491,-5.043],[2.435,-5.226],[2.365,-5.38],[2.196,-5.584],[2.112,-5.648],[2.084,-5.718],[2.112,-5.788],[2.112,-5.936],[2.07,-6.091],[1.79,-6.59],[1.572,-6.907],[1.362,-7.153],[1.271,-7.237],[1.018,-7.343],[0.976,-7.357]]]]},"properties":{"abbr":"brain_outline","name":"outline of the section","plate":10,"ap_bregma_mm":4.65}}]}
