{"type":"FeatureCollection","name":"GerbilAtlas plate 36","note":"Region extents cut from the atlas drawing (METHODS.md, Region extents). Coordinates are [ML, DV] in mm, ML positive to the right of the plate as printed, DV negative below the dorsal surface; AP is the plate bregma. traced_fraction is the share of each polygon boundary the atlas actually draws; below 0.5 the boundary is an estimate. no_drawn_outline marks a feature that lies only inside boundaries the atlas draws round more than one name and prints nothing within, so the whole of its outline is where the extraction cut it. Not a segmentation.","plate":36,"ap_bregma_mm":-4.45,"features":[{"type":"Feature","geometry":{"type":"MultiPolygon","coordinates":[[[[-0.069,-4.86],[-0.048,-5.282],[-0.055,-5.374],[-0.09,-5.493],[-0.139,-5.458],[-0.174,-5.388],[-0.265,-5.296],[-0.328,-5.198],[-0.349,-5.113],[-0.356,-4.931],[-0.363,-4.853],[-0.3,-4.825],[-0.146,-4.818],[-0.09,-4.86],[-0.069,-4.86]]],[[[0.387,-4.832],[0.387,-4.902],[0.366,-4.98],[0.366,-5.085],[0.331,-5.149],[0.303,-5.268],[0.184,-5.43],[0.156,-5.493],[0.12,-5.472],[0.057,-5.374],[0.029,-5.219],[0.057,-4.973],[0.071,-4.924],[0.106,-4.874],[0.198,-4.825],[0.387,-4.832]]]]},"properties":{"abbr":"3PC","name":"oculomotor nucleus, parvicellular part","plate":36,"ap_bregma_mm":-4.45,"area_mm2":0.3161,"traced_fraction":[0.992,0.996],"n_labels":2,"no_drawn_outline":false}},{"type":"Feature","geometry":{"type":"MultiPolygon","coordinates":[[[[-1.142,-6.83],[-1.092,-6.837],[-1.008,-6.865],[-0.938,-6.928],[-0.819,-6.984],[-0.812,-6.998],[-0.791,-6.998],[-0.784,-7.012],[-1.149,-7.104],[-1.142,-6.83]]],[[[0.962,-6.893],[1.074,-6.942],[1.067,-7.048],[1.039,-7.048],[1.039,-7.174],[0.885,-7.111],[0.758,-7.048],[0.716,-7.012],[0.745,-6.914],[0.773,-6.879],[0.829,-6.872],[0.962,-6.893]]]]},"properties":{"abbr":"3n","name":"oculomotor nerve","plate":36,"ap_bregma_mm":-4.45,"area_mm2":0.1252,"traced_fraction":[0.797,0.808],"n_labels":2,"no_drawn_outline":false}},{"type":"Feature","geometry":{"type":"MultiPolygon","coordinates":[[[[0.163,-4.045],[0.148,-4.094],[0.057,-4.213],[0.029,-4.34],[0.008,-4.361],[-0.013,-4.361],[-0.034,-4.34],[-0.069,-4.213],[-0.146,-4.115],[-0.167,-4.051],[-0.132,-4.009],[-0.076,-4.002],[-0.027,-3.96],[0.008,-3.96],[0.05,-4.002],[0.142,-4.009],[0.163,-4.045]]]]},"properties":{"abbr":"Aq","name":"aqueduct","plate":36,"ap_bregma_mm":-4.45,"area_mm2":0.0698,"traced_fraction":[1.0],"n_labels":1,"no_drawn_outline":false}},{"type":"Feature","geometry":{"type":"MultiPolygon","coordinates":[[[[6.318,-2.497],[6.494,-2.687],[6.557,-2.786],[6.585,-2.8],[6.802,-3.116],[6.648,-3.222],[6.529,-3.278],[6.515,-3.299],[6.396,-3.362],[6.368,-3.39],[5.849,-3.672],[5.596,-3.285],[5.526,-3.2],[5.526,-3.179],[5.624,-3.109],[5.786,-2.961],[5.828,-2.94],[6.031,-2.75],[6.185,-2.631],[6.318,-2.497]]],[[[-6.316,-2.596],[-6.316,-2.61],[-6.064,-2.792],[-5.671,-3.13],[-5.482,-3.264],[-5.545,-3.383],[-5.664,-3.538],[-5.755,-3.714],[-5.832,-3.826],[-6.323,-3.608],[-6.835,-3.334],[-6.751,-3.179],[-6.54,-2.87],[-6.316,-2.596]]]]},"properties":{"abbr":"AuD","name":"secondary auditory cortex, dorsal area","plate":36,"ap_bregma_mm":-4.45,"area_mm2":1.6173,"traced_fraction":[1.0,1.0],"n_labels":2,"no_drawn_outline":false}},{"type":"Feature","geometry":{"type":"MultiPolygon","coordinates":[[[[6.802,-3.116],[6.907,-3.25],[6.964,-3.355],[7.041,-3.461],[7.146,-3.665],[7.216,-3.841],[7.272,-4.073],[7.286,-4.502],[7.069,-4.502],[6.725,-4.53],[6.045,-4.537],[6.045,-4.305],[6.003,-4.15],[5.989,-4.037],[5.919,-3.833],[5.849,-3.7],[5.849,-3.672],[6.368,-3.39],[6.396,-3.362],[6.515,-3.299],[6.529,-3.278],[6.648,-3.222],[6.802,-3.116]]],[[[-6.835,-3.334],[-6.323,-3.608],[-5.832,-3.826],[-5.86,-3.904],[-5.916,-3.988],[-6.014,-4.262],[-6.064,-4.438],[-6.092,-4.635],[-6.365,-4.621],[-6.632,-4.628],[-7.368,-4.614],[-7.361,-4.488],[-7.333,-4.361],[-7.291,-4.213],[-7.185,-3.953],[-7.031,-3.658],[-7.017,-3.651],[-6.961,-3.524],[-6.856,-3.348],[-6.835,-3.334]]]]},"properties":{"abbr":"AuV","name":"secondary auditory cortex, ventral area","plate":36,"ap_bregma_mm":-4.45,"area_mm2":2.7768,"traced_fraction":[1.0,1.0],"n_labels":2,"no_drawn_outline":false}},{"type":"Feature","geometry":{"type":"MultiPolygon","coordinates":[[[[3.072,-4.326],[3.058,-4.382],[3.079,-4.656],[3.065,-4.846],[3.016,-4.86],[2.736,-5.029],[2.729,-4.86],[2.462,-4.86],[2.469,-4.825],[2.532,-4.727],[2.701,-4.551],[2.953,-4.361],[3.037,-4.326],[3.072,-4.326]]],[[[-2.607,-4.593],[-2.621,-4.593],[-2.684,-4.656],[-2.684,-4.769],[-2.747,-4.769],[-2.747,-4.945],[-2.824,-4.924],[-2.929,-4.867],[-3.07,-4.769],[-3.154,-4.685],[-3.175,-4.53],[-3.168,-4.41],[-3.154,-4.389],[-3.035,-4.382],[-2.831,-4.438],[-2.698,-4.502],[-2.607,-4.593]]]]},"properties":{"abbr":"BIC","name":"nucleus of the brachium of the inferior colliculus","plate":36,"ap_bregma_mm":-4.45,"area_mm2":0.4299,"traced_fraction":[0.812,0.78],"n_labels":2,"no_drawn_outline":false}},{"type":"Feature","geometry":{"type":"MultiPolygon","coordinates":[[[[-3.175,-2.469],[-3.168,-2.469],[-3.147,-2.504],[-3.112,-2.525],[-3.112,-2.539],[-3.049,-2.603],[-3.035,-2.603],[-2.986,-2.666],[-2.965,-2.673],[-3.035,-2.743],[-3.042,-2.8],[-3.224,-2.807],[-3.575,-2.933],[-3.911,-3.088],[-4.1,-3.207],[-4.339,-3.39],[-4.549,-3.587],[-4.795,-3.911],[-4.921,-4.122],[-5.201,-4.115],[-5.257,-4.255],[-5.292,-4.396],[-5.32,-4.558],[-5.334,-4.762],[-5.594,-4.769],[-5.601,-4.523],[-5.58,-4.354],[-5.496,-4.094],[-5.362,-3.826],[-5.194,-3.573],[-5.075,-3.433],[-5.061,-3.433],[-4.921,-3.299],[-4.808,-3.222],[-4.753,-3.158],[-4.5,-2.99],[-4.458,-2.933],[-4.346,-2.898],[-4.262,-2.849],[-3.988,-2.757],[-3.904,-2.708],[-3.785,-2.673],[-3.743,-2.645],[-3.413,-2.546],[-3.259,-2.483],[-3.175,-2.469]]],[[[-2.916,-2.631],[-2.937,-2.645],[-2.937,-2.631],[-2.916,-2.631]]],[[[4.587,-2.954],[4.587,-2.968],[4.636,-2.99],[4.86,-3.151],[5.162,-3.433],[5.288,-3.594],[5.393,-3.784],[5.134,-3.791],[5.113,-3.777],[5.078,-3.7],[4.93,-3.475],[4.804,-3.327],[4.79,-3.327],[4.727,-3.257],[4.713,-3.257],[4.447,-3.018],[4.194,-2.856],[4.005,-2.771],[3.963,-2.736],[3.963,-2.722],[4.019,-2.722],[4.229,-2.792],[4.418,-2.877],[4.51,-2.94],[4.587,-2.954]]]]},"properties":{"abbr":"CA1","name":"field CA1 of the hippocampus","plate":36,"ap_bregma_mm":-4.45,"area_mm2":1.5666,"traced_fraction":[0.938,1.0,0.941],"n_labels":2,"no_drawn_outline":false}},{"type":"Feature","geometry":{"type":"MultiPolygon","coordinates":[[[[4.299,-6.499],[4.348,-6.499],[4.348,-6.527],[4.369,-6.541],[4.292,-6.633],[4.096,-6.787],[3.843,-7.041],[3.809,-7.097],[3.64,-6.935],[3.633,-6.907],[3.605,-6.886],[3.528,-6.724],[3.521,-6.661],[3.872,-6.583],[4.222,-6.534],[4.299,-6.499]]]]},"properties":{"abbr":"CEnt","name":"caudomedial entothinal cortex","plate":36,"ap_bregma_mm":-4.45,"area_mm2":0.2328,"traced_fraction":[1.0],"n_labels":1,"no_drawn_outline":false}},{"type":"Feature","geometry":{"type":"MultiPolygon","coordinates":[[[[0.758,-3.411],[0.815,-3.482],[0.85,-3.559],[0.941,-3.876],[0.948,-3.981],[0.92,-3.981],[0.843,-4.023],[0.773,-4.03],[0.681,-4.016],[0.583,-3.974],[0.429,-3.869],[0.394,-3.833],[0.366,-3.777],[0.345,-3.672],[0.345,-3.517],[0.373,-3.44],[0.373,-3.39],[0.394,-3.376],[0.569,-3.355],[0.66,-3.369],[0.758,-3.411]]],[[[-0.405,-3.39],[-0.405,-3.44],[-0.363,-3.552],[-0.363,-3.658],[-0.419,-3.805],[-0.483,-3.89],[-0.483,-3.911],[-0.496,-3.911],[-0.574,-3.988],[-0.672,-4.016],[-0.819,-4.03],[-0.917,-4.016],[-0.966,-3.988],[-0.994,-3.988],[-1.001,-3.883],[-0.987,-3.77],[-0.959,-3.651],[-0.938,-3.615],[-0.868,-3.496],[-0.77,-3.404],[-0.665,-3.376],[-0.405,-3.39]]]]},"properties":{"abbr":"DLPAG","name":"dorsolateral periaqueductal gray","plate":36,"ap_bregma_mm":-4.45,"area_mm2":0.6296,"traced_fraction":[1.0,1.0],"n_labels":2,"no_drawn_outline":false}},{"type":"Feature","geometry":{"type":"MultiPolygon","coordinates":[[[[0.373,-3.39],[0.373,-3.44],[0.345,-3.517],[0.345,-3.672],[0.366,-3.777],[0.394,-3.833],[0.429,-3.869],[0.394,-3.925],[0.303,-3.995],[0.24,-4.03],[0.163,-4.045],[0.142,-4.009],[0.05,-4.002],[0.008,-3.96],[-0.027,-3.96],[-0.076,-4.002],[-0.132,-4.009],[-0.167,-4.051],[-0.202,-4.058],[-0.307,-4.023],[-0.483,-3.911],[-0.483,-3.89],[-0.419,-3.805],[-0.363,-3.658],[-0.363,-3.552],[-0.405,-3.44],[-0.405,-3.39],[0.373,-3.39]]]]},"properties":{"abbr":"DMPAG","name":"dorsomedial periaqueductal gray","plate":36,"ap_bregma_mm":-4.45,"area_mm2":0.476,"traced_fraction":[1.0],"n_labels":1,"no_drawn_outline":false}},{"type":"Feature","geometry":{"type":"MultiPolygon","coordinates":[[[[3.29,-2.061],[3.682,-2.145],[4.005,-2.265],[4.426,-2.49],[4.432,-2.504],[4.454,-2.504],[4.643,-2.645],[4.636,-2.701],[4.657,-2.8],[4.636,-2.835],[4.622,-2.905],[4.587,-2.954],[4.51,-2.94],[4.418,-2.877],[4.229,-2.792],[4.019,-2.722],[3.963,-2.722],[3.935,-2.722],[3.843,-2.687],[3.822,-2.666],[3.311,-2.497],[2.981,-2.406],[2.897,-2.371],[2.89,-2.356],[2.932,-2.293],[3.22,-2.131],[3.283,-2.082],[3.29,-2.061]]],[[[-3.42,-2.089],[-3.231,-2.406],[-3.175,-2.469],[-3.259,-2.483],[-3.35,-2.525],[-3.743,-2.645],[-3.785,-2.673],[-3.904,-2.708],[-3.988,-2.757],[-4.262,-2.849],[-4.346,-2.898],[-4.458,-2.933],[-4.57,-2.891],[-4.64,-2.835],[-4.689,-2.743],[-4.654,-2.708],[-4.437,-2.56],[-4.107,-2.371],[-3.813,-2.223],[-3.42,-2.089]]]]},"properties":{"abbr":"DS","name":"dorsal subiculum","plate":36,"ap_bregma_mm":-4.45,"area_mm2":1.2226,"traced_fraction":[1.0,1.0],"n_labels":2,"no_drawn_outline":false}},{"type":"Feature","geometry":{"type":"MultiPolygon","coordinates":[[[[1.663,-4.523],[1.368,-4.523],[1.27,-4.502],[1.27,-4.417],[1.249,-4.326],[1.137,-3.995],[1.095,-3.777],[1.039,-3.58],[0.969,-3.447],[0.885,-3.362],[0.773,-3.299],[0.709,-3.257],[0.583,-3.215],[0.429,-3.215],[0.127,-3.186],[-0.384,-3.2],[-0.441,-3.215],[-0.714,-3.229],[-0.819,-3.257],[-0.924,-3.32],[-1.036,-3.461],[-1.092,-3.608],[-1.212,-3.981],[-1.387,-4.354],[-1.443,-4.516],[-1.45,-4.579],[-1.646,-4.593],[-1.85,-4.586],[-1.92,-4.382],[-1.941,-4.241],[-1.941,-4.129],[-1.899,-3.883],[-1.801,-3.644],[-1.59,-3.327],[-1.38,-3.109],[-1.177,-2.968],[-1.071,-2.919],[-0.917,-2.877],[-0.791,-2.877],[-0.581,-2.933],[-0.244,-3.081],[-0.069,-3.123],[0.071,-3.123],[0.345,-3.067],[0.548,-2.99],[0.576,-2.99],[0.737,-2.912],[0.822,-2.891],[1.018,-2.898],[1.158,-2.947],[1.277,-3.018],[1.446,-3.151],[1.579,-3.306],[1.705,-3.524],[1.761,-3.679],[1.789,-3.833],[1.782,-4.045],[1.747,-4.227],[1.67,-4.445],[1.663,-4.523]]]]},"properties":{"abbr":"DpG","name":"deep gray layer of the superior colliculus","plate":36,"ap_bregma_mm":-4.45,"area_mm2":2.3099,"traced_fraction":[0.998],"n_labels":2,"no_drawn_outline":false}},{"type":"Feature","geometry":{"type":"MultiPolygon","coordinates":[[[[0.773,-3.299],[0.857,-3.341],[0.969,-3.447],[1.039,-3.58],[1.095,-3.777],[1.137,-3.995],[1.249,-4.326],[1.27,-4.417],[1.27,-4.502],[1.2,-4.502],[1.06,-4.473],[0.948,-4.431],[0.864,-4.368],[0.871,-4.312],[0.899,-4.277],[0.948,-4.136],[0.948,-3.981],[0.941,-3.876],[0.885,-3.7],[0.885,-3.665],[0.836,-3.524],[0.758,-3.411],[0.773,-3.299]]],[[[-1.092,-3.608],[-0.938,-3.615],[-0.959,-3.651],[-0.987,-3.77],[-1.001,-3.883],[-0.994,-3.988],[-0.994,-4.15],[-0.973,-4.27],[-0.917,-4.34],[-0.875,-4.361],[-0.931,-4.445],[-1.071,-4.53],[-1.219,-4.565],[-1.45,-4.579],[-1.443,-4.516],[-1.387,-4.354],[-1.212,-3.981],[-1.092,-3.608]]]]},"properties":{"abbr":"DpWh","name":"deep white layer of the superior colliculus","plate":36,"ap_bregma_mm":-4.45,"area_mm2":0.5357,"traced_fraction":[0.971,0.965],"n_labels":2,"no_drawn_outline":false}},{"type":"Feature","geometry":{"type":"MultiPolygon","coordinates":[[[[0.043,-4.755],[0.071,-4.846],[0.106,-4.874],[0.071,-4.924],[0.057,-4.973],[0.029,-5.219],[0.057,-5.374],[0.12,-5.472],[0.156,-5.493],[0.114,-5.634],[0.099,-5.683],[-0.041,-5.683],[-0.055,-5.683],[-0.076,-5.648],[-0.097,-5.543],[-0.09,-5.493],[-0.062,-5.409],[-0.048,-5.282],[-0.069,-4.86],[-0.027,-4.783],[-0.027,-4.727],[0.015,-4.713],[0.043,-4.755]]]]},"properties":{"abbr":"EW","name":"Edinger–Westphal nucleus","plate":36,"ap_bregma_mm":-4.45,"area_mm2":0.129,"traced_fraction":[0.994],"n_labels":1,"no_drawn_outline":false}},{"type":"Feature","geometry":{"type":"MultiPolygon","coordinates":[[[[7.286,-4.502],[7.258,-4.769],[7.202,-4.994],[7.132,-5.184],[7.048,-5.346],[7.034,-5.346],[6.964,-5.493],[6.774,-5.697],[6.774,-5.711],[6.711,-5.761],[6.69,-5.761],[6.55,-5.669],[6.347,-5.472],[6.333,-5.472],[6.227,-5.36],[6.052,-5.121],[5.954,-5.029],[5.954,-4.952],[5.975,-4.888],[5.982,-4.797],[6.024,-4.579],[6.045,-4.537],[6.725,-4.53],[7.069,-4.502],[7.286,-4.502]]],[[[-7.368,-4.614],[-6.632,-4.628],[-6.365,-4.621],[-6.092,-4.635],[-6.057,-5.043],[-6.106,-5.064],[-6.533,-5.5],[-6.814,-5.662],[-6.989,-5.725],[-7.045,-5.775],[-7.157,-5.669],[-7.213,-5.585],[-7.305,-5.388],[-7.34,-5.268],[-7.382,-5.043],[-7.389,-4.896],[-7.389,-4.734],[-7.368,-4.614]]]]},"properties":{"abbr":"Ect","name":"ectorhinal cortex","plate":36,"ap_bregma_mm":-4.45,"area_mm2":2.2759,"traced_fraction":[1.0,1.0],"n_labels":2,"no_drawn_outline":false}},{"type":"Feature","geometry":{"type":"MultiPolygon","coordinates":[[[[-3.547,-3.179],[-3.483,-3.179],[-3.469,-3.193],[-3.469,-3.243],[-3.483,-3.271],[-3.568,-3.355],[-3.722,-3.461],[-3.834,-3.573],[-3.834,-3.587],[-3.932,-3.686],[-4.023,-3.819],[-4.051,-3.841],[-4.177,-4.03],[-4.206,-4.094],[-4.255,-4.15],[-4.283,-4.213],[-4.311,-4.34],[-4.325,-4.347],[-4.367,-4.473],[-4.409,-4.642],[-4.437,-4.91],[-4.479,-4.959],[-4.591,-4.959],[-4.633,-4.945],[-4.661,-4.917],[-4.675,-4.86],[-4.675,-4.459],[-4.654,-4.347],[-4.689,-4.347],[-4.689,-4.192],[-4.605,-4.192],[-4.591,-4.178],[-4.528,-4.066],[-4.374,-3.89],[-4.325,-3.812],[-4.164,-3.637],[-4.164,-3.622],[-4.093,-3.559],[-4.093,-3.545],[-3.981,-3.44],[-3.547,-3.179]]],[[[3.612,-3.285],[3.696,-3.292],[3.858,-3.369],[4.25,-3.658],[4.397,-3.812],[4.51,-3.967],[4.559,-4.066],[4.58,-4.08],[4.622,-4.185],[4.643,-4.298],[4.657,-4.579],[4.636,-4.698],[4.594,-4.825],[4.566,-4.881],[4.517,-4.931],[4.454,-4.931],[4.404,-4.902],[4.439,-4.614],[4.397,-4.262],[4.348,-4.115],[4.25,-3.981],[4.082,-3.812],[4.005,-3.707],[3.879,-3.58],[3.809,-3.538],[3.626,-3.383],[3.598,-3.327],[3.598,-3.299],[3.612,-3.285]]]]},"properties":{"abbr":"GrDG","name":"granular layer of the dentate gyrus","plate":36,"ap_bregma_mm":-4.45,"area_mm2":0.9062,"traced_fraction":[0.951,1.0],"n_labels":2,"no_drawn_outline":false}},{"type":"Feature","geometry":{"type":"MultiPolygon","coordinates":[[[[0.071,-6.358],[0.163,-6.372],[0.226,-6.429],[0.24,-6.506],[0.169,-6.548],[0.142,-6.647],[0.064,-6.626],[-0.062,-6.689],[-0.097,-6.661],[-0.118,-6.598],[-0.167,-6.548],[-0.167,-6.527],[-0.153,-6.443],[-0.104,-6.394],[-0.006,-6.358],[0.071,-6.358]]]]},"properties":{"abbr":"IF","name":"interfascicular nucleus","plate":36,"ap_bregma_mm":-4.45,"area_mm2":0.0937,"traced_fraction":[1.0],"n_labels":1,"no_drawn_outline":false}},{"type":"Feature","geometry":{"type":"MultiPolygon","coordinates":[[[[0.387,-4.902],[0.457,-4.938],[0.506,-4.987],[0.541,-5.057],[0.541,-5.184],[0.464,-5.325],[0.24,-5.571],[0.226,-5.571],[0.184,-5.62],[0.114,-5.634],[0.156,-5.493],[0.184,-5.43],[0.303,-5.268],[0.331,-5.149],[0.366,-5.085],[0.366,-4.98],[0.387,-4.902]]],[[[-0.356,-4.931],[-0.349,-5.113],[-0.328,-5.198],[-0.265,-5.296],[-0.174,-5.388],[-0.139,-5.458],[-0.09,-5.493],[-0.097,-5.543],[-0.076,-5.648],[-0.125,-5.634],[-0.174,-5.599],[-0.342,-5.416],[-0.426,-5.374],[-0.518,-5.303],[-0.532,-5.268],[-0.532,-5.163],[-0.518,-5.149],[-0.504,-5.078],[-0.447,-4.987],[-0.398,-4.945],[-0.356,-4.931]]]]},"properties":{"abbr":"InC","name":"interstitial nucleus of Cajal","plate":36,"ap_bregma_mm":-4.45,"area_mm2":0.2333,"traced_fraction":[0.992,1.0],"n_labels":2,"no_drawn_outline":false}},{"type":"Feature","geometry":{"type":"MultiPolygon","coordinates":[[[[2.602,-3.426],[2.631,-3.433],[2.638,-3.454],[2.68,-3.826],[2.694,-3.855],[2.687,-3.897],[2.553,-4.066],[2.497,-4.023],[2.189,-3.503],[2.112,-3.404],[2.014,-3.243],[1.887,-3.102],[1.887,-3.088],[1.726,-2.94],[1.551,-2.821],[1.242,-2.659],[0.969,-2.575],[0.695,-2.575],[0.583,-2.638],[0.471,-2.75],[0.408,-2.842],[0.296,-2.947],[0.177,-2.996],[-0.02,-3.018],[-0.16,-3.004],[-0.314,-2.954],[-0.469,-2.863],[-0.651,-2.673],[-0.714,-2.631],[-0.819,-2.589],[-0.959,-2.582],[-1.191,-2.624],[-1.422,-2.708],[-1.668,-2.842],[-1.885,-3.046],[-1.885,-3.06],[-1.927,-3.095],[-1.934,-3.144],[-1.99,-3.193],[-2.207,-3.524],[-2.34,-3.777],[-2.404,-3.974],[-2.523,-4.185],[-2.551,-4.185],[-2.656,-4.073],[-2.74,-4.03],[-2.74,-4.009],[-2.726,-3.686],[-2.684,-3.601],[-2.684,-3.538],[-2.642,-3.531],[-2.6,-3.496],[-2.516,-3.489],[-2.439,-3.44],[-2.355,-3.362],[-2.327,-3.313],[-2.291,-3.172],[-2.221,-3.053],[-2.088,-2.905],[-2.074,-2.905],[-1.892,-2.736],[-1.745,-2.631],[-1.506,-2.504],[-1.163,-2.385],[-0.882,-2.349],[-0.546,-2.349],[-0.475,-2.427],[-0.419,-2.708],[-0.37,-2.8],[-0.3,-2.87],[-0.244,-2.898],[-0.195,-2.905],[-0.125,-2.884],[-0.076,-2.87],[0.029,-2.884],[0.148,-2.898],[0.24,-2.863],[0.282,-2.828],[0.331,-2.729],[0.345,-2.631],[0.408,-2.42],[0.464,-2.349],[0.513,-2.328],[0.78,-2.328],[1.025,-2.356],[1.298,-2.455],[1.796,-2.708],[1.979,-2.821],[2.175,-3.004],[2.224,-3.088],[2.28,-3.264],[2.357,-3.362],[2.469,-3.418],[2.602,-3.426]]]]},"properties":{"abbr":"InG","name":"intermediate gray layer of the superior colliculus","plate":36,"ap_bregma_mm":-4.45,"area_mm2":1.6871,"traced_fraction":[0.988],"n_labels":2,"no_drawn_outline":false}},{"type":"Feature","geometry":{"type":"MultiPolygon","coordinates":[[[[2.553,-4.066],[2.49,-4.143],[2.413,-4.178],[2.21,-4.347],[2.077,-4.424],[1.873,-4.495],[1.663,-4.523],[1.663,-4.473],[1.747,-4.227],[1.782,-4.045],[1.789,-3.833],[1.761,-3.679],[1.705,-3.524],[1.579,-3.306],[1.446,-3.151],[1.277,-3.018],[1.158,-2.947],[1.018,-2.898],[0.822,-2.891],[0.737,-2.912],[0.576,-2.99],[0.548,-2.99],[0.345,-3.067],[0.071,-3.123],[-0.069,-3.123],[-0.244,-3.081],[-0.581,-2.933],[-0.791,-2.877],[-0.917,-2.877],[-1.121,-2.94],[-1.226,-2.996],[-1.38,-3.109],[-1.59,-3.327],[-1.801,-3.644],[-1.899,-3.883],[-1.941,-4.129],[-1.927,-4.347],[-1.85,-4.586],[-1.962,-4.579],[-2.172,-4.488],[-2.333,-4.368],[-2.523,-4.185],[-2.404,-3.974],[-2.34,-3.777],[-2.207,-3.524],[-1.99,-3.193],[-1.934,-3.144],[-1.927,-3.095],[-1.885,-3.06],[-1.885,-3.046],[-1.695,-2.863],[-1.576,-2.786],[-1.422,-2.708],[-1.191,-2.624],[-0.959,-2.582],[-0.854,-2.582],[-0.714,-2.631],[-0.651,-2.673],[-0.469,-2.863],[-0.314,-2.954],[-0.16,-3.004],[-0.02,-3.018],[0.177,-2.996],[0.296,-2.947],[0.408,-2.842],[0.471,-2.75],[0.583,-2.638],[0.695,-2.575],[0.969,-2.575],[1.242,-2.659],[1.551,-2.821],[1.726,-2.94],[1.887,-3.088],[1.887,-3.102],[2.014,-3.243],[2.112,-3.404],[2.189,-3.503],[2.497,-4.023],[2.553,-4.066]]]]},"properties":{"abbr":"InWh","name":"intermediate white layer of the superior colliculus","plate":36,"ap_bregma_mm":-4.45,"area_mm2":2.3808,"traced_fraction":[0.987],"n_labels":2,"no_drawn_outline":false}},{"type":"Feature","geometry":{"type":"MultiPolygon","coordinates":[[[[5.828,-5.458],[5.891,-5.507],[6.031,-5.725],[6.22,-5.972],[6.375,-6.112],[6.452,-6.155],[6.487,-6.155],[6.515,-6.218],[6.515,-6.344],[6.466,-6.534],[6.284,-6.886],[6.263,-6.9],[6.171,-7.048],[5.996,-7.231],[5.94,-7.259],[5.905,-7.294],[5.786,-7.343],[5.596,-7.343],[5.526,-7.294],[5.456,-7.195],[5.33,-7.125],[5.351,-6.984],[5.344,-6.752],[5.302,-6.583],[5.239,-6.464],[5.218,-6.387],[5.435,-6.26],[5.561,-6.119],[5.659,-5.929],[5.723,-5.725],[5.758,-5.662],[5.828,-5.458]]],[[[-5.944,-5.5],[-5.909,-5.571],[-5.804,-5.908],[-5.755,-6.007],[-5.706,-6.07],[-5.685,-6.077],[-5.678,-6.098],[-5.454,-6.309],[-5.25,-6.38],[-5.159,-6.38],[-5.173,-6.464],[-5.299,-6.731],[-5.482,-6.998],[-5.594,-7.118],[-5.587,-7.153],[-5.734,-7.202],[-5.923,-7.202],[-6.064,-7.16],[-6.218,-7.069],[-6.225,-7.048],[-6.267,-7.027],[-6.491,-6.787],[-6.618,-6.591],[-6.688,-6.506],[-6.786,-6.33],[-6.786,-6.218],[-6.751,-6.218],[-6.716,-6.197],[-6.568,-6.063],[-6.393,-5.943],[-6.211,-5.782],[-6.197,-5.782],[-6.05,-5.641],[-5.986,-5.536],[-5.958,-5.5],[-5.944,-5.5]]]]},"properties":{"abbr":"LEnt","name":"lateral entorhinal cortex","plate":36,"ap_bregma_mm":-4.45,"area_mm2":2.8912,"traced_fraction":[1.0,1.0],"n_labels":2,"no_drawn_outline":false}},{"type":"Feature","geometry":{"type":"MultiPolygon","coordinates":[[[[2.827,-2.349],[2.89,-2.356],[2.897,-2.371],[2.981,-2.406],[3.311,-2.497],[3.822,-2.666],[3.83,-2.68],[3.935,-2.722],[3.963,-2.722],[3.963,-2.736],[4.005,-2.771],[4.194,-2.856],[4.447,-3.018],[4.713,-3.257],[4.727,-3.257],[4.79,-3.327],[4.804,-3.327],[4.93,-3.475],[5.078,-3.7],[5.113,-3.777],[5.134,-3.791],[5.134,-3.812],[5.176,-3.869],[5.246,-4.03],[5.316,-4.396],[5.323,-4.642],[5.295,-4.867],[5.211,-5.149],[5.148,-5.275],[5.064,-5.402],[4.965,-5.528],[4.916,-5.571],[4.916,-5.585],[4.811,-5.69],[4.636,-5.796],[4.545,-5.831],[4.454,-5.845],[4.369,-5.887],[4.32,-5.747],[4.306,-5.641],[4.376,-5.613],[4.376,-5.599],[4.454,-5.606],[4.699,-5.451],[4.776,-5.367],[4.846,-5.261],[4.944,-5.057],[5.028,-4.755],[5.042,-4.558],[5.057,-4.516],[5.057,-4.417],[5.028,-4.206],[4.951,-3.995],[4.818,-3.749],[4.692,-3.587],[4.573,-3.475],[4.447,-3.39],[4.327,-3.278],[4.166,-3.165],[3.977,-3.053],[3.619,-2.884],[3.409,-2.821],[3.22,-2.743],[3.058,-2.715],[2.96,-2.715],[2.939,-2.666],[2.827,-2.61],[2.708,-2.504],[2.708,-2.483],[2.722,-2.483],[2.806,-2.399],[2.827,-2.349]]],[[[-4.921,-4.122],[-5.019,-4.466],[-5.047,-4.698],[-5.047,-4.825],[-5.012,-5.022],[-4.991,-5.057],[-4.97,-5.156],[-4.914,-5.268],[-4.802,-5.437],[-4.71,-5.528],[-4.647,-5.564],[-4.556,-5.592],[-4.388,-5.613],[-4.262,-5.599],[-4.143,-5.606],[-4.198,-5.718],[-4.29,-5.796],[-4.381,-5.831],[-4.57,-5.845],[-4.584,-5.845],[-4.668,-5.824],[-4.795,-5.761],[-4.956,-5.62],[-5.026,-5.578],[-5.131,-5.465],[-5.222,-5.31],[-5.271,-5.17],[-5.327,-5.163],[-5.313,-4.783],[-5.334,-4.762],[-5.32,-4.558],[-5.292,-4.396],[-5.257,-4.255],[-5.201,-4.115],[-4.921,-4.122]]]]},"properties":{"abbr":"LMol","name":"lacunosum moleculare layer of the hippocampus","plate":36,"ap_bregma_mm":-4.45,"area_mm2":1.9483,"traced_fraction":[0.999,0.915],"n_labels":2,"no_drawn_outline":false}},{"type":"Feature","geometry":{"type":"MultiPolygon","coordinates":[[[[0.429,-3.869],[0.583,-3.974],[0.681,-4.016],[0.773,-4.03],[0.843,-4.023],[0.92,-3.981],[0.948,-3.981],[0.948,-4.136],[0.899,-4.277],[0.871,-4.312],[0.864,-4.368],[0.815,-4.417],[0.773,-4.382],[0.703,-4.354],[0.541,-4.368],[0.429,-4.403],[0.296,-4.473],[0.233,-4.516],[0.191,-4.572],[0.177,-4.572],[0.163,-4.614],[0.12,-4.649],[0.078,-4.734],[0.043,-4.755],[0.015,-4.713],[-0.027,-4.727],[-0.062,-4.698],[-0.062,-4.685],[-0.062,-4.656],[-0.111,-4.572],[-0.202,-4.481],[-0.314,-4.431],[-0.398,-4.417],[-0.574,-4.417],[-0.637,-4.445],[-0.672,-4.488],[-0.693,-4.488],[-0.819,-4.382],[-0.875,-4.361],[-0.917,-4.34],[-0.973,-4.27],[-0.994,-4.15],[-0.994,-3.988],[-0.966,-3.988],[-0.917,-4.016],[-0.819,-4.03],[-0.672,-4.016],[-0.574,-3.988],[-0.496,-3.911],[-0.483,-3.911],[-0.307,-4.023],[-0.202,-4.058],[-0.167,-4.051],[-0.146,-4.115],[-0.069,-4.213],[-0.034,-4.34],[-0.013,-4.361],[0.008,-4.361],[0.029,-4.34],[0.057,-4.213],[0.148,-4.094],[0.163,-4.045],[0.24,-4.03],[0.303,-3.995],[0.394,-3.925],[0.429,-3.869]]]]},"properties":{"abbr":"LPAG","name":"lateral periaqueductal gray","plate":36,"ap_bregma_mm":-4.45,"area_mm2":0.8167,"traced_fraction":[0.999],"n_labels":2,"no_drawn_outline":false}},{"type":"Feature","geometry":{"type":"MultiPolygon","coordinates":[[[[-4.086,-6.295],[-4.051,-6.344],[-3.988,-6.415],[-3.967,-6.436],[-3.771,-6.612],[-3.455,-6.823],[-3.35,-6.921],[-3.308,-7.012],[-3.287,-7.125],[-3.287,-7.266],[-3.315,-7.336],[-3.441,-7.442],[-3.539,-7.484],[-3.547,-7.498],[-3.617,-7.526],[-3.778,-7.533],[-3.89,-7.519],[-4.1,-7.463],[-4.451,-7.329],[-4.907,-7.09],[-5.04,-7.048],[-5.222,-7.048],[-5.587,-7.153],[-5.594,-7.118],[-5.482,-6.998],[-5.299,-6.731],[-5.187,-6.499],[-5.159,-6.38],[-5.138,-6.365],[-5.068,-6.422],[-4.984,-6.457],[-4.795,-6.464],[-4.654,-6.45],[-4.584,-6.429],[-4.304,-6.422],[-4.241,-6.401],[-4.086,-6.295]]],[[[5.218,-6.387],[5.218,-6.415],[5.302,-6.583],[5.344,-6.752],[5.351,-6.984],[5.33,-7.125],[5.176,-7.083],[4.685,-7.083],[4.573,-7.118],[4.481,-7.167],[4.278,-7.216],[3.984,-7.216],[3.851,-7.139],[3.851,-7.125],[3.809,-7.097],[3.843,-7.041],[4.096,-6.787],[4.292,-6.633],[4.369,-6.541],[4.545,-6.534],[4.713,-6.485],[4.832,-6.471],[5.106,-6.401],[5.218,-6.387]]]]},"properties":{"abbr":"MEnt","name":"medial entorhinal cortex","plate":36,"ap_bregma_mm":-4.45,"area_mm2":2.4736,"traced_fraction":[1.0,1.0],"n_labels":2,"no_drawn_outline":false}},{"type":"Feature","geometry":{"type":"MultiPolygon","coordinates":[[[[3.142,-3.89],[3.276,-3.904],[3.381,-3.946],[3.437,-3.981],[3.458,-4.016],[3.514,-4.058],[3.605,-4.234],[3.64,-4.375],[3.647,-4.586],[3.612,-4.586],[3.542,-4.551],[3.395,-4.396],[3.297,-4.34],[3.178,-4.312],[3.086,-4.312],[3.086,-4.157],[3.128,-4.009],[3.142,-3.89]]],[[[-3.098,-4.101],[-3.098,-4.22],[-3.14,-4.305],[-3.154,-4.389],[-3.168,-4.41],[-3.175,-4.53],[-3.203,-4.53],[-3.301,-4.572],[-3.526,-4.579],[-3.652,-4.537],[-3.736,-4.473],[-3.764,-4.473],[-3.757,-4.431],[-3.687,-4.291],[-3.582,-4.178],[-3.441,-4.108],[-3.098,-4.101]]]]},"properties":{"abbr":"MGD","name":"medial geniculate nucleus, dorsal part","plate":36,"ap_bregma_mm":-4.45,"area_mm2":0.465,"traced_fraction":[1.0,1.0],"n_labels":2,"no_drawn_outline":false}},{"type":"Feature","geometry":{"type":"MultiPolygon","coordinates":[[[[-3.154,-4.685],[-3.07,-4.769],[-2.929,-4.867],[-2.824,-4.924],[-2.747,-4.945],[-2.579,-5.015],[-2.6,-5.05],[-2.691,-5.1],[-2.859,-5.135],[-3.259,-5.142],[-3.273,-5.135],[-3.273,-5.128],[-3.266,-5.121],[-3.273,-5.085],[-3.245,-4.952],[-3.175,-4.713],[-3.154,-4.685]]],[[[3.065,-4.846],[3.135,-4.987],[3.149,-5.296],[3.163,-5.317],[3.17,-5.325],[3.128,-5.346],[3.072,-5.325],[2.729,-5.282],[2.617,-5.219],[2.581,-5.17],[2.659,-5.085],[2.736,-5.029],[3.016,-4.86],[3.065,-4.846]]]]},"properties":{"abbr":"MGM","name":"medial geniculate nucleus, medial part","plate":36,"ap_bregma_mm":-4.45,"area_mm2":0.3476,"traced_fraction":[1.0,1.0],"n_labels":2,"no_drawn_outline":false}},{"type":"Feature","geometry":{"type":"MultiPolygon","coordinates":[[[[3.086,-4.312],[3.178,-4.312],[3.297,-4.34],[3.395,-4.396],[3.542,-4.551],[3.591,-4.579],[3.647,-4.586],[3.612,-4.825],[3.57,-4.938],[3.486,-5.1],[3.332,-5.24],[3.17,-5.325],[3.163,-5.317],[3.149,-5.296],[3.135,-4.987],[3.065,-4.846],[3.079,-4.656],[3.058,-4.382],[3.072,-4.326],[3.086,-4.312]]],[[[-3.764,-4.473],[-3.736,-4.473],[-3.652,-4.537],[-3.526,-4.579],[-3.301,-4.572],[-3.287,-4.558],[-3.175,-4.53],[-3.154,-4.685],[-3.175,-4.713],[-3.245,-4.952],[-3.273,-5.085],[-3.266,-5.121],[-3.273,-5.128],[-3.273,-5.135],[-3.497,-5.036],[-3.539,-5.008],[-3.547,-4.987],[-3.603,-4.959],[-3.75,-4.818],[-3.785,-4.72],[-3.785,-4.565],[-3.764,-4.473]]]]},"properties":{"abbr":"MGV","name":"medial geniculate nucleus, ventral part","plate":36,"ap_bregma_mm":-4.45,"area_mm2":0.6598,"traced_fraction":[1.0,1.0],"n_labels":2,"no_drawn_outline":false}},{"type":"Feature","geometry":{"type":"MultiPolygon","coordinates":[[[[0.289,-7.231],[0.457,-7.238],[0.59,-7.266],[0.695,-7.315],[0.752,-7.357],[0.815,-7.456],[0.822,-7.547],[0.794,-7.589],[0.745,-7.617],[0.688,-7.631],[0.443,-7.631],[0.282,-7.603],[0.099,-7.603],[-0.244,-7.646],[-0.447,-7.653],[-0.496,-7.596],[-0.496,-7.526],[-0.454,-7.456],[-0.377,-7.392],[-0.223,-7.308],[-0.076,-7.266],[0.114,-7.287],[0.289,-7.231]]]]},"properties":{"abbr":"ML","name":"medial mammillary nucleus, lateral part","plate":36,"ap_bregma_mm":-4.45,"area_mm2":0.4235,"traced_fraction":[1.0],"n_labels":1,"no_drawn_outline":false}},{"type":"Feature","geometry":{"type":"MultiPolygon","coordinates":[[[[2.96,-2.715],[3.058,-2.715],[3.22,-2.743],[3.409,-2.821],[3.619,-2.884],[3.977,-3.053],[4.166,-3.165],[4.327,-3.278],[4.362,-3.32],[4.573,-3.475],[4.692,-3.587],[4.818,-3.749],[4.951,-3.995],[5.028,-4.206],[5.057,-4.417],[5.057,-4.516],[5.042,-4.558],[5.028,-4.755],[4.944,-5.057],[4.846,-5.261],[4.776,-5.367],[4.699,-5.451],[4.454,-5.606],[4.376,-5.599],[4.334,-5.585],[4.222,-5.585],[4.187,-5.557],[4.166,-5.557],[4.152,-5.521],[4.138,-5.521],[4.11,-5.486],[4.068,-5.402],[4.033,-5.282],[4.047,-5.064],[4.117,-4.741],[4.117,-4.403],[4.103,-4.368],[4.096,-4.347],[4.089,-4.326],[4.082,-4.312],[4.075,-4.298],[4.068,-4.277],[4.054,-4.241],[3.991,-4.136],[3.97,-4.108],[3.956,-4.087],[3.963,-4.08],[3.949,-4.066],[3.942,-4.073],[3.935,-4.058],[3.942,-4.051],[3.928,-4.037],[3.921,-4.045],[3.907,-4.023],[3.865,-3.96],[3.78,-3.883],[3.78,-3.869],[3.535,-3.622],[3.472,-3.531],[3.184,-3.271],[3.17,-3.271],[2.89,-2.975],[2.855,-2.898],[2.855,-2.807],[2.897,-2.736],[2.932,-2.715],[2.96,-2.715]]],[[[-3.042,-2.8],[-3.042,-2.975],[-3.175,-3.109],[-3.196,-3.165],[-3.238,-3.299],[-3.399,-3.531],[-3.792,-3.974],[-3.925,-4.164],[-3.988,-4.248],[-4.03,-4.34],[-4.079,-4.438],[-4.135,-4.642],[-4.177,-4.902],[-4.17,-5.184],[-4.079,-5.528],[-4.058,-5.564],[-4.086,-5.564],[-4.143,-5.606],[-4.262,-5.599],[-4.388,-5.613],[-4.556,-5.592],[-4.647,-5.564],[-4.71,-5.528],[-4.802,-5.437],[-4.914,-5.268],[-4.97,-5.156],[-4.991,-5.057],[-5.012,-5.022],[-5.047,-4.825],[-5.047,-4.698],[-5.019,-4.466],[-4.921,-4.122],[-4.795,-3.911],[-4.549,-3.587],[-4.339,-3.39],[-4.1,-3.207],[-3.911,-3.088],[-3.575,-2.933],[-3.224,-2.807],[-3.042,-2.8]]],[[[-3.547,-3.179],[-3.981,-3.44],[-4.093,-3.545],[-4.093,-3.559],[-4.164,-3.622],[-4.164,-3.637],[-4.325,-3.812],[-4.374,-3.89],[-4.528,-4.066],[-4.591,-4.178],[-4.605,-4.192],[-4.689,-4.192],[-4.689,-4.347],[-4.654,-4.347],[-4.675,-4.459],[-4.675,-4.86],[-4.668,-4.902],[-4.633,-4.945],[-4.591,-4.959],[-4.479,-4.959],[-4.437,-4.91],[-4.409,-4.642],[-4.367,-4.473],[-4.325,-4.347],[-4.311,-4.34],[-4.283,-4.213],[-4.255,-4.15],[-4.206,-4.094],[-4.177,-4.03],[-4.051,-3.841],[-4.023,-3.819],[-3.932,-3.686],[-3.834,-3.587],[-3.834,-3.573],[-3.722,-3.461],[-3.568,-3.355],[-3.483,-3.271],[-3.469,-3.243],[-3.469,-3.193],[-3.483,-3.179],[-3.547,-3.179]]],[[[3.612,-3.285],[3.598,-3.299],[3.598,-3.327],[3.626,-3.383],[3.809,-3.538],[3.879,-3.58],[4.005,-3.707],[4.082,-3.812],[4.25,-3.981],[4.348,-4.115],[4.397,-4.262],[4.439,-4.614],[4.404,-4.902],[4.426,-4.924],[4.517,-4.931],[4.566,-4.881],[4.594,-4.825],[4.636,-4.698],[4.657,-4.579],[4.643,-4.298],[4.622,-4.185],[4.58,-4.08],[4.559,-4.066],[4.51,-3.967],[4.397,-3.812],[4.25,-3.658],[3.858,-3.369],[3.696,-3.292],[3.612,-3.285]]]]},"properties":{"abbr":"MoDG","name":"molecular layer of the dentate gyrus","plate":36,"ap_bregma_mm":-4.45,"area_mm2":4.2216,"traced_fraction":[1.0,0.999,0.951,1.0],"n_labels":2,"no_drawn_outline":false}},{"type":"Feature","geometry":{"type":"MultiPolygon","coordinates":[[[[2.631,-3.313],[2.631,-3.334],[2.602,-3.369],[2.602,-3.426],[2.469,-3.418],[2.357,-3.362],[2.28,-3.264],[2.224,-3.088],[2.175,-3.004],[1.979,-2.821],[1.796,-2.708],[1.298,-2.455],[1.025,-2.356],[0.78,-2.328],[0.513,-2.328],[0.464,-2.349],[0.408,-2.42],[0.352,-2.603],[0.331,-2.729],[0.282,-2.828],[0.24,-2.863],[0.148,-2.898],[0.029,-2.884],[0.043,-2.856],[0.078,-2.849],[0.127,-2.814],[0.163,-2.729],[0.184,-2.617],[0.177,-2.328],[0.247,-2.11],[0.324,-2.04],[0.415,-2.012],[0.625,-2.005],[0.829,-2.026],[1.186,-2.103],[1.439,-2.188],[1.782,-2.371],[1.957,-2.483],[1.972,-2.504],[2.021,-2.525],[2.056,-2.56],[2.084,-2.567],[2.231,-2.68],[2.294,-2.75],[2.308,-2.75],[2.455,-2.912],[2.518,-3.046],[2.574,-3.243],[2.631,-3.313]]],[[[-0.146,-2.842],[-0.125,-2.863],[-0.125,-2.884],[-0.195,-2.905],[-0.244,-2.898],[-0.3,-2.87],[-0.37,-2.8],[-0.419,-2.708],[-0.475,-2.427],[-0.546,-2.349],[-0.882,-2.349],[-1.163,-2.385],[-1.506,-2.504],[-1.71,-2.61],[-1.892,-2.736],[-2.074,-2.905],[-2.088,-2.905],[-2.221,-3.053],[-2.291,-3.172],[-2.327,-3.313],[-2.355,-3.362],[-2.439,-3.44],[-2.516,-3.489],[-2.6,-3.496],[-2.628,-3.426],[-2.663,-3.39],[-2.663,-3.369],[-2.621,-3.334],[-2.586,-3.271],[-2.558,-3.109],[-2.425,-2.856],[-2.319,-2.708],[-2.186,-2.582],[-2.004,-2.448],[-1.59,-2.23],[-1.415,-2.16],[-1.085,-2.061],[-0.805,-2.019],[-0.602,-2.012],[-0.496,-2.033],[-0.412,-2.075],[-0.342,-2.145],[-0.3,-2.223],[-0.279,-2.314],[-0.279,-2.462],[-0.251,-2.701],[-0.209,-2.8],[-0.146,-2.842]]]]},"properties":{"abbr":"Op","name":"optic nerve layer of the superior colliculus","plate":36,"ap_bregma_mm":-4.45,"area_mm2":1.8384,"traced_fraction":[1.0,1.0],"n_labels":2,"no_drawn_outline":false}},{"type":"Feature","geometry":{"type":"MultiPolygon","coordinates":[[[[-4.689,-2.743],[-4.64,-2.835],[-4.675,-2.842],[-4.71,-2.884],[-4.766,-2.919],[-5.166,-3.327],[-5.355,-3.58],[-5.419,-3.7],[-5.559,-3.911],[-5.706,-4.234],[-5.776,-4.495],[-5.797,-4.79],[-5.762,-5.022],[-5.888,-5.05],[-5.93,-4.846],[-5.916,-4.509],[-5.797,-4.143],[-5.755,-4.058],[-5.727,-4.03],[-5.727,-4.009],[-5.608,-3.841],[-5.559,-3.728],[-5.531,-3.7],[-5.482,-3.601],[-5.313,-3.39],[-5.264,-3.306],[-5.159,-3.193],[-5.159,-3.179],[-5.145,-3.179],[-4.759,-2.786],[-4.689,-2.743]]],[[[5.435,-3.404],[5.533,-3.559],[5.547,-3.608],[5.596,-3.672],[5.624,-3.742],[5.645,-3.756],[5.772,-4.03],[5.863,-4.396],[5.877,-4.551],[5.87,-4.692],[5.73,-4.685],[5.744,-4.6],[5.744,-4.417],[5.708,-4.15],[5.638,-3.967],[5.519,-3.756],[5.491,-3.728],[5.491,-3.707],[5.407,-3.559],[5.316,-3.44],[5.316,-3.418],[5.435,-3.404]]]]},"properties":{"abbr":"Or","name":"oriens layer of the hippocampus","plate":36,"ap_bregma_mm":-4.45,"area_mm2":0.4302,"traced_fraction":[1.0,0.979],"n_labels":2,"no_drawn_outline":false}},{"type":"Feature","geometry":{"type":"MultiPolygon","coordinates":[[[[1.761,-5.747],[1.775,-5.747],[1.866,-5.845],[1.972,-5.88],[2.0,-5.908],[1.951,-5.957],[1.81,-6.161],[1.698,-6.267],[1.607,-6.323],[1.509,-6.422],[1.418,-6.541],[1.137,-6.795],[0.983,-6.865],[0.962,-6.893],[0.829,-6.872],[0.773,-6.879],[0.73,-6.795],[0.639,-6.773],[0.618,-6.752],[0.59,-6.633],[0.506,-6.506],[0.471,-6.478],[0.408,-6.422],[0.408,-6.38],[0.436,-6.344],[0.401,-6.281],[0.408,-6.161],[0.485,-6.028],[0.674,-6.091],[0.843,-6.105],[0.969,-6.07],[1.116,-5.986],[1.158,-6.0],[1.158,-6.028],[1.137,-6.063],[1.06,-6.147],[0.948,-6.232],[0.85,-6.281],[0.801,-6.344],[0.801,-6.45],[0.829,-6.506],[0.892,-6.569],[0.934,-6.591],[1.046,-6.598],[1.109,-6.569],[1.242,-6.436],[1.341,-6.267],[1.411,-6.204],[1.411,-6.19],[1.502,-6.091],[1.558,-6.0],[1.572,-5.943],[1.656,-5.908],[1.719,-5.845],[1.761,-5.747]]],[[[-1.527,-5.887],[-1.478,-5.908],[-1.506,-5.957],[-1.506,-6.0],[-1.219,-6.281],[-1.191,-6.337],[-1.163,-6.358],[-1.022,-6.562],[-0.931,-6.633],[-0.854,-6.64],[-0.798,-6.591],[-0.756,-6.464],[-0.749,-6.365],[-0.777,-6.302],[-0.868,-6.218],[-0.938,-6.176],[-0.966,-6.147],[-0.966,-6.126],[-0.931,-6.119],[-0.854,-6.147],[-0.714,-6.155],[-0.567,-6.112],[-0.405,-6.042],[-0.335,-6.119],[-0.307,-6.176],[-0.3,-6.274],[-0.307,-6.323],[-0.342,-6.372],[-0.335,-6.401],[-0.496,-6.555],[-0.574,-6.703],[-0.602,-6.795],[-0.721,-6.802],[-0.763,-6.844],[-0.777,-6.907],[-0.735,-7.02],[-0.784,-7.012],[-0.791,-6.998],[-0.812,-6.998],[-0.819,-6.984],[-0.938,-6.928],[-1.008,-6.865],[-1.092,-6.837],[-1.1,-6.816],[-1.254,-6.675],[-1.492,-6.344],[-1.646,-6.176],[-1.646,-6.161],[-1.85,-5.965],[-1.892,-5.894],[-1.745,-5.915],[-1.569,-5.915],[-1.527,-5.887]]]]},"properties":{"abbr":"PBP","name":"parabrachial pigmented nucleus of the ventral tegmental area","plate":36,"ap_bregma_mm":-4.45,"area_mm2":1.2538,"traced_fraction":[0.974,0.995],"n_labels":2,"no_drawn_outline":false}},{"type":"Feature","geometry":{"type":"MultiPolygon","coordinates":[[[[0.071,-6.358],[-0.006,-6.358],[-0.104,-6.394],[-0.153,-6.443],[-0.167,-6.527],[-0.293,-6.52],[-0.356,-6.534],[-0.405,-6.562],[-0.469,-6.633],[-0.496,-6.717],[-0.504,-6.808],[-0.602,-6.795],[-0.574,-6.703],[-0.496,-6.555],[-0.335,-6.401],[-0.188,-6.337],[0.05,-6.295],[0.071,-6.295],[0.071,-6.358]]],[[[0.408,-6.38],[0.408,-6.422],[0.471,-6.478],[0.436,-6.52],[0.436,-6.541],[0.352,-6.513],[0.24,-6.506],[0.226,-6.429],[0.163,-6.372],[0.184,-6.33],[0.205,-6.323],[0.261,-6.351],[0.289,-6.351],[0.373,-6.401],[0.408,-6.38]]]]},"properties":{"abbr":"PN","name":"paranigral nucleus of the ventral tegmental area","plate":36,"ap_bregma_mm":-4.45,"area_mm2":0.1104,"traced_fraction":[0.989,0.871],"n_labels":4,"no_drawn_outline":false}},{"type":"Feature","geometry":{"type":"MultiPolygon","coordinates":[[[[5.954,-5.029],[6.052,-5.121],[6.199,-5.325],[6.333,-5.472],[6.347,-5.472],[6.55,-5.669],[6.69,-5.761],[6.711,-5.761],[6.655,-5.817],[6.473,-5.922],[6.459,-5.951],[6.438,-5.957],[6.431,-6.007],[6.438,-6.056],[6.487,-6.155],[6.452,-6.155],[6.375,-6.112],[6.22,-5.972],[6.031,-5.725],[5.891,-5.507],[5.828,-5.458],[5.842,-5.367],[5.898,-5.212],[5.933,-5.064],[5.954,-5.029]]],[[[-6.057,-5.043],[-5.944,-5.5],[-5.958,-5.5],[-5.986,-5.536],[-6.05,-5.641],[-6.197,-5.782],[-6.211,-5.782],[-6.393,-5.943],[-6.568,-6.063],[-6.716,-6.197],[-6.751,-6.218],[-6.786,-6.218],[-6.681,-5.943],[-6.667,-5.887],[-6.681,-5.873],[-6.723,-5.88],[-6.856,-5.873],[-6.996,-5.817],[-7.045,-5.775],[-6.989,-5.725],[-6.814,-5.662],[-6.533,-5.5],[-6.106,-5.064],[-6.057,-5.043]]]]},"properties":{"abbr":"PRh","name":"perirhinal cortex","plate":36,"ap_bregma_mm":-4.45,"area_mm2":0.8629,"traced_fraction":[1.0,1.0],"n_labels":2,"no_drawn_outline":false}},{"type":"Feature","geometry":{"type":"MultiPolygon","coordinates":[[[[1.761,-5.747],[1.719,-5.845],[1.656,-5.908],[1.572,-5.943],[1.158,-6.0],[1.116,-5.986],[1.193,-5.817],[1.193,-5.627],[1.179,-5.599],[1.151,-5.507],[1.074,-5.416],[0.969,-5.367],[0.843,-5.346],[0.843,-5.177],[0.871,-5.121],[0.906,-5.085],[1.018,-5.043],[1.144,-5.043],[1.277,-5.085],[1.411,-5.156],[1.544,-5.247],[1.719,-5.43],[1.768,-5.571],[1.761,-5.747]]],[[[-0.742,-5.423],[-0.938,-5.486],[-0.987,-5.514],[-1.015,-5.557],[-1.113,-5.641],[-1.156,-5.74],[-1.163,-5.81],[-1.149,-5.915],[-1.085,-6.042],[-1.177,-6.028],[-1.324,-5.957],[-1.478,-5.908],[-1.527,-5.887],[-1.59,-5.845],[-1.674,-5.711],[-1.702,-5.627],[-1.702,-5.507],[-1.639,-5.367],[-1.534,-5.261],[-1.443,-5.205],[-1.24,-5.121],[-1.05,-5.121],[-0.882,-5.198],[-0.805,-5.275],[-0.756,-5.36],[-0.742,-5.423]]]]},"properties":{"abbr":"PaR","name":"pararubral nucleus","plate":36,"ap_bregma_mm":-4.45,"area_mm2":1.0472,"traced_fraction":[1.0,1.0],"n_labels":2,"no_drawn_outline":false}},{"type":"Feature","geometry":{"type":"MultiPolygon","coordinates":[[[[3.668,-6.042],[3.703,-6.07],[3.752,-6.155],[3.893,-6.281],[4.075,-6.401],[4.264,-6.464],[4.299,-6.499],[4.222,-6.534],[3.872,-6.583],[3.521,-6.661],[3.5,-6.583],[3.507,-6.387],[3.549,-6.253],[3.668,-6.042]]]]},"properties":{"abbr":"PaS","name":"parasubiculum","plate":36,"ap_bregma_mm":-4.45,"area_mm2":0.2337,"traced_fraction":[1.0],"n_labels":1,"no_drawn_outline":false}},{"type":"Feature","geometry":{"type":"MultiPolygon","coordinates":[[[[-2.235,-1.674],[-2.242,-1.766],[-2.284,-1.871],[-2.298,-1.956],[-2.333,-1.963],[-2.361,-1.991],[-2.439,-2.026],[-2.453,-2.047],[-2.523,-2.082],[-2.523,-2.096],[-2.852,-2.314],[-3.105,-2.427],[-3.168,-2.469],[-3.175,-2.469],[-3.231,-2.406],[-3.42,-2.089],[-2.635,-1.836],[-2.586,-1.808],[-2.39,-1.745],[-2.277,-1.681],[-2.235,-1.674]]],[[[2.434,-1.85],[3.086,-2.019],[3.212,-2.033],[3.29,-2.061],[3.283,-2.082],[3.22,-2.131],[2.932,-2.293],[2.89,-2.356],[2.827,-2.349],[2.82,-2.335],[2.539,-2.202],[2.462,-2.138],[2.441,-2.138],[2.371,-2.082],[2.259,-2.026],[2.231,-1.984],[2.35,-1.935],[2.392,-1.906],[2.434,-1.85]]]]},"properties":{"abbr":"Post","name":"postsubiculum","plate":36,"ap_bregma_mm":-4.45,"area_mm2":0.6457,"traced_fraction":[1.0,1.0],"n_labels":2,"no_drawn_outline":false}},{"type":"Feature","geometry":{"type":"MultiPolygon","coordinates":[[[[-4.058,-5.564],[-3.995,-5.69],[-3.953,-5.725],[-3.96,-5.732],[-3.946,-5.732],[-3.89,-5.789],[-3.841,-5.81],[-3.82,-5.817],[-3.806,-5.824],[-3.708,-5.859],[-3.673,-5.894],[-3.673,-5.943],[-3.722,-6.028],[-3.771,-6.077],[-3.953,-6.161],[-3.988,-6.176],[-4.002,-6.183],[-4.016,-6.19],[-4.03,-6.197],[-4.058,-6.211],[-4.086,-6.253],[-4.114,-6.253],[-4.269,-6.168],[-4.339,-6.147],[-4.612,-6.014],[-4.619,-6.0],[-4.612,-5.929],[-4.584,-5.908],[-4.577,-5.88],[-4.57,-5.845],[-4.381,-5.831],[-4.29,-5.796],[-4.198,-5.718],[-4.143,-5.606],[-4.114,-5.578],[-4.058,-5.564]]],[[[4.306,-5.641],[4.32,-5.747],[4.369,-5.887],[4.376,-6.063],[4.397,-6.098],[4.411,-6.267],[4.503,-6.429],[4.348,-6.499],[4.299,-6.499],[4.264,-6.464],[4.075,-6.401],[3.893,-6.281],[3.752,-6.155],[3.703,-6.07],[3.668,-6.042],[3.745,-5.908],[3.837,-5.817],[3.984,-5.725],[4.04,-5.697],[4.131,-5.676],[4.138,-5.662],[4.306,-5.641]]]]},"properties":{"abbr":"PrS","name":"presubiculum","plate":36,"ap_bregma_mm":-4.45,"area_mm2":0.7644,"traced_fraction":[0.977,1.0],"n_labels":2,"no_drawn_outline":false}},{"type":"Feature","geometry":{"type":"MultiPolygon","coordinates":[[[[4.657,-2.8],[4.72,-2.828],[4.881,-2.99],[5.085,-3.151],[5.092,-3.172],[5.232,-3.306],[5.316,-3.418],[5.316,-3.44],[5.407,-3.559],[5.442,-3.637],[5.47,-3.665],[5.491,-3.728],[5.519,-3.756],[5.638,-3.967],[5.708,-4.15],[5.744,-4.417],[5.744,-4.6],[5.73,-4.685],[5.603,-4.677],[5.54,-4.692],[5.54,-4.635],[5.582,-4.466],[5.561,-4.241],[5.54,-4.15],[5.526,-4.143],[5.505,-4.08],[5.498,-4.009],[5.47,-3.974],[5.463,-3.911],[5.393,-3.784],[5.288,-3.594],[5.162,-3.433],[4.86,-3.151],[4.72,-3.046],[4.587,-2.968],[4.587,-2.954],[4.622,-2.905],[4.636,-2.835],[4.657,-2.8]]],[[[-4.64,-2.835],[-4.57,-2.891],[-4.458,-2.933],[-4.5,-2.99],[-4.753,-3.158],[-4.808,-3.222],[-4.921,-3.299],[-5.061,-3.433],[-5.075,-3.433],[-5.194,-3.573],[-5.362,-3.826],[-5.496,-4.094],[-5.58,-4.354],[-5.601,-4.523],[-5.594,-4.769],[-5.587,-4.917],[-5.559,-5.015],[-5.762,-5.022],[-5.797,-4.79],[-5.776,-4.495],[-5.706,-4.234],[-5.559,-3.911],[-5.419,-3.7],[-5.355,-3.58],[-5.166,-3.327],[-4.766,-2.919],[-4.71,-2.884],[-4.675,-2.842],[-4.64,-2.835]]]]},"properties":{"abbr":"Py","name":"pyramidal cell layer of the hippocampus","plate":36,"ap_bregma_mm":-4.45,"area_mm2":0.7333,"traced_fraction":[0.998,0.997],"n_labels":2,"no_drawn_outline":false}},{"type":"Feature","geometry":{"type":"MultiPolygon","coordinates":[[[[-0.097,-5.873],[0.142,-5.873],[0.156,-5.943],[0.148,-6.035],[0.106,-6.105],[0.05,-6.133],[-0.027,-6.119],[-0.083,-6.07],[-0.111,-5.986],[-0.097,-5.873]]]]},"properties":{"abbr":"RLi","name":"rostral linear nucleus of the raphe","plate":36,"ap_bregma_mm":-4.45,"area_mm2":0.0579,"traced_fraction":[0.779],"n_labels":1,"no_drawn_outline":false}},{"type":"Feature","geometry":{"type":"MultiPolygon","coordinates":[[[[1.179,-5.599],[1.193,-5.627],[1.193,-5.817],[1.116,-5.986],[0.969,-6.07],[0.843,-6.105],[0.674,-6.091],[0.485,-6.028],[0.429,-5.979],[0.38,-5.957],[0.324,-5.887],[0.303,-5.831],[0.31,-5.718],[0.366,-5.697],[0.387,-5.662],[0.45,-5.613],[0.562,-5.557],[0.78,-5.5],[0.878,-5.493],[0.969,-5.507],[1.179,-5.599]]],[[[-0.307,-5.852],[-0.307,-5.887],[-0.335,-5.957],[-0.405,-6.042],[-0.567,-6.112],[-0.714,-6.155],[-0.854,-6.147],[-0.931,-6.119],[-0.966,-6.126],[-1.085,-6.042],[-1.149,-5.915],[-1.163,-5.81],[-1.156,-5.74],[-1.113,-5.641],[-1.015,-5.557],[-0.959,-5.557],[-0.819,-5.514],[-0.7,-5.536],[-0.567,-5.606],[-0.462,-5.683],[-0.307,-5.852]]]]},"properties":{"abbr":"RMC","name":"red nucleus, magnocellular part","plate":36,"ap_bregma_mm":-4.45,"area_mm2":0.821,"traced_fraction":[1.0,1.0],"n_labels":2,"no_drawn_outline":false}},{"type":"Feature","geometry":{"type":"MultiPolygon","coordinates":[[[[0.843,-5.346],[0.969,-5.367],[1.074,-5.416],[1.151,-5.507],[1.179,-5.599],[0.969,-5.507],[0.878,-5.493],[0.78,-5.5],[0.562,-5.557],[0.45,-5.613],[0.394,-5.655],[0.366,-5.697],[0.31,-5.718],[0.317,-5.655],[0.345,-5.585],[0.45,-5.472],[0.534,-5.416],[0.548,-5.388],[0.555,-5.367],[0.843,-5.346]]],[[[-0.441,-5.458],[-0.441,-5.472],[-0.363,-5.536],[-0.307,-5.627],[-0.286,-5.697],[-0.286,-5.817],[-0.307,-5.852],[-0.462,-5.683],[-0.567,-5.606],[-0.7,-5.536],[-0.819,-5.514],[-0.959,-5.557],[-1.015,-5.557],[-0.987,-5.514],[-0.938,-5.486],[-0.742,-5.423],[-0.609,-5.409],[-0.525,-5.423],[-0.441,-5.458]]]]},"properties":{"abbr":"RPC","name":"red nucleus, parvicellular part","plate":36,"ap_bregma_mm":-4.45,"area_mm2":0.2293,"traced_fraction":[0.983,1.0],"n_labels":2,"no_drawn_outline":false}},{"type":"Feature","geometry":{"type":"MultiPolygon","coordinates":[[[[-0.728,-0.261],[-0.728,-0.282],[-0.742,-0.289],[-0.826,-0.472],[-1.015,-0.676],[-1.254,-0.844],[-1.555,-0.999],[-1.59,-0.964],[-1.646,-0.964],[-1.78,-1.013],[-1.808,-0.64],[-1.899,-0.338],[-1.927,-0.176],[-1.464,-0.134],[-1.191,-0.141],[-0.868,-0.197],[-0.728,-0.261]]],[[[1.972,-0.31],[1.929,-0.5],[1.908,-0.739],[1.936,-1.133],[1.88,-1.119],[1.761,-1.119],[1.726,-1.133],[1.691,-1.097],[1.642,-1.076],[1.628,-1.055],[1.375,-0.894],[1.067,-0.647],[0.829,-0.387],[0.794,-0.338],[0.745,-0.218],[0.822,-0.169],[0.955,-0.134],[1.263,-0.141],[1.432,-0.176],[1.803,-0.289],[1.972,-0.31]]]]},"properties":{"abbr":"RSD","name":"retrosplenial dysgranular cortex","plate":36,"ap_bregma_mm":-4.45,"area_mm2":1.4422,"traced_fraction":[1.0,1.0],"n_labels":2,"no_drawn_outline":false}},{"type":"Feature","geometry":{"type":"MultiPolygon","coordinates":[[[[-1.731,-1.224],[-1.668,-1.28],[-1.562,-1.421],[-1.506,-1.527],[-1.464,-1.66],[-1.892,-1.794],[-2.144,-1.92],[-2.277,-2.012],[-2.291,-2.005],[-2.298,-1.956],[-2.284,-1.871],[-2.242,-1.766],[-2.235,-1.674],[-2.2,-1.618],[-2.102,-1.477],[-2.025,-1.4],[-1.787,-1.238],[-1.731,-1.224]]],[[[1.789,-1.316],[1.817,-1.323],[1.873,-1.379],[1.985,-1.449],[2.133,-1.604],[2.196,-1.709],[2.224,-1.731],[2.224,-1.745],[2.308,-1.815],[2.434,-1.85],[2.427,-1.871],[2.35,-1.935],[2.231,-1.984],[2.196,-1.991],[2.154,-2.061],[2.14,-2.061],[2.056,-2.005],[2.035,-2.005],[1.964,-1.956],[1.943,-1.956],[1.922,-1.935],[1.691,-1.829],[1.684,-1.815],[1.467,-1.731],[1.446,-1.738],[1.446,-1.723],[1.362,-1.702],[1.362,-1.695],[1.418,-1.555],[1.502,-1.463],[1.607,-1.4],[1.719,-1.365],[1.789,-1.316]]]]},"properties":{"abbr":"RSGa","name":"retrosplenial granular cortex, a region","plate":36,"ap_bregma_mm":-4.45,"area_mm2":0.6987,"traced_fraction":[1.0,1.0],"n_labels":2,"no_drawn_outline":false}},{"type":"Feature","geometry":{"type":"MultiPolygon","coordinates":[[[[0.745,-0.218],[0.745,-0.239],[0.829,-0.387],[1.067,-0.647],[1.375,-0.894],[1.628,-1.055],[1.642,-1.076],[1.691,-1.097],[1.726,-1.133],[1.712,-1.154],[1.712,-1.231],[1.789,-1.316],[1.719,-1.365],[1.607,-1.4],[1.502,-1.463],[1.418,-1.555],[1.362,-1.695],[1.354,-1.695],[0.976,-1.576],[0.688,-1.52],[0.52,-1.463],[0.373,-1.351],[0.31,-1.231],[0.275,-1.097],[0.275,-0.943],[0.31,-0.767],[0.359,-0.64],[0.506,-0.401],[0.653,-0.261],[0.745,-0.218]]],[[[-0.728,-0.261],[-0.693,-0.268],[-0.574,-0.338],[-0.426,-0.479],[-0.307,-0.654],[-0.188,-0.915],[-0.174,-1.034],[-0.349,-1.379],[-0.384,-1.407],[-0.398,-1.442],[-0.441,-1.47],[-1.085,-1.569],[-1.464,-1.66],[-1.506,-1.527],[-1.562,-1.421],[-1.625,-1.33],[-1.731,-1.224],[-1.731,-1.21],[-1.646,-1.161],[-1.569,-1.09],[-1.555,-0.999],[-1.254,-0.844],[-1.015,-0.676],[-0.826,-0.472],[-0.742,-0.289],[-0.728,-0.282],[-0.728,-0.261]]],[[[1.354,-1.695],[1.362,-1.695],[1.362,-1.702],[1.354,-1.695]]]]},"properties":{"abbr":"RSGb","name":"retrosplenial granular cortex, b region","plate":36,"ap_bregma_mm":-4.45,"area_mm2":2.4584,"traced_fraction":[1.0,1.0,1.0],"n_labels":4,"no_drawn_outline":false}},{"type":"Feature","geometry":{"type":"MultiPolygon","coordinates":[[[[5.393,-3.784],[5.463,-3.911],[5.47,-3.974],[5.498,-4.009],[5.505,-4.08],[5.526,-4.143],[5.54,-4.15],[5.561,-4.241],[5.582,-4.466],[5.54,-4.635],[5.54,-4.692],[5.4,-5.156],[5.288,-5.367],[5.057,-5.69],[4.923,-5.824],[4.818,-5.894],[4.643,-5.979],[4.503,-6.014],[4.397,-6.098],[4.376,-6.063],[4.369,-5.887],[4.454,-5.845],[4.545,-5.831],[4.636,-5.796],[4.811,-5.69],[4.916,-5.585],[4.916,-5.571],[4.965,-5.528],[5.064,-5.402],[5.148,-5.275],[5.211,-5.149],[5.295,-4.867],[5.323,-4.642],[5.316,-4.396],[5.246,-4.03],[5.176,-3.869],[5.134,-3.812],[5.134,-3.791],[5.393,-3.784]]],[[[-5.334,-4.762],[-5.313,-4.783],[-5.327,-5.163],[-5.271,-5.17],[-5.222,-5.31],[-5.131,-5.465],[-5.026,-5.578],[-4.956,-5.62],[-4.795,-5.761],[-4.703,-5.81],[-4.584,-5.845],[-4.577,-5.88],[-4.584,-5.908],[-4.612,-5.929],[-4.619,-6.0],[-4.753,-5.951],[-4.963,-5.824],[-5.033,-5.768],[-5.096,-5.74],[-5.341,-5.507],[-5.383,-5.444],[-5.412,-5.36],[-5.482,-5.226],[-5.559,-5.015],[-5.587,-4.917],[-5.594,-4.769],[-5.334,-4.762]]]]},"properties":{"abbr":"Rad","name":"radiatum layer of the hippocampus","plate":36,"ap_bregma_mm":-4.45,"area_mm2":0.8417,"traced_fraction":[0.964,0.863],"n_labels":2,"no_drawn_outline":false}},{"type":"Feature","geometry":{"type":"MultiPolygon","coordinates":[[[[3.142,-3.89],[3.128,-4.009],[3.086,-4.157],[3.086,-4.312],[3.072,-4.326],[3.037,-4.326],[2.953,-4.361],[2.701,-4.551],[2.532,-4.727],[2.469,-4.825],[2.462,-4.86],[2.448,-4.86],[2.434,-4.896],[2.378,-4.945],[2.329,-4.853],[2.315,-4.53],[2.364,-4.375],[2.42,-4.262],[2.476,-4.192],[2.49,-4.143],[2.553,-4.066],[2.687,-3.897],[2.743,-3.89],[3.142,-3.89]]],[[[-2.754,-4.023],[-2.74,-4.03],[-2.656,-4.073],[-2.551,-4.185],[-2.474,-4.424],[-2.488,-4.677],[-2.53,-4.663],[-2.607,-4.593],[-2.698,-4.502],[-2.831,-4.438],[-3.035,-4.382],[-3.154,-4.389],[-3.147,-4.326],[-3.098,-4.22],[-3.098,-4.101],[-2.88,-4.023],[-2.754,-4.023]]]]},"properties":{"abbr":"SG","name":"suprageniculate thalamic nucleus","plate":36,"ap_bregma_mm":-4.45,"area_mm2":0.6978,"traced_fraction":[1.0,1.0],"n_labels":2,"no_drawn_outline":false}},{"type":"Feature","geometry":{"type":"MultiPolygon","coordinates":[[[[-2.348,-5.718],[-2.242,-5.718],[-2.165,-5.74],[-2.039,-5.803],[-1.941,-5.88],[-1.892,-5.894],[-1.85,-5.965],[-1.646,-6.161],[-1.646,-6.176],[-1.492,-6.344],[-1.254,-6.675],[-1.191,-6.724],[-1.092,-6.837],[-1.142,-6.83],[-1.345,-6.703],[-1.71,-6.351],[-1.878,-6.239],[-1.92,-6.225],[-1.99,-6.225],[-2.025,-6.239],[-2.172,-6.415],[-2.256,-6.415],[-2.34,-6.372],[-2.418,-6.281],[-2.467,-6.176],[-2.488,-6.077],[-2.474,-5.951],[-2.453,-5.901],[-2.369,-5.789],[-2.348,-5.718]]],[[[2.406,-5.718],[2.462,-5.732],[2.462,-5.753],[2.518,-5.852],[2.518,-5.929],[2.483,-6.007],[2.504,-6.232],[2.49,-6.295],[2.462,-6.337],[2.329,-6.337],[2.049,-6.274],[1.929,-6.295],[1.866,-6.323],[1.733,-6.415],[1.333,-6.78],[1.242,-6.823],[1.165,-6.823],[1.137,-6.795],[1.347,-6.598],[1.362,-6.598],[1.607,-6.323],[1.698,-6.267],[1.81,-6.161],[1.951,-5.957],[2.0,-5.908],[2.252,-5.732],[2.294,-5.718],[2.406,-5.718]]]]},"properties":{"abbr":"SNC","name":"substantia nigra, compact part","plate":36,"ap_bregma_mm":-4.45,"area_mm2":0.8867,"traced_fraction":[1.0,1.0],"n_labels":2,"no_drawn_outline":false}},{"type":"Feature","geometry":{"type":"MultiPolygon","coordinates":[[[[-2.348,-5.718],[-2.369,-5.789],[-2.453,-5.901],[-2.474,-5.951],[-2.488,-6.077],[-2.453,-6.211],[-2.404,-6.302],[-2.34,-6.372],[-2.256,-6.415],[-2.172,-6.415],[-2.025,-6.239],[-1.99,-6.225],[-1.878,-6.239],[-1.71,-6.351],[-1.345,-6.703],[-1.142,-6.83],[-1.149,-7.104],[-1.401,-7.097],[-1.653,-7.027],[-1.927,-6.893],[-2.165,-6.731],[-2.376,-6.541],[-2.509,-6.372],[-2.621,-6.155],[-2.67,-6.014],[-2.67,-5.957],[-2.516,-5.782],[-2.418,-5.725],[-2.348,-5.718]]],[[[2.764,-5.915],[2.687,-6.232],[2.61,-6.408],[2.469,-6.612],[2.28,-6.808],[2.063,-6.9],[1.642,-6.998],[1.375,-7.006],[1.074,-6.942],[0.962,-6.893],[0.983,-6.865],[1.137,-6.795],[1.165,-6.823],[1.242,-6.823],[1.333,-6.78],[1.733,-6.415],[1.866,-6.323],[1.929,-6.295],[2.049,-6.274],[2.329,-6.337],[2.462,-6.337],[2.49,-6.295],[2.504,-6.232],[2.483,-6.007],[2.518,-5.929],[2.518,-5.852],[2.462,-5.753],[2.462,-5.732],[2.532,-5.725],[2.595,-5.753],[2.694,-5.845],[2.743,-5.915],[2.764,-5.915]]]]},"properties":{"abbr":"SNR","name":"substantia nigra, reticular part","plate":36,"ap_bregma_mm":-4.45,"area_mm2":1.4441,"traced_fraction":[0.952,1.0],"n_labels":2,"no_drawn_outline":false}},{"type":"Feature","geometry":{"type":"MultiPolygon","coordinates":[[[[0.555,-4.593],[0.45,-4.692],[0.387,-4.832],[0.198,-4.825],[0.106,-4.874],[0.071,-4.846],[0.043,-4.755],[0.078,-4.734],[0.12,-4.649],[0.163,-4.614],[0.177,-4.572],[0.191,-4.572],[0.226,-4.586],[0.31,-4.544],[0.415,-4.544],[0.52,-4.565],[0.555,-4.593]]],[[[-0.062,-4.685],[-0.062,-4.698],[-0.027,-4.727],[-0.027,-4.783],[-0.069,-4.86],[-0.09,-4.86],[-0.146,-4.818],[-0.3,-4.825],[-0.363,-4.853],[-0.412,-4.734],[-0.454,-4.663],[-0.49,-4.635],[-0.49,-4.614],[-0.483,-4.6],[-0.405,-4.579],[-0.258,-4.579],[-0.167,-4.614],[-0.111,-4.663],[-0.062,-4.685]]]]},"properties":{"abbr":"Su3","name":"supraoculomotor periaqueductal gray","plate":36,"ap_bregma_mm":-4.45,"area_mm2":0.1881,"traced_fraction":[1.0,1.0],"n_labels":2,"no_drawn_outline":false}},{"type":"Feature","geometry":{"type":"MultiPolygon","coordinates":[[[[0.815,-4.417],[0.674,-4.53],[0.555,-4.593],[0.52,-4.565],[0.415,-4.544],[0.31,-4.544],[0.226,-4.586],[0.191,-4.572],[0.233,-4.516],[0.296,-4.473],[0.429,-4.403],[0.541,-4.368],[0.703,-4.354],[0.773,-4.382],[0.815,-4.417]]],[[[-0.062,-4.685],[-0.09,-4.677],[-0.167,-4.614],[-0.258,-4.579],[-0.405,-4.579],[-0.483,-4.6],[-0.49,-4.614],[-0.567,-4.579],[-0.672,-4.488],[-0.637,-4.445],[-0.574,-4.417],[-0.398,-4.417],[-0.314,-4.431],[-0.202,-4.481],[-0.111,-4.572],[-0.062,-4.656],[-0.062,-4.685]]]]},"properties":{"abbr":"Su3C","name":"supraoculomotor cap","plate":36,"ap_bregma_mm":-4.45,"area_mm2":0.1591,"traced_fraction":[0.985,1.0],"n_labels":2,"no_drawn_outline":false}},{"type":"Feature","geometry":{"type":"MultiPolygon","coordinates":[[[[-0.146,-2.842],[-0.209,-2.8],[-0.251,-2.701],[-0.279,-2.462],[-0.279,-2.314],[-0.3,-2.223],[-0.342,-2.145],[-0.412,-2.075],[-0.475,-2.04],[-0.602,-2.012],[-0.805,-2.019],[-1.085,-2.061],[-1.247,-2.103],[-1.59,-2.23],[-2.004,-2.448],[-2.186,-2.582],[-2.319,-2.708],[-2.425,-2.856],[-2.558,-3.109],[-2.586,-3.271],[-2.621,-3.334],[-2.663,-3.369],[-2.684,-3.355],[-2.712,-3.271],[-2.705,-3.123],[-2.663,-2.919],[-2.6,-2.757],[-2.544,-2.659],[-2.446,-2.532],[-2.383,-2.476],[-2.383,-2.462],[-2.369,-2.462],[-2.102,-2.209],[-1.85,-2.054],[-1.569,-1.927],[-1.113,-1.787],[-0.805,-1.745],[-0.525,-1.752],[-0.363,-1.794],[-0.286,-1.836],[-0.23,-1.885],[-0.188,-1.941],[-0.146,-2.047],[-0.146,-2.842]]],[[[2.631,-3.313],[2.574,-3.243],[2.518,-3.046],[2.455,-2.912],[2.308,-2.75],[2.294,-2.75],[2.231,-2.68],[2.084,-2.567],[2.056,-2.56],[2.021,-2.525],[1.972,-2.504],[1.957,-2.483],[1.782,-2.371],[1.439,-2.188],[1.186,-2.103],[0.829,-2.026],[0.625,-2.005],[0.415,-2.012],[0.324,-2.04],[0.247,-2.11],[0.177,-2.328],[0.184,-2.617],[0.163,-2.729],[0.127,-2.814],[0.092,-2.842],[0.043,-2.856],[0.029,-2.849],[0.029,-2.138],[0.071,-2.012],[0.156,-1.885],[0.289,-1.794],[0.45,-1.752],[0.674,-1.745],[0.695,-1.759],[0.969,-1.78],[1.165,-1.836],[1.712,-2.04],[1.915,-2.145],[2.07,-2.244],[2.266,-2.399],[2.329,-2.469],[2.343,-2.469],[2.343,-2.483],[2.406,-2.539],[2.525,-2.694],[2.652,-2.926],[2.694,-3.067],[2.708,-3.179],[2.68,-3.264],[2.631,-3.313]]]]},"properties":{"abbr":"SuG","name":"superficial gray layer of the superior colliculus","plate":36,"ap_bregma_mm":-4.45,"area_mm2":1.7125,"traced_fraction":[1.0,1.0],"n_labels":2,"no_drawn_outline":false}},{"type":"Feature","geometry":{"type":"MultiPolygon","coordinates":[[[[-2.6,-5.05],[-2.565,-5.085],[-2.565,-5.458],[-2.768,-5.662],[-2.852,-5.655],[-2.922,-5.704],[-2.965,-5.711],[-2.979,-5.613],[-3.028,-5.451],[-3.098,-5.339],[-3.133,-5.275],[-3.203,-5.205],[-3.259,-5.142],[-2.859,-5.135],[-2.691,-5.1],[-2.6,-5.05]]],[[[2.469,-5.092],[2.546,-5.163],[2.581,-5.17],[2.617,-5.219],[2.729,-5.282],[3.072,-5.325],[3.128,-5.346],[3.079,-5.423],[3.079,-5.564],[3.023,-5.718],[3.016,-5.711],[2.953,-5.676],[2.883,-5.676],[2.827,-5.74],[2.764,-5.915],[2.743,-5.915],[2.694,-5.845],[2.595,-5.753],[2.532,-5.725],[2.462,-5.732],[2.406,-5.718],[2.406,-5.149],[2.469,-5.092]]]]},"properties":{"abbr":"SubB","name":"subbrachial nucleus","plate":36,"ap_bregma_mm":-4.45,"area_mm2":0.6041,"traced_fraction":[0.728,0.77],"n_labels":2,"no_drawn_outline":false}},{"type":"Feature","geometry":{"type":"MultiPolygon","coordinates":[[[[-4.269,-0.971],[-4.255,-1.027],[-4.198,-1.126],[-4.192,-1.168],[-4.156,-1.224],[-4.065,-1.456],[-3.813,-1.963],[-3.855,-1.998],[-4.086,-2.103],[-4.423,-2.335],[-4.563,-2.413],[-4.837,-2.413],[-4.83,-2.61],[-4.879,-2.652],[-4.907,-2.652],[-5.005,-2.553],[-5.005,-2.539],[-5.229,-2.314],[-5.229,-2.3],[-5.313,-2.223],[-5.313,-2.209],[-5.468,-2.054],[-5.468,-2.04],[-5.629,-1.885],[-5.629,-1.871],[-5.341,-1.625],[-5.054,-1.442],[-5.033,-1.414],[-4.738,-1.217],[-4.269,-0.971]]],[[[4.958,-1.259],[5.12,-1.344],[5.225,-1.421],[5.232,-1.442],[5.365,-1.534],[5.414,-1.59],[5.428,-1.59],[5.47,-1.639],[5.484,-1.639],[5.526,-1.688],[5.653,-1.787],[5.765,-1.906],[5.737,-1.927],[5.716,-1.97],[5.015,-2.666],[4.993,-2.666],[4.965,-2.631],[4.769,-2.476],[4.734,-2.462],[4.713,-2.434],[4.587,-2.363],[4.404,-2.23],[4.615,-1.857],[4.762,-1.632],[4.958,-1.259]]]]},"properties":{"abbr":"V1B","name":"primary visual cortex, binocular area","plate":36,"ap_bregma_mm":-4.45,"area_mm2":2.5566,"traced_fraction":[0.916,1.0],"n_labels":2,"no_drawn_outline":false}},{"type":"Feature","geometry":{"type":"MultiPolygon","coordinates":[[[[-2.586,-0.324],[-2.439,-0.865],[-2.39,-1.316],[-2.404,-1.337],[-2.425,-1.337],[-2.509,-1.386],[-2.712,-1.456],[-2.796,-1.505],[-3.182,-1.66],[-3.189,-1.674],[-3.21,-1.674],[-3.483,-1.815],[-3.532,-1.829],[-3.785,-1.963],[-3.813,-1.963],[-4.065,-1.456],[-4.156,-1.224],[-4.192,-1.168],[-4.198,-1.126],[-4.255,-1.027],[-4.269,-0.971],[-3.967,-0.816],[-3.582,-0.647],[-3.238,-0.521],[-2.586,-0.324]]],[[[2.75,-0.429],[2.953,-0.457],[3.093,-0.493],[3.521,-0.605],[3.858,-0.718],[4.327,-0.908],[4.692,-1.09],[4.958,-1.259],[4.762,-1.632],[4.678,-1.752],[4.404,-2.23],[4.222,-2.138],[4.103,-2.054],[3.788,-1.899],[3.535,-1.808],[3.283,-1.688],[2.827,-1.541],[2.623,-1.449],[2.644,-1.252],[2.652,-0.985],[2.75,-0.429]]]]},"properties":{"abbr":"V1M","name":"primary visual cortex, monocular area","plate":36,"ap_bregma_mm":-4.45,"area_mm2":4.2535,"traced_fraction":[1.0,1.0],"n_labels":2,"no_drawn_outline":false}},{"type":"Feature","geometry":{"type":"MultiPolygon","coordinates":[[[[-5.629,-1.871],[-5.629,-1.885],[-5.468,-2.04],[-5.468,-2.054],[-5.005,-2.539],[-5.005,-2.553],[-4.907,-2.652],[-4.879,-2.652],[-4.935,-2.722],[-5.096,-2.849],[-5.243,-2.996],[-5.243,-3.011],[-5.341,-3.102],[-5.341,-3.116],[-5.482,-3.264],[-5.671,-3.13],[-6.064,-2.792],[-6.316,-2.61],[-6.316,-2.596],[-6.239,-2.483],[-5.972,-2.202],[-5.972,-2.188],[-5.776,-2.005],[-5.769,-2.012],[-5.741,-1.984],[-5.748,-1.977],[-5.629,-1.871]]],[[[5.765,-1.906],[6.094,-2.23],[6.094,-2.244],[6.318,-2.497],[6.185,-2.631],[6.031,-2.75],[5.828,-2.94],[5.786,-2.961],[5.624,-3.109],[5.526,-3.179],[5.512,-3.179],[5.512,-3.165],[5.477,-3.137],[5.421,-3.053],[5.337,-2.975],[5.337,-2.961],[5.316,-2.954],[5.134,-2.778],[5.12,-2.778],[5.07,-2.722],[5.057,-2.722],[5.015,-2.666],[5.716,-1.97],[5.737,-1.927],[5.765,-1.906]]]]},"properties":{"abbr":"V2L","name":"secondary visual cortex, lateral area","plate":36,"ap_bregma_mm":-4.45,"area_mm2":1.8177,"traced_fraction":[1.0,1.0],"n_labels":2,"no_drawn_outline":false}},{"type":"Feature","geometry":{"type":"MultiPolygon","coordinates":[[[[-1.927,-0.176],[-1.899,-0.338],[-1.808,-0.64],[-1.78,-1.013],[-2.242,-1.266],[-2.361,-1.316],[-2.39,-1.316],[-2.439,-0.865],[-2.586,-0.324],[-2.312,-0.246],[-1.927,-0.176]]],[[[1.972,-0.31],[2.399,-0.359],[2.75,-0.429],[2.652,-0.985],[2.644,-1.252],[2.623,-1.449],[2.315,-1.344],[1.936,-1.133],[1.908,-0.739],[1.929,-0.5],[1.972,-0.31]]]]},"properties":{"abbr":"V2M","name":"secondary visual cortex, medial area","plate":36,"ap_bregma_mm":-4.45,"area_mm2":1.345,"traced_fraction":[1.0,1.0],"n_labels":2,"no_drawn_outline":false}},{"type":"Feature","geometry":{"type":"MultiPolygon","coordinates":[[[[5.73,-4.685],[5.87,-4.692],[5.807,-5.064],[5.666,-5.543],[5.589,-5.718],[5.561,-5.753],[5.533,-5.838],[5.519,-5.845],[5.477,-5.951],[5.414,-6.035],[5.407,-6.063],[5.288,-6.19],[4.986,-6.351],[4.832,-6.38],[4.727,-6.415],[4.503,-6.429],[4.411,-6.267],[4.397,-6.098],[4.503,-6.014],[4.643,-5.979],[4.818,-5.894],[4.923,-5.824],[5.057,-5.69],[5.288,-5.367],[5.4,-5.156],[5.54,-4.692],[5.603,-4.677],[5.73,-4.685]]],[[[-5.559,-5.015],[-5.482,-5.226],[-5.412,-5.36],[-5.391,-5.43],[-5.341,-5.507],[-5.096,-5.74],[-5.033,-5.768],[-4.963,-5.824],[-4.753,-5.951],[-4.619,-6.0],[-4.612,-6.014],[-4.339,-6.147],[-4.269,-6.168],[-4.114,-6.253],[-4.086,-6.253],[-4.086,-6.295],[-4.241,-6.401],[-4.304,-6.422],[-4.584,-6.429],[-4.612,-6.443],[-4.795,-6.464],[-4.984,-6.457],[-5.068,-6.422],[-5.138,-6.365],[-5.145,-6.344],[-5.145,-6.288],[-5.397,-6.119],[-5.517,-6.0],[-5.531,-5.965],[-5.552,-5.957],[-5.552,-5.943],[-5.601,-5.901],[-5.65,-5.824],[-5.811,-5.444],[-5.881,-5.163],[-5.888,-5.05],[-5.762,-5.022],[-5.559,-5.015]]]]},"properties":{"abbr":"VS","name":"ventral subiculum","plate":36,"ap_bregma_mm":-4.45,"area_mm2":1.8709,"traced_fraction":[1.0,1.0],"n_labels":2,"no_drawn_outline":false}},{"type":"Feature","geometry":{"type":"MultiPolygon","coordinates":[[[[1.404,-1.822],[1.6,-1.899],[1.628,-1.899],[1.684,-1.935],[1.88,-2.012],[2.084,-2.131],[2.287,-2.279],[2.301,-2.307],[2.413,-2.392],[2.413,-2.406],[2.462,-2.448],[2.483,-2.49],[2.504,-2.497],[2.602,-2.624],[2.638,-2.694],[2.652,-2.694],[2.729,-2.835],[2.778,-2.968],[2.785,-3.025],[2.799,-3.025],[2.792,-3.264],[2.75,-3.348],[2.694,-3.397],[2.694,-3.411],[2.673,-3.418],[2.631,-3.433],[2.602,-3.426],[2.602,-3.369],[2.631,-3.334],[2.631,-3.313],[2.68,-3.264],[2.708,-3.179],[2.694,-3.067],[2.652,-2.926],[2.525,-2.694],[2.406,-2.539],[2.343,-2.483],[2.343,-2.469],[2.329,-2.469],[2.266,-2.399],[2.07,-2.244],[1.81,-2.089],[1.523,-1.963],[0.969,-1.78],[0.695,-1.759],[0.674,-1.745],[0.45,-1.752],[0.289,-1.794],[0.156,-1.885],[0.085,-1.984],[0.029,-2.138],[0.029,-2.849],[0.043,-2.856],[0.029,-2.884],[-0.034,-2.87],[-0.125,-2.884],[-0.125,-2.863],[-0.146,-2.842],[-0.146,-2.047],[-0.188,-1.941],[-0.23,-1.885],[-0.286,-1.836],[-0.363,-1.794],[-0.525,-1.752],[-0.805,-1.745],[-1.113,-1.787],[-1.569,-1.927],[-1.85,-2.054],[-2.102,-2.209],[-2.369,-2.462],[-2.383,-2.462],[-2.383,-2.476],[-2.446,-2.532],[-2.544,-2.659],[-2.6,-2.757],[-2.663,-2.919],[-2.698,-3.074],[-2.712,-3.236],[-2.698,-3.327],[-2.663,-3.369],[-2.663,-3.39],[-2.628,-3.426],[-2.6,-3.496],[-2.614,-3.517],[-2.684,-3.538],[-2.698,-3.517],[-2.691,-3.51],[-2.705,-3.496],[-2.712,-3.503],[-2.803,-3.433],[-2.824,-3.348],[-2.817,-3.067],[-2.754,-2.8],[-2.677,-2.645],[-2.509,-2.427],[-2.214,-2.167],[-2.095,-2.103],[-2.074,-2.075],[-2.011,-2.047],[-1.983,-2.019],[-1.681,-1.871],[-1.443,-1.787],[-1.1,-1.702],[-0.84,-1.667],[-0.539,-1.674],[-0.328,-1.723],[-0.216,-1.78],[-0.132,-1.864],[-0.104,-1.927],[-0.09,-1.927],[-0.09,-1.97],[-0.069,-2.019],[-0.034,-2.005],[0.001,-1.956],[0.001,-1.935],[0.071,-1.829],[0.099,-1.815],[0.135,-1.766],[0.184,-1.738],[0.247,-1.709],[0.485,-1.66],[0.737,-1.66],[0.955,-1.688],[1.404,-1.822]]]]},"properties":{"abbr":"Zo","name":"zonal layer of the superior colliculus","plate":36,"ap_bregma_mm":-4.45,"area_mm2":0.9057,"traced_fraction":[1.0],"n_labels":2,"no_drawn_outline":false}},{"type":"Feature","geometry":{"type":"MultiPolygon","coordinates":[[[[-3.483,-1.815],[-3.469,-1.892],[-4.135,-2.244],[-4.598,-2.546],[-4.703,-2.638],[-4.675,-2.701],[-4.654,-2.708],[-4.689,-2.743],[-4.759,-2.786],[-4.802,-2.736],[-4.83,-2.736],[-4.991,-2.891],[-5.005,-2.891],[-5.271,-3.172],[-5.271,-3.186],[-5.285,-3.186],[-5.573,-3.587],[-5.587,-3.63],[-5.748,-3.869],[-5.748,-3.89],[-5.783,-3.932],[-5.783,-3.953],[-5.797,-3.96],[-5.881,-4.136],[-5.965,-4.389],[-6.001,-4.656],[-5.993,-4.867],[-5.916,-5.296],[-5.797,-5.655],[-5.699,-5.88],[-5.608,-6.028],[-5.503,-6.147],[-5.313,-6.281],[-5.145,-6.344],[-5.138,-6.365],[-5.159,-6.38],[-5.25,-6.38],[-5.454,-6.309],[-5.496,-6.281],[-5.678,-6.098],[-5.685,-6.077],[-5.706,-6.07],[-5.755,-6.007],[-5.804,-5.908],[-5.909,-5.571],[-5.944,-5.5],[-6.057,-5.043],[-6.092,-4.635],[-6.064,-4.438],[-6.014,-4.262],[-5.916,-3.988],[-5.86,-3.904],[-5.832,-3.826],[-5.755,-3.714],[-5.664,-3.538],[-5.559,-3.404],[-5.482,-3.264],[-5.341,-3.116],[-5.341,-3.102],[-5.243,-3.011],[-5.243,-2.996],[-5.096,-2.849],[-4.935,-2.722],[-4.879,-2.652],[-4.83,-2.61],[-4.605,-2.455],[-4.563,-2.413],[-4.423,-2.335],[-4.086,-2.103],[-3.855,-1.998],[-3.813,-1.963],[-3.785,-1.963],[-3.532,-1.829],[-3.483,-1.815]]],[[[4.762,-2.631],[4.825,-2.666],[4.839,-2.694],[4.818,-2.694],[4.79,-2.722],[4.79,-2.743],[4.902,-2.842],[4.937,-2.856],[5.07,-2.961],[5.148,-3.039],[5.197,-3.116],[5.26,-3.172],[5.365,-3.313],[5.379,-3.313],[5.435,-3.404],[5.316,-3.418],[5.232,-3.306],[5.092,-3.172],[5.085,-3.151],[4.881,-2.99],[4.72,-2.828],[4.657,-2.8],[4.636,-2.701],[4.643,-2.645],[4.664,-2.645],[4.699,-2.673],[4.727,-2.673],[4.762,-2.631]]]]},"properties":{"abbr":"alv","name":"alveus of the hippocampus","plate":36,"ap_bregma_mm":-4.45,"area_mm2":0.6882,"traced_fraction":[0.995,0.971],"n_labels":2,"no_drawn_outline":false}},{"type":"Feature","geometry":{"type":"MultiPolygon","coordinates":[[[[-2.607,-4.593],[-2.53,-4.663],[-2.488,-4.677],[-2.495,-4.818],[-2.516,-4.924],[-2.544,-4.987],[-2.579,-5.015],[-2.747,-4.945],[-2.747,-4.769],[-2.684,-4.769],[-2.684,-4.656],[-2.621,-4.593],[-2.607,-4.593]]],[[[2.462,-4.86],[2.729,-4.86],[2.736,-5.029],[2.659,-5.085],[2.581,-5.17],[2.546,-5.163],[2.469,-5.092],[2.413,-5.022],[2.378,-4.945],[2.434,-4.896],[2.448,-4.86],[2.462,-4.86]]]]},"properties":{"abbr":"bic","name":"brachium of the inferior colliculus","plate":36,"ap_bregma_mm":-4.45,"area_mm2":0.1557,"traced_fraction":[0.656,0.628],"n_labels":2,"no_drawn_outline":true}},{"type":"Feature","geometry":{"type":"MultiPolygon","coordinates":[[[[-2.768,-5.662],[-2.733,-5.732],[-2.705,-5.894],[-2.684,-5.957],[-2.67,-5.957],[-2.677,-5.986],[-2.621,-6.155],[-2.509,-6.372],[-2.376,-6.541],[-2.165,-6.731],[-1.927,-6.893],[-1.653,-7.027],[-1.401,-7.097],[-1.149,-7.104],[-0.784,-7.012],[-0.735,-7.02],[-0.728,-7.027],[-0.7,-7.062],[-0.819,-7.195],[-0.854,-7.209],[-0.952,-7.294],[-1.008,-7.322],[-1.142,-7.35],[-1.317,-7.35],[-1.415,-7.329],[-1.681,-7.223],[-1.745,-7.174],[-1.969,-7.048],[-2.06,-6.977],[-2.067,-6.956],[-2.144,-6.907],[-2.432,-6.626],[-2.53,-6.492],[-2.565,-6.471],[-2.593,-6.422],[-2.684,-6.323],[-2.866,-6.042],[-2.937,-5.894],[-2.965,-5.711],[-2.922,-5.704],[-2.852,-5.655],[-2.768,-5.662]]],[[[3.016,-5.711],[3.023,-5.718],[2.918,-5.972],[2.792,-6.38],[2.729,-6.506],[2.631,-6.633],[2.595,-6.654],[2.56,-6.71],[2.392,-6.879],[2.343,-6.914],[2.126,-7.012],[2.112,-7.02],[2.098,-7.027],[1.859,-7.146],[1.628,-7.231],[1.53,-7.252],[1.291,-7.245],[1.039,-7.174],[1.039,-7.048],[1.067,-7.048],[1.074,-6.942],[1.375,-7.006],[1.642,-6.998],[2.063,-6.9],[2.28,-6.808],[2.469,-6.612],[2.61,-6.408],[2.687,-6.232],[2.764,-5.915],[2.806,-5.782],[2.841,-5.718],[2.883,-5.676],[2.953,-5.676],[3.016,-5.711]]]]},"properties":{"abbr":"cp","name":"cerebral peduncle","plate":36,"ap_bregma_mm":-4.45,"area_mm2":0.9622,"traced_fraction":[1.0,0.962],"n_labels":2,"no_drawn_outline":false}},{"type":"Feature","geometry":{"type":"MultiPolygon","coordinates":[[[[0.773,-3.299],[0.758,-3.411],[0.66,-3.369],[0.569,-3.355],[0.394,-3.376],[0.373,-3.39],[-0.405,-3.39],[-0.665,-3.376],[-0.77,-3.404],[-0.868,-3.496],[-0.938,-3.615],[-1.092,-3.608],[-1.036,-3.461],[-0.966,-3.362],[-0.875,-3.285],[-0.714,-3.229],[-0.441,-3.215],[-0.384,-3.2],[0.127,-3.186],[0.429,-3.215],[0.583,-3.215],[0.709,-3.257],[0.773,-3.299]]]]},"properties":{"abbr":"csc","name":"commissure of the superior colliculus","plate":36,"ap_bregma_mm":-4.45,"area_mm2":0.3286,"traced_fraction":[0.965],"n_labels":1,"no_drawn_outline":false}},{"type":"Feature","geometry":{"type":"MultiPolygon","coordinates":[[[[2.827,-1.541],[3.283,-1.688],[3.535,-1.808],[3.788,-1.899],[4.103,-2.054],[4.222,-2.138],[4.404,-2.23],[4.587,-2.363],[4.713,-2.434],[4.734,-2.462],[4.769,-2.476],[4.965,-2.631],[4.993,-2.666],[5.015,-2.666],[5.057,-2.722],[5.07,-2.722],[5.316,-2.954],[5.33,-2.954],[5.337,-2.975],[5.421,-3.053],[5.512,-3.179],[5.526,-3.179],[5.526,-3.2],[5.596,-3.285],[5.849,-3.672],[5.849,-3.7],[5.919,-3.833],[5.989,-4.037],[6.003,-4.15],[6.045,-4.305],[6.045,-4.537],[6.024,-4.579],[5.982,-4.797],[5.975,-4.888],[5.954,-4.952],[5.954,-5.029],[5.933,-5.064],[5.898,-5.212],[5.842,-5.367],[5.828,-5.458],[5.758,-5.662],[5.723,-5.725],[5.659,-5.929],[5.561,-6.119],[5.435,-6.26],[5.218,-6.387],[5.106,-6.401],[5.092,-6.387],[5.092,-6.358],[5.267,-6.274],[5.274,-6.253],[5.33,-6.225],[5.33,-6.211],[5.365,-6.197],[5.435,-6.14],[5.477,-6.084],[5.491,-6.084],[5.533,-6.028],[5.638,-5.796],[5.645,-5.753],[5.659,-5.747],[5.8,-5.325],[5.905,-4.91],[5.94,-4.445],[5.905,-4.15],[5.8,-3.855],[5.779,-3.833],[5.687,-3.63],[5.653,-3.587],[5.653,-3.566],[5.512,-3.383],[5.47,-3.306],[5.253,-3.074],[5.253,-3.06],[5.239,-3.06],[5.211,-3.018],[5.197,-3.018],[5.092,-2.905],[5.078,-2.905],[5.07,-2.884],[5.021,-2.856],[5.015,-2.835],[4.972,-2.814],[4.972,-2.8],[4.839,-2.694],[4.825,-2.666],[4.762,-2.631],[4.734,-2.596],[4.573,-2.483],[4.11,-2.202],[3.661,-1.977],[3.472,-1.906],[3.283,-1.808],[2.932,-1.695],[2.813,-1.639],[2.827,-1.541]]],[[[-4.563,-2.413],[-4.605,-2.455],[-4.83,-2.61],[-4.837,-2.413],[-4.563,-2.413]]]]},"properties":{"abbr":"dcw","name":"deep cerebral white matter","plate":36,"ap_bregma_mm":-4.45,"area_mm2":0.726,"traced_fraction":[0.997,0.486],"n_labels":2,"no_drawn_outline":false}},{"type":"Feature","geometry":{"type":"MultiPolygon","coordinates":[[[[-2.2,-1.618],[-2.235,-1.674],[-2.277,-1.681],[-2.39,-1.745],[-2.586,-1.808],[-2.635,-1.836],[-3.42,-2.089],[-3.813,-2.223],[-4.346,-2.504],[-4.654,-2.708],[-4.675,-2.701],[-4.703,-2.638],[-4.598,-2.546],[-4.135,-2.244],[-3.469,-1.892],[-2.495,-1.463],[-2.404,-1.449],[-2.306,-1.463],[-2.277,-1.491],[-2.263,-1.569],[-2.2,-1.618]]],[[[2.813,-1.639],[2.932,-1.695],[3.283,-1.808],[3.472,-1.906],[3.661,-1.977],[4.11,-2.202],[4.573,-2.483],[4.734,-2.596],[4.762,-2.631],[4.727,-2.673],[4.699,-2.673],[4.678,-2.652],[4.643,-2.645],[4.454,-2.504],[4.432,-2.504],[4.426,-2.49],[4.005,-2.265],[3.682,-2.145],[3.29,-2.061],[3.212,-2.033],[3.086,-2.019],[2.434,-1.85],[2.308,-1.815],[2.273,-1.794],[2.224,-1.731],[2.28,-1.681],[2.294,-1.625],[2.336,-1.583],[2.469,-1.541],[2.553,-1.555],[2.813,-1.639]]]]},"properties":{"abbr":"dhc","name":"dorsal hippocampal commissure","plate":36,"ap_bregma_mm":-4.45,"area_mm2":1.0014,"traced_fraction":[0.993,0.996],"n_labels":2,"no_drawn_outline":false}},{"type":"Feature","geometry":{"type":"MultiPolygon","coordinates":[[[[-0.041,-5.683],[0.099,-5.683],[0.142,-5.873],[-0.097,-5.873],[-0.076,-5.761],[-0.041,-5.683]]]]},"properties":{"abbr":"dtgx","name":"dorsal tegmental decussation","plate":36,"ap_bregma_mm":-4.45,"area_mm2":0.0371,"traced_fraction":[0.69],"n_labels":1,"no_drawn_outline":true}},{"type":"Feature","geometry":{"type":"MultiPolygon","coordinates":[[[[-1.555,-0.999],[-1.569,-1.09],[-1.646,-1.161],[-1.731,-1.21],[-1.731,-1.224],[-1.787,-1.238],[-2.025,-1.4],[-2.102,-1.477],[-2.2,-1.618],[-2.263,-1.569],[-2.277,-1.491],[-2.306,-1.463],[-2.355,-1.449],[-2.495,-1.463],[-3.469,-1.892],[-3.483,-1.815],[-3.21,-1.674],[-3.189,-1.674],[-3.182,-1.66],[-2.796,-1.505],[-2.712,-1.456],[-2.509,-1.386],[-2.425,-1.337],[-2.404,-1.337],[-2.39,-1.316],[-2.361,-1.316],[-2.242,-1.266],[-1.78,-1.013],[-1.646,-0.964],[-1.59,-0.964],[-1.555,-0.999]]],[[[1.936,-1.133],[2.315,-1.344],[2.623,-1.449],[2.827,-1.541],[2.813,-1.639],[2.553,-1.555],[2.469,-1.541],[2.336,-1.583],[2.294,-1.625],[2.28,-1.681],[2.224,-1.731],[2.196,-1.709],[2.133,-1.604],[1.985,-1.449],[1.901,-1.4],[1.817,-1.323],[1.789,-1.316],[1.712,-1.231],[1.712,-1.154],[1.726,-1.133],[1.761,-1.119],[1.88,-1.119],[1.936,-1.133]]]]},"properties":{"abbr":"fmj","name":"forceps major of the corpus callosum","plate":36,"ap_bregma_mm":-4.45,"area_mm2":0.5531,"traced_fraction":[0.992,0.979],"n_labels":2,"no_drawn_outline":false}},{"type":"Feature","geometry":{"type":"MultiPolygon","coordinates":[[[[0.24,-6.506],[0.352,-6.513],[0.436,-6.541],[0.534,-6.619],[0.555,-6.661],[0.562,-6.752],[0.541,-6.752],[0.492,-6.787],[0.478,-6.865],[0.352,-6.795],[0.268,-6.738],[0.24,-6.703],[0.142,-6.647],[0.169,-6.548],[0.24,-6.506]]],[[[-0.167,-6.527],[-0.167,-6.548],[-0.118,-6.598],[-0.097,-6.661],[-0.062,-6.689],[-0.244,-6.823],[-0.426,-6.907],[-0.454,-6.851],[-0.504,-6.808],[-0.483,-6.668],[-0.454,-6.612],[-0.405,-6.562],[-0.356,-6.534],[-0.293,-6.52],[-0.167,-6.527]]]]},"properties":{"abbr":"fr","name":"fasciculus retroflexus","plate":36,"ap_bregma_mm":-4.45,"area_mm2":0.1975,"traced_fraction":[1.0,1.0],"n_labels":2,"no_drawn_outline":false}},{"type":"Feature","geometry":{"type":"MultiPolygon","coordinates":[[[[2.49,-4.143],[2.476,-4.192],[2.42,-4.262],[2.364,-4.375],[2.315,-4.53],[2.329,-4.853],[2.378,-4.945],[2.413,-5.022],[2.469,-5.092],[2.406,-5.149],[2.406,-5.718],[2.294,-5.718],[2.252,-5.732],[2.0,-5.908],[1.972,-5.88],[1.866,-5.845],[1.775,-5.747],[1.761,-5.747],[1.768,-5.571],[1.719,-5.43],[1.544,-5.247],[1.411,-5.156],[1.277,-5.085],[1.144,-5.043],[1.018,-5.043],[0.906,-5.085],[0.871,-5.121],[0.843,-5.177],[0.843,-5.346],[0.555,-5.367],[0.548,-5.388],[0.464,-5.325],[0.541,-5.184],[0.541,-5.057],[0.506,-4.987],[0.457,-4.938],[0.387,-4.902],[0.387,-4.832],[0.45,-4.692],[0.555,-4.593],[0.674,-4.53],[0.815,-4.417],[0.864,-4.368],[0.948,-4.431],[1.06,-4.473],[1.2,-4.502],[1.27,-4.502],[1.368,-4.523],[1.663,-4.523],[1.873,-4.495],[2.077,-4.424],[2.21,-4.347],[2.413,-4.178],[2.49,-4.143]]],[[[-2.551,-4.185],[-2.523,-4.185],[-2.333,-4.368],[-2.172,-4.488],[-1.962,-4.579],[-1.85,-4.586],[-1.646,-4.593],[-1.45,-4.579],[-1.219,-4.565],[-1.071,-4.53],[-0.931,-4.445],[-0.875,-4.361],[-0.819,-4.382],[-0.693,-4.488],[-0.672,-4.488],[-0.567,-4.579],[-0.49,-4.614],[-0.49,-4.635],[-0.454,-4.663],[-0.412,-4.734],[-0.363,-4.853],[-0.356,-4.931],[-0.398,-4.945],[-0.447,-4.987],[-0.504,-5.078],[-0.518,-5.149],[-0.532,-5.163],[-0.525,-5.289],[-0.49,-5.332],[-0.462,-5.339],[-0.426,-5.374],[-0.441,-5.458],[-0.525,-5.423],[-0.609,-5.409],[-0.742,-5.423],[-0.77,-5.332],[-0.798,-5.303],[-0.805,-5.275],[-0.882,-5.198],[-1.05,-5.121],[-1.24,-5.121],[-1.443,-5.205],[-1.534,-5.261],[-1.639,-5.367],[-1.702,-5.507],[-1.702,-5.627],[-1.674,-5.711],[-1.59,-5.845],[-1.527,-5.887],[-1.569,-5.915],[-1.745,-5.915],[-1.892,-5.894],[-1.941,-5.88],[-2.039,-5.803],[-2.165,-5.74],[-2.242,-5.718],[-2.348,-5.718],[-2.418,-5.725],[-2.516,-5.782],[-2.67,-5.957],[-2.684,-5.957],[-2.719,-5.838],[-2.733,-5.732],[-2.768,-5.662],[-2.565,-5.458],[-2.565,-5.085],[-2.6,-5.05],[-2.579,-5.015],[-2.544,-4.987],[-2.516,-4.924],[-2.495,-4.818],[-2.488,-4.677],[-2.474,-4.424],[-2.551,-4.185]]]]},"properties":{"abbr":"mRt","name":"mesencehalic reticular formation","plate":36,"ap_bregma_mm":-4.45,"area_mm2":3.9006,"traced_fraction":[0.9,0.926],"n_labels":2,"no_drawn_outline":false}},{"type":"Feature","geometry":{"type":"MultiPolygon","coordinates":[[[[-1.478,-5.908],[-1.324,-5.957],[-1.177,-6.028],[-1.085,-6.042],[-0.966,-6.126],[-0.966,-6.147],[-0.938,-6.176],[-0.868,-6.218],[-0.777,-6.302],[-0.749,-6.365],[-0.756,-6.464],[-0.798,-6.591],[-0.854,-6.64],[-0.931,-6.633],[-1.022,-6.562],[-1.1,-6.443],[-1.191,-6.337],[-1.219,-6.281],[-1.506,-6.0],[-1.506,-5.957],[-1.478,-5.908]]],[[[1.572,-5.943],[1.558,-6.0],[1.502,-6.091],[1.411,-6.19],[1.411,-6.204],[1.341,-6.267],[1.242,-6.436],[1.109,-6.569],[1.046,-6.598],[0.934,-6.591],[0.892,-6.569],[0.829,-6.506],[0.801,-6.45],[0.801,-6.344],[0.85,-6.281],[0.948,-6.232],[1.06,-6.147],[1.137,-6.063],[1.158,-6.028],[1.158,-6.0],[1.572,-5.943]]]]},"properties":{"abbr":"ml","name":"medial lemniscus","plate":36,"ap_bregma_mm":-4.45,"area_mm2":0.4842,"traced_fraction":[1.0,1.0],"n_labels":2,"no_drawn_outline":false}},{"type":"Feature","geometry":{"type":"MultiPolygon","coordinates":[[[[0.562,-6.752],[0.618,-6.752],[0.639,-6.773],[0.73,-6.795],[0.773,-6.879],[0.745,-6.914],[0.716,-7.012],[0.597,-6.949],[0.478,-6.865],[0.492,-6.787],[0.513,-6.766],[0.562,-6.752]]],[[[-0.602,-6.795],[-0.504,-6.808],[-0.454,-6.851],[-0.426,-6.907],[-0.7,-7.062],[-0.728,-7.027],[-0.735,-7.02],[-0.777,-6.907],[-0.763,-6.844],[-0.721,-6.802],[-0.602,-6.795]]]]},"properties":{"abbr":"mp","name":"mammillary peduncle","plate":36,"ap_bregma_mm":-4.45,"area_mm2":0.1072,"traced_fraction":[1.0,1.0],"n_labels":2,"no_drawn_outline":false}},{"type":"Feature","geometry":{"type":"MultiPolygon","coordinates":[[[[0.464,-5.325],[0.548,-5.388],[0.534,-5.416],[0.45,-5.472],[0.345,-5.585],[0.317,-5.655],[0.31,-5.718],[0.303,-5.831],[0.324,-5.887],[0.38,-5.957],[0.429,-5.979],[0.485,-6.028],[0.408,-6.161],[0.401,-6.281],[0.436,-6.33],[0.408,-6.38],[0.373,-6.401],[0.289,-6.351],[0.261,-6.351],[0.205,-6.323],[0.184,-6.33],[0.163,-6.372],[0.071,-6.358],[0.071,-6.295],[0.05,-6.295],[-0.188,-6.337],[-0.335,-6.401],[-0.342,-6.372],[-0.307,-6.323],[-0.3,-6.274],[-0.307,-6.176],[-0.335,-6.119],[-0.405,-6.042],[-0.335,-5.957],[-0.307,-5.887],[-0.307,-5.852],[-0.286,-5.817],[-0.286,-5.697],[-0.307,-5.627],[-0.363,-5.536],[-0.419,-5.493],[-0.441,-5.458],[-0.426,-5.374],[-0.342,-5.416],[-0.174,-5.599],[-0.125,-5.634],[-0.076,-5.648],[-0.076,-5.662],[-0.041,-5.683],[-0.076,-5.761],[-0.097,-5.873],[-0.111,-5.936],[-0.097,-6.042],[-0.062,-6.098],[0.015,-6.133],[0.092,-6.119],[0.148,-6.035],[0.156,-5.943],[0.142,-5.873],[0.099,-5.683],[0.114,-5.634],[0.156,-5.634],[0.24,-5.571],[0.464,-5.325]]]]},"properties":{"abbr":"vtgx","name":"ventral tegmental decussation","plate":36,"ap_bregma_mm":-4.45,"area_mm2":0.4627,"traced_fraction":[0.946],"n_labels":1,"no_drawn_outline":false}},{"type":"Feature","geometry":{"type":"Polygon","coordinates":[[[2.231,-1.984],[2.259,-2.026],[2.371,-2.082],[2.441,-2.138],[2.462,-2.138],[2.539,-2.202],[2.82,-2.335],[2.827,-2.349],[2.806,-2.399],[2.722,-2.483],[2.708,-2.483],[2.708,-2.504],[2.827,-2.61],[2.939,-2.666],[2.96,-2.715],[2.932,-2.715],[2.897,-2.736],[2.855,-2.807],[2.855,-2.898],[2.89,-2.975],[2.799,-3.025],[2.785,-3.025],[2.778,-2.968],[2.729,-2.835],[2.652,-2.694],[2.638,-2.694],[2.602,-2.624],[2.504,-2.497],[2.483,-2.49],[2.462,-2.448],[2.413,-2.406],[2.413,-2.392],[2.364,-2.363],[2.35,-2.335],[2.287,-2.293],[2.287,-2.279],[2.084,-2.131],[1.88,-2.012],[1.747,-1.963],[1.628,-1.899],[1.6,-1.899],[1.404,-1.822],[1.446,-1.738],[1.467,-1.731],[1.684,-1.815],[1.691,-1.829],[1.712,-1.829],[1.894,-1.92],[1.901,-1.935],[1.964,-1.956],[2.14,-2.061],[2.154,-2.061],[2.196,-1.991],[2.231,-1.984]]]},"properties":{"abbr":null,"name":"unnamed sealed face","plate":36,"ap_bregma_mm":-4.45,"index":0}},{"type":"Feature","geometry":{"type":"Polygon","coordinates":[[[-2.298,-1.956],[-2.291,-2.005],[-2.277,-2.012],[-2.593,-2.349],[-2.607,-2.349],[-2.916,-2.631],[-2.937,-2.631],[-2.937,-2.645],[-2.965,-2.673],[-2.986,-2.666],[-3.0,-2.638],[-3.049,-2.603],[-3.168,-2.469],[-3.105,-2.427],[-2.852,-2.314],[-2.523,-2.096],[-2.523,-2.082],[-2.453,-2.047],[-2.439,-2.026],[-2.361,-1.991],[-2.333,-1.963],[-2.298,-1.956]]]},"properties":{"abbr":null,"name":"unnamed sealed face","plate":36,"ap_bregma_mm":-4.45,"index":1}},{"type":"Feature","geometry":{"type":"Polygon","coordinates":[[[4.839,-2.694],[4.972,-2.8],[4.972,-2.814],[5.015,-2.835],[5.021,-2.856],[5.07,-2.884],[5.078,-2.905],[5.092,-2.905],[5.239,-3.046],[5.239,-3.06],[5.253,-3.06],[5.253,-3.074],[5.47,-3.306],[5.512,-3.383],[5.653,-3.566],[5.653,-3.587],[5.687,-3.63],[5.779,-3.833],[5.8,-3.855],[5.905,-4.15],[5.94,-4.445],[5.905,-4.91],[5.8,-5.325],[5.659,-5.747],[5.645,-5.753],[5.638,-5.796],[5.554,-5.986],[5.491,-6.084],[5.477,-6.084],[5.477,-6.098],[5.365,-6.197],[5.33,-6.211],[5.33,-6.225],[5.274,-6.253],[5.267,-6.274],[5.092,-6.358],[5.092,-6.387],[5.106,-6.401],[4.832,-6.471],[4.713,-6.485],[4.545,-6.534],[4.369,-6.541],[4.355,-6.541],[4.348,-6.499],[4.503,-6.429],[4.727,-6.415],[4.832,-6.38],[4.986,-6.351],[5.288,-6.19],[5.407,-6.063],[5.414,-6.035],[5.477,-5.951],[5.477,-5.929],[5.533,-5.838],[5.561,-5.753],[5.575,-5.747],[5.666,-5.543],[5.807,-5.064],[5.87,-4.692],[5.877,-4.551],[5.863,-4.396],[5.772,-4.03],[5.645,-3.756],[5.624,-3.742],[5.596,-3.672],[5.575,-3.658],[5.533,-3.559],[5.435,-3.404],[5.379,-3.313],[5.365,-3.313],[5.302,-3.222],[5.197,-3.116],[5.148,-3.039],[5.07,-2.961],[4.937,-2.856],[4.902,-2.842],[4.79,-2.743],[4.79,-2.722],[4.818,-2.694],[4.839,-2.694]]]},"properties":{"abbr":null,"name":"unnamed sealed face","plate":36,"ap_bregma_mm":-4.45,"index":2}},{"type":"Feature","geometry":{"type":"Polygon","coordinates":[[[-4.759,-2.786],[-5.145,-3.179],[-5.159,-3.179],[-5.201,-3.243],[-5.215,-3.243],[-5.313,-3.39],[-5.482,-3.601],[-5.531,-3.7],[-5.559,-3.728],[-5.608,-3.841],[-5.755,-4.058],[-5.839,-4.248],[-5.916,-4.509],[-5.93,-4.846],[-5.888,-5.05],[-5.881,-5.163],[-5.811,-5.444],[-5.65,-5.824],[-5.601,-5.901],[-5.397,-6.119],[-5.145,-6.288],[-5.145,-6.344],[-5.313,-6.281],[-5.503,-6.147],[-5.608,-6.028],[-5.699,-5.88],[-5.797,-5.655],[-5.916,-5.296],[-5.993,-4.867],[-6.001,-4.656],[-5.965,-4.389],[-5.881,-4.136],[-5.797,-3.96],[-5.783,-3.953],[-5.783,-3.932],[-5.748,-3.89],[-5.748,-3.869],[-5.587,-3.63],[-5.573,-3.587],[-5.285,-3.186],[-5.271,-3.186],[-5.271,-3.172],[-5.005,-2.891],[-4.991,-2.891],[-4.83,-2.736],[-4.802,-2.736],[-4.759,-2.786]]]},"properties":{"abbr":null,"name":"unnamed sealed face","plate":36,"ap_bregma_mm":-4.45,"index":3}},{"type":"Feature","geometry":{"type":"MultiPolygon","coordinates":[[[[-3.631,-7.519],[-3.743,-7.526],[-3.883,-7.512],[-4.114,-7.449],[-4.465,-7.315],[-4.9,-7.09],[-5.054,-7.041],[-5.166,-7.034],[-5.243,-7.048],[-5.748,-7.195],[-5.902,-7.195],[-5.98,-7.181],[-6.078,-7.146],[-6.176,-7.09],[-6.274,-7.012],[-6.484,-6.787],[-6.709,-6.464],[-6.786,-6.323],[-6.786,-6.204],[-6.681,-5.943],[-6.73,-5.866],[-6.849,-5.866],[-6.968,-5.824],[-7.052,-5.768],[-7.15,-5.669],[-7.22,-5.564],[-7.305,-5.374],[-7.354,-5.198],[-7.382,-5.015],[-7.389,-4.762],[-7.354,-4.452],[-7.291,-4.22],[-7.171,-3.925],[-6.954,-3.517],[-6.744,-3.172],[-6.533,-2.863],[-6.225,-2.469],[-5.937,-2.152],[-5.699,-1.927],[-5.348,-1.632],[-4.745,-1.224],[-4.36,-1.013],[-3.96,-0.816],[-3.575,-0.647],[-3.273,-0.535],[-2.551,-0.31],[-2.298,-0.246],[-1.927,-0.176],[-1.422,-0.134],[-1.219,-0.141],[-1.008,-0.169],[-0.882,-0.197],[-0.672,-0.282],[-0.574,-0.345],[-0.441,-0.472],[-0.356,-0.584],[-0.286,-0.711],[-0.195,-0.922],[-0.181,-1.02],[-0.349,-1.358],[-0.412,-1.442],[-0.447,-1.463],[-1.071,-1.562],[-1.471,-1.653],[-1.885,-1.787],[-2.116,-1.899],[-2.263,-1.991],[-2.579,-2.321],[-3.021,-2.715],[-3.042,-2.743],[-3.049,-2.786],[-3.049,-2.968],[-3.182,-3.109],[-3.238,-3.278],[-3.413,-3.531],[-3.82,-4.002],[-4.002,-4.262],[-4.086,-4.445],[-4.156,-4.706],[-4.185,-4.931],[-4.185,-5.106],[-4.17,-5.205],[-4.079,-5.536],[-3.995,-5.69],[-3.89,-5.789],[-3.715,-5.859],[-3.68,-5.894],[-3.68,-5.936],[-3.736,-6.028],[-3.778,-6.07],[-4.072,-6.211],[-4.093,-6.239],[-4.093,-6.288],[-4.037,-6.372],[-3.89,-6.513],[-3.694,-6.668],[-3.455,-6.83],[-3.357,-6.921],[-3.315,-7.02],[-3.294,-7.139],[-3.294,-7.252],[-3.329,-7.343],[-3.483,-7.456],[-3.61,-7.512],[-3.631,-7.519]]],[[[5.772,-7.336],[5.596,-7.336],[5.54,-7.301],[5.456,-7.195],[5.386,-7.146],[5.309,-7.111],[5.155,-7.076],[4.699,-7.076],[4.615,-7.097],[4.468,-7.16],[4.257,-7.209],[3.991,-7.209],[3.907,-7.167],[3.801,-7.09],[3.647,-6.935],[3.591,-6.851],[3.528,-6.71],[3.5,-6.562],[3.507,-6.394],[3.556,-6.239],[3.71,-5.965],[3.752,-5.901],[3.83,-5.824],[3.907,-5.768],[4.047,-5.697],[4.166,-5.662],[4.138,-5.669],[4.166,-5.543],[4.117,-5.486],[4.075,-5.409],[4.033,-5.268],[4.047,-5.078],[4.117,-4.72],[4.117,-4.41],[4.04,-4.206],[3.858,-3.953],[3.549,-3.63],[3.465,-3.524],[3.142,-3.236],[2.89,-2.968],[2.785,-3.025],[2.792,-3.222],[2.778,-3.271],[2.736,-3.348],[2.631,-3.454],[2.68,-3.847],[2.743,-3.89],[3.107,-3.883],[3.262,-3.904],[3.402,-3.96],[3.5,-4.051],[3.591,-4.213],[3.633,-4.389],[3.64,-4.607],[3.605,-4.811],[3.556,-4.945],[3.472,-5.1],[3.332,-5.226],[3.121,-5.346],[3.072,-5.423],[3.072,-5.55],[3.037,-5.669],[2.911,-5.979],[2.785,-6.365],[2.729,-6.485],[2.673,-6.562],[2.539,-6.717],[2.392,-6.865],[2.322,-6.914],[1.845,-7.139],[1.614,-7.223],[1.509,-7.245],[1.305,-7.238],[1.165,-7.209],[0.997,-7.153],[0.787,-7.055],[0.345,-6.78],[0.156,-6.647],[0.071,-6.619],[-0.006,-6.647],[-0.265,-6.823],[-0.483,-6.928],[-0.707,-7.062],[-0.819,-7.181],[-0.952,-7.28],[-1.022,-7.315],[-1.163,-7.343],[-1.303,-7.343],[-1.436,-7.315],[-1.653,-7.231],[-1.976,-7.034],[-2.158,-6.886],[-2.418,-6.633],[-2.677,-6.323],[-2.873,-6.021],[-2.937,-5.88],[-2.979,-5.62],[-3.035,-5.437],[-3.14,-5.268],[-3.273,-5.128],[-3.483,-5.036],[-3.61,-4.945],[-3.75,-4.811],[-3.785,-4.706],[-3.785,-4.579],[-3.757,-4.431],[-3.687,-4.291],[-3.582,-4.178],[-3.434,-4.108],[-3.126,-4.108],[-2.929,-4.037],[-2.866,-4.023],[-2.775,-4.03],[-2.733,-4.002],[-2.726,-3.693],[-2.684,-3.587],[-2.684,-3.538],[-2.726,-3.482],[-2.789,-3.44],[-2.81,-3.404],[-2.824,-3.327],[-2.817,-3.081],[-2.754,-2.807],[-2.677,-2.645],[-2.495,-2.413],[-2.221,-2.174],[-1.955,-2.005],[-1.674,-1.871],[-1.436,-1.787],[-1.085,-1.702],[-0.819,-1.667],[-0.567,-1.674],[-0.433,-1.695],[-0.321,-1.731],[-0.216,-1.787],[-0.139,-1.864],[-0.097,-1.949],[-0.104,-1.927],[0.001,-1.935],[0.05,-1.857],[0.127,-1.773],[0.226,-1.716],[0.499,-1.66],[0.709,-1.66],[0.976,-1.695],[1.396,-1.822],[1.453,-1.723],[0.962,-1.569],[0.667,-1.505],[0.506,-1.449],[0.38,-1.351],[0.31,-1.224],[0.275,-1.076],[0.275,-0.957],[0.31,-0.774],[0.352,-0.661],[0.422,-0.528],[0.513,-0.394],[0.653,-0.261],[0.829,-0.169],[0.969,-0.134],[1.242,-0.141],[1.39,-0.169],[1.81,-0.289],[2.378,-0.359],[2.967,-0.465],[3.528,-0.612],[3.843,-0.718],[4.313,-0.908],[4.643,-1.069],[5.12,-1.351],[5.33,-1.512],[5.666,-1.808],[6.059,-2.202],[6.473,-2.673],[6.655,-2.905],[6.907,-3.264],[7.048,-3.489],[7.139,-3.672],[7.209,-3.847],[7.258,-4.03],[7.279,-4.277],[7.279,-4.516],[7.251,-4.748],[7.195,-4.98],[7.118,-5.191],[6.95,-5.493],[6.739,-5.732],[6.655,-5.803],[6.466,-5.922],[6.424,-5.972],[6.431,-6.042],[6.508,-6.225],[6.508,-6.33],[6.459,-6.52],[6.312,-6.823],[6.157,-7.048],[5.996,-7.216],[5.884,-7.294],[5.793,-7.329],[5.772,-7.336]]],[[[-0.265,-7.638],[-0.447,-7.646],[-0.496,-7.589],[-0.496,-7.526],[-0.447,-7.449],[-0.384,-7.399],[-0.237,-7.315],[-0.125,-7.273],[-0.027,-7.266],[0.099,-7.287],[0.296,-7.231],[0.436,-7.238],[0.576,-7.266],[0.688,-7.315],[0.758,-7.371],[0.808,-7.456],[0.815,-7.533],[0.794,-7.575],[0.752,-7.603],[0.674,-7.624],[0.471,-7.624],[0.247,-7.596],[0.135,-7.596],[-0.237,-7.631],[-0.265,-7.638]]]]},"properties":{"abbr":"brain_outline","name":"outline of the section","plate":36,"ap_bregma_mm":-4.45}}]}
