{"type":"FeatureCollection","name":"GerbilAtlas plate 11","note":"Region extents cut from the atlas drawing (METHODS.md, Region extents). Coordinates are [ML, DV] in mm, ML positive to the right of the plate as printed, DV negative below the dorsal surface; AP is the plate bregma. traced_fraction is the share of each polygon boundary the atlas actually draws; below 0.5 the boundary is an estimate. no_drawn_outline marks a feature that lies only inside boundaries the atlas draws round more than one name and prints nothing within, so the whole of its outline is where the extraction cut it. Not a segmentation.","plate":11,"ap_bregma_mm":4.3,"features":[{"type":"Feature","geometry":{"type":"MultiPolygon","coordinates":[[[[2.487,-2.854],[2.445,-2.917],[2.368,-2.987],[2.235,-3.156],[2.024,-3.381],[2.024,-3.395],[1.723,-3.733],[1.723,-3.747],[1.478,-4.007],[1.429,-4.07],[1.422,-4.113],[1.344,-4.106],[1.316,-4.134],[1.309,-4.092],[1.302,-4.056],[1.239,-3.965],[1.064,-3.768],[1.043,-3.726],[1.008,-3.698],[0.784,-3.409],[0.734,-3.367],[0.335,-2.861],[0.293,-2.826],[0.293,-2.811],[0.349,-2.762],[0.51,-2.678],[0.692,-2.629],[0.889,-2.601],[1.218,-2.579],[1.688,-2.579],[2.032,-2.622],[2.214,-2.671],[2.347,-2.734],[2.487,-2.854]]],[[[-0.408,-2.903],[-0.422,-2.938],[-0.5,-3.008],[-0.675,-3.233],[-0.738,-3.29],[-0.885,-3.48],[-0.997,-3.599],[-1.025,-3.648],[-1.369,-4.035],[-1.425,-4.113],[-1.432,-4.148],[-1.446,-4.183],[-1.516,-4.169],[-1.516,-4.134],[-1.586,-4.049],[-1.86,-3.634],[-1.881,-3.62],[-2.238,-3.072],[-2.273,-3.037],[-2.309,-2.966],[-2.365,-2.903],[-2.372,-2.875],[-2.091,-2.727],[-1.846,-2.657],[-1.565,-2.622],[-1.215,-2.622],[-0.885,-2.678],[-0.759,-2.72],[-0.584,-2.79],[-0.408,-2.903]]]]},"properties":{"abbr":"M2","name":"secondary motor cortex","plate":11,"ap_bregma_mm":4.3,"area_mm2":3.5262,"traced_fraction":[1.0,1.0],"n_labels":2,"no_drawn_outline":false}},{"type":"Feature","geometry":{"type":"MultiPolygon","coordinates":[[[[0.293,-2.826],[0.335,-2.861],[0.734,-3.367],[0.784,-3.409],[1.008,-3.698],[1.043,-3.726],[1.064,-3.768],[1.239,-3.965],[1.302,-4.056],[1.309,-4.092],[1.162,-4.021],[0.763,-3.782],[0.636,-3.726],[0.251,-3.494],[0.174,-3.458],[0.131,-3.458],[0.131,-3.184],[0.159,-3.029],[0.209,-2.91],[0.23,-2.896],[0.237,-2.868],[0.293,-2.826]]],[[[-0.408,-2.903],[-0.38,-2.91],[-0.205,-3.079],[-0.114,-3.233],[-0.058,-3.458],[-0.114,-3.473],[-0.359,-3.599],[-0.366,-3.613],[-0.808,-3.831],[-0.815,-3.845],[-0.836,-3.845],[-0.843,-3.859],[-1.327,-4.099],[-1.334,-4.113],[-1.432,-4.148],[-1.425,-4.113],[-1.369,-4.035],[-1.025,-3.648],[-0.997,-3.599],[-0.885,-3.48],[-0.738,-3.29],[-0.675,-3.233],[-0.5,-3.008],[-0.422,-2.938],[-0.408,-2.903]]]]},"properties":{"abbr":"Cg1","name":"cingulate cortex, area 1","plate":11,"ap_bregma_mm":4.3,"area_mm2":1.0124,"traced_fraction":[1.0,1.0],"n_labels":2,"no_drawn_outline":false}},{"type":"Feature","geometry":{"type":"MultiPolygon","coordinates":[[[[2.487,-2.854],[2.55,-2.903],[2.663,-3.051],[2.747,-3.219],[2.852,-3.529],[2.936,-3.923],[2.936,-4.176],[2.915,-4.274],[1.562,-4.12],[1.471,-4.12],[1.457,-4.134],[1.443,-4.134],[1.422,-4.113],[1.429,-4.07],[1.478,-4.007],[1.723,-3.747],[1.723,-3.733],[1.821,-3.634],[1.821,-3.62],[1.947,-3.487],[2.024,-3.381],[2.235,-3.156],[2.368,-2.987],[2.445,-2.917],[2.487,-2.854]]],[[[-2.372,-2.875],[-2.365,-2.903],[-2.309,-2.966],[-2.273,-3.037],[-2.238,-3.072],[-1.881,-3.62],[-1.86,-3.634],[-1.586,-4.049],[-1.516,-4.134],[-1.516,-4.169],[-1.516,-4.176],[-2.883,-4.281],[-2.982,-4.303],[-3.003,-4.246],[-3.017,-3.916],[-2.982,-3.698],[-2.897,-3.458],[-2.785,-3.283],[-2.771,-3.241],[-2.729,-3.205],[-2.729,-3.191],[-2.547,-2.994],[-2.449,-2.938],[-2.421,-2.903],[-2.372,-2.875]]]]},"properties":{"abbr":"M1","name":"primary motor cortex","plate":11,"ap_bregma_mm":4.3,"area_mm2":2.4697,"traced_fraction":[1.0,1.0],"n_labels":2,"no_drawn_outline":false}},{"type":"Feature","geometry":{"type":"MultiPolygon","coordinates":[[[[-0.058,-3.458],[-0.03,-3.93],[-0.072,-4.689],[-0.107,-4.689],[-0.254,-4.619],[-0.43,-4.563],[-0.535,-4.513],[-0.584,-4.507],[-0.99,-4.352],[-1.145,-4.309],[-1.299,-4.239],[-1.404,-4.218],[-1.418,-4.218],[-1.446,-4.183],[-1.432,-4.148],[-1.376,-4.134],[-1.166,-4.014],[-0.366,-3.613],[-0.268,-3.55],[-0.114,-3.473],[-0.058,-3.458]]],[[[0.131,-3.458],[0.174,-3.458],[0.251,-3.494],[0.636,-3.726],[0.763,-3.782],[1.162,-4.021],[1.309,-4.092],[1.316,-4.134],[1.309,-4.141],[1.211,-4.183],[0.854,-4.394],[0.356,-4.647],[0.286,-4.696],[0.188,-4.746],[0.138,-4.753],[0.131,-3.458]]]]},"properties":{"abbr":"PrL","name":"prelimbic cortex","plate":11,"ap_bregma_mm":4.3,"area_mm2":1.7069,"traced_fraction":[1.0,1.0],"n_labels":2,"no_drawn_outline":false}},{"type":"Feature","geometry":{"type":"MultiPolygon","coordinates":[[[[2.915,-4.274],[2.852,-4.521],[2.719,-4.837],[2.691,-4.837],[2.677,-4.816],[2.403,-4.675],[2.326,-4.619],[2.179,-4.549],[1.765,-4.309],[1.653,-4.26],[1.506,-4.176],[1.457,-4.134],[1.471,-4.12],[1.562,-4.12],[2.915,-4.274]]],[[[-1.516,-4.176],[-1.572,-4.26],[-1.593,-4.26],[-1.663,-4.303],[-1.797,-4.415],[-2.084,-4.619],[-2.295,-4.795],[-2.554,-4.978],[-2.645,-5.062],[-2.673,-5.069],[-2.694,-5.048],[-2.848,-4.732],[-2.939,-4.492],[-2.982,-4.303],[-2.883,-4.281],[-1.516,-4.176]]]]},"properties":{"abbr":"Fr3","name":"frontal cortex, area 3","plate":11,"ap_bregma_mm":4.3,"area_mm2":1.0863,"traced_fraction":[1.0,1.0],"n_labels":2,"no_drawn_outline":false}},{"type":"Feature","geometry":{"type":"MultiPolygon","coordinates":[[[[1.422,-4.113],[1.443,-4.134],[1.436,-4.162],[1.45,-4.204],[1.604,-4.507],[1.744,-4.879],[1.933,-5.456],[1.926,-5.519],[1.702,-5.421],[1.443,-5.351],[1.211,-5.358],[1.085,-5.4],[1.057,-5.428],[1.057,-5.322],[1.106,-5.125],[1.225,-4.464],[1.246,-4.408],[1.246,-4.338],[1.309,-4.141],[1.316,-4.134],[1.344,-4.106],[1.422,-4.113]]],[[[-1.516,-4.169],[-1.446,-4.183],[-1.418,-4.218],[-1.404,-4.218],[-1.404,-4.253],[-1.334,-4.352],[-1.306,-4.415],[-1.292,-4.492],[-1.208,-4.668],[-1.019,-5.203],[-0.906,-5.562],[-0.899,-5.632],[-1.089,-5.568],[-1.25,-5.512],[-1.425,-5.505],[-1.572,-5.526],[-1.804,-5.597],[-1.818,-5.583],[-1.818,-5.484],[-1.741,-4.872],[-1.657,-4.499],[-1.572,-4.26],[-1.516,-4.176],[-1.516,-4.169]]]]},"properties":{"abbr":"LO","name":"lateral orbital cortex","plate":11,"ap_bregma_mm":4.3,"area_mm2":1.436,"traced_fraction":[1.0,1.0],"n_labels":2,"no_drawn_outline":false}},{"type":"Feature","geometry":{"type":"MultiPolygon","coordinates":[[[[1.443,-4.134],[1.457,-4.134],[1.59,-4.225],[2.326,-4.619],[2.403,-4.675],[2.677,-4.816],[2.691,-4.837],[2.719,-4.837],[2.41,-5.456],[2.2,-5.653],[2.172,-5.653],[2.06,-5.611],[1.926,-5.519],[1.933,-5.456],[1.744,-4.879],[1.604,-4.507],[1.45,-4.204],[1.436,-4.162],[1.443,-4.134]]],[[[-1.572,-4.26],[-1.657,-4.499],[-1.741,-4.872],[-1.818,-5.484],[-1.818,-5.583],[-1.804,-5.597],[-1.986,-5.709],[-2.084,-5.794],[-2.133,-5.808],[-2.231,-5.836],[-2.301,-5.779],[-2.393,-5.604],[-2.442,-5.54],[-2.673,-5.069],[-2.645,-5.062],[-2.554,-4.978],[-2.295,-4.795],[-2.273,-4.767],[-2.203,-4.724],[-2.147,-4.668],[-1.797,-4.415],[-1.663,-4.303],[-1.593,-4.26],[-1.572,-4.26]]]]},"properties":{"abbr":"DLO","name":"dorsolateral orbital cortex","plate":11,"ap_bregma_mm":4.3,"area_mm2":1.6925,"traced_fraction":[1.0,1.0],"n_labels":4,"no_drawn_outline":false}},{"type":"Feature","geometry":{"type":"MultiPolygon","coordinates":[[[[1.309,-4.141],[1.246,-4.338],[1.218,-4.345],[1.197,-4.373],[1.078,-4.605],[0.678,-5.168],[0.461,-5.414],[0.356,-5.554],[0.314,-5.59],[0.314,-5.604],[0.258,-5.653],[0.258,-5.667],[0.237,-5.688],[0.202,-5.695],[0.159,-5.308],[0.138,-4.753],[0.188,-4.746],[0.286,-4.696],[0.356,-4.647],[0.496,-4.584],[0.503,-4.57],[1.12,-4.246],[1.211,-4.183],[1.309,-4.141]]],[[[-1.404,-4.218],[-1.299,-4.239],[-1.145,-4.309],[-0.99,-4.352],[-0.689,-4.471],[-0.324,-4.591],[-0.107,-4.689],[-0.072,-4.689],[-0.072,-5.168],[-0.086,-5.372],[-0.149,-5.681],[-0.198,-5.808],[-0.233,-5.801],[-0.303,-5.73],[-0.303,-5.716],[-0.507,-5.484],[-0.843,-5.006],[-1.019,-4.781],[-1.046,-4.724],[-1.173,-4.57],[-1.229,-4.471],[-1.278,-4.422],[-1.306,-4.415],[-1.334,-4.352],[-1.39,-4.281],[-1.404,-4.218]]]]},"properties":{"abbr":"MO","name":"medial orbital cortex","plate":11,"ap_bregma_mm":4.3,"area_mm2":1.573,"traced_fraction":[1.0,1.0],"n_labels":2,"no_drawn_outline":false}},{"type":"Feature","geometry":{"type":"MultiPolygon","coordinates":[[[[1.246,-4.338],[1.246,-4.408],[1.225,-4.464],[1.106,-5.125],[1.057,-5.322],[1.057,-5.428],[1.057,-5.435],[1.036,-5.435],[0.966,-5.477],[0.875,-5.562],[0.671,-5.674],[0.447,-5.836],[0.44,-5.85],[0.328,-5.885],[0.279,-5.892],[0.216,-5.836],[0.202,-5.695],[0.223,-5.695],[0.258,-5.667],[0.258,-5.653],[0.314,-5.604],[0.314,-5.59],[0.356,-5.554],[0.461,-5.414],[0.678,-5.168],[1.078,-4.605],[1.197,-4.373],[1.218,-4.345],[1.246,-4.338]]],[[[-1.306,-4.415],[-1.278,-4.422],[-1.229,-4.471],[-1.173,-4.57],[-1.046,-4.724],[-1.019,-4.781],[-0.843,-5.006],[-0.507,-5.484],[-0.303,-5.716],[-0.303,-5.73],[-0.233,-5.801],[-0.198,-5.808],[-0.247,-5.913],[-0.289,-5.948],[-0.289,-5.962],[-0.324,-5.976],[-0.366,-5.991],[-0.436,-5.92],[-0.633,-5.815],[-0.668,-5.779],[-0.689,-5.779],[-0.801,-5.695],[-0.822,-5.695],[-0.899,-5.646],[-0.899,-5.632],[-0.906,-5.562],[-1.019,-5.203],[-1.208,-4.668],[-1.292,-4.492],[-1.306,-4.415]]]]},"properties":{"abbr":"VO","name":"ventral orbital cortex","plate":11,"ap_bregma_mm":4.3,"area_mm2":0.9301,"traced_fraction":[1.0,0.998],"n_labels":2,"no_drawn_outline":false}},{"type":"Feature","geometry":{"type":"MultiPolygon","coordinates":[[[[1.057,-5.435],[1.057,-5.449],[1.057,-5.47],[1.113,-5.54],[1.204,-5.59],[1.12,-5.758],[1.001,-5.815],[0.966,-5.85],[0.776,-5.969],[0.763,-5.998],[0.706,-6.026],[0.692,-6.047],[0.657,-6.054],[0.496,-5.927],[0.44,-5.871],[0.447,-5.85],[0.447,-5.836],[0.671,-5.674],[0.875,-5.562],[0.966,-5.477],[1.036,-5.435],[1.057,-5.435]]],[[[-1.089,-5.568],[-0.899,-5.632],[-0.899,-5.646],[-0.822,-5.695],[-0.801,-5.695],[-0.689,-5.779],[-0.647,-5.794],[-0.633,-5.815],[-0.436,-5.92],[-0.366,-5.991],[-0.415,-6.04],[-0.584,-6.138],[-0.668,-6.075],[-0.794,-6.026],[-0.794,-6.047],[-0.885,-6.047],[-0.892,-6.166],[-0.913,-6.166],[-1.025,-6.089],[-1.173,-6.012],[-1.152,-5.871],[-1.138,-5.85],[-1.145,-5.836],[-1.11,-5.618],[-1.089,-5.568]]],[[[-1.684,-5.815],[-1.684,-5.885],[-1.741,-5.976],[-1.741,-6.04],[-1.699,-6.11],[-1.72,-6.11],[-1.783,-6.18],[-1.811,-6.166],[-1.86,-6.096],[-1.874,-5.983],[-1.839,-5.906],[-1.783,-5.85],[-1.684,-5.815]]]]},"properties":{"abbr":"Pir","name":"piriform cortex","plate":11,"ap_bregma_mm":4.3,"area_mm2":0.5155,"traced_fraction":[0.868,0.917,0.962],"n_labels":3,"no_drawn_outline":false}},{"type":"Feature","geometry":{"type":"MultiPolygon","coordinates":[[[[1.632,-6.384],[1.625,-6.251],[1.604,-6.202],[1.365,-6.194],[1.365,-6.173],[1.422,-6.11],[1.464,-6.033],[1.471,-5.955],[1.443,-5.927],[1.309,-5.899],[1.169,-5.906],[1.12,-5.758],[1.204,-5.59],[1.337,-5.54],[1.576,-5.554],[1.737,-5.611],[1.898,-5.73],[1.919,-5.772],[1.919,-5.92],[1.891,-6.019],[1.807,-6.173],[1.632,-6.384]]],[[[-1.145,-5.836],[-1.138,-5.85],[-1.152,-5.871],[-1.173,-6.012],[-1.292,-6.005],[-1.439,-6.054],[-1.46,-6.075],[-1.46,-6.124],[-1.404,-6.209],[-1.614,-6.216],[-1.699,-6.11],[-1.741,-6.04],[-1.741,-5.976],[-1.684,-5.885],[-1.684,-5.815],[-1.6,-5.794],[-1.355,-5.794],[-1.236,-5.808],[-1.145,-5.836]]]]},"properties":{"abbr":"AOD","name":"anterior olfactory nucleus, dorsal part","plate":11,"ap_bregma_mm":4.3,"area_mm2":0.5509,"traced_fraction":[0.327,0.925],"n_labels":2,"no_drawn_outline":true}},{"type":"Feature","geometry":{"type":"MultiPolygon","coordinates":[[[[1.12,-5.758],[1.169,-5.906],[1.001,-5.998],[0.818,-6.159],[0.818,-6.18],[0.868,-6.23],[0.945,-6.258],[0.91,-6.3],[0.854,-6.3],[0.769,-6.328],[0.58,-6.434],[0.517,-6.497],[0.503,-6.539],[0.468,-6.581],[0.447,-6.567],[0.426,-6.476],[0.426,-6.419],[0.454,-6.307],[0.524,-6.194],[0.657,-6.054],[0.692,-6.047],[0.706,-6.026],[0.763,-5.998],[0.776,-5.969],[0.966,-5.85],[1.001,-5.815],[1.12,-5.758]]],[[[-0.584,-6.138],[-0.514,-6.272],[-0.479,-6.398],[-0.493,-6.504],[-0.535,-6.581],[-0.549,-6.581],[-0.591,-6.518],[-0.682,-6.455],[-0.78,-6.413],[-0.857,-6.406],[-0.864,-6.406],[-0.878,-6.398],[-0.892,-6.342],[-0.794,-6.265],[-0.794,-6.251],[-0.892,-6.18],[-0.892,-6.166],[-0.885,-6.047],[-0.794,-6.047],[-0.794,-6.026],[-0.668,-6.075],[-0.584,-6.138]]],[[[-1.699,-6.11],[-1.614,-6.216],[-1.558,-6.314],[-1.446,-6.434],[-1.411,-6.455],[-1.355,-6.525],[-1.327,-6.645],[-1.327,-6.708],[-1.376,-6.736],[-1.418,-6.673],[-1.418,-6.567],[-1.439,-6.525],[-1.572,-6.427],[-1.649,-6.349],[-1.678,-6.3],[-1.783,-6.202],[-1.783,-6.18],[-1.72,-6.11],[-1.699,-6.11]]],[[[-0.997,-6.37],[-0.927,-6.476],[-0.857,-6.525],[-0.808,-6.609],[-0.829,-6.708],[-0.934,-6.736],[-1.053,-6.673],[-1.166,-6.56],[-1.25,-6.406],[-1.257,-6.377],[-0.997,-6.37]]]]},"properties":{"abbr":"2","name":"layer 2 of cortex","plate":11,"ap_bregma_mm":4.3,"area_mm2":0.4895,"traced_fraction":[1.0,0.891,0.976,0.791],"n_labels":6,"no_drawn_outline":false}},{"type":"Feature","geometry":{"type":"MultiPolygon","coordinates":[[[[1.365,-6.194],[1.323,-6.223],[1.281,-6.307],[1.204,-6.398],[1.176,-6.483],[1.127,-6.56],[1.078,-6.617],[1.015,-6.645],[0.987,-6.673],[0.826,-6.673],[0.805,-6.638],[0.805,-6.623],[0.812,-6.617],[0.896,-6.49],[0.931,-6.469],[0.973,-6.37],[1.008,-6.335],[1.036,-6.279],[1.043,-6.23],[1.029,-6.216],[0.987,-6.223],[0.945,-6.258],[0.868,-6.23],[0.818,-6.18],[0.818,-6.159],[1.001,-5.998],[1.169,-5.906],[1.309,-5.899],[1.443,-5.927],[1.471,-5.955],[1.464,-6.033],[1.422,-6.11],[1.365,-6.173],[1.365,-6.194]]],[[[-1.173,-6.012],[-1.025,-6.089],[-0.913,-6.166],[-0.892,-6.166],[-0.892,-6.18],[-0.794,-6.251],[-0.822,-6.293],[-0.892,-6.342],[-0.927,-6.335],[-0.976,-6.286],[-1.019,-6.272],[-1.025,-6.314],[-0.997,-6.37],[-1.257,-6.377],[-1.292,-6.356],[-1.355,-6.258],[-1.404,-6.209],[-1.46,-6.124],[-1.46,-6.075],[-1.439,-6.054],[-1.292,-6.005],[-1.173,-6.012]]]]},"properties":{"abbr":"aca","name":"anterior commissure, anterior part","plate":11,"ap_bregma_mm":4.3,"area_mm2":0.4274,"traced_fraction":[1.0,0.879],"n_labels":2,"no_drawn_outline":false}},{"type":"Feature","geometry":{"type":"MultiPolygon","coordinates":[[[[-1.11,-5.618],[-1.145,-5.836],[-1.201,-5.815],[-1.355,-5.794],[-1.6,-5.794],[-1.684,-5.815],[-1.783,-5.85],[-1.839,-5.906],[-1.874,-5.983],[-1.86,-6.096],[-1.811,-6.166],[-1.783,-6.18],[-1.783,-6.202],[-1.678,-6.3],[-1.649,-6.349],[-1.572,-6.427],[-1.439,-6.525],[-1.418,-6.567],[-1.418,-6.673],[-1.376,-6.736],[-1.313,-6.849],[-1.229,-6.94],[-1.131,-7.003],[-1.032,-7.038],[-0.983,-7.06],[-0.864,-7.046],[-0.696,-6.996],[-0.661,-6.961],[-0.612,-6.954],[-0.577,-6.912],[-0.542,-6.722],[-0.535,-6.581],[-0.493,-6.504],[-0.479,-6.398],[-0.514,-6.272],[-0.584,-6.138],[-0.415,-6.04],[-0.366,-5.991],[-0.324,-5.976],[-0.324,-5.991],[-0.303,-5.998],[-0.289,-6.047],[-0.233,-6.124],[-0.24,-6.335],[-0.268,-6.511],[-0.282,-6.525],[-0.317,-6.525],[-0.345,-6.462],[-0.38,-6.483],[-0.394,-6.525],[-0.387,-6.631],[-0.359,-6.645],[-0.359,-6.673],[-0.303,-6.673],[-0.303,-6.722],[-0.345,-6.863],[-0.422,-7.017],[-0.549,-7.158],[-0.612,-7.207],[-0.745,-7.278],[-0.962,-7.348],[-1.173,-7.355],[-1.341,-7.299],[-1.418,-7.242],[-1.446,-7.172],[-1.425,-7.172],[-1.369,-7.123],[-1.348,-7.081],[-1.348,-7.024],[-1.397,-6.975],[-1.439,-6.954],[-1.502,-6.884],[-1.586,-6.757],[-1.6,-6.715],[-1.649,-6.659],[-1.663,-6.617],[-1.691,-6.595],[-1.783,-6.441],[-1.818,-6.406],[-1.832,-6.363],[-1.965,-6.159],[-2.021,-6.033],[-2.049,-6.005],[-2.07,-5.948],[-2.07,-5.906],[-2.014,-5.829],[-1.902,-5.751],[-1.741,-5.674],[-1.6,-5.625],[-1.432,-5.59],[-1.257,-5.59],[-1.11,-5.618]]],[[[0.44,-5.85],[0.447,-5.85],[0.44,-5.871],[0.496,-5.927],[0.657,-6.054],[0.524,-6.194],[0.454,-6.307],[0.426,-6.419],[0.426,-6.476],[0.447,-6.567],[0.468,-6.581],[0.482,-6.666],[0.566,-6.813],[0.608,-6.926],[0.664,-6.961],[0.755,-6.961],[0.861,-7.01],[1.001,-7.017],[1.155,-6.954],[1.169,-6.954],[1.204,-7.067],[1.274,-7.13],[1.274,-7.144],[1.253,-7.165],[1.12,-7.221],[0.896,-7.242],[0.812,-7.235],[0.678,-7.2],[0.496,-7.095],[0.377,-7.024],[0.349,-6.975],[0.314,-6.947],[0.272,-6.856],[0.216,-6.581],[0.216,-6.159],[0.23,-6.096],[0.307,-5.941],[0.328,-5.885],[0.44,-5.85]]],[[[0.328,-6.419],[0.307,-6.483],[0.307,-6.666],[0.342,-6.694],[0.37,-6.595],[0.37,-6.448],[0.356,-6.419],[0.328,-6.419]]],[[[0.517,-6.891],[0.475,-6.954],[0.475,-7.01],[0.496,-7.046],[0.524,-7.046],[0.559,-6.989],[0.559,-6.919],[0.538,-6.891],[0.517,-6.891]]]]},"properties":{"abbr":"DTT","name":"dorsal tenia tecta","plate":11,"ap_bregma_mm":4.3,"area_mm2":1.3135,"traced_fraction":[0.995,1.0,1.0,1.0],"n_labels":2,"no_drawn_outline":false}},{"type":"Feature","geometry":{"type":"MultiPolygon","coordinates":[[[[1.365,-6.194],[1.604,-6.202],[1.625,-6.251],[1.632,-6.384],[1.59,-6.546],[1.513,-6.659],[1.45,-6.729],[1.373,-6.757],[1.309,-6.799],[1.169,-6.954],[1.155,-6.954],[1.078,-6.834],[1.05,-6.813],[0.987,-6.673],[1.015,-6.645],[1.078,-6.617],[1.127,-6.56],[1.176,-6.483],[1.204,-6.398],[1.281,-6.307],[1.323,-6.223],[1.365,-6.194]]],[[[-1.404,-6.209],[-1.355,-6.258],[-1.292,-6.356],[-1.257,-6.377],[-1.25,-6.406],[-1.327,-6.406],[-1.369,-6.419],[-1.411,-6.455],[-1.446,-6.434],[-1.558,-6.314],[-1.614,-6.216],[-1.404,-6.209]]]]},"properties":{"abbr":"AOL","name":"anterior olfactory nucleus, lateral part","plate":11,"ap_bregma_mm":4.3,"area_mm2":0.3135,"traced_fraction":[0.517,0.708],"n_labels":2,"no_drawn_outline":true}},{"type":"Feature","geometry":{"type":"MultiPolygon","coordinates":[[[[0.812,-6.617],[0.805,-6.623],[0.805,-6.638],[0.791,-6.638],[0.784,-6.673],[0.776,-6.898],[0.755,-6.961],[0.664,-6.961],[0.608,-6.926],[0.566,-6.813],[0.482,-6.666],[0.468,-6.581],[0.503,-6.539],[0.517,-6.497],[0.58,-6.434],[0.769,-6.328],[0.854,-6.3],[0.91,-6.3],[0.945,-6.258],[0.987,-6.223],[1.029,-6.216],[1.043,-6.23],[1.036,-6.279],[1.008,-6.335],[0.973,-6.37],[0.945,-6.448],[0.868,-6.525],[0.812,-6.617]]],[[[-0.857,-6.406],[-0.78,-6.413],[-0.682,-6.455],[-0.591,-6.518],[-0.549,-6.581],[-0.535,-6.581],[-0.542,-6.722],[-0.57,-6.891],[-0.612,-6.954],[-0.661,-6.961],[-0.724,-6.877],[-0.731,-6.849],[-0.752,-6.834],[-0.787,-6.75],[-0.829,-6.708],[-0.808,-6.609],[-0.857,-6.525],[-0.864,-6.419],[-0.857,-6.406]]]]},"properties":{"abbr":"AOM","name":"anterior olfactory nucleus, medial part","plate":11,"ap_bregma_mm":4.3,"area_mm2":0.3088,"traced_fraction":[0.986,0.966],"n_labels":2,"no_drawn_outline":false}},{"type":"Feature","geometry":{"type":"MultiPolygon","coordinates":[[[[0.805,-6.638],[0.826,-6.673],[0.987,-6.673],[1.029,-6.778],[1.155,-6.954],[1.001,-7.017],[0.861,-7.01],[0.755,-6.961],[0.776,-6.898],[0.784,-6.673],[0.791,-6.638],[0.805,-6.638]]],[[[-0.829,-6.708],[-0.801,-6.729],[-0.752,-6.834],[-0.731,-6.849],[-0.724,-6.877],[-0.661,-6.961],[-0.696,-6.996],[-0.864,-7.046],[-0.983,-7.06],[-1.032,-7.038],[-1.019,-6.926],[-0.934,-6.736],[-0.829,-6.708]]]]},"properties":{"abbr":"AOVP","name":"anterior olfactory nucleus, ventroposterior part","plate":11,"ap_bregma_mm":4.3,"area_mm2":0.1804,"traced_fraction":[0.978,1.0],"n_labels":2,"no_drawn_outline":false}},{"type":"Feature","geometry":{"type":"MultiPolygon","coordinates":[[[[1.926,-5.519],[2.06,-5.611],[2.172,-5.653],[2.172,-5.674],[2.186,-5.681],[2.06,-6.089],[1.954,-6.286],[1.905,-6.349],[1.814,-6.532],[1.548,-6.912],[1.401,-7.067],[1.365,-7.081],[1.365,-7.095],[1.316,-7.13],[1.274,-7.144],[1.274,-7.13],[1.204,-7.067],[1.169,-6.954],[1.309,-6.799],[1.358,-6.764],[1.45,-6.729],[1.513,-6.659],[1.59,-6.546],[1.632,-6.384],[1.807,-6.173],[1.891,-6.019],[1.919,-5.92],[1.919,-5.772],[1.898,-5.73],[1.737,-5.611],[1.576,-5.554],[1.337,-5.54],[1.204,-5.59],[1.113,-5.54],[1.057,-5.47],[1.057,-5.449],[1.057,-5.435],[1.057,-5.428],[1.085,-5.4],[1.211,-5.358],[1.443,-5.351],[1.702,-5.421],[1.926,-5.519]]],[[[-1.089,-5.568],[-1.11,-5.618],[-1.257,-5.59],[-1.432,-5.59],[-1.6,-5.625],[-1.741,-5.674],[-1.902,-5.751],[-2.014,-5.829],[-2.07,-5.906],[-2.07,-5.948],[-2.049,-6.005],[-2.021,-6.033],[-1.965,-6.159],[-1.832,-6.363],[-1.818,-6.406],[-1.797,-6.419],[-1.691,-6.595],[-1.663,-6.617],[-1.649,-6.659],[-1.6,-6.715],[-1.586,-6.757],[-1.502,-6.884],[-1.439,-6.954],[-1.397,-6.975],[-1.348,-7.024],[-1.355,-7.102],[-1.397,-7.151],[-1.446,-7.172],[-1.593,-6.912],[-1.663,-6.757],[-1.783,-6.581],[-2.133,-6.068],[-2.182,-5.976],[-2.182,-5.92],[-2.133,-5.808],[-2.084,-5.794],[-1.986,-5.709],[-1.804,-5.597],[-1.572,-5.526],[-1.425,-5.505],[-1.25,-5.512],[-1.089,-5.568]]]]},"properties":{"abbr":"lo","name":"lateral olfactory tract","plate":11,"ap_bregma_mm":4.3,"area_mm2":0.7535,"traced_fraction":[0.592,1.0],"n_labels":2,"no_drawn_outline":false}},{"type":"Feature","geometry":{"type":"MultiPolygon","coordinates":[[[[-1.25,-6.406],[-1.166,-6.56],[-1.053,-6.673],[-0.934,-6.736],[-1.019,-6.926],[-1.032,-7.038],[-1.074,-7.031],[-1.229,-6.94],[-1.313,-6.849],[-1.376,-6.736],[-1.327,-6.708],[-1.327,-6.645],[-1.355,-6.525],[-1.411,-6.455],[-1.369,-6.419],[-1.327,-6.406],[-1.25,-6.406]]]]},"properties":{"abbr":"AOV","name":"anterior olfactory nucleus, ventral part","plate":11,"ap_bregma_mm":4.3,"area_mm2":0.1522,"traced_fraction":[0.924],"n_labels":1,"no_drawn_outline":false}},{"type":"Feature","geometry":{"type":"MultiPolygon","coordinates":[[[[0.973,-7.235],[0.818,-7.228],[0.685,-7.193],[0.58,-7.144],[0.37,-7.01],[0.307,-6.926],[0.272,-6.842],[0.216,-6.56],[0.216,-6.173],[0.23,-6.103],[0.307,-5.941],[0.272,-5.878],[0.223,-5.843],[0.209,-5.794],[0.159,-5.266],[0.138,-4.724],[0.146,-4.619],[0.131,-4.478],[0.131,-3.205],[0.159,-3.037],[0.188,-2.952],[0.244,-2.861],[0.342,-2.769],[0.496,-2.685],[0.664,-2.636],[0.91,-2.601],[1.274,-2.579],[1.653,-2.579],[2.011,-2.622],[2.2,-2.671],[2.34,-2.734],[2.536,-2.896],[2.649,-3.044],[2.733,-3.205],[2.845,-3.536],[2.929,-3.937],[2.929,-4.155],[2.901,-4.317],[2.852,-4.485],[2.74,-4.781],[2.396,-5.456],[2.193,-5.646],[2.045,-6.096],[1.8,-6.532],[1.583,-6.856],[1.401,-7.053],[1.316,-7.116],[1.176,-7.193],[1.078,-7.221],[0.994,-7.228],[0.973,-7.235]]],[[[-0.983,-7.341],[-1.159,-7.348],[-1.229,-7.334],[-1.313,-7.306],[-1.411,-7.242],[-1.67,-6.75],[-2.14,-6.047],[-2.182,-5.962],[-2.182,-5.92],[-2.238,-5.822],[-2.217,-5.822],[-2.267,-5.808],[-2.309,-5.758],[-2.526,-5.379],[-2.848,-4.717],[-2.939,-4.478],[-3.003,-4.232],[-3.017,-3.937],[-2.982,-3.705],[-2.89,-3.444],[-2.764,-3.233],[-2.554,-3.001],[-2.322,-2.84],[-2.084,-2.727],[-1.839,-2.657],[-1.537,-2.622],[-1.243,-2.622],[-0.899,-2.678],[-0.633,-2.769],[-0.38,-2.917],[-0.219,-3.072],[-0.128,-3.219],[-0.065,-3.452],[-0.037,-3.859],[-0.086,-4.76],[-0.079,-5.097],[-0.093,-5.351],[-0.156,-5.667],[-0.212,-5.822],[-0.254,-5.906],[-0.296,-5.948],[-0.31,-6.012],[-0.24,-6.124],[-0.247,-6.307],[-0.275,-6.497],[-0.31,-6.588],[-0.31,-6.708],[-0.352,-6.849],[-0.43,-7.01],[-0.542,-7.137],[-0.612,-7.193],[-0.738,-7.264],[-0.955,-7.334],[-0.983,-7.341]]]]},"properties":{"abbr":"brain_outline","name":"outline of the section","plate":11,"ap_bregma_mm":4.3}}]}
