{"type":"FeatureCollection","name":"GerbilAtlas plate 13","note":"Region extents cut from the atlas drawing (METHODS.md, Region extents). Coordinates are [ML, DV] in mm, ML positive to the right of the plate as printed, DV negative below the dorsal surface; AP is the plate bregma. traced_fraction is the share of each polygon boundary the atlas actually draws; below 0.5 the boundary is an estimate. no_drawn_outline marks a feature that lies only inside boundaries the atlas draws round more than one name and prints nothing within, so the whole of its outline is where the extraction cut it. Not a segmentation.","plate":13,"ap_bregma_mm":3.6,"features":[{"type":"Feature","geometry":{"type":"MultiPolygon","coordinates":[[[[2.068,-2.258],[1.963,-2.701],[1.914,-2.99],[1.858,-3.187],[1.731,-3.799],[1.703,-3.876],[1.703,-3.925],[1.605,-3.932],[1.493,-3.974],[1.381,-4.094],[1.346,-4.115],[1.332,-4.115],[1.241,-3.974],[1.143,-3.778],[1.114,-3.749],[0.897,-3.348],[0.841,-3.271],[0.757,-3.102],[0.687,-3.004],[0.504,-2.659],[0.406,-2.512],[0.504,-2.427],[0.687,-2.336],[0.883,-2.265],[1.143,-2.209],[1.402,-2.188],[1.654,-2.195],[1.858,-2.209],[2.068,-2.258]]],[[[-0.456,-2.519],[-0.645,-2.8],[-0.702,-2.912],[-0.961,-3.313],[-0.996,-3.391],[-1.094,-3.524],[-1.15,-3.637],[-1.255,-3.785],[-1.34,-3.939],[-1.508,-4.185],[-1.543,-4.185],[-1.641,-4.136],[-1.718,-4.129],[-1.879,-2.308],[-1.774,-2.287],[-1.473,-2.265],[-1.038,-2.293],[-0.807,-2.35],[-0.624,-2.413],[-0.456,-2.504],[-0.456,-2.519]]]]},"properties":{"abbr":"M2","name":"secondary motor cortex","plate":13,"ap_bregma_mm":3.6,"area_mm2":3.5365,"traced_fraction":[0.987,1.0],"n_labels":2,"no_drawn_outline":false}},{"type":"Feature","geometry":{"type":"MultiPolygon","coordinates":[[[[2.068,-2.258],[2.243,-2.293],[2.566,-2.413],[2.776,-2.526],[2.839,-2.582],[2.874,-2.596],[3.113,-2.821],[3.19,-2.927],[3.302,-3.159],[3.351,-3.363],[3.323,-3.363],[3.148,-3.44],[2.131,-3.939],[1.998,-3.989],[1.907,-4.045],[1.83,-3.974],[1.703,-3.925],[1.703,-3.876],[1.731,-3.799],[2.068,-2.258]]],[[[-1.879,-2.308],[-1.718,-4.129],[-1.774,-4.136],[-1.866,-4.178],[-2.041,-4.031],[-2.209,-3.911],[-2.454,-3.693],[-2.791,-3.44],[-2.98,-3.271],[-3.148,-3.152],[-3.029,-2.962],[-2.791,-2.723],[-2.553,-2.554],[-2.307,-2.427],[-2.027,-2.336],[-1.879,-2.308]]]]},"properties":{"abbr":"M1","name":"primary motor cortex","plate":13,"ap_bregma_mm":3.6,"area_mm2":3.2155,"traced_fraction":[1.0,1.0],"n_labels":2,"no_drawn_outline":false}},{"type":"Feature","geometry":{"type":"MultiPolygon","coordinates":[[[[-3.148,-3.152],[-2.98,-3.271],[-2.791,-3.44],[-2.454,-3.693],[-2.209,-3.911],[-2.041,-4.031],[-1.866,-4.178],[-1.9,-4.207],[-2.034,-4.157],[-2.041,-4.143],[-2.16,-4.087],[-2.216,-4.073],[-2.3,-4.024],[-2.518,-3.939],[-2.938,-3.742],[-3.043,-3.707],[-3.184,-3.63],[-3.31,-3.588],[-3.289,-3.461],[-3.184,-3.201],[-3.148,-3.152]]],[[[3.351,-3.363],[3.351,-3.679],[3.33,-3.799],[3.253,-3.799],[3.113,-3.827],[2.818,-3.911],[2.559,-3.96],[2.376,-4.017],[2.236,-4.038],[1.935,-4.115],[1.921,-4.115],[1.907,-4.045],[1.998,-3.989],[2.131,-3.939],[3.148,-3.44],[3.323,-3.363],[3.351,-3.363]]]]},"properties":{"abbr":"Fr3","name":"frontal cortex, area 3","plate":13,"ap_bregma_mm":3.6,"area_mm2":0.7701,"traced_fraction":[1.0,1.0],"n_labels":2,"no_drawn_outline":false}},{"type":"Feature","geometry":{"type":"MultiPolygon","coordinates":[[[[0.406,-2.512],[0.504,-2.659],[0.687,-3.004],[0.757,-3.102],[0.841,-3.271],[0.897,-3.348],[1.114,-3.749],[1.143,-3.778],[1.241,-3.974],[1.332,-4.115],[1.346,-4.115],[1.325,-4.178],[1.269,-4.256],[1.248,-4.256],[1.143,-4.178],[0.631,-3.897],[0.21,-3.637],[0.126,-3.623],[0.126,-2.955],[0.147,-2.842],[0.252,-2.652],[0.364,-2.533],[0.406,-2.512]]],[[[-0.456,-2.519],[-0.421,-2.533],[-0.281,-2.687],[-0.225,-2.814],[-0.169,-3.194],[-0.162,-3.588],[-0.197,-3.588],[-0.358,-3.672],[-0.667,-3.869],[-0.898,-3.989],[-1.403,-4.291],[-1.417,-4.291],[-1.508,-4.185],[-1.34,-3.939],[-1.255,-3.785],[-1.15,-3.637],[-1.094,-3.524],[-0.996,-3.391],[-0.961,-3.313],[-0.702,-2.912],[-0.645,-2.8],[-0.456,-2.519]]]]},"properties":{"abbr":"Cg1","name":"cingulate cortex, area 1","plate":13,"ap_bregma_mm":3.6,"area_mm2":1.9361,"traced_fraction":[1.0,1.0],"n_labels":2,"no_drawn_outline":false}},{"type":"Feature","geometry":{"type":"MultiPolygon","coordinates":[[[[1.703,-3.925],[1.83,-3.974],[1.907,-4.045],[1.921,-4.115],[1.935,-4.115],[1.914,-4.284],[1.865,-4.382],[1.808,-4.361],[1.654,-4.361],[1.598,-4.375],[1.353,-4.488],[1.213,-4.579],[1.192,-4.537],[1.192,-4.502],[1.269,-4.256],[1.325,-4.178],[1.346,-4.115],[1.381,-4.094],[1.493,-3.974],[1.605,-3.932],[1.703,-3.925]]],[[[-1.718,-4.129],[-1.641,-4.136],[-1.543,-4.185],[-1.508,-4.185],[-1.501,-4.207],[-1.417,-4.291],[-1.403,-4.291],[-1.396,-4.319],[-1.375,-4.333],[-1.29,-4.467],[-1.22,-4.614],[-1.157,-4.783],[-1.15,-4.868],[-1.185,-4.854],[-1.234,-4.804],[-1.396,-4.692],[-1.543,-4.614],[-1.669,-4.579],[-1.76,-4.579],[-1.851,-4.622],[-1.9,-4.572],[-1.936,-4.481],[-1.936,-4.319],[-1.9,-4.207],[-1.866,-4.178],[-1.774,-4.136],[-1.718,-4.129]]]]},"properties":{"abbr":"fmi","name":"forceps minor of the corpus callosum","plate":13,"ap_bregma_mm":3.6,"area_mm2":0.5646,"traced_fraction":[0.965,0.994],"n_labels":2,"no_drawn_outline":false}},{"type":"Feature","geometry":{"type":"MultiPolygon","coordinates":[[[[-0.162,-3.588],[-0.155,-4.031],[-0.176,-4.474],[-0.176,-5.177],[-0.751,-5.128],[-0.933,-5.135],[-0.954,-5.128],[-1.038,-4.994],[-1.15,-4.882],[-1.15,-4.868],[-1.157,-4.783],[-1.22,-4.614],[-1.29,-4.467],[-1.375,-4.333],[-1.396,-4.319],[-1.403,-4.291],[-1.213,-4.171],[-1.094,-4.115],[-0.996,-4.045],[-0.667,-3.869],[-0.358,-3.672],[-0.197,-3.588],[-0.162,-3.588]]],[[[0.126,-3.623],[0.21,-3.637],[0.631,-3.897],[1.143,-4.178],[1.248,-4.256],[1.269,-4.256],[1.192,-4.502],[1.192,-4.537],[1.213,-4.579],[1.185,-4.593],[1.135,-4.678],[1.051,-4.769],[0.932,-4.952],[0.834,-4.952],[0.617,-5.001],[0.154,-5.072],[0.161,-4.636],[0.126,-3.623]]]]},"properties":{"abbr":"PrL","name":"prelimbic cortex","plate":13,"ap_bregma_mm":3.6,"area_mm2":2.4089,"traced_fraction":[1.0,0.998],"n_labels":2,"no_drawn_outline":false}},{"type":"Feature","geometry":{"type":"MultiPolygon","coordinates":[[[[-3.31,-3.588],[-3.184,-3.63],[-3.043,-3.707],[-2.938,-3.742],[-2.518,-3.939],[-2.3,-4.024],[-2.216,-4.073],[-2.16,-4.087],[-2.041,-4.143],[-2.034,-4.157],[-1.9,-4.207],[-1.936,-4.319],[-1.936,-4.481],[-1.9,-4.572],[-1.851,-4.622],[-1.866,-4.657],[-1.921,-4.664],[-2.672,-5.05],[-2.763,-5.079],[-2.966,-4.734],[-3.114,-4.537],[-3.261,-4.228],[-3.31,-4.045],[-3.331,-3.89],[-3.331,-3.672],[-3.31,-3.588]]],[[[3.33,-3.799],[3.281,-4.08],[3.176,-4.354],[3.057,-4.537],[3.001,-4.593],[2.923,-4.72],[2.839,-4.818],[2.832,-4.811],[2.391,-4.643],[1.907,-4.488],[1.9,-4.425],[1.865,-4.396],[1.865,-4.382],[1.914,-4.284],[1.935,-4.115],[2.236,-4.038],[2.376,-4.017],[2.559,-3.96],[2.818,-3.911],[3.113,-3.827],[3.253,-3.799],[3.33,-3.799]]]]},"properties":{"abbr":"S1J","name":"primary somatosensory cortex, jaw region","plate":13,"ap_bregma_mm":3.6,"area_mm2":2.1334,"traced_fraction":[0.997,1.0],"n_labels":2,"no_drawn_outline":false}},{"type":"Feature","geometry":{"type":"MultiPolygon","coordinates":[[[[1.865,-4.382],[1.865,-4.396],[1.9,-4.425],[1.907,-4.488],[1.865,-4.572],[1.816,-4.622],[1.605,-4.692],[1.535,-4.692],[1.458,-4.72],[1.36,-4.762],[1.276,-4.797],[1.079,-4.945],[0.981,-5.044],[0.904,-5.163],[0.834,-5.233],[0.827,-5.191],[0.841,-5.149],[0.932,-4.952],[1.051,-4.769],[1.135,-4.678],[1.185,-4.593],[1.213,-4.579],[1.353,-4.488],[1.598,-4.375],[1.654,-4.361],[1.808,-4.361],[1.865,-4.382]]],[[[-1.15,-4.868],[-1.15,-4.882],[-1.038,-4.994],[-0.954,-5.128],[-0.933,-5.135],[-0.926,-5.184],[-0.856,-5.353],[-0.842,-5.43],[-0.849,-5.515],[-0.877,-5.501],[-0.926,-5.381],[-1.003,-5.269],[-1.143,-5.135],[-1.283,-5.05],[-1.431,-4.994],[-1.515,-4.973],[-1.613,-4.973],[-1.725,-4.938],[-1.809,-4.875],[-1.851,-4.804],[-1.866,-4.748],[-1.866,-4.657],[-1.851,-4.622],[-1.76,-4.579],[-1.669,-4.579],[-1.543,-4.614],[-1.396,-4.692],[-1.234,-4.804],[-1.185,-4.854],[-1.15,-4.868]]]]},"properties":{"abbr":"Cl","name":"claustrum","plate":13,"ap_bregma_mm":3.6,"area_mm2":0.5498,"traced_fraction":[1.0,1.0],"n_labels":2,"no_drawn_outline":false}},{"type":"Feature","geometry":{"type":"MultiPolygon","coordinates":[[[[1.907,-4.488],[2.391,-4.643],[2.832,-4.811],[2.832,-4.825],[2.741,-4.938],[2.622,-5.079],[2.601,-5.079],[2.587,-5.058],[2.446,-4.973],[2.278,-4.896],[2.04,-4.748],[1.9,-4.685],[1.816,-4.622],[1.865,-4.572],[1.907,-4.488]]],[[[-1.866,-4.657],[-1.866,-4.748],[-1.915,-4.762],[-1.985,-4.818],[-2.146,-4.973],[-2.356,-5.135],[-2.546,-5.311],[-2.609,-5.346],[-2.616,-5.346],[-2.763,-5.079],[-2.672,-5.05],[-1.921,-4.664],[-1.866,-4.657]]]]},"properties":{"abbr":"GI","name":"granular insular cortex","plate":13,"ap_bregma_mm":3.6,"area_mm2":0.4278,"traced_fraction":[1.0,1.0],"n_labels":2,"no_drawn_outline":false}},{"type":"Feature","geometry":{"type":"MultiPolygon","coordinates":[[[[1.816,-4.622],[1.9,-4.685],[2.04,-4.748],[2.278,-4.896],[2.446,-4.973],[2.587,-5.058],[2.601,-5.079],[2.622,-5.079],[2.503,-5.24],[2.468,-5.29],[2.391,-5.395],[2.341,-5.501],[2.327,-5.501],[2.222,-5.395],[2.222,-5.381],[2.159,-5.325],[2.159,-5.311],[2.033,-5.184],[2.033,-5.17],[1.97,-5.114],[1.97,-5.1],[1.907,-5.044],[1.844,-4.959],[1.682,-4.797],[1.605,-4.692],[1.816,-4.622]]],[[[-1.866,-4.748],[-1.851,-4.804],[-1.809,-4.875],[-1.866,-4.917],[-1.915,-5.001],[-2.118,-5.247],[-2.132,-5.283],[-2.272,-5.451],[-2.363,-5.592],[-2.426,-5.655],[-2.44,-5.655],[-2.454,-5.634],[-2.497,-5.564],[-2.504,-5.55],[-2.518,-5.522],[-2.539,-5.487],[-2.546,-5.473],[-2.553,-5.458],[-2.567,-5.43],[-2.56,-5.423],[-2.574,-5.423],[-2.581,-5.409],[-2.595,-5.381],[-2.616,-5.346],[-2.609,-5.346],[-2.546,-5.311],[-2.356,-5.135],[-2.146,-4.973],[-1.985,-4.818],[-1.915,-4.762],[-1.866,-4.748]]]]},"properties":{"abbr":"DI","name":"dysgranular insular cortex","plate":13,"ap_bregma_mm":3.6,"area_mm2":0.582,"traced_fraction":[1.0,1.0],"n_labels":2,"no_drawn_outline":false}},{"type":"Feature","geometry":{"type":"MultiPolygon","coordinates":[[[[0.932,-4.952],[0.841,-5.149],[0.827,-5.191],[0.834,-5.233],[0.799,-5.304],[0.75,-5.473],[0.715,-5.747],[0.673,-5.747],[0.245,-5.866],[0.147,-5.88],[0.154,-5.072],[0.617,-5.001],[0.834,-4.952],[0.932,-4.952]]],[[[-0.176,-5.177],[-0.183,-5.888],[-0.849,-5.803],[-0.835,-5.691],[-0.849,-5.515],[-0.842,-5.43],[-0.856,-5.353],[-0.926,-5.184],[-0.933,-5.135],[-0.751,-5.128],[-0.176,-5.177]]]]},"properties":{"abbr":"MO","name":"medial orbital cortex","plate":13,"ap_bregma_mm":3.6,"area_mm2":0.9823,"traced_fraction":[1.0,1.0],"n_labels":2,"no_drawn_outline":false}},{"type":"Feature","geometry":{"type":"MultiPolygon","coordinates":[[[[1.36,-4.762],[1.451,-5.599],[1.493,-5.754],[1.121,-5.866],[0.75,-6.021],[0.729,-5.965],[0.715,-5.747],[0.75,-5.473],[0.799,-5.304],[0.834,-5.233],[0.904,-5.163],[0.981,-5.044],[1.079,-4.945],[1.276,-4.797],[1.36,-4.762]]],[[[-1.613,-4.973],[-1.515,-4.973],[-1.431,-4.994],[-1.283,-5.05],[-1.143,-5.135],[-1.003,-5.269],[-0.926,-5.381],[-0.877,-5.501],[-0.849,-5.515],[-0.835,-5.585],[-0.849,-5.803],[-0.919,-6.12],[-0.996,-6.113],[-1.01,-6.098],[-1.136,-6.077],[-1.269,-6.035],[-1.459,-6.0],[-1.459,-5.831],[-1.487,-5.585],[-1.529,-5.36],[-1.592,-5.142],[-1.613,-4.973]]]]},"properties":{"abbr":"VO","name":"ventral orbital cortex","plate":13,"ap_bregma_mm":3.6,"area_mm2":1.2093,"traced_fraction":[1.0,1.0],"n_labels":2,"no_drawn_outline":false}},{"type":"Feature","geometry":{"type":"MultiPolygon","coordinates":[[[[1.458,-4.72],[1.507,-4.854],[1.703,-5.226],[1.9,-5.557],[2.117,-5.88],[2.047,-5.895],[1.893,-5.817],[1.717,-5.768],[1.633,-5.768],[1.577,-5.775],[1.493,-5.754],[1.451,-5.599],[1.36,-4.762],[1.458,-4.72]]],[[[-1.725,-4.938],[-1.613,-4.973],[-1.592,-5.142],[-1.529,-5.36],[-1.487,-5.585],[-1.459,-5.831],[-1.459,-6.0],[-1.613,-6.0],[-1.662,-6.0],[-1.781,-6.042],[-2.02,-6.169],[-2.111,-6.148],[-1.725,-4.938]]]]},"properties":{"abbr":"LO","name":"lateral orbital cortex","plate":13,"ap_bregma_mm":3.6,"area_mm2":0.7782,"traced_fraction":[1.0,1.0],"n_labels":2,"no_drawn_outline":false}},{"type":"Feature","geometry":{"type":"MultiPolygon","coordinates":[[[[1.605,-4.692],[1.682,-4.797],[1.844,-4.959],[1.844,-4.973],[2.103,-5.247],[2.103,-5.262],[2.222,-5.381],[2.222,-5.395],[2.327,-5.501],[2.341,-5.501],[2.327,-5.522],[2.313,-5.55],[2.306,-5.564],[2.292,-5.592],[2.285,-5.606],[2.278,-5.62],[2.271,-5.634],[2.264,-5.648],[2.257,-5.662],[2.25,-5.677],[2.243,-5.691],[2.229,-5.719],[2.166,-5.845],[2.117,-5.88],[1.9,-5.557],[1.703,-5.226],[1.507,-4.854],[1.458,-4.72],[1.535,-4.692],[1.605,-4.692]]],[[[-1.809,-4.875],[-1.725,-4.938],[-2.111,-6.148],[-2.111,-6.155],[-2.174,-6.127],[-2.223,-6.07],[-2.335,-5.852],[-2.349,-5.824],[-2.44,-5.655],[-2.426,-5.655],[-2.363,-5.592],[-2.272,-5.451],[-2.132,-5.283],[-2.118,-5.247],[-1.915,-5.001],[-1.866,-4.917],[-1.809,-4.875]]]]},"properties":{"abbr":"AI","name":"agranular insular cortex","plate":13,"ap_bregma_mm":3.6,"area_mm2":0.7142,"traced_fraction":[1.0,1.0],"n_labels":2,"no_drawn_outline":false}},{"type":"Feature","geometry":{"type":"MultiPolygon","coordinates":[[[[1.493,-5.754],[1.577,-5.775],[1.437,-5.873],[1.36,-5.944],[1.36,-5.958],[1.29,-6.007],[1.269,-6.07],[1.227,-6.098],[1.107,-6.113],[0.89,-6.204],[0.806,-6.26],[0.729,-6.338],[0.722,-6.366],[0.673,-6.38],[0.518,-6.387],[0.371,-6.422],[0.301,-6.422],[0.196,-6.464],[0.147,-6.464],[0.14,-6.408],[0.175,-6.408],[0.231,-6.38],[0.406,-6.239],[0.75,-6.021],[1.121,-5.866],[1.493,-5.754]]],[[[-1.613,-6.0],[-1.459,-6.0],[-1.269,-6.035],[-1.136,-6.077],[-1.01,-6.098],[-0.996,-6.113],[-0.919,-6.12],[-0.793,-6.176],[-0.484,-6.274],[-0.211,-6.394],[-0.218,-6.45],[-0.33,-6.45],[-0.477,-6.471],[-0.561,-6.471],[-0.716,-6.513],[-0.723,-6.506],[-0.772,-6.408],[-0.849,-6.324],[-0.989,-6.246],[-1.22,-6.246],[-1.368,-6.309],[-1.417,-6.232],[-1.445,-6.19],[-1.494,-6.12],[-1.613,-6.028],[-1.613,-6.0]]]]},"properties":{"abbr":"Dtr","name":"dorsal transition zone","plate":13,"ap_bregma_mm":3.6,"area_mm2":0.5311,"traced_fraction":[1.0,1.0],"n_labels":2,"no_drawn_outline":false}},{"type":"Feature","geometry":{"type":"MultiPolygon","coordinates":[[[[0.715,-5.747],[0.729,-5.965],[0.75,-6.021],[0.406,-6.239],[0.231,-6.38],[0.175,-6.408],[0.14,-6.408],[0.147,-5.88],[0.245,-5.866],[0.673,-5.747],[0.715,-5.747]]],[[[-0.849,-5.803],[-0.183,-5.888],[-0.211,-6.394],[-0.484,-6.274],[-0.793,-6.176],[-0.919,-6.12],[-0.849,-5.803]]]]},"properties":{"abbr":"DP","name":"dorsal peduncular cortex","plate":13,"ap_bregma_mm":3.6,"area_mm2":0.5314,"traced_fraction":[1.0,1.0],"n_labels":2,"no_drawn_outline":false}},{"type":"Feature","geometry":{"type":"MultiPolygon","coordinates":[[[[1.367,-6.76],[1.318,-6.732],[1.304,-6.689],[1.353,-6.633],[1.374,-6.57],[1.479,-6.422],[1.493,-6.422],[1.493,-6.408],[1.507,-6.408],[1.507,-6.394],[1.521,-6.394],[1.521,-6.38],[1.542,-6.373],[1.542,-6.359],[1.563,-6.352],[1.563,-6.338],[1.577,-6.338],[1.584,-6.317],[1.598,-6.317],[1.598,-6.302],[1.612,-6.302],[1.668,-6.225],[1.738,-6.162],[1.774,-6.105],[1.774,-6.07],[1.745,-6.049],[1.633,-6.049],[1.388,-6.098],[1.318,-6.098],[1.269,-6.07],[1.29,-6.007],[1.36,-5.958],[1.458,-5.979],[1.759,-5.937],[1.851,-5.965],[1.893,-6.021],[1.886,-6.084],[1.844,-6.162],[1.689,-6.309],[1.577,-6.478],[1.486,-6.577],[1.367,-6.76]]],[[[-1.445,-6.19],[-1.417,-6.232],[-1.501,-6.281],[-1.732,-6.288],[-1.788,-6.302],[-1.823,-6.324],[-1.844,-6.394],[-1.809,-6.443],[-1.697,-6.52],[-1.564,-6.654],[-1.487,-6.753],[-1.466,-6.802],[-1.452,-6.802],[-1.403,-6.907],[-1.396,-6.992],[-1.417,-7.027],[-1.431,-7.027],[-1.459,-6.971],[-1.501,-6.928],[-1.662,-6.675],[-1.683,-6.668],[-1.725,-6.612],[-1.809,-6.556],[-1.809,-6.542],[-1.823,-6.542],[-1.858,-6.499],[-1.872,-6.499],[-1.929,-6.443],[-1.964,-6.38],[-1.964,-6.331],[-1.95,-6.302],[-1.929,-6.295],[-1.929,-6.281],[-1.872,-6.239],[-1.866,-6.218],[-1.816,-6.19],[-1.445,-6.19]]]]},"properties":{"abbr":"Pir","name":"piriform cortex","plate":13,"ap_bregma_mm":3.6,"area_mm2":0.2677,"traced_fraction":[1.0,0.997],"n_labels":2,"no_drawn_outline":false}},{"type":"Feature","geometry":{"type":"MultiPolygon","coordinates":[[[[1.227,-6.098],[1.241,-6.141],[1.283,-6.162],[1.437,-6.162],[1.465,-6.183],[1.465,-6.267],[1.402,-6.373],[1.227,-6.373],[1.185,-6.331],[1.1,-6.324],[0.988,-6.387],[0.988,-6.401],[0.932,-6.401],[0.722,-6.366],[0.729,-6.338],[0.806,-6.26],[0.89,-6.204],[1.107,-6.113],[1.227,-6.098]]],[[[-0.723,-6.506],[-0.779,-6.528],[-0.954,-6.556],[-0.954,-6.513],[-1.01,-6.513],[-1.017,-6.499],[-1.087,-6.485],[-1.101,-6.464],[-1.22,-6.436],[-1.262,-6.436],[-1.332,-6.464],[-1.332,-6.478],[-1.368,-6.506],[-1.368,-6.556],[-1.522,-6.556],[-1.55,-6.542],[-1.606,-6.471],[-1.62,-6.401],[-1.557,-6.345],[-1.368,-6.309],[-1.22,-6.246],[-0.989,-6.246],[-0.849,-6.324],[-0.772,-6.408],[-0.723,-6.506]]]]},"properties":{"abbr":"DEn","name":"dorsal endopiriform nucleus","plate":13,"ap_bregma_mm":3.6,"area_mm2":0.321,"traced_fraction":[0.946,0.949],"n_labels":2,"no_drawn_outline":false}},{"type":"Feature","geometry":{"type":"MultiPolygon","coordinates":[[[[-2.076,-6.239],[-2.062,-6.26],[-2.055,-6.366],[-1.964,-6.584],[-1.837,-6.767],[-1.823,-6.767],[-1.823,-6.781],[-1.725,-6.879],[-1.711,-6.879],[-1.634,-6.978],[-1.592,-7.076],[-1.606,-7.132],[-1.613,-7.132],[-1.711,-6.999],[-1.879,-6.858],[-2.09,-6.429],[-2.111,-6.345],[-2.111,-6.281],[-2.076,-6.239]]]]},"properties":{"abbr":"lo","name":"lateral olfactory tract","plate":13,"ap_bregma_mm":3.6,"area_mm2":0.0651,"traced_fraction":[1.0],"n_labels":1,"no_drawn_outline":false}},{"type":"Feature","geometry":{"type":"MultiPolygon","coordinates":[[[[0.722,-6.366],[0.932,-6.401],[0.904,-6.492],[0.904,-6.57],[0.883,-6.584],[0.848,-6.584],[0.778,-6.549],[0.701,-6.549],[0.603,-6.605],[0.56,-6.598],[0.575,-6.542],[0.659,-6.429],[0.673,-6.38],[0.722,-6.366]]]]},"properties":{"abbr":"3","name":"layer 3 of cortex","plate":13,"ap_bregma_mm":3.6,"area_mm2":0.0556,"traced_fraction":[1.0],"n_labels":1,"no_drawn_outline":false}},{"type":"Feature","geometry":{"type":"MultiPolygon","coordinates":[[[[-0.477,-6.471],[-0.456,-6.577],[-0.456,-6.682],[-0.477,-6.746],[-0.477,-6.795],[-0.554,-6.935],[-0.568,-7.02],[-0.631,-7.118],[-0.694,-7.175],[-0.779,-7.224],[-0.954,-7.266],[-1.066,-7.252],[-1.101,-7.21],[-1.108,-7.146],[-1.045,-7.118],[-1.003,-7.125],[-0.919,-7.111],[-0.8,-7.062],[-0.737,-7.006],[-0.681,-6.914],[-0.66,-6.886],[-0.673,-6.675],[-0.681,-6.612],[-0.716,-6.513],[-0.561,-6.471],[-0.477,-6.471]]],[[[0.575,-6.9],[0.617,-6.907],[0.638,-6.957],[0.743,-7.013],[0.82,-7.02],[0.862,-6.999],[0.883,-6.957],[0.897,-6.957],[0.939,-6.971],[0.981,-7.02],[0.925,-7.125],[0.869,-7.182],[0.834,-7.196],[0.764,-7.196],[0.666,-7.175],[0.546,-7.118],[0.483,-7.055],[0.455,-6.992],[0.455,-6.957],[0.575,-6.9]]]]},"properties":{"abbr":"2","name":"layer 2 of cortex","plate":13,"ap_bregma_mm":3.6,"area_mm2":0.2668,"traced_fraction":[1.0,1.0],"n_labels":3,"no_drawn_outline":false}},{"type":"Feature","geometry":{"type":"MultiPolygon","coordinates":[[[[-0.723,-6.506],[-0.716,-6.513],[-0.681,-6.612],[-0.673,-6.675],[-0.765,-6.682],[-0.884,-6.668],[-1.038,-6.703],[-1.045,-6.696],[-1.052,-6.682],[-1.031,-6.682],[-1.003,-6.633],[-0.989,-6.57],[-0.954,-6.556],[-0.779,-6.528],[-0.723,-6.506]]],[[[0.883,-6.584],[0.89,-6.675],[0.904,-6.703],[0.862,-6.809],[0.799,-6.872],[0.722,-6.907],[0.617,-6.907],[0.575,-6.9],[0.532,-6.781],[0.532,-6.696],[0.56,-6.598],[0.603,-6.605],[0.701,-6.549],[0.778,-6.549],[0.848,-6.584],[0.883,-6.584]]]]},"properties":{"abbr":"AOM","name":"anterior olfactory nucleus, medial part","plate":13,"ap_bregma_mm":3.6,"area_mm2":0.1508,"traced_fraction":[1.0,0.977],"n_labels":1,"no_drawn_outline":false}},{"type":"Feature","geometry":{"type":"MultiPolygon","coordinates":[[[[1.227,-6.373],[1.402,-6.373],[1.311,-6.52],[1.283,-6.64],[1.22,-6.682],[1.206,-6.71],[1.143,-6.746],[1.072,-6.753],[1.058,-6.739],[1.164,-6.633],[1.213,-6.549],[1.234,-6.485],[1.227,-6.373]]],[[[-1.522,-6.556],[-1.368,-6.556],[-1.361,-6.591],[-1.319,-6.647],[-1.234,-6.703],[-1.164,-6.717],[-1.045,-6.703],[-1.038,-6.703],[-1.059,-6.732],[-1.066,-6.774],[-1.087,-6.774],[-1.108,-6.802],[-1.192,-6.844],[-1.361,-6.837],[-1.389,-6.724],[-1.473,-6.612],[-1.501,-6.598],[-1.522,-6.556]]]]},"properties":{"abbr":"IEn","name":"intermediate endopiriform nucleus","plate":13,"ap_bregma_mm":3.6,"area_mm2":0.1022,"traced_fraction":[0.907,0.941],"n_labels":2,"no_drawn_outline":false}},{"type":"Feature","geometry":{"type":"MultiPolygon","coordinates":[[[[0.371,-6.422],[0.357,-6.478],[0.357,-6.654],[0.406,-6.844],[0.196,-6.858],[0.161,-6.661],[0.147,-6.464],[0.196,-6.464],[0.301,-6.422],[0.371,-6.422]]]]},"properties":{"abbr":"DTT","name":"dorsal tenia tecta","plate":13,"ap_bregma_mm":3.6,"area_mm2":0.0841,"traced_fraction":[0.888],"n_labels":1,"no_drawn_outline":false}},{"type":"Feature","geometry":{"type":"MultiPolygon","coordinates":[[[[-1.066,-6.774],[-1.066,-6.816],[-1.031,-6.865],[-0.968,-6.9],[-0.877,-6.921],[-0.905,-6.978],[-0.919,-6.978],[-0.926,-6.999],[-0.968,-7.027],[-1.045,-7.118],[-1.108,-7.146],[-1.178,-7.153],[-1.305,-7.132],[-1.375,-7.097],[-1.417,-7.027],[-1.396,-6.992],[-1.403,-6.907],[-1.375,-6.893],[-1.361,-6.837],[-1.192,-6.844],[-1.15,-6.83],[-1.087,-6.774],[-1.066,-6.774]]]]},"properties":{"abbr":"AOVP","name":"anterior olfactory nucleus, ventroposterior part","plate":13,"ap_bregma_mm":3.6,"area_mm2":0.1281,"traced_fraction":[1.0],"n_labels":1,"no_drawn_outline":false}},{"type":"Feature","geometry":{"type":"MultiPolygon","coordinates":[[[[1.227,-6.373],[1.234,-6.485],[1.213,-6.549],[1.164,-6.633],[1.058,-6.739],[0.967,-6.732],[0.904,-6.703],[0.89,-6.675],[0.883,-6.584],[0.904,-6.57],[0.939,-6.57],[0.96,-6.549],[0.981,-6.485],[0.988,-6.401],[0.988,-6.387],[1.1,-6.324],[1.185,-6.331],[1.227,-6.373]]]]},"properties":{"abbr":"E","name":"ependyma and subependymal layer","plate":13,"ap_bregma_mm":3.6,"area_mm2":0.0953,"traced_fraction":[0.972],"n_labels":4,"no_drawn_outline":false}},{"type":"Feature","geometry":{"type":"MultiPolygon","coordinates":[[[[1.633,-5.768],[1.682,-5.775],[1.696,-5.803],[1.753,-5.831],[1.858,-5.852],[1.977,-5.902],[2.019,-5.944],[2.026,-6.028],[1.977,-6.155],[1.9,-6.295],[1.802,-6.429],[1.759,-6.528],[1.654,-6.675],[1.654,-6.696],[1.612,-6.746],[1.612,-6.767],[1.563,-6.851],[1.346,-7.153],[1.325,-7.196],[1.332,-7.224],[1.318,-7.224],[1.318,-7.238],[1.269,-7.28],[1.121,-7.343],[0.869,-7.386],[0.631,-7.379],[0.476,-7.336],[0.364,-7.28],[0.266,-7.175],[0.196,-6.858],[0.406,-6.844],[0.42,-6.907],[0.455,-6.957],[0.455,-6.992],[0.483,-7.055],[0.546,-7.118],[0.666,-7.175],[0.764,-7.196],[0.834,-7.196],[0.869,-7.182],[0.925,-7.125],[0.981,-7.02],[1.093,-7.041],[1.198,-7.041],[1.248,-7.02],[1.311,-6.914],[1.367,-6.76],[1.486,-6.577],[1.598,-6.45],[1.661,-6.345],[1.844,-6.162],[1.886,-6.084],[1.893,-6.021],[1.851,-5.965],[1.759,-5.937],[1.458,-5.979],[1.36,-5.958],[1.36,-5.944],[1.437,-5.873],[1.577,-5.775],[1.633,-5.768]]]]},"properties":{"abbr":"VTT","name":"ventral tenia tecta","plate":13,"ap_bregma_mm":3.6,"area_mm2":0.5995,"traced_fraction":[0.978],"n_labels":1,"no_drawn_outline":false}},{"type":"Feature","geometry":{"type":"Polygon","coordinates":[[[2.117,-5.88],[2.096,-5.93],[2.103,-6.0],[2.012,-6.246],[1.844,-6.556],[1.654,-6.837],[1.535,-7.041],[1.409,-7.189],[1.339,-7.231],[1.332,-7.224],[1.325,-7.196],[1.346,-7.153],[1.563,-6.851],[1.612,-6.767],[1.612,-6.746],[1.654,-6.696],[1.654,-6.675],[1.759,-6.528],[1.802,-6.429],[1.9,-6.295],[1.977,-6.155],[2.026,-6.028],[2.019,-5.944],[1.977,-5.902],[1.858,-5.852],[1.753,-5.831],[1.696,-5.803],[1.682,-5.775],[1.633,-5.768],[1.717,-5.768],[1.893,-5.817],[2.047,-5.895],[2.117,-5.88]]]},"properties":{"abbr":null,"name":"unnamed sealed face","plate":13,"ap_bregma_mm":3.6,"index":0}},{"type":"Feature","geometry":{"type":"Polygon","coordinates":[[[-1.613,-6.0],[-1.613,-6.028],[-1.494,-6.12],[-1.445,-6.19],[-1.816,-6.19],[-1.866,-6.218],[-1.866,-6.232],[-1.95,-6.302],[-1.964,-6.331],[-1.964,-6.38],[-1.929,-6.443],[-1.872,-6.499],[-1.858,-6.499],[-1.823,-6.542],[-1.809,-6.542],[-1.809,-6.556],[-1.725,-6.612],[-1.718,-6.633],[-1.662,-6.675],[-1.55,-6.858],[-1.459,-6.971],[-1.431,-7.027],[-1.417,-7.027],[-1.375,-7.097],[-1.305,-7.132],[-1.178,-7.153],[-1.108,-7.146],[-1.101,-7.21],[-1.066,-7.252],[-0.954,-7.266],[-0.779,-7.224],[-0.694,-7.175],[-0.631,-7.118],[-0.568,-7.02],[-0.554,-6.935],[-0.477,-6.795],[-0.477,-6.746],[-0.456,-6.682],[-0.456,-6.577],[-0.477,-6.471],[-0.33,-6.45],[-0.218,-6.45],[-0.246,-6.76],[-0.309,-7.027],[-0.379,-7.168],[-0.456,-7.252],[-0.652,-7.364],[-0.996,-7.484],[-1.185,-7.484],[-1.368,-7.393],[-1.543,-7.238],[-1.613,-7.132],[-1.606,-7.132],[-1.592,-7.076],[-1.634,-6.978],[-1.711,-6.879],[-1.725,-6.879],[-1.823,-6.781],[-1.823,-6.767],[-1.837,-6.767],[-1.964,-6.584],[-2.055,-6.366],[-2.062,-6.26],[-2.076,-6.239],[-2.111,-6.155],[-2.111,-6.148],[-2.02,-6.169],[-1.781,-6.042],[-1.662,-6.0],[-1.613,-6.0]]]},"properties":{"abbr":null,"name":"unnamed sealed face","plate":13,"ap_bregma_mm":3.6,"index":1}},{"type":"Feature","geometry":{"type":"Polygon","coordinates":[[[1.367,-6.76],[1.311,-6.914],[1.248,-7.02],[1.198,-7.041],[1.093,-7.041],[0.981,-7.02],[0.939,-6.971],[0.897,-6.957],[0.883,-6.957],[0.862,-6.999],[0.82,-7.02],[0.743,-7.013],[0.638,-6.957],[0.617,-6.907],[0.722,-6.907],[0.799,-6.872],[0.862,-6.809],[0.904,-6.703],[0.967,-6.732],[1.058,-6.739],[1.072,-6.753],[1.143,-6.746],[1.206,-6.71],[1.22,-6.682],[1.283,-6.64],[1.311,-6.52],[1.402,-6.373],[1.465,-6.267],[1.465,-6.183],[1.437,-6.162],[1.283,-6.162],[1.241,-6.141],[1.227,-6.098],[1.269,-6.07],[1.318,-6.098],[1.388,-6.098],[1.633,-6.049],[1.745,-6.049],[1.774,-6.07],[1.774,-6.105],[1.738,-6.162],[1.668,-6.225],[1.619,-6.295],[1.598,-6.302],[1.598,-6.317],[1.584,-6.317],[1.584,-6.331],[1.563,-6.338],[1.563,-6.352],[1.549,-6.352],[1.493,-6.422],[1.479,-6.422],[1.374,-6.57],[1.353,-6.633],[1.304,-6.689],[1.318,-6.732],[1.367,-6.76]]]},"properties":{"abbr":null,"name":"unnamed sealed face","plate":13,"ap_bregma_mm":3.6,"index":2}},{"type":"Feature","geometry":{"type":"Polygon","coordinates":[[[-1.417,-6.232],[-1.368,-6.309],[-1.557,-6.345],[-1.62,-6.401],[-1.606,-6.471],[-1.571,-6.52],[-1.522,-6.556],[-1.501,-6.598],[-1.473,-6.612],[-1.389,-6.724],[-1.361,-6.837],[-1.375,-6.893],[-1.403,-6.907],[-1.452,-6.802],[-1.466,-6.802],[-1.473,-6.774],[-1.564,-6.654],[-1.648,-6.577],[-1.648,-6.563],[-1.809,-6.443],[-1.844,-6.394],[-1.823,-6.324],[-1.788,-6.302],[-1.732,-6.288],[-1.501,-6.281],[-1.417,-6.232]]]},"properties":{"abbr":null,"name":"unnamed sealed face","plate":13,"ap_bregma_mm":3.6,"index":3}},{"type":"Feature","geometry":{"type":"Polygon","coordinates":[[[0.673,-6.38],[0.659,-6.429],[0.575,-6.542],[0.56,-6.598],[0.532,-6.696],[0.532,-6.781],[0.575,-6.9],[0.455,-6.957],[0.42,-6.907],[0.406,-6.844],[0.357,-6.654],[0.357,-6.478],[0.371,-6.422],[0.518,-6.387],[0.673,-6.38]]]},"properties":{"abbr":null,"name":"unnamed sealed face","plate":13,"ap_bregma_mm":3.6,"index":4}},{"type":"Feature","geometry":{"type":"Polygon","coordinates":[[[-0.954,-6.556],[-0.989,-6.57],[-1.003,-6.633],[-1.031,-6.682],[-1.052,-6.682],[-1.045,-6.696],[-1.045,-6.703],[-1.136,-6.717],[-1.234,-6.703],[-1.319,-6.647],[-1.361,-6.591],[-1.368,-6.556],[-1.375,-6.528],[-1.361,-6.492],[-1.347,-6.492],[-1.332,-6.464],[-1.262,-6.436],[-1.178,-6.443],[-1.101,-6.464],[-1.087,-6.485],[-1.017,-6.499],[-1.01,-6.513],[-0.954,-6.513],[-0.954,-6.556]]]},"properties":{"abbr":null,"name":"unnamed sealed face","plate":13,"ap_bregma_mm":3.6,"index":5}},{"type":"Feature","geometry":{"type":"Polygon","coordinates":[[[-0.673,-6.675],[-0.66,-6.886],[-0.681,-6.914],[-0.877,-6.921],[-0.968,-6.9],[-1.031,-6.865],[-1.066,-6.816],[-1.066,-6.774],[-1.059,-6.732],[-1.038,-6.703],[-0.884,-6.668],[-0.765,-6.682],[-0.673,-6.675]]]},"properties":{"abbr":null,"name":"unnamed sealed face","plate":13,"ap_bregma_mm":3.6,"index":6}},{"type":"Feature","geometry":{"type":"Polygon","coordinates":[[[-0.681,-6.914],[-0.737,-7.006],[-0.8,-7.062],[-0.919,-7.111],[-1.003,-7.125],[-1.045,-7.118],[-1.01,-7.069],[-0.954,-7.027],[-0.919,-6.978],[-0.905,-6.978],[-0.877,-6.921],[-0.681,-6.914]]]},"properties":{"abbr":null,"name":"unnamed sealed face","plate":13,"ap_bregma_mm":3.6,"index":7}},{"type":"Feature","geometry":{"type":"MultiPolygon","coordinates":[[[[0.932,-7.364],[0.841,-7.379],[0.645,-7.372],[0.476,-7.329],[0.364,-7.273],[0.294,-7.21],[0.266,-7.16],[0.189,-6.844],[0.147,-6.52],[0.14,-6.317],[0.161,-4.755],[0.126,-3.538],[0.126,-2.969],[0.147,-2.849],[0.231,-2.68],[0.357,-2.54],[0.497,-2.434],[0.673,-2.343],[0.89,-2.265],[1.156,-2.209],[1.451,-2.188],[1.837,-2.209],[2.229,-2.293],[2.552,-2.413],[2.755,-2.519],[2.874,-2.603],[3.099,-2.814],[3.176,-2.919],[3.267,-3.088],[3.316,-3.229],[3.344,-3.363],[3.344,-3.651],[3.274,-4.066],[3.155,-4.375],[2.888,-4.748],[2.559,-5.149],[2.391,-5.388],[2.187,-5.789],[2.152,-5.845],[2.117,-5.866],[2.089,-5.937],[2.096,-5.979],[2.082,-6.028],[1.998,-6.253],[1.83,-6.556],[1.521,-7.041],[1.409,-7.175],[1.248,-7.28],[1.107,-7.336],[0.939,-7.364],[0.932,-7.364]]],[[[-1.017,-7.477],[-1.178,-7.477],[-1.34,-7.407],[-1.536,-7.238],[-1.725,-6.985],[-1.879,-6.851],[-2.083,-6.436],[-2.111,-6.331],[-2.111,-6.281],[-2.076,-6.232],[-2.118,-6.141],[-2.174,-6.12],[-2.216,-6.07],[-2.735,-5.128],[-2.973,-4.727],[-3.12,-4.516],[-3.261,-4.214],[-3.31,-4.031],[-3.331,-3.862],[-3.331,-3.686],[-3.289,-3.468],[-3.169,-3.173],[-3.022,-2.955],[-2.798,-2.73],[-2.56,-2.561],[-2.321,-2.434],[-2.02,-2.336],[-1.76,-2.287],[-1.417,-2.265],[-1.059,-2.293],[-0.821,-2.35],[-0.639,-2.413],[-0.512,-2.476],[-0.421,-2.54],[-0.295,-2.68],[-0.253,-2.758],[-0.225,-2.849],[-0.183,-3.138],[-0.169,-3.348],[-0.162,-3.911],[-0.183,-4.579],[-0.19,-5.909],[-0.204,-6.253],[-0.253,-6.739],[-0.316,-7.013],[-0.386,-7.16],[-0.456,-7.238],[-0.645,-7.35],[-0.989,-7.47],[-1.017,-7.477]]]]},"properties":{"abbr":"brain_outline","name":"outline of the section","plate":13,"ap_bregma_mm":3.6}}]}
