{"type":"FeatureCollection","name":"GerbilAtlas plate 02","note":"Region extents cut from the atlas drawing (METHODS.md, Region extents). Coordinates are [ML, DV] in mm, ML positive to the right of the plate as printed, DV negative below the dorsal surface; AP is the plate bregma. traced_fraction is the share of each polygon boundary the atlas actually draws; below 0.5 the boundary is an estimate. Not a segmentation.","plate":2,"ap_bregma_mm":7.45,"features":[{"type":"Feature","geometry":{"type":"MultiPolygon","coordinates":[[[[-0.469,-6.181],[-0.524,-6.188],[-0.658,-5.59],[-0.588,-5.217],[-0.49,-5.063],[-0.356,-4.76],[-0.447,-4.542],[-0.532,-4.472],[-0.644,-4.493],[-1.128,-4.725],[-1.205,-4.76],[-1.212,-4.697],[-0.616,-4.416],[-0.454,-4.458],[-0.335,-4.577],[-0.314,-4.83],[-0.602,-5.428],[-0.595,-5.689],[-0.469,-6.181],[-0.469,-6.181]]],[[[1.249,-5.077],[1.284,-4.824],[1.221,-4.753],[0.899,-4.514],[1.109,-4.57],[1.319,-4.767],[1.334,-4.929],[1.249,-5.077],[1.249,-5.077]]]]},"properties":{"abbr":"IPl","name":"internal plexiform layer of the olfactory bulb","plate":2,"ap_bregma_mm":7.45,"area_mm2":0.1853,"traced_fraction":[1.0,1.0],"n_labels":2}},{"type":"Feature","geometry":{"type":"MultiPolygon","coordinates":[[[[-1.064,-4.197],[-1.345,-4.268],[-1.639,-4.437],[-1.541,-4.289],[-1.604,-4.233],[-1.717,-4.254],[-1.681,-4.12],[-1.632,-4.19],[-1.534,-4.12],[-1.471,-4.31],[-1.303,-4.219],[-1.387,-4.162],[-1.387,-4.015],[-1.219,-4.001],[-1.219,-4.212],[-1.064,-4.197],[-1.064,-4.197]]]]},"properties":{"abbr":"Mi","name":"mitral cell layer of the olfactory bulb","plate":2,"ap_bregma_mm":7.45,"area_mm2":0.0728,"traced_fraction":[1.0],"n_labels":2}},{"type":"Feature","geometry":{"type":"MultiPolygon","coordinates":[[[[0.899,-4.078],[1.018,-4.106],[1.172,-4.233],[1.523,-4.366],[1.768,-4.76],[1.803,-5.027],[1.642,-5.288],[1.502,-5.759],[1.635,-6.434],[1.418,-6.645],[1.228,-6.814],[0.85,-6.891],[0.527,-6.884],[0.317,-6.786],[0.177,-6.61],[0.071,-6.258],[0.156,-5.33],[-0.006,-4.852],[-0.013,-4.837],[-0.062,-4.859],[-0.181,-5.477],[-0.118,-6.336],[-0.223,-6.708],[-0.412,-6.863],[-0.672,-6.969],[-1.254,-6.962],[-1.639,-6.673],[-1.66,-5.871],[-1.857,-5.632],[-1.976,-5.344],[-1.941,-4.943],[-1.766,-4.676],[-1.759,-4.584],[-1.436,-4.352],[-0.945,-4.183],[-0.882,-4.176],[-0.496,-4.247],[-0.174,-4.387],[-0.041,-4.563],[-0.02,-4.781],[0.036,-4.5],[0.043,-4.486],[0.043,-4.486],[0.05,-4.472],[0.05,-4.472],[0.078,-4.416],[0.282,-4.219],[0.52,-4.113],[0.471,-4.106],[0.899,-4.078],[0.899,-4.078]]],[[[0.604,-4.205],[0.31,-4.324],[0.156,-4.535],[0.184,-4.943],[0.338,-5.295],[0.226,-6.244],[0.31,-6.504],[0.464,-6.68],[0.66,-6.751],[1.088,-6.765],[1.341,-6.603],[1.446,-6.455],[1.319,-5.703],[1.376,-5.386],[1.586,-5.006],[1.593,-4.781],[1.495,-4.556],[1.305,-4.409],[0.927,-4.24],[0.604,-4.205],[0.604,-4.205]]],[[[-0.777,-4.282],[-1.555,-4.626],[-1.723,-4.936],[-1.717,-5.316],[-1.387,-5.843],[-1.457,-6.624],[-1.38,-6.729],[-1.254,-6.779],[-0.574,-6.744],[-0.37,-6.589],[-0.307,-6.364],[-0.37,-5.414],[-0.223,-5.133],[-0.139,-4.641],[-0.272,-4.409],[-0.482,-4.317],[-0.777,-4.282],[-0.777,-4.282]]]]},"properties":{"abbr":"Gl","name":"glomerular layer of the olfactory bulb","plate":2,"ap_bregma_mm":7.45,"area_mm2":2.4442,"traced_fraction":[0.973,1.0,0.942],"n_labels":2}},{"type":"Feature","geometry":{"type":"MultiPolygon","coordinates":[[[[0.604,-4.205],[0.927,-4.24],[1.305,-4.409],[1.495,-4.556],[1.593,-4.781],[1.586,-5.006],[1.376,-5.386],[1.319,-5.703],[1.446,-6.455],[1.341,-6.603],[1.088,-6.765],[0.66,-6.751],[0.464,-6.68],[0.31,-6.504],[0.226,-6.244],[0.338,-5.295],[0.184,-4.943],[0.156,-4.535],[0.31,-4.324],[0.604,-4.205],[0.604,-4.205]]],[[[-0.777,-4.282],[-0.539,-4.303],[-0.272,-4.409],[-0.139,-4.641],[-0.223,-5.133],[-0.37,-5.414],[-0.307,-6.364],[-0.37,-6.589],[-0.574,-6.744],[-1.254,-6.779],[-1.38,-6.729],[-1.457,-6.624],[-1.387,-5.843],[-1.717,-5.316],[-1.723,-4.936],[-1.555,-4.626],[-0.777,-4.282],[-0.777,-4.282]]],[[[0.436,-4.409],[0.422,-4.416],[0.31,-4.549],[0.331,-4.683],[0.338,-4.704],[0.331,-4.809],[0.366,-4.837],[0.373,-4.795],[0.471,-5.02],[0.478,-5.041],[0.576,-5.33],[0.576,-5.344],[0.436,-6.019],[0.457,-6.216],[0.45,-6.216],[0.443,-6.35],[0.52,-6.42],[0.639,-6.532],[0.766,-6.617],[0.997,-6.596],[1.151,-6.589],[1.27,-6.497],[1.193,-6.195],[1.088,-6.054],[1.109,-5.358],[1.158,-5.245],[1.249,-5.077],[1.334,-4.929],[1.319,-4.767],[1.109,-4.57],[0.899,-4.514],[0.815,-4.465],[0.59,-4.345],[0.464,-4.352],[0.436,-4.409],[0.436,-4.409]]],[[[-1.212,-4.697],[-1.394,-4.83],[-1.492,-5.02],[-1.457,-5.238],[-1.254,-5.541],[-1.149,-5.822],[-1.17,-6.061],[-1.359,-6.582],[-1.12,-6.687],[-0.693,-6.617],[-0.518,-6.462],[-0.469,-6.181],[-0.595,-5.689],[-0.602,-5.428],[-0.314,-4.83],[-0.335,-4.577],[-0.454,-4.458],[-0.616,-4.416],[-1.212,-4.697],[-1.212,-4.697]]]]},"properties":{"abbr":"EPl","name":"external plexiform layer of the olfactory bulb","plate":2,"ap_bregma_mm":7.45,"area_mm2":2.542,"traced_fraction":[1.0,0.942,0.98,0.989],"n_labels":2}},{"type":"Feature","geometry":{"type":"MultiPolygon","coordinates":[[[[1.018,-4.106],[1.144,-4.106],[1.179,-4.113],[1.663,-4.345],[1.698,-4.387],[1.712,-4.401],[1.719,-4.416],[1.719,-4.416],[1.733,-4.43],[1.845,-4.62],[1.852,-4.641],[1.852,-4.641],[1.859,-4.662],[1.859,-4.662],[1.887,-4.676],[1.957,-4.915],[1.965,-4.943],[2.098,-5.541],[2.112,-5.808],[1.866,-6.23],[1.635,-6.434],[1.502,-5.759],[1.642,-5.288],[1.803,-5.027],[1.768,-4.76],[1.523,-4.366],[1.172,-4.233],[1.018,-4.106],[1.018,-4.106]]],[[[-1.759,-4.584],[-1.766,-4.676],[-1.941,-4.943],[-1.976,-5.344],[-1.857,-5.632],[-1.66,-5.871],[-1.639,-6.673],[-1.688,-6.652],[-1.983,-6.209],[-2.088,-5.759],[-2.095,-5.928],[-2.088,-5.323],[-2.088,-5.323],[-2.081,-5.14],[-2.074,-5.302],[-1.976,-4.915],[-1.759,-4.584],[-1.759,-4.584]]],[[[-0.013,-4.837],[-0.006,-4.852],[0.156,-5.33],[0.071,-6.258],[0.177,-6.61],[0.317,-6.786],[0.527,-6.884],[0.78,-6.898],[1.228,-6.814],[1.004,-7.032],[0.611,-7.236],[0.198,-7.222],[0.057,-7.109],[-0.013,-6.926],[-0.153,-7.137],[-0.461,-7.264],[-0.377,-7.271],[-0.679,-7.278],[-1.015,-7.151],[-1.254,-6.962],[-0.672,-6.969],[-0.412,-6.863],[-0.223,-6.708],[-0.118,-6.336],[-0.181,-5.477],[-0.062,-4.859],[-0.013,-4.837],[-0.013,-4.837]]]]},"properties":{"abbr":"ON","name":"olfactory nerve layer","plate":2,"ap_bregma_mm":7.45,"area_mm2":2.3117,"traced_fraction":[1.0,0.986,0.956],"n_labels":4}},{"type":"Feature","geometry":{"type":"MultiPolygon","coordinates":[[[[0.815,-4.465],[0.899,-4.514],[1.221,-4.753],[1.249,-4.95],[1.144,-5.168],[1.158,-5.245],[1.109,-5.358],[0.997,-5.773],[1.088,-6.054],[1.228,-6.476],[0.997,-6.596],[0.885,-6.589],[0.829,-6.568],[0.885,-6.589],[0.639,-6.532],[0.52,-6.42],[0.45,-6.216],[0.457,-6.216],[0.464,-6.132],[0.492,-6.096],[0.464,-6.132],[0.576,-5.675],[0.576,-5.344],[0.576,-5.33],[0.478,-5.041],[0.471,-5.02],[0.422,-4.809],[0.338,-4.704],[0.331,-4.683],[0.422,-4.416],[0.436,-4.409],[0.815,-4.465],[0.815,-4.465]]],[[[-0.644,-4.493],[-0.447,-4.542],[-0.356,-4.76],[-0.49,-5.063],[-0.588,-5.217],[-0.658,-5.59],[-0.524,-6.188],[-0.546,-6.399],[-0.679,-6.54],[-0.917,-6.631],[-1.226,-6.617],[-1.303,-6.526],[-1.113,-6.033],[-1.071,-5.864],[-1.141,-5.611],[-1.352,-5.288],[-1.373,-4.992],[-1.128,-4.725],[-0.644,-4.493],[-0.644,-4.493]]],[[[0.758,-5.034],[0.794,-5.295],[0.843,-5.302],[0.843,-5.231],[0.857,-4.894],[0.737,-4.788],[0.618,-4.781],[0.653,-4.922],[0.758,-5.034],[0.758,-5.034]]],[[[-0.714,-4.845],[-0.896,-5.013],[-0.952,-5.175],[-0.882,-5.928],[-0.924,-6.371],[-0.784,-6.202],[-0.868,-5.33],[-0.84,-5.485],[-0.791,-5.056],[-0.756,-5.077],[-0.658,-4.922],[-0.665,-4.852],[-0.714,-4.845],[-0.714,-4.845]]],[[[0.808,-5.555],[0.73,-6.082],[0.794,-6.251],[0.892,-6.265],[0.808,-5.555],[0.808,-5.555]]]]},"properties":{"abbr":"GrO","name":"granular cell layer of the olfactory bulb","plate":2,"ap_bregma_mm":7.45,"area_mm2":2.3952,"traced_fraction":[0.995,1.0,0.972,0.978,0.862],"n_labels":2}},{"type":"Feature","geometry":{"type":"MultiPolygon","coordinates":[[[[-1.212,-4.697],[-1.205,-4.76],[-1.415,-4.985],[-1.352,-5.288],[-1.141,-5.611],[-1.113,-6.033],[-1.303,-6.526],[-1.226,-6.617],[-0.917,-6.631],[-0.679,-6.54],[-0.546,-6.399],[-0.524,-6.188],[-0.469,-6.181],[-0.518,-6.462],[-0.693,-6.617],[-1.12,-6.687],[-1.359,-6.582],[-1.17,-6.061],[-1.149,-5.822],[-1.254,-5.541],[-1.457,-5.238],[-1.492,-5.02],[-1.394,-4.83],[-1.212,-4.697],[-1.212,-4.697]]],[[[0.843,-5.231],[0.815,-4.999],[0.758,-4.936],[0.758,-5.034],[0.653,-4.922],[0.618,-4.781],[0.737,-4.788],[0.857,-4.894],[0.843,-5.231],[0.843,-5.231]]]]},"properties":{"abbr":"aci","name":"anterior commissure, intrabulbar part","plate":2,"ap_bregma_mm":7.45,"area_mm2":0.2079,"traced_fraction":[0.99,0.973],"n_labels":2}},{"type":"Feature","geometry":{"type":"MultiPolygon","coordinates":[[[[2.112,-5.808],[2.063,-6.012],[1.817,-6.35],[1.467,-6.638],[1.551,-6.659],[1.495,-6.701],[1.558,-6.744],[1.593,-6.68],[1.607,-6.715],[1.537,-6.821],[1.474,-6.807],[1.474,-6.68],[1.432,-6.68],[1.418,-6.645],[1.635,-6.434],[1.866,-6.23],[2.112,-5.808],[2.112,-5.808]]],[[[-1.702,-6.652],[-1.688,-6.652],[-1.639,-6.673],[-1.254,-6.962],[-1.015,-7.151],[-0.679,-7.278],[-0.819,-7.278],[-1.141,-7.123],[-1.485,-6.807],[-1.597,-6.821],[-1.583,-6.758],[-1.66,-6.912],[-1.709,-6.828],[-1.766,-6.912],[-1.85,-6.842],[-1.885,-6.926],[-1.976,-6.898],[-1.983,-6.765],[-1.906,-6.765],[-1.955,-6.807],[-1.892,-6.849],[-1.857,-6.765],[-1.709,-6.744],[-1.681,-6.835],[-1.646,-6.694],[-1.702,-6.652],[-1.702,-6.652]]]]},"properties":{"abbr":"E","name":"ependyma and subependymal layer","plate":2,"ap_bregma_mm":7.45,"area_mm2":0.1479,"traced_fraction":[1.0,1.0],"n_labels":3}},{"type":"Feature","geometry":{"type":"Polygon","coordinates":[[[1.663,-4.345],[1.179,-4.113],[1.249,-4.12],[1.263,-3.944],[1.425,-3.965],[1.425,-4.092],[1.383,-4.029],[1.291,-4.113],[1.432,-4.19],[1.565,-4.19],[1.579,-4.05],[1.628,-4.12],[1.67,-4.05],[1.747,-4.05],[1.747,-4.197],[1.67,-4.155],[1.551,-4.212],[1.663,-4.345],[1.663,-4.345]]]},"properties":{"abbr":null,"name":"unnamed sealed face","plate":2,"ap_bregma_mm":7.45,"index":0}},{"type":"Feature","geometry":{"type":"Polygon","coordinates":[[[0.036,-4.5],[-0.02,-4.781],[-0.041,-4.563],[-0.174,-4.387],[-0.496,-4.247],[-0.882,-4.176],[-0.749,-4.155],[-0.3,-4.282],[-0.097,-4.387],[-0.02,-4.584],[0.036,-4.5],[0.036,-4.5]]]},"properties":{"abbr":null,"name":"unnamed sealed face","plate":2,"ap_bregma_mm":7.45,"index":1}},{"type":"Feature","geometry":{"type":"Polygon","coordinates":[[[-0.945,-4.183],[-1.436,-4.352],[-1.759,-4.584],[-1.976,-4.915],[-2.074,-5.302],[-2.081,-5.14],[-1.913,-4.753],[-1.962,-4.704],[-1.892,-4.704],[-1.766,-4.486],[-1.639,-4.437],[-1.345,-4.268],[-1.064,-4.197],[-0.945,-4.183],[-0.945,-4.183]]]},"properties":{"abbr":null,"name":"unnamed sealed face","plate":2,"ap_bregma_mm":7.45,"index":2}},{"type":"Feature","geometry":{"type":"Polygon","coordinates":[[[-0.714,-4.845],[-0.665,-4.852],[-0.658,-4.922],[-0.756,-5.077],[-0.791,-5.056],[-0.84,-5.485],[-0.868,-5.33],[-0.784,-6.202],[-0.924,-6.371],[-0.882,-5.928],[-0.952,-5.175],[-0.896,-5.013],[-0.714,-4.845],[-0.714,-4.845]]]},"properties":{"abbr":null,"name":"unnamed sealed face","plate":2,"ap_bregma_mm":7.45,"index":3}},{"type":"Feature","geometry":{"type":"Polygon","coordinates":[[[0.576,-5.344],[0.597,-5.527],[0.464,-6.132],[0.457,-6.216],[0.436,-6.019],[0.576,-5.344],[0.576,-5.344]]]},"properties":{"abbr":null,"name":"unnamed sealed face","plate":2,"ap_bregma_mm":7.45,"index":4}},{"type":"Feature","geometry":{"type":"Polygon","coordinates":[[[1.109,-5.358],[1.088,-6.054],[0.997,-5.773],[1.109,-5.358],[1.109,-5.358]]]},"properties":{"abbr":null,"name":"unnamed sealed face","plate":2,"ap_bregma_mm":7.45,"index":5}},{"type":"Feature","geometry":{"type":"Polygon","coordinates":[[[0.808,-5.555],[0.892,-6.265],[0.794,-6.251],[0.73,-6.082],[0.808,-5.555],[0.808,-5.555]]]},"properties":{"abbr":null,"name":"unnamed sealed face","plate":2,"ap_bregma_mm":7.45,"index":6}},{"type":"Feature","geometry":{"type":"Polygon","coordinates":[[[1.418,-6.645],[1.432,-6.68],[1.446,-6.736],[1.383,-6.687],[0.92,-7.159],[0.878,-7.123],[0.709,-7.243],[0.485,-7.313],[0.149,-7.25],[-0.02,-7.137],[-0.013,-7.046],[-0.16,-7.208],[-0.377,-7.271],[-0.461,-7.264],[-0.153,-7.137],[-0.013,-6.926],[0.057,-7.109],[0.198,-7.222],[0.611,-7.236],[1.004,-7.032],[1.228,-6.814],[1.418,-6.645],[1.418,-6.645]]]},"properties":{"abbr":null,"name":"unnamed sealed face","plate":2,"ap_bregma_mm":7.45,"index":7}},{"type":"Feature","geometry":{"type":"MultiPolygon","coordinates":[[[[1.263,-3.947],[1.421,-3.965],[1.421,-4.088],[1.386,-4.017],[1.281,-4.105],[1.439,-4.194],[1.561,-4.194],[1.579,-4.053],[1.632,-4.123],[1.667,-4.053],[1.737,-4.053],[1.737,-4.194],[1.667,-4.141],[1.649,-4.194],[1.614,-4.158],[1.544,-4.211],[1.807,-4.51],[1.86,-4.669],[1.965,-4.686],[1.912,-4.774],[1.965,-4.95],[2.017,-4.933],[1.982,-5.003],[2.088,-5.355],[2.105,-5.848],[2.053,-6.007],[1.807,-6.341],[1.456,-6.641],[1.544,-6.658],[1.491,-6.694],[1.561,-6.746],[1.596,-6.658],[1.737,-6.658],[1.772,-6.729],[1.807,-6.658],[1.772,-6.799],[1.719,-6.694],[1.649,-6.817],[1.596,-6.694],[1.561,-6.817],[1.474,-6.799],[1.474,-6.676],[1.421,-6.641],[1.439,-6.729],[1.386,-6.676],[0.912,-7.151],[0.877,-7.116],[0.79,-7.204],[0.456,-7.31],[0.14,-7.239],[-0.018,-7.134],[0.0,-7.028],[-0.175,-7.204],[-0.403,-7.274],[-0.807,-7.274],[-1.14,-7.116],[-1.491,-6.799],[-1.596,-6.817],[-1.579,-6.746],[-1.632,-6.764],[-1.667,-6.905],[-1.719,-6.817],[-1.772,-6.905],[-1.86,-6.834],[-1.895,-6.922],[-1.982,-6.887],[-1.982,-6.764],[-1.912,-6.764],[-1.965,-6.799],[-1.895,-6.852],[-1.86,-6.764],[-1.719,-6.746],[-1.684,-6.852],[-1.649,-6.694],[-1.825,-6.553],[-2.035,-6.165],[-2.105,-5.901],[-2.088,-5.144],[-1.912,-4.739],[-1.965,-4.704],[-1.895,-4.704],[-1.754,-4.475],[-1.649,-4.44],[-1.579,-4.299],[-1.526,-4.299],[-1.614,-4.229],[-1.719,-4.246],[-1.684,-4.123],[-1.632,-4.194],[-1.544,-4.123],[-1.491,-4.317],[-1.298,-4.211],[-1.386,-4.158],[-1.386,-4.017],[-1.228,-4.0],[-1.228,-4.211],[-0.754,-4.158],[-0.316,-4.282],[-0.105,-4.387],[-0.018,-4.598],[0.123,-4.317],[0.421,-4.105],[0.965,-4.07],[1.246,-4.123],[1.263,-3.965],[1.263,-3.947]]]]},"properties":{"abbr":"brain_outline","name":"outline of the section","plate":2,"ap_bregma_mm":7.45}}]}
