{"type":"FeatureCollection","name":"GerbilAtlas plate 38","note":"Region extents cut from the atlas drawing (METHODS.md, Region extents). Coordinates are [ML, DV] in mm, ML positive to the right of the plate as printed, DV negative below the dorsal surface; AP is the plate bregma. traced_fraction is the share of each polygon boundary the atlas actually draws; below 0.5 the boundary is an estimate. no_drawn_outline marks a feature that lies only inside boundaries the atlas draws round more than one name and prints nothing within, so the whole of its outline is where the extraction cut it. Not a segmentation.","plate":38,"ap_bregma_mm":-5.15,"features":[{"type":"Feature","geometry":{"type":"MultiPolygon","coordinates":[[[[-1.752,-0.239],[-1.759,-0.506],[-1.801,-0.717],[-1.879,-0.9],[-1.998,-1.061],[-1.998,-1.083],[-2.068,-1.125],[-2.208,-1.132],[-2.229,-1.061],[-2.278,-0.675],[-2.313,-0.245],[-2.145,-0.231],[-1.752,-0.239]]],[[[1.907,-0.309],[2.251,-0.344],[2.475,-0.386],[2.447,-0.583],[2.454,-0.836],[2.503,-1.04],[2.609,-1.244],[2.609,-1.265],[2.56,-1.265],[2.433,-1.195],[2.398,-1.146],[2.237,-1.033],[2.097,-0.9],[1.964,-0.717],[1.915,-0.59],[1.894,-0.478],[1.894,-0.358],[1.907,-0.309]]]]},"properties":{"abbr":"V2M","name":"secondary visual cortex, medial area","plate":38,"ap_bregma_mm":-5.15,"area_mm2":0.7568,"traced_fraction":[1.0,1.0],"n_labels":2,"no_drawn_outline":false}},{"type":"Feature","geometry":{"type":"MultiPolygon","coordinates":[[[[-1.752,-0.239],[-1.5,-0.26],[-1.297,-0.302],[-1.121,-0.358],[-1.037,-0.407],[-1.051,-0.464],[-1.121,-0.576],[-1.283,-0.717],[-1.612,-0.914],[-1.928,-1.068],[-1.998,-1.083],[-1.998,-1.061],[-1.879,-0.9],[-1.801,-0.717],[-1.759,-0.506],[-1.752,-0.239]]],[[[1.907,-0.309],[1.894,-0.358],[1.894,-0.478],[1.915,-0.59],[1.964,-0.717],[2.097,-0.9],[2.237,-1.033],[2.398,-1.146],[2.433,-1.195],[2.391,-1.195],[2.342,-1.16],[2.307,-1.153],[1.957,-0.949],[1.599,-0.773],[1.361,-0.632],[1.024,-0.471],[1.038,-0.421],[1.094,-0.358],[1.248,-0.302],[1.62,-0.281],[1.907,-0.309]]]]},"properties":{"abbr":"RSD","name":"retrosplenial dysgranular cortex","plate":38,"ap_bregma_mm":-5.15,"area_mm2":0.7935,"traced_fraction":[1.0,1.0],"n_labels":2,"no_drawn_outline":false}},{"type":"Feature","geometry":{"type":"MultiPolygon","coordinates":[[[[-2.313,-0.245],[-2.278,-0.675],[-2.229,-1.061],[-2.208,-1.132],[-2.348,-1.202],[-2.46,-1.237],[-2.643,-1.336],[-2.671,-1.336],[-2.734,-1.378],[-2.755,-1.378],[-2.818,-1.42],[-3.148,-1.575],[-3.625,-1.8],[-3.786,-1.912],[-3.849,-1.934],[-3.877,-1.905],[-3.947,-1.765],[-4.087,-1.547],[-4.347,-1.075],[-4.438,-0.949],[-4.466,-0.9],[-4.466,-0.871],[-4.213,-0.745],[-4.206,-0.731],[-3.891,-0.583],[-3.302,-0.393],[-2.762,-0.288],[-2.313,-0.245]]],[[[2.475,-0.386],[3.05,-0.471],[3.71,-0.618],[4.018,-0.703],[4.249,-0.808],[4.291,-0.843],[4.551,-0.984],[4.565,-1.005],[4.523,-1.054],[4.453,-1.202],[4.369,-1.329],[4.172,-1.715],[4.032,-1.934],[4.011,-1.934],[3.787,-1.8],[3.59,-1.708],[3.387,-1.596],[3.163,-1.511],[2.966,-1.413],[2.672,-1.308],[2.609,-1.265],[2.609,-1.244],[2.503,-1.04],[2.454,-0.836],[2.447,-0.583],[2.475,-0.386]]]]},"properties":{"abbr":"V1M","name":"primary visual cortex, monocular area","plate":38,"ap_bregma_mm":-5.15,"area_mm2":4.2066,"traced_fraction":[1.0,1.0],"n_labels":2,"no_drawn_outline":false}},{"type":"Feature","geometry":{"type":"MultiPolygon","coordinates":[[[[-1.037,-0.407],[-1.016,-0.407],[-0.897,-0.478],[-0.743,-0.639],[-0.68,-0.801],[-0.687,-0.991],[-0.75,-1.125],[-0.848,-1.195],[-1.016,-1.237],[-1.086,-1.195],[-1.304,-1.146],[-1.745,-1.167],[-1.914,-1.202],[-2.082,-1.216],[-2.068,-1.125],[-1.998,-1.083],[-1.928,-1.068],[-1.612,-0.914],[-1.283,-0.717],[-1.121,-0.576],[-1.072,-0.506],[-1.037,-0.407]]],[[[1.024,-0.471],[1.361,-0.632],[1.599,-0.773],[1.957,-0.949],[2.307,-1.153],[2.342,-1.16],[2.391,-1.195],[2.433,-1.195],[2.56,-1.265],[2.56,-1.286],[2.609,-1.336],[2.707,-1.392],[2.735,-1.42],[2.742,-1.448],[2.686,-1.448],[2.581,-1.413],[2.314,-1.392],[1.83,-1.399],[1.802,-1.427],[1.697,-1.392],[1.557,-1.322],[1.543,-1.3],[1.431,-1.251],[1.234,-1.118],[1.073,-0.963],[0.996,-0.822],[0.975,-0.745],[0.982,-0.569],[1.024,-0.471]]]]},"properties":{"abbr":"RSGb","name":"retrosplenial granular cortex, b region","plate":38,"ap_bregma_mm":-5.15,"area_mm2":1.2528,"traced_fraction":[1.0,1.0],"n_labels":2,"no_drawn_outline":false}},{"type":"Feature","geometry":{"type":"MultiPolygon","coordinates":[[[[-2.068,-1.125],[-2.082,-1.216],[-2.538,-1.448],[-2.818,-1.645],[-2.832,-1.645],[-2.881,-1.589],[-2.93,-1.582],[-3.134,-1.666],[-3.148,-1.575],[-2.853,-1.427],[-2.832,-1.427],[-2.671,-1.336],[-2.643,-1.336],[-2.46,-1.237],[-2.348,-1.202],[-2.208,-1.132],[-2.068,-1.125]]],[[[2.56,-1.265],[2.609,-1.265],[2.672,-1.308],[2.966,-1.413],[3.163,-1.511],[3.387,-1.596],[3.59,-1.708],[3.548,-1.772],[3.548,-1.8],[3.534,-1.8],[3.471,-1.863],[3.471,-1.934],[3.457,-1.948],[3.282,-1.807],[3.085,-1.68],[3.008,-1.645],[2.833,-1.49],[2.742,-1.448],[2.735,-1.42],[2.658,-1.357],[2.609,-1.336],[2.56,-1.286],[2.56,-1.265]]]]},"properties":{"abbr":"fmj","name":"forceps major of the corpus callosum","plate":38,"ap_bregma_mm":-5.15,"area_mm2":0.3467,"traced_fraction":[0.971,0.938],"n_labels":2,"no_drawn_outline":false}},{"type":"Feature","geometry":{"type":"MultiPolygon","coordinates":[[[[-1.016,-1.237],[-1.416,-1.385],[-1.444,-1.406],[-1.486,-1.406],[-1.612,-1.448],[-1.801,-1.533],[-1.844,-1.54],[-1.858,-1.561],[-1.872,-1.554],[-2.033,-1.638],[-2.215,-1.737],[-2.355,-1.856],[-2.362,-1.849],[-2.496,-1.744],[-2.587,-1.701],[-2.671,-1.68],[-2.832,-1.673],[-2.818,-1.645],[-2.538,-1.448],[-2.082,-1.216],[-1.914,-1.202],[-1.745,-1.167],[-1.304,-1.146],[-1.086,-1.195],[-1.016,-1.237]]],[[[2.742,-1.448],[2.833,-1.49],[3.008,-1.645],[3.085,-1.68],[3.282,-1.807],[3.457,-1.948],[3.506,-2.011],[3.443,-2.011],[3.317,-1.962],[2.973,-1.877],[2.826,-1.877],[2.77,-1.891],[2.742,-1.905],[2.714,-1.948],[2.602,-1.87],[2.581,-1.856],[2.56,-1.842],[2.426,-1.744],[2.195,-1.631],[2.181,-1.624],[2.153,-1.61],[2.139,-1.603],[1.83,-1.455],[1.802,-1.427],[1.83,-1.399],[2.314,-1.392],[2.581,-1.413],[2.686,-1.448],[2.742,-1.448]]]]},"properties":{"abbr":"RSGa","name":"retrosplenial granular cortex, a region","plate":38,"ap_bregma_mm":-5.15,"area_mm2":0.9393,"traced_fraction":[1.0,1.0],"n_labels":2,"no_drawn_outline":false}},{"type":"Feature","geometry":{"type":"MultiPolygon","coordinates":[[[[-0.049,-2.011],[-0.056,-2.032],[-0.035,-2.074],[-0.021,-2.074],[0.015,-1.99],[0.064,-1.877],[0.204,-1.723],[0.246,-1.701],[0.323,-1.631],[0.47,-1.554],[0.737,-1.483],[0.912,-1.483],[1.08,-1.519],[1.157,-1.547],[1.164,-1.561],[1.263,-1.589],[1.683,-1.8],[1.95,-1.969],[1.978,-2.004],[2.076,-2.06],[2.195,-2.173],[2.244,-2.201],[2.377,-2.341],[2.454,-2.461],[2.496,-2.503],[2.602,-2.721],[2.623,-2.855],[2.595,-3.094],[2.602,-3.178],[2.518,-3.178],[2.511,-3.15],[2.518,-2.778],[2.496,-2.672],[2.426,-2.517],[2.328,-2.391],[2.258,-2.327],[2.258,-2.313],[2.062,-2.145],[1.676,-1.884],[1.361,-1.715],[1.003,-1.575],[0.709,-1.568],[0.512,-1.617],[0.358,-1.694],[0.204,-1.828],[0.113,-1.962],[0.049,-2.166],[0.049,-2.531],[0.036,-2.581],[-0.077,-2.559],[-0.098,-2.433],[-0.098,-2.208],[-0.112,-2.123],[-0.14,-2.018],[-0.252,-1.821],[-0.406,-1.652],[-0.574,-1.533],[-0.778,-1.455],[-0.918,-1.448],[-1.121,-1.49],[-1.135,-1.504],[-1.276,-1.54],[-1.703,-1.708],[-1.71,-1.723],[-1.773,-1.744],[-1.949,-1.842],[-2.187,-2.018],[-2.278,-2.116],[-2.369,-2.25],[-2.475,-2.489],[-2.51,-2.63],[-2.524,-2.756],[-2.503,-2.876],[-2.475,-2.925],[-2.454,-2.932],[-2.475,-3.017],[-2.503,-3.024],[-2.524,-3.017],[-2.531,-2.989],[-2.552,-2.981],[-2.594,-2.876],[-2.608,-2.637],[-2.524,-2.377],[-2.468,-2.264],[-2.447,-2.25],[-2.383,-2.13],[-2.313,-2.053],[-2.285,-2.039],[-2.208,-1.941],[-2.138,-1.898],[-2.026,-1.8],[-1.809,-1.68],[-1.416,-1.511],[-0.988,-1.378],[-0.785,-1.378],[-0.631,-1.42],[-0.497,-1.504],[-0.441,-1.526],[-0.252,-1.694],[-0.126,-1.863],[-0.063,-2.004],[-0.049,-2.011]]]]},"properties":{"abbr":"Zo","name":"zonal layer of the superior colliculus","plate":38,"ap_bregma_mm":-5.15,"area_mm2":0.6454,"traced_fraction":[1.0],"n_labels":2,"no_drawn_outline":false}},{"type":"Feature","geometry":{"type":"MultiPolygon","coordinates":[[[[-4.466,-0.871],[-4.466,-0.9],[-4.438,-0.949],[-4.368,-1.04],[-4.087,-1.547],[-3.947,-1.765],[-3.877,-1.905],[-3.849,-1.934],[-3.884,-1.976],[-4.108,-2.13],[-4.319,-2.299],[-4.354,-2.341],[-4.368,-2.341],[-4.732,-2.7],[-5.097,-2.37],[-5.265,-2.236],[-5.314,-2.18],[-5.328,-2.18],[-5.475,-2.025],[-5.567,-1.955],[-5.658,-1.863],[-5.658,-1.849],[-5.293,-1.469],[-5.153,-1.364],[-5.139,-1.336],[-5.125,-1.336],[-5.013,-1.23],[-4.886,-1.153],[-4.88,-1.132],[-4.774,-1.061],[-4.466,-0.871]]],[[[4.565,-1.005],[4.894,-1.188],[5.287,-1.462],[5.315,-1.497],[5.413,-1.568],[5.504,-1.666],[5.518,-1.666],[5.596,-1.744],[5.596,-1.758],[5.771,-1.919],[5.771,-1.934],[5.974,-2.173],[5.883,-2.257],[5.722,-2.363],[5.49,-2.566],[5.189,-2.778],[5.084,-2.869],[4.916,-2.686],[4.916,-2.672],[4.614,-2.377],[4.6,-2.377],[4.425,-2.222],[4.333,-2.166],[4.305,-2.13],[4.074,-1.976],[4.032,-1.934],[4.172,-1.715],[4.369,-1.329],[4.453,-1.202],[4.523,-1.054],[4.565,-1.005]]]]},"properties":{"abbr":"V1B","name":"primary visual cortex, binocular area","plate":38,"ap_bregma_mm":-5.15,"area_mm2":3.5439,"traced_fraction":[1.0,1.0],"n_labels":2,"no_drawn_outline":false}},{"type":"Feature","geometry":{"type":"MultiPolygon","coordinates":[[[[-0.077,-2.559],[-0.105,-2.566],[-0.154,-2.524],[-0.189,-2.44],[-0.21,-2.257],[-0.259,-2.088],[-0.308,-1.99],[-0.406,-1.863],[-0.42,-1.863],[-0.525,-1.765],[-0.722,-1.673],[-0.785,-1.659],[-1.051,-1.666],[-1.206,-1.708],[-1.486,-1.835],[-1.696,-1.955],[-1.872,-2.081],[-1.9,-2.088],[-1.914,-2.109],[-1.963,-2.13],[-2.068,-2.215],[-2.201,-2.363],[-2.278,-2.482],[-2.348,-2.644],[-2.411,-2.869],[-2.454,-2.932],[-2.475,-2.925],[-2.503,-2.876],[-2.524,-2.756],[-2.51,-2.63],[-2.475,-2.489],[-2.369,-2.25],[-2.278,-2.116],[-2.187,-2.018],[-1.949,-1.842],[-1.907,-1.828],[-1.816,-1.765],[-1.71,-1.723],[-1.703,-1.708],[-1.276,-1.54],[-1.135,-1.504],[-1.121,-1.49],[-0.918,-1.448],[-0.778,-1.455],[-0.574,-1.533],[-0.406,-1.652],[-0.252,-1.821],[-0.14,-2.018],[-0.112,-2.123],[-0.098,-2.208],[-0.098,-2.433],[-0.077,-2.559]]],[[[2.511,-3.15],[2.454,-3.136],[2.426,-3.094],[2.391,-2.869],[2.3,-2.665],[2.174,-2.503],[2.034,-2.37],[1.865,-2.236],[1.347,-1.905],[1.15,-1.807],[0.996,-1.758],[0.912,-1.744],[0.716,-1.744],[0.617,-1.758],[0.463,-1.814],[0.316,-1.919],[0.232,-2.025],[0.155,-2.208],[0.078,-2.588],[0.036,-2.581],[0.049,-2.531],[0.049,-2.166],[0.113,-1.962],[0.204,-1.828],[0.358,-1.694],[0.512,-1.617],[0.709,-1.568],[1.003,-1.575],[1.361,-1.715],[1.676,-1.884],[2.062,-2.145],[2.258,-2.313],[2.258,-2.327],[2.328,-2.391],[2.426,-2.517],[2.496,-2.672],[2.518,-2.778],[2.511,-3.15]]]]},"properties":{"abbr":"SuG","name":"superficial gray layer of the superior colliculus","plate":38,"ap_bregma_mm":-5.15,"area_mm2":1.2307,"traced_fraction":[1.0,1.0],"n_labels":2,"no_drawn_outline":false}},{"type":"Feature","geometry":{"type":"MultiPolygon","coordinates":[[[[-0.105,-2.566],[-0.105,-2.588],[-0.217,-2.588],[-0.308,-2.51],[-0.427,-2.222],[-0.483,-2.145],[-0.61,-2.039],[-0.729,-1.99],[-0.806,-1.976],[-1.037,-1.99],[-1.255,-2.053],[-1.472,-2.151],[-1.633,-2.236],[-1.851,-2.377],[-1.984,-2.475],[-2.103,-2.602],[-2.264,-2.932],[-2.334,-2.989],[-2.475,-3.017],[-2.454,-2.932],[-2.411,-2.869],[-2.348,-2.644],[-2.278,-2.482],[-2.201,-2.363],[-2.068,-2.215],[-1.963,-2.13],[-1.914,-2.109],[-1.9,-2.088],[-1.872,-2.081],[-1.696,-1.955],[-1.486,-1.835],[-1.206,-1.708],[-1.051,-1.666],[-0.785,-1.659],[-0.722,-1.673],[-0.561,-1.744],[-0.406,-1.863],[-0.308,-1.99],[-0.259,-2.088],[-0.217,-2.222],[-0.189,-2.44],[-0.154,-2.524],[-0.105,-2.566]]],[[[2.511,-3.15],[2.518,-3.178],[2.405,-3.185],[2.356,-3.164],[2.265,-3.052],[2.111,-2.813],[1.929,-2.616],[1.648,-2.426],[1.634,-2.405],[1.41,-2.264],[1.206,-2.145],[0.996,-2.081],[0.863,-2.067],[0.638,-2.074],[0.526,-2.109],[0.386,-2.194],[0.288,-2.32],[0.253,-2.475],[0.218,-2.545],[0.148,-2.602],[0.092,-2.602],[0.078,-2.588],[0.155,-2.208],[0.232,-2.025],[0.316,-1.919],[0.463,-1.814],[0.617,-1.758],[0.716,-1.744],[0.912,-1.744],[0.996,-1.758],[1.15,-1.807],[1.347,-1.905],[1.865,-2.236],[2.034,-2.37],[2.174,-2.503],[2.3,-2.665],[2.391,-2.869],[2.426,-3.094],[2.454,-3.136],[2.511,-3.15]]]]},"properties":{"abbr":"Op","name":"optic nerve layer of the superior colliculus","plate":38,"ap_bregma_mm":-5.15,"area_mm2":1.5726,"traced_fraction":[1.0,1.0],"n_labels":2,"no_drawn_outline":false}},{"type":"Feature","geometry":{"type":"MultiPolygon","coordinates":[[[[-0.105,-2.566],[-0.077,-2.559],[0.036,-2.581],[0.078,-2.588],[0.092,-2.602],[0.148,-2.602],[0.218,-2.545],[0.253,-2.475],[0.288,-2.32],[0.386,-2.194],[0.526,-2.109],[0.638,-2.074],[0.863,-2.067],[0.996,-2.081],[1.206,-2.145],[1.41,-2.264],[1.396,-2.419],[1.375,-2.419],[1.319,-2.377],[1.297,-2.377],[1.213,-2.327],[1.031,-2.264],[0.751,-2.264],[0.617,-2.32],[0.554,-2.37],[0.302,-2.63],[0.246,-2.672],[0.134,-2.721],[-0.098,-2.721],[-0.21,-2.693],[-0.343,-2.623],[-0.497,-2.482],[-0.511,-2.482],[-0.568,-2.419],[-0.582,-2.419],[-0.645,-2.349],[-0.785,-2.243],[-0.918,-2.187],[-1.107,-2.187],[-1.29,-2.264],[-1.479,-2.377],[-1.703,-2.538],[-1.801,-2.637],[-1.816,-2.637],[-2.019,-2.862],[-2.257,-3.228],[-2.327,-3.361],[-2.376,-3.418],[-2.475,-3.221],[-2.524,-3.164],[-2.538,-3.164],[-2.552,-3.101],[-2.524,-3.08],[-2.524,-3.052],[-2.503,-3.045],[-2.503,-3.024],[-2.475,-3.017],[-2.334,-2.989],[-2.264,-2.932],[-2.103,-2.602],[-1.984,-2.475],[-1.851,-2.377],[-1.633,-2.236],[-1.472,-2.151],[-1.255,-2.053],[-1.037,-1.99],[-0.806,-1.976],[-0.729,-1.99],[-0.61,-2.039],[-0.504,-2.137],[-0.49,-2.137],[-0.427,-2.222],[-0.308,-2.51],[-0.217,-2.588],[-0.105,-2.588],[-0.105,-2.566]]]]},"properties":{"abbr":"InG","name":"intermediate gray layer of the superior colliculus","plate":38,"ap_bregma_mm":-5.15,"area_mm2":0.9379,"traced_fraction":[0.991],"n_labels":2,"no_drawn_outline":false}},{"type":"Feature","geometry":{"type":"MultiPolygon","coordinates":[[[[1.41,-2.264],[1.634,-2.405],[1.648,-2.426],[1.929,-2.616],[2.111,-2.813],[2.265,-3.052],[2.356,-3.164],[2.405,-3.185],[2.518,-3.178],[2.602,-3.178],[2.63,-3.235],[2.553,-3.256],[2.524,-3.284],[2.496,-3.368],[2.384,-3.565],[2.251,-3.706],[2.223,-3.776],[2.23,-3.825],[2.104,-3.748],[1.999,-3.636],[1.873,-3.446],[1.774,-3.326],[1.529,-2.939],[1.297,-2.7],[1.094,-2.581],[0.947,-2.531],[0.765,-2.538],[0.604,-2.595],[0.358,-2.756],[0.246,-2.806],[0.176,-2.82],[-0.098,-2.82],[-0.238,-2.792],[-0.35,-2.749],[-0.603,-2.609],[-0.771,-2.475],[-0.876,-2.44],[-1.051,-2.447],[-1.206,-2.524],[-1.318,-2.609],[-1.458,-2.77],[-1.605,-3.045],[-1.654,-3.115],[-1.703,-3.157],[-1.837,-3.347],[-2.061,-3.586],[-2.075,-3.586],[-2.201,-3.713],[-2.25,-3.734],[-2.264,-3.734],[-2.32,-3.607],[-2.376,-3.453],[-2.376,-3.418],[-2.327,-3.361],[-2.257,-3.228],[-2.019,-2.862],[-1.816,-2.637],[-1.801,-2.637],[-1.703,-2.538],[-1.479,-2.377],[-1.29,-2.264],[-1.107,-2.187],[-0.918,-2.187],[-0.785,-2.243],[-0.645,-2.349],[-0.582,-2.419],[-0.568,-2.419],[-0.511,-2.482],[-0.497,-2.482],[-0.343,-2.623],[-0.21,-2.693],[-0.098,-2.721],[0.134,-2.721],[0.246,-2.672],[0.302,-2.63],[0.554,-2.37],[0.617,-2.32],[0.751,-2.264],[1.031,-2.264],[1.213,-2.327],[1.297,-2.377],[1.319,-2.377],[1.375,-2.419],[1.396,-2.419],[1.41,-2.264]]]]},"properties":{"abbr":"InWh","name":"intermediate white layer of the superior colliculus","plate":38,"ap_bregma_mm":-5.15,"area_mm2":1.9586,"traced_fraction":[0.992],"n_labels":2,"no_drawn_outline":false}},{"type":"Feature","geometry":{"type":"MultiPolygon","coordinates":[[[[-2.832,-1.673],[-2.671,-1.68],[-2.587,-1.701],[-2.496,-1.744],[-2.362,-1.849],[-2.383,-1.87],[-2.376,-1.877],[-2.418,-1.912],[-2.482,-2.004],[-2.608,-2.271],[-2.741,-2.475],[-2.902,-2.827],[-3.288,-3.333],[-3.344,-3.439],[-3.351,-3.453],[-3.358,-3.467],[-3.365,-3.481],[-3.372,-3.495],[-3.379,-3.509],[-3.407,-3.558],[-3.421,-3.586],[-3.428,-3.579],[-3.919,-3.34],[-4.045,-3.298],[-4.115,-3.256],[-4.15,-3.263],[-4.22,-3.206],[-4.206,-3.185],[-4.122,-3.15],[-4.017,-3.052],[-4.017,-3.038],[-3.905,-2.918],[-3.625,-2.517],[-3.428,-2.271],[-3.204,-2.032],[-3.204,-2.018],[-3.113,-1.934],[-3.113,-1.919],[-2.923,-1.737],[-2.832,-1.673]]],[[[3.506,-2.011],[3.562,-2.039],[3.695,-2.18],[4.411,-3.235],[4.516,-3.305],[4.502,-3.326],[4.418,-3.354],[4.179,-3.418],[3.836,-3.579],[3.667,-3.263],[3.401,-2.918],[3.338,-2.862],[3.338,-2.848],[3.156,-2.637],[2.973,-2.37],[2.847,-2.109],[2.805,-2.06],[2.791,-2.039],[2.763,-2.011],[2.77,-2.004],[2.756,-1.99],[2.749,-1.997],[2.714,-1.948],[2.714,-1.934],[2.77,-1.891],[2.826,-1.877],[2.973,-1.877],[3.317,-1.962],[3.443,-2.011],[3.506,-2.011]]]]},"properties":{"abbr":"Post","name":"postsubiculum","plate":38,"ap_bregma_mm":-5.15,"area_mm2":2.6533,"traced_fraction":[0.999,1.0],"n_labels":2,"no_drawn_outline":false}},{"type":"Feature","geometry":{"type":"MultiPolygon","coordinates":[[[[2.23,-3.825],[2.265,-3.945],[2.181,-3.994],[2.055,-4.036],[1.641,-4.107],[1.62,-3.973],[1.55,-3.776],[1.242,-3.15],[1.094,-2.974],[0.905,-2.862],[0.779,-2.827],[0.533,-2.827],[0.169,-2.925],[0.085,-2.939],[-0.077,-2.939],[-0.252,-2.904],[-0.645,-2.778],[-0.764,-2.778],[-0.841,-2.799],[-0.939,-2.848],[-1.065,-2.932],[-1.149,-3.017],[-1.227,-3.143],[-1.283,-3.312],[-1.311,-3.446],[-1.36,-3.938],[-1.416,-4.191],[-1.5,-4.177],[-1.738,-4.1],[-2.075,-3.903],[-2.222,-3.783],[-2.257,-3.776],[-2.25,-3.734],[-2.201,-3.713],[-2.075,-3.586],[-2.061,-3.586],[-1.837,-3.347],[-1.703,-3.157],[-1.654,-3.115],[-1.605,-3.045],[-1.458,-2.77],[-1.318,-2.609],[-1.206,-2.524],[-1.051,-2.447],[-0.876,-2.44],[-0.771,-2.475],[-0.603,-2.609],[-0.35,-2.749],[-0.238,-2.792],[-0.098,-2.82],[0.176,-2.82],[0.246,-2.806],[0.358,-2.756],[0.604,-2.595],[0.73,-2.545],[0.947,-2.531],[1.094,-2.581],[1.297,-2.7],[1.529,-2.939],[1.774,-3.326],[1.873,-3.446],[1.999,-3.636],[2.104,-3.748],[2.23,-3.825]]]]},"properties":{"abbr":"DpG","name":"deep gray layer of the superior colliculus","plate":38,"ap_bregma_mm":-5.15,"area_mm2":2.0107,"traced_fraction":[1.0],"n_labels":2,"no_drawn_outline":false}},{"type":"Feature","geometry":{"type":"MultiPolygon","coordinates":[[[[-5.658,-1.849],[-5.658,-1.863],[-5.49,-2.025],[-5.475,-2.025],[-5.328,-2.18],[-5.314,-2.18],[-5.265,-2.236],[-5.097,-2.37],[-4.732,-2.7],[-4.907,-2.904],[-5.006,-3.045],[-5.139,-3.277],[-5.209,-3.453],[-5.23,-3.474],[-5.461,-3.382],[-5.644,-3.291],[-6.106,-3.108],[-6.429,-2.953],[-6.478,-2.911],[-6.282,-2.602],[-6.008,-2.236],[-5.973,-2.208],[-5.903,-2.109],[-5.826,-2.039],[-5.756,-1.941],[-5.658,-1.849]]],[[[5.974,-2.173],[6.058,-2.264],[6.248,-2.517],[6.297,-2.609],[6.479,-2.869],[6.591,-3.094],[6.304,-3.185],[6.072,-3.235],[5.68,-3.361],[5.399,-3.432],[5.392,-3.425],[5.385,-3.404],[5.378,-3.396],[5.294,-3.192],[5.273,-3.178],[5.217,-3.059],[5.084,-2.869],[5.189,-2.778],[5.49,-2.566],[5.722,-2.363],[5.855,-2.278],[5.974,-2.173]]]]},"properties":{"abbr":"V2L","name":"secondary visual cortex, lateral area","plate":38,"ap_bregma_mm":-5.15,"area_mm2":2.5161,"traced_fraction":[1.0,0.983],"n_labels":2,"no_drawn_outline":false}},{"type":"Feature","geometry":{"type":"MultiPolygon","coordinates":[[[[-2.552,-3.101],[-2.538,-3.164],[-2.587,-3.298],[-2.692,-3.41],[-2.734,-3.488],[-2.769,-3.607],[-2.79,-3.783],[-2.776,-3.917],[-2.776,-4.17],[-2.755,-4.332],[-2.678,-4.641],[-2.643,-4.726],[-2.643,-4.768],[-2.622,-4.782],[-2.643,-4.923],[-2.72,-4.93],[-2.741,-4.958],[-2.79,-4.775],[-2.867,-4.205],[-2.881,-3.854],[-2.867,-3.432],[-2.839,-3.263],[-2.811,-3.2],[-2.762,-3.15],[-2.552,-3.101]]],[[[2.63,-3.235],[2.672,-3.291],[2.861,-3.432],[2.917,-3.537],[2.917,-3.685],[2.896,-3.755],[2.91,-3.966],[2.903,-4.36],[2.833,-4.698],[2.742,-4.972],[2.714,-4.972],[2.672,-4.944],[2.644,-4.859],[2.7,-4.669],[2.749,-4.578],[2.812,-4.29],[2.826,-4.036],[2.812,-3.973],[2.805,-3.776],[2.784,-3.692],[2.749,-3.636],[2.56,-3.46],[2.518,-3.382],[2.496,-3.368],[2.524,-3.284],[2.567,-3.249],[2.63,-3.235]]]]},"properties":{"abbr":"bic","name":"brachium of the inferior colliculus","plate":38,"ap_bregma_mm":-5.15,"area_mm2":0.4765,"traced_fraction":[1.0,1.0],"n_labels":2,"no_drawn_outline":false}},{"type":"Feature","geometry":{"type":"MultiPolygon","coordinates":[[[[-0.645,-2.897],[-0.631,-3.08],[-0.61,-3.15],[-0.546,-3.27],[-0.455,-3.361],[-0.294,-3.446],[-0.154,-3.6],[-0.238,-3.685],[-0.294,-3.769],[-0.511,-3.748],[-0.652,-3.713],[-0.771,-3.657],[-0.946,-3.544],[-0.995,-3.509],[-1.163,-3.326],[-1.178,-3.326],[-1.178,-3.249],[-1.149,-3.185],[-1.037,-3.052],[-0.953,-2.989],[-0.82,-2.918],[-0.694,-2.89],[-0.645,-2.897]]],[[[0.716,-2.939],[0.849,-2.981],[0.989,-3.073],[1.136,-3.242],[1.178,-3.319],[1.192,-3.382],[1.178,-3.382],[0.996,-3.572],[0.821,-3.671],[0.386,-3.79],[0.337,-3.706],[0.253,-3.621],[0.253,-3.607],[0.351,-3.467],[0.414,-3.404],[0.456,-3.382],[0.547,-3.27],[0.646,-3.108],[0.716,-2.939]]]]},"properties":{"abbr":"DLPAG","name":"dorsolateral periaqueductal gray","plate":38,"ap_bregma_mm":-5.15,"area_mm2":0.8959,"traced_fraction":[1.0,1.0],"n_labels":2,"no_drawn_outline":false}},{"type":"Feature","geometry":{"type":"MultiPolygon","coordinates":[[[[-6.478,-2.911],[-6.429,-2.953],[-6.106,-3.108],[-5.644,-3.291],[-5.461,-3.382],[-5.23,-3.474],[-5.321,-3.804],[-5.335,-4.114],[-6.036,-4.135],[-6.71,-4.198],[-6.808,-4.219],[-6.899,-4.219],[-6.892,-4.001],[-6.829,-3.671],[-6.702,-3.319],[-6.534,-2.989],[-6.478,-2.911]]],[[[6.591,-3.094],[6.71,-3.312],[6.78,-3.495],[6.844,-3.79],[6.851,-4.015],[6.297,-4.015],[5.953,-3.994],[5.729,-3.938],[5.455,-3.84],[5.462,-3.776],[5.399,-3.439],[5.399,-3.432],[5.68,-3.361],[6.072,-3.235],[6.304,-3.185],[6.591,-3.094]]]]},"properties":{"abbr":"TeA","name":"temporal association cortex","plate":38,"ap_bregma_mm":-5.15,"area_mm2":2.4535,"traced_fraction":[1.0,1.0],"n_labels":2,"no_drawn_outline":false}},{"type":"Feature","geometry":{"type":"MultiPolygon","coordinates":[[[[-1.178,-3.326],[-1.163,-3.326],[-1.1,-3.389],[-1.1,-3.404],[-0.946,-3.544],[-0.96,-3.832],[-1.058,-3.84],[-1.058,-3.832],[-1.058,-3.818],[-1.072,-3.818],[-1.093,-3.783],[-1.1,-3.776],[-1.135,-3.72],[-1.135,-3.664],[-1.178,-3.537],[-1.178,-3.326]]],[[[1.192,-3.382],[1.227,-3.46],[1.248,-3.593],[1.242,-3.748],[1.227,-3.818],[1.213,-3.825],[1.003,-3.825],[0.996,-3.572],[1.178,-3.382],[1.192,-3.382]]]]},"properties":{"abbr":"Me5","name":"mesencephalic trigeminal nucleus","plate":38,"ap_bregma_mm":-5.15,"area_mm2":0.1643,"traced_fraction":[0.689,0.655],"n_labels":2,"no_drawn_outline":true}},{"type":"Feature","geometry":{"type":"MultiPolygon","coordinates":[[[[0.253,-3.607],[0.253,-3.621],[0.337,-3.706],[0.386,-3.79],[0.379,-3.868],[0.351,-3.917],[0.113,-4.121],[-0.007,-4.121],[-0.196,-3.98],[-0.266,-3.91],[-0.294,-3.832],[-0.294,-3.769],[-0.273,-3.727],[-0.154,-3.6],[0.015,-3.544],[0.106,-3.544],[0.225,-3.607],[0.253,-3.607]]]]},"properties":{"abbr":"Aq","name":"aqueduct","plate":38,"ap_bregma_mm":-5.15,"area_mm2":0.2779,"traced_fraction":[1.0],"n_labels":1,"no_drawn_outline":false}},{"type":"Feature","geometry":{"type":"MultiPolygon","coordinates":[[[[-2.538,-3.164],[-2.524,-3.164],[-2.475,-3.221],[-2.376,-3.418],[-2.376,-3.453],[-2.334,-3.572],[-2.264,-3.734],[-2.25,-3.734],[-2.257,-3.776],[-2.348,-4.093],[-2.39,-4.423],[-2.447,-4.641],[-2.475,-4.691],[-2.51,-4.719],[-2.643,-4.726],[-2.678,-4.641],[-2.755,-4.332],[-2.776,-4.17],[-2.776,-3.917],[-2.79,-3.783],[-2.769,-3.607],[-2.734,-3.488],[-2.692,-3.41],[-2.587,-3.298],[-2.538,-3.164]]],[[[2.496,-3.368],[2.518,-3.382],[2.56,-3.46],[2.749,-3.636],[2.784,-3.692],[2.805,-3.776],[2.812,-3.973],[2.826,-4.036],[2.812,-4.29],[2.749,-4.578],[2.7,-4.669],[2.644,-4.859],[2.581,-4.859],[2.419,-4.803],[2.391,-4.768],[2.363,-4.691],[2.342,-4.543],[2.328,-4.191],[2.286,-3.987],[2.265,-3.945],[2.23,-3.825],[2.223,-3.776],[2.251,-3.706],[2.384,-3.565],[2.496,-3.368]]]]},"properties":{"abbr":"ECIC","name":"external cortex of the inferior colliculus","plate":38,"ap_bregma_mm":-5.15,"area_mm2":1.1617,"traced_fraction":[1.0,1.0],"n_labels":2,"no_drawn_outline":false}},{"type":"Feature","geometry":{"type":"MultiPolygon","coordinates":[[[[-0.946,-3.544],[-0.82,-3.629],[-0.652,-3.713],[-0.511,-3.748],[-0.294,-3.769],[-0.294,-3.832],[-0.266,-3.91],[-0.196,-3.98],[-0.007,-4.121],[-0.049,-4.163],[-0.266,-4.24],[-0.645,-4.219],[-0.778,-4.233],[-0.848,-4.255],[-0.862,-4.247],[-0.862,-4.219],[-1.002,-4.051],[-1.016,-3.994],[-1.065,-3.924],[-1.079,-3.854],[-1.058,-3.84],[-0.96,-3.832],[-0.946,-3.544]]],[[[0.996,-3.572],[1.003,-3.825],[1.213,-3.825],[1.185,-3.924],[1.115,-4.044],[1.094,-4.058],[1.094,-4.079],[1.08,-4.079],[1.01,-4.149],[0.94,-4.24],[0.905,-4.255],[0.582,-4.255],[0.484,-4.276],[0.421,-4.269],[0.246,-4.205],[0.127,-4.142],[0.113,-4.121],[0.351,-3.917],[0.379,-3.868],[0.386,-3.79],[0.821,-3.671],[0.996,-3.572]]]]},"properties":{"abbr":"LPAG","name":"lateral periaqueductal gray","plate":38,"ap_bregma_mm":-5.15,"area_mm2":0.8619,"traced_fraction":[0.887,0.857],"n_labels":2,"no_drawn_outline":false}},{"type":"Feature","geometry":{"type":"MultiPolygon","coordinates":[[[[1.641,-4.107],[1.515,-4.135],[1.255,-4.135],[1.185,-4.121],[1.094,-4.079],[1.094,-4.058],[1.115,-4.044],[1.185,-3.924],[1.213,-3.825],[1.227,-3.818],[1.242,-3.748],[1.248,-3.593],[1.227,-3.46],[1.192,-3.382],[1.178,-3.319],[1.136,-3.242],[0.989,-3.073],[0.849,-2.981],[0.716,-2.939],[0.631,-2.918],[0.512,-2.918],[0.169,-2.981],[-0.196,-2.989],[-0.294,-2.974],[-0.497,-2.911],[-0.645,-2.897],[-0.694,-2.89],[-0.82,-2.918],[-0.953,-2.989],[-1.037,-3.052],[-1.149,-3.185],[-1.178,-3.249],[-1.178,-3.326],[-1.178,-3.537],[-1.135,-3.664],[-1.135,-3.72],[-1.1,-3.776],[-1.093,-3.783],[-1.072,-3.818],[-1.072,-3.832],[-1.058,-3.832],[-1.058,-3.84],[-1.079,-3.854],[-1.065,-3.924],[-1.03,-3.966],[-1.002,-4.051],[-0.862,-4.219],[-0.862,-4.247],[-0.953,-4.269],[-1.212,-4.255],[-1.36,-4.226],[-1.416,-4.191],[-1.36,-3.938],[-1.311,-3.446],[-1.283,-3.312],[-1.227,-3.143],[-1.149,-3.017],[-1.065,-2.932],[-0.939,-2.848],[-0.841,-2.799],[-0.764,-2.778],[-0.645,-2.778],[-0.252,-2.904],[-0.077,-2.939],[0.085,-2.939],[0.169,-2.925],[0.533,-2.827],[0.779,-2.827],[0.905,-2.862],[1.094,-2.974],[1.242,-3.15],[1.55,-3.776],[1.62,-3.973],[1.641,-4.107]]]]},"properties":{"abbr":"DpWh","name":"deep white layer of the superior colliculus","plate":38,"ap_bregma_mm":-5.15,"area_mm2":0.7922,"traced_fraction":[0.993],"n_labels":2,"no_drawn_outline":false}},{"type":"Feature","geometry":{"type":"MultiPolygon","coordinates":[[[[5.455,-3.84],[5.729,-3.938],[5.953,-3.994],[6.297,-4.015],[6.851,-4.015],[6.858,-4.465],[6.844,-4.712],[6.57,-4.712],[6.451,-4.698],[6.114,-4.599],[5.82,-4.437],[5.708,-4.353],[5.455,-4.121],[5.434,-4.072],[5.455,-3.84]]],[[[-5.335,-4.114],[-5.321,-4.24],[-5.349,-4.24],[-5.461,-4.304],[-5.482,-4.304],[-5.742,-4.444],[-5.826,-4.515],[-6.149,-4.726],[-6.219,-4.789],[-6.247,-4.796],[-6.583,-5.028],[-6.674,-5.077],[-6.759,-4.93],[-6.836,-4.719],[-6.899,-4.388],[-6.899,-4.219],[-6.808,-4.219],[-6.71,-4.198],[-6.036,-4.135],[-5.335,-4.114]]]]},"properties":{"abbr":"Ect","name":"ectorhinal cortex","plate":38,"ap_bregma_mm":-5.15,"area_mm2":1.5909,"traced_fraction":[1.0,1.0],"n_labels":2,"no_drawn_outline":false}},{"type":"Feature","geometry":{"type":"MultiPolygon","coordinates":[[[[-4.22,-3.206],[-4.15,-3.263],[-4.108,-3.382],[-4.115,-3.516],[-4.164,-3.727],[-4.291,-4.114],[-4.347,-4.494],[-4.368,-4.965],[-4.333,-5.232],[-4.297,-5.478],[-4.347,-5.52],[-4.354,-5.682],[-4.389,-5.717],[-4.424,-5.717],[-4.515,-5.675],[-4.613,-5.605],[-4.739,-5.485],[-4.894,-5.281],[-4.978,-5.07],[-5.034,-4.817],[-5.076,-4.43],[-5.076,-4.058],[-5.055,-3.931],[-5.02,-3.811],[-4.922,-3.811],[-4.922,-3.65],[-4.95,-3.65],[-4.95,-3.621],[-4.936,-3.614],[-4.886,-3.509],[-4.788,-3.361],[-4.704,-3.277],[-4.599,-3.214],[-4.473,-3.185],[-4.34,-3.185],[-4.22,-3.206]]],[[[4.516,-3.305],[4.803,-3.354],[4.88,-3.382],[4.986,-3.467],[5.077,-3.621],[5.147,-3.896],[5.189,-4.177],[5.196,-4.374],[5.161,-4.564],[5.14,-4.803],[5.098,-5.007],[5.049,-5.12],[4.937,-5.302],[4.873,-5.302],[4.796,-5.338],[4.698,-5.359],[4.628,-5.359],[4.551,-5.295],[4.516,-5.162],[4.516,-5.014],[4.565,-4.845],[4.572,-4.775],[4.565,-4.55],[4.481,-3.875],[4.376,-3.523],[4.376,-3.439],[4.411,-3.389],[4.418,-3.354],[4.502,-3.326],[4.516,-3.305]]]]},"properties":{"abbr":"STr","name":"subiculum, transition area","plate":38,"ap_bregma_mm":-5.15,"area_mm2":2.8409,"traced_fraction":[0.922,1.0],"n_labels":2,"no_drawn_outline":false}},{"type":"Feature","geometry":{"type":"MultiPolygon","coordinates":[[[[-0.007,-4.121],[0.113,-4.121],[0.127,-4.142],[0.246,-4.205],[0.421,-4.269],[0.484,-4.276],[0.582,-4.255],[0.905,-4.255],[0.898,-4.311],[0.835,-4.395],[0.744,-4.571],[0.646,-4.691],[0.631,-4.691],[0.463,-4.522],[0.365,-4.472],[0.302,-4.459],[0.064,-4.465],[-0.014,-4.465],[-0.028,-4.451],[-0.175,-4.451],[-0.301,-4.487],[-0.42,-4.55],[-0.49,-4.606],[-0.574,-4.705],[-0.595,-4.712],[-0.61,-4.712],[-0.666,-4.648],[-0.722,-4.543],[-0.743,-4.529],[-0.792,-4.402],[-0.82,-4.374],[-0.848,-4.255],[-0.778,-4.233],[-0.645,-4.219],[-0.266,-4.24],[-0.049,-4.163],[-0.007,-4.121]]]]},"properties":{"abbr":"VLPAG","name":"ventrolateral periaqueductal gray","plate":38,"ap_bregma_mm":-5.15,"area_mm2":0.518,"traced_fraction":[0.995],"n_labels":1,"no_drawn_outline":false}},{"type":"Feature","geometry":{"type":"MultiPolygon","coordinates":[[[[-2.257,-3.776],[-2.222,-3.783],[-2.075,-3.903],[-1.738,-4.1],[-1.5,-4.177],[-1.416,-4.191],[-1.36,-4.226],[-1.212,-4.255],[-0.953,-4.269],[-0.862,-4.247],[-0.848,-4.255],[-0.82,-4.374],[-0.848,-4.388],[-0.876,-4.437],[-0.897,-4.599],[-0.862,-4.684],[-0.813,-4.74],[-0.813,-4.761],[-0.834,-4.775],[-0.939,-4.831],[-1.416,-5.239],[-1.43,-5.239],[-1.528,-5.134],[-1.816,-5.134],[-1.816,-5.113],[-2.131,-5.113],[-2.187,-5.07],[-2.145,-4.993],[-2.138,-4.937],[-2.159,-4.866],[-2.215,-4.81],[-2.299,-4.768],[-2.397,-4.747],[-2.482,-4.747],[-2.622,-4.782],[-2.643,-4.768],[-2.643,-4.726],[-2.51,-4.719],[-2.475,-4.691],[-2.447,-4.641],[-2.39,-4.423],[-2.348,-4.093],[-2.257,-3.776]]],[[[2.265,-3.945],[2.286,-3.987],[2.328,-4.191],[2.342,-4.543],[1.515,-4.543],[1.515,-4.135],[1.641,-4.107],[2.055,-4.036],[2.181,-3.994],[2.265,-3.945]]]]},"properties":{"abbr":"PrCnF","name":"precuneiform area","plate":38,"ap_bregma_mm":-5.15,"area_mm2":1.8382,"traced_fraction":[0.843,0.549],"n_labels":2,"no_drawn_outline":false}},{"type":"Feature","geometry":{"type":"MultiPolygon","coordinates":[[[[-3.428,-3.579],[-3.421,-3.586],[-3.463,-3.671],[-3.498,-3.797],[-3.505,-3.818],[-3.512,-3.847],[-3.526,-3.889],[-3.533,-3.917],[-3.582,-4.1],[-3.625,-4.43],[-3.631,-4.887],[-3.625,-5.183],[-3.61,-5.225],[-4.333,-5.232],[-4.368,-4.965],[-4.347,-4.494],[-4.291,-4.114],[-4.164,-3.727],[-4.115,-3.516],[-4.108,-3.382],[-4.15,-3.263],[-4.115,-3.256],[-4.045,-3.298],[-3.919,-3.34],[-3.428,-3.579]]],[[[4.418,-3.354],[4.418,-3.375],[4.376,-3.439],[4.376,-3.523],[4.481,-3.875],[4.565,-4.55],[4.572,-4.775],[4.565,-4.845],[4.516,-5.014],[4.516,-5.162],[4.474,-5.169],[4.46,-5.19],[4.355,-5.253],[4.207,-5.288],[4.067,-5.274],[3.857,-5.211],[3.948,-4.845],[3.976,-4.627],[3.983,-4.374],[3.962,-4.065],[3.934,-3.903],[3.871,-3.664],[3.836,-3.579],[4.179,-3.418],[4.418,-3.354]]]]},"properties":{"abbr":"PrS","name":"presubiculum","plate":38,"ap_bregma_mm":-5.15,"area_mm2":2.3259,"traced_fraction":[0.872,1.0],"n_labels":2,"no_drawn_outline":false}},{"type":"Feature","geometry":{"type":"MultiPolygon","coordinates":[[[[0.898,-4.311],[0.926,-4.332],[0.947,-4.381],[0.954,-4.536],[0.919,-4.669],[0.856,-4.803],[0.744,-4.831],[0.631,-4.831],[0.561,-4.803],[0.646,-4.691],[0.744,-4.571],[0.835,-4.395],[0.898,-4.311]]],[[[-0.82,-4.374],[-0.792,-4.402],[-0.778,-4.459],[-0.708,-4.585],[-0.638,-4.684],[-0.595,-4.712],[-0.595,-4.733],[-0.568,-4.754],[-0.546,-4.796],[-0.729,-4.796],[-0.806,-4.775],[-0.813,-4.761],[-0.813,-4.74],[-0.862,-4.684],[-0.897,-4.599],[-0.876,-4.437],[-0.848,-4.388],[-0.82,-4.374]]]]},"properties":{"abbr":"InC","name":"interstitial nucleus of Cajal","plate":38,"ap_bregma_mm":-5.15,"area_mm2":0.1699,"traced_fraction":[1.0,0.994],"n_labels":2,"no_drawn_outline":false}},{"type":"Feature","geometry":{"type":"MultiPolygon","coordinates":[[[[-0.014,-4.465],[-0.056,-4.522],[-0.07,-4.62],[-0.217,-4.62],[-0.259,-4.641],[-0.462,-4.852],[-0.546,-4.796],[-0.568,-4.754],[-0.595,-4.733],[-0.595,-4.712],[-0.574,-4.705],[-0.561,-4.676],[-0.42,-4.55],[-0.301,-4.487],[-0.175,-4.451],[-0.028,-4.451],[-0.014,-4.465]]],[[[0.646,-4.691],[0.561,-4.803],[0.512,-4.845],[0.512,-4.859],[0.463,-4.887],[0.358,-4.712],[0.253,-4.606],[0.106,-4.606],[0.099,-4.543],[0.064,-4.465],[0.302,-4.459],[0.365,-4.472],[0.463,-4.522],[0.631,-4.691],[0.646,-4.691]]]]},"properties":{"abbr":"Su3","name":"supraoculomotor periaqueductal gray","plate":38,"ap_bregma_mm":-5.15,"area_mm2":0.2111,"traced_fraction":[0.99,0.99],"n_labels":2,"no_drawn_outline":false}},{"type":"Feature","geometry":{"type":"MultiPolygon","coordinates":[[[[-0.014,-4.465],[0.064,-4.465],[0.099,-4.543],[0.106,-4.606],[0.085,-4.662],[0.057,-4.691],[0.036,-4.817],[0.0,-4.817],[-0.035,-4.684],[-0.07,-4.62],[-0.056,-4.522],[-0.014,-4.465]]]]},"properties":{"abbr":"EW","name":"Edinger–Westphal nucleus","plate":38,"ap_bregma_mm":-5.15,"area_mm2":0.0396,"traced_fraction":[1.0],"n_labels":1,"no_drawn_outline":false}},{"type":"Feature","geometry":{"type":"MultiPolygon","coordinates":[[[[5.455,-4.121],[5.708,-4.353],[5.82,-4.437],[6.114,-4.599],[6.451,-4.698],[6.57,-4.712],[6.844,-4.712],[6.808,-4.895],[6.759,-5.021],[6.64,-5.183],[6.577,-5.232],[6.437,-5.295],[6.339,-5.316],[6.142,-5.316],[6.086,-5.338],[6.065,-5.352],[6.058,-5.422],[6.1,-5.535],[6.051,-5.535],[5.974,-5.436],[5.764,-4.916],[5.631,-4.648],[5.518,-4.465],[5.434,-4.381],[5.42,-4.339],[5.42,-4.219],[5.434,-4.128],[5.455,-4.121]]],[[[-5.321,-4.24],[-5.3,-4.409],[-5.335,-4.416],[-5.405,-4.472],[-5.665,-4.74],[-5.854,-4.979],[-6.079,-5.316],[-6.247,-5.542],[-6.289,-5.584],[-6.324,-5.591],[-6.331,-5.52],[-6.198,-5.274],[-6.191,-5.197],[-6.212,-5.141],[-6.261,-5.106],[-6.345,-5.106],[-6.478,-5.134],[-6.541,-5.169],[-6.604,-5.169],[-6.653,-5.134],[-6.674,-5.077],[-6.583,-5.028],[-6.247,-4.796],[-6.219,-4.789],[-6.149,-4.726],[-5.826,-4.515],[-5.742,-4.444],[-5.482,-4.304],[-5.461,-4.304],[-5.349,-4.24],[-5.321,-4.24]]]]},"properties":{"abbr":"PRh","name":"perirhinal cortex","plate":38,"ap_bregma_mm":-5.15,"area_mm2":1.2656,"traced_fraction":[1.0,1.0],"n_labels":2,"no_drawn_outline":false}},{"type":"Feature","geometry":{"type":"MultiPolygon","coordinates":[[[[-2.187,-5.07],[-2.243,-5.084],[-2.397,-5.07],[-2.475,-5.021],[-2.58,-4.979],[-2.643,-4.923],[-2.622,-4.782],[-2.482,-4.747],[-2.397,-4.747],[-2.299,-4.768],[-2.215,-4.81],[-2.159,-4.866],[-2.138,-4.937],[-2.145,-4.993],[-2.187,-5.07]]],[[[2.419,-4.803],[2.524,-4.845],[2.644,-4.859],[2.672,-4.944],[2.714,-4.972],[2.742,-4.972],[2.714,-5.077],[2.181,-5.077],[2.181,-4.923],[2.279,-4.923],[2.307,-4.909],[2.405,-4.803],[2.419,-4.803]]]]},"properties":{"abbr":"SubB","name":"subbrachial nucleus","plate":38,"ap_bregma_mm":-5.15,"area_mm2":0.2382,"traced_fraction":[1.0,0.402],"n_labels":2,"no_drawn_outline":false}},{"type":"Feature","geometry":{"type":"MultiPolygon","coordinates":[[[[0.463,-4.887],[0.463,-5.049],[0.442,-5.148],[0.421,-5.183],[0.372,-5.225],[0.211,-5.239],[0.106,-5.295],[0.07,-5.281],[0.028,-5.169],[0.036,-4.817],[0.057,-4.691],[0.085,-4.662],[0.106,-4.606],[0.253,-4.606],[0.358,-4.712],[0.463,-4.887]]],[[[-0.07,-4.62],[-0.035,-4.684],[0.0,-4.817],[0.0,-5.218],[-0.021,-5.267],[-0.07,-5.302],[-0.112,-5.31],[-0.21,-5.288],[-0.28,-5.26],[-0.329,-5.218],[-0.364,-5.141],[-0.406,-4.944],[-0.427,-4.902],[-0.462,-4.873],[-0.462,-4.852],[-0.259,-4.641],[-0.217,-4.62],[-0.07,-4.62]]]]},"properties":{"abbr":"3N","name":"oculomotor nucleus","plate":38,"ap_bregma_mm":-5.15,"area_mm2":0.4763,"traced_fraction":[0.992,1.0],"n_labels":2,"no_drawn_outline":false}},{"type":"Feature","geometry":{"type":"MultiPolygon","coordinates":[[[[1.094,-4.079],[1.185,-4.121],[1.255,-4.135],[1.515,-4.135],[1.515,-4.543],[2.342,-4.543],[2.363,-4.691],[2.384,-4.754],[2.419,-4.803],[2.405,-4.803],[2.307,-4.909],[2.279,-4.923],[2.181,-4.923],[2.181,-5.077],[2.714,-5.077],[2.686,-5.211],[2.545,-5.619],[2.518,-5.668],[2.511,-5.668],[2.433,-5.647],[2.307,-5.647],[2.23,-5.647],[2.097,-5.682],[1.957,-5.788],[1.753,-5.584],[1.669,-5.577],[1.634,-5.549],[1.473,-5.38],[1.487,-5.352],[1.48,-5.316],[0.989,-4.831],[0.94,-4.81],[0.856,-4.803],[0.919,-4.669],[0.954,-4.536],[0.947,-4.381],[0.926,-4.332],[0.898,-4.311],[0.905,-4.255],[0.94,-4.24],[1.01,-4.149],[1.08,-4.079],[1.094,-4.079]]],[[[-2.397,-5.07],[-2.285,-5.084],[-2.187,-5.07],[-2.131,-5.113],[-1.816,-5.113],[-1.816,-5.134],[-1.528,-5.134],[-1.43,-5.239],[-1.416,-5.239],[-1.451,-5.281],[-1.451,-5.316],[-1.388,-5.408],[-1.402,-5.408],[-1.528,-5.542],[-1.837,-5.549],[-1.984,-5.696],[-2.082,-5.598],[-2.138,-5.584],[-2.166,-5.57],[-2.292,-5.57],[-2.383,-5.612],[-2.432,-5.668],[-2.447,-5.668],[-2.489,-5.619],[-2.559,-5.464],[-2.51,-5.457],[-2.489,-5.471],[-2.418,-5.471],[-2.362,-5.443],[-2.306,-5.373],[-2.292,-5.302],[-2.299,-5.253],[-2.334,-5.169],[-2.39,-5.106],[-2.397,-5.07]]]]},"properties":{"abbr":"MiTg","name":"microcellular tegmental nucleus","plate":38,"ap_bregma_mm":-5.15,"area_mm2":2.0448,"traced_fraction":[0.589,0.587],"n_labels":2,"no_drawn_outline":true}},{"type":"Feature","geometry":{"type":"MultiPolygon","coordinates":[[[[-0.834,-4.775],[-0.806,-4.775],[-0.729,-4.796],[-0.546,-4.796],[-0.462,-4.852],[-0.462,-4.873],[-0.476,-4.895],[-0.469,-5.028],[-0.441,-5.141],[-0.385,-5.267],[-0.266,-5.394],[-0.084,-5.457],[-0.112,-5.563],[-0.14,-5.781],[-0.266,-5.774],[-0.266,-5.661],[-0.294,-5.605],[-0.329,-5.57],[-0.42,-5.535],[-0.476,-5.535],[-0.561,-5.563],[-0.666,-5.478],[-0.799,-5.436],[-0.89,-5.429],[-0.932,-5.436],[-0.988,-5.478],[-1.016,-5.527],[-1.023,-5.626],[-1.1,-5.612],[-1.178,-5.57],[-1.388,-5.408],[-1.451,-5.316],[-1.451,-5.281],[-1.416,-5.239],[-0.939,-4.831],[-0.834,-4.775]]],[[[0.561,-4.803],[0.631,-4.831],[0.744,-4.831],[0.856,-4.803],[0.94,-4.81],[0.989,-4.831],[1.48,-5.316],[1.487,-5.352],[1.473,-5.38],[1.431,-5.401],[1.178,-5.612],[1.094,-5.647],[1.087,-5.64],[0.961,-5.563],[0.856,-5.542],[0.73,-5.549],[0.638,-5.591],[0.589,-5.549],[0.54,-5.527],[0.449,-5.535],[0.358,-5.584],[0.33,-5.619],[0.309,-5.668],[0.316,-5.753],[0.19,-5.76],[0.12,-5.457],[0.253,-5.408],[0.288,-5.408],[0.358,-5.373],[0.449,-5.302],[0.498,-5.246],[0.533,-5.141],[0.547,-5.035],[0.54,-4.909],[0.512,-4.859],[0.512,-4.845],[0.561,-4.803]]]]},"properties":{"abbr":"mRt","name":"mesencehalic reticular formation","plate":38,"ap_bregma_mm":-5.15,"area_mm2":1.3407,"traced_fraction":[0.964,0.981],"n_labels":2,"no_drawn_outline":false}},{"type":"Feature","geometry":{"type":"MultiPolygon","coordinates":[[[[0.512,-4.859],[0.54,-4.909],[0.547,-5.035],[0.533,-5.141],[0.498,-5.246],[0.449,-5.302],[0.358,-5.373],[0.288,-5.408],[0.253,-5.408],[0.12,-5.457],[0.099,-5.436],[0.085,-5.415],[0.085,-5.359],[0.106,-5.295],[0.211,-5.239],[0.372,-5.225],[0.421,-5.183],[0.442,-5.148],[0.463,-5.049],[0.463,-4.887],[0.512,-4.859]]],[[[-0.462,-4.873],[-0.427,-4.902],[-0.406,-4.944],[-0.364,-5.141],[-0.329,-5.218],[-0.28,-5.26],[-0.21,-5.288],[-0.112,-5.31],[-0.07,-5.302],[-0.042,-5.366],[-0.042,-5.429],[-0.084,-5.457],[-0.266,-5.394],[-0.385,-5.267],[-0.441,-5.141],[-0.469,-5.028],[-0.476,-4.895],[-0.462,-4.873]]]]},"properties":{"abbr":"mlf","name":"medial longitudinal fasciculus","plate":38,"ap_bregma_mm":-5.15,"area_mm2":0.1543,"traced_fraction":[0.996,1.0],"n_labels":2,"no_drawn_outline":false}},{"type":"Feature","geometry":{"type":"MultiPolygon","coordinates":[[[[0.0,-4.817],[0.036,-4.817],[0.028,-5.169],[0.07,-5.281],[0.106,-5.295],[0.085,-5.359],[0.085,-5.415],[0.099,-5.436],[0.085,-5.436],[0.064,-5.506],[0.028,-5.542],[-0.014,-5.542],[-0.035,-5.506],[-0.042,-5.429],[-0.042,-5.366],[-0.07,-5.302],[-0.021,-5.267],[0.0,-5.218],[0.0,-4.817]]]]},"properties":{"abbr":"DR","name":"dorsal raphe nucleus","plate":38,"ap_bregma_mm":-5.15,"area_mm2":0.0495,"traced_fraction":[0.996],"n_labels":1,"no_drawn_outline":false}},{"type":"Feature","geometry":{"type":"MultiPolygon","coordinates":[[[[5.434,-4.381],[5.518,-4.465],[5.631,-4.648],[5.764,-4.916],[5.974,-5.436],[6.051,-5.535],[6.1,-5.535],[6.128,-5.612],[6.128,-5.71],[6.016,-6.069],[6.016,-6.224],[6.065,-6.449],[6.058,-6.597],[6.044,-6.73],[5.981,-6.906],[5.967,-6.906],[5.953,-6.948],[5.876,-7.012],[5.764,-7.054],[5.588,-7.054],[5.504,-7.04],[5.406,-7.019],[5.329,-6.976],[5.329,-6.913],[5.308,-6.85],[5.154,-6.47],[5.098,-6.287],[4.916,-5.893],[4.859,-5.724],[4.901,-5.689],[4.971,-5.654],[5.028,-5.598],[5.105,-5.471],[5.154,-5.422],[5.203,-5.331],[5.343,-4.859],[5.413,-4.388],[5.434,-4.381]]],[[[-5.3,-4.409],[-5.286,-4.494],[-5.293,-4.972],[-5.265,-5.141],[-5.23,-5.253],[-5.139,-5.429],[-5.083,-5.506],[-4.978,-5.605],[-4.957,-5.64],[-4.943,-5.64],[-4.943,-5.654],[-4.816,-5.781],[-4.746,-5.816],[-4.753,-6.259],[-4.999,-6.259],[-4.999,-6.428],[-5.146,-6.449],[-5.461,-6.561],[-5.609,-6.554],[-5.798,-6.47],[-5.854,-6.421],[-5.924,-6.386],[-6.106,-6.21],[-6.205,-6.034],[-6.247,-5.921],[-6.317,-5.675],[-6.324,-5.591],[-6.289,-5.584],[-6.247,-5.542],[-6.079,-5.316],[-5.854,-4.979],[-5.665,-4.74],[-5.405,-4.472],[-5.335,-4.416],[-5.3,-4.409]]]]},"properties":{"abbr":"LEnt","name":"lateral entorhinal cortex","plate":38,"ap_bregma_mm":-5.15,"area_mm2":3.8608,"traced_fraction":[1.0,0.854],"n_labels":2,"no_drawn_outline":false}},{"type":"Feature","geometry":{"type":"MultiPolygon","coordinates":[[[[4.516,-5.162],[4.551,-5.295],[4.628,-5.359],[4.432,-5.471],[4.34,-5.556],[4.284,-5.746],[4.249,-5.809],[4.179,-5.879],[4.046,-5.971],[3.983,-5.999],[3.927,-6.006],[3.562,-6.013],[3.569,-5.914],[3.611,-5.746],[3.71,-5.535],[3.738,-5.499],[3.857,-5.211],[4.067,-5.274],[4.207,-5.288],[4.355,-5.253],[4.46,-5.19],[4.474,-5.169],[4.516,-5.162]]]]},"properties":{"abbr":"PaS","name":"parasubiculum","plate":38,"ap_bregma_mm":-5.15,"area_mm2":0.503,"traced_fraction":[1.0],"n_labels":1,"no_drawn_outline":false}},{"type":"Feature","geometry":{"type":"MultiPolygon","coordinates":[[[[1.473,-5.38],[1.634,-5.549],[1.669,-5.577],[1.753,-5.584],[1.957,-5.788],[1.957,-5.802],[1.83,-5.935],[1.718,-6.111],[1.487,-6.407],[1.382,-6.519],[1.284,-6.59],[1.269,-6.59],[1.234,-6.526],[1.185,-6.477],[1.263,-6.4],[1.263,-6.146],[0.996,-6.146],[0.996,-6.456],[0.674,-6.435],[0.463,-6.371],[0.379,-6.336],[0.323,-6.294],[0.288,-6.294],[0.267,-6.252],[0.19,-5.76],[0.316,-5.753],[0.33,-5.802],[0.358,-5.837],[0.449,-5.865],[0.582,-5.844],[0.659,-5.774],[0.744,-5.802],[0.849,-5.816],[1.01,-5.802],[1.094,-5.753],[1.094,-5.647],[1.178,-5.612],[1.431,-5.401],[1.473,-5.38]]],[[[-1.388,-5.408],[-1.178,-5.57],[-1.1,-5.612],[-1.023,-5.626],[-1.002,-5.703],[-0.953,-5.746],[-0.82,-5.774],[-0.659,-5.767],[-0.638,-5.809],[-0.589,-5.858],[-0.49,-5.893],[-0.406,-5.893],[-0.329,-5.865],[-0.266,-5.774],[-0.14,-5.781],[-0.175,-6.006],[-0.252,-6.315],[-0.301,-6.308],[-0.434,-6.393],[-0.603,-6.442],[-0.792,-6.47],[-0.988,-6.477],[-1.023,-6.491],[-1.037,-6.484],[-1.037,-6.139],[-1.542,-6.139],[-1.598,-6.196],[-1.731,-6.006],[-1.956,-5.746],[-1.984,-5.696],[-1.837,-5.549],[-1.528,-5.542],[-1.402,-5.408],[-1.388,-5.408]]]]},"properties":{"abbr":"RRF","name":"retrorubral field","plate":38,"ap_bregma_mm":-5.15,"area_mm2":2.0683,"traced_fraction":[0.732,0.691],"n_labels":2,"no_drawn_outline":true}},{"type":"Feature","geometry":{"type":"MultiPolygon","coordinates":[[[[-0.561,-5.563],[-0.645,-5.668],[-0.659,-5.767],[-0.82,-5.774],[-0.953,-5.746],[-1.002,-5.703],[-1.023,-5.626],[-1.016,-5.527],[-0.988,-5.478],[-0.946,-5.443],[-0.89,-5.429],[-0.799,-5.436],[-0.666,-5.478],[-0.561,-5.563]]],[[[1.087,-5.64],[1.094,-5.647],[1.094,-5.753],[1.01,-5.802],[0.849,-5.816],[0.744,-5.802],[0.659,-5.774],[0.674,-5.675],[0.638,-5.591],[0.73,-5.549],[0.856,-5.542],[0.961,-5.563],[1.087,-5.64]]]]},"properties":{"abbr":"PaR","name":"pararubral nucleus","plate":38,"ap_bregma_mm":-5.15,"area_mm2":0.2197,"traced_fraction":[1.0,1.0],"n_labels":2,"no_drawn_outline":false}},{"type":"Feature","geometry":{"type":"MultiPolygon","coordinates":[[[[0.638,-5.591],[0.674,-5.675],[0.659,-5.774],[0.582,-5.844],[0.449,-5.865],[0.358,-5.837],[0.337,-5.816],[0.316,-5.753],[0.316,-5.647],[0.344,-5.598],[0.379,-5.57],[0.449,-5.535],[0.54,-5.527],[0.589,-5.549],[0.638,-5.591]]],[[[-0.266,-5.774],[-0.329,-5.865],[-0.406,-5.893],[-0.49,-5.893],[-0.589,-5.858],[-0.638,-5.809],[-0.659,-5.767],[-0.645,-5.668],[-0.561,-5.563],[-0.511,-5.542],[-0.42,-5.535],[-0.329,-5.57],[-0.294,-5.605],[-0.266,-5.661],[-0.266,-5.774]]]]},"properties":{"abbr":"RMC","name":"red nucleus, magnocellular part","plate":38,"ap_bregma_mm":-5.15,"area_mm2":0.2077,"traced_fraction":[1.0,1.0],"n_labels":1,"no_drawn_outline":false}},{"type":"Feature","geometry":{"type":"MultiPolygon","coordinates":[[[[-5.076,-4.43],[-5.048,-4.726],[-4.978,-5.07],[-4.894,-5.281],[-4.739,-5.485],[-4.613,-5.605],[-4.515,-5.675],[-4.445,-5.71],[-4.389,-5.717],[-4.354,-5.682],[-4.347,-5.52],[-4.297,-5.478],[-4.333,-5.232],[-3.61,-5.225],[-3.589,-5.338],[-3.519,-5.535],[-3.421,-5.696],[-3.267,-5.9],[-3.239,-5.985],[-3.239,-6.132],[-3.274,-6.203],[-3.421,-6.357],[-3.505,-6.519],[-3.561,-6.575],[-3.688,-6.618],[-3.982,-6.618],[-4.171,-6.575],[-4.487,-6.477],[-4.641,-6.449],[-4.641,-6.259],[-4.753,-6.259],[-4.746,-5.816],[-4.816,-5.781],[-4.943,-5.654],[-4.943,-5.64],[-4.858,-5.556],[-5.02,-5.316],[-5.104,-5.113],[-5.153,-4.859],[-5.181,-4.444],[-5.076,-4.43]]],[[[4.937,-5.302],[4.901,-5.373],[4.733,-5.457],[4.635,-5.563],[4.628,-5.675],[4.642,-5.717],[4.67,-5.753],[4.712,-5.76],[4.691,-6.259],[4.656,-6.505],[4.579,-6.744],[4.579,-6.794],[4.277,-6.885],[4.137,-6.885],[4.032,-6.85],[3.885,-6.758],[3.759,-6.625],[3.639,-6.428],[3.583,-6.245],[3.562,-6.013],[3.927,-6.006],[3.983,-5.999],[4.046,-5.971],[4.179,-5.879],[4.249,-5.809],[4.284,-5.746],[4.34,-5.556],[4.432,-5.471],[4.628,-5.359],[4.698,-5.359],[4.796,-5.338],[4.873,-5.302],[4.937,-5.302]]]]},"properties":{"abbr":"CEnt","name":"caudomedial entothinal cortex","plate":38,"ap_bregma_mm":-5.15,"area_mm2":2.8442,"traced_fraction":[0.778,1.0],"n_labels":2,"no_drawn_outline":false}},{"type":"Feature","geometry":{"type":"MultiPolygon","coordinates":[[[[-2.138,-5.584],[-2.152,-5.612],[-2.152,-5.739],[-2.131,-5.788],[-2.089,-5.823],[-1.998,-5.837],[-1.942,-5.865],[-1.844,-5.978],[-1.661,-6.238],[-1.654,-6.336],[-1.668,-6.35],[-1.788,-6.343],[-1.83,-6.386],[-1.83,-6.442],[-1.794,-6.491],[-1.675,-6.597],[-1.479,-6.709],[-1.227,-6.779],[-1.178,-6.772],[-1.142,-6.716],[-1.128,-6.716],[-0.904,-6.941],[-0.771,-7.033],[-0.736,-7.082],[-0.876,-7.068],[-0.995,-7.012],[-1.318,-6.92],[-1.388,-6.878],[-1.514,-6.843],[-1.605,-6.794],[-1.788,-6.618],[-1.879,-6.498],[-1.991,-6.322],[-2.089,-6.203],[-2.222,-5.95],[-2.257,-5.921],[-2.299,-5.921],[-2.32,-5.935],[-2.447,-5.668],[-2.432,-5.668],[-2.383,-5.612],[-2.292,-5.57],[-2.166,-5.57],[-2.138,-5.584]]],[[[2.307,-5.647],[2.433,-5.647],[2.511,-5.668],[2.518,-5.668],[2.511,-5.689],[2.503,-5.71],[2.419,-5.942],[2.384,-5.999],[2.384,-6.006],[2.314,-5.992],[2.279,-6.02],[2.244,-6.125],[2.076,-6.477],[1.95,-6.639],[1.88,-6.709],[1.746,-6.808],[1.522,-6.927],[1.276,-7.019],[1.052,-7.054],[0.828,-7.04],[0.828,-7.026],[0.891,-6.962],[1.066,-6.836],[1.22,-6.667],[1.255,-6.66],[1.248,-6.702],[1.22,-6.744],[1.227,-6.801],[1.305,-6.85],[1.382,-6.85],[1.641,-6.744],[1.915,-6.597],[1.943,-6.54],[1.915,-6.47],[1.844,-6.463],[1.753,-6.498],[1.676,-6.498],[1.627,-6.47],[1.606,-6.414],[1.613,-6.371],[1.795,-6.139],[1.873,-6.083],[1.943,-5.999],[1.957,-5.999],[2.013,-5.935],[2.09,-5.879],[2.209,-5.823],[2.272,-5.774],[2.307,-5.71],[2.307,-5.647]]]]},"properties":{"abbr":"SNR","name":"substantia nigra, reticular part","plate":38,"ap_bregma_mm":-5.15,"area_mm2":0.9413,"traced_fraction":[1.0,1.0],"n_labels":2,"no_drawn_outline":false}},{"type":"Feature","geometry":{"type":"MultiPolygon","coordinates":[[[[-0.042,-5.429],[-0.035,-5.506],[-0.014,-5.542],[0.028,-5.542],[0.064,-5.506],[0.085,-5.436],[0.099,-5.436],[0.12,-5.457],[0.19,-5.76],[0.267,-6.252],[0.288,-6.294],[0.281,-6.442],[0.253,-6.484],[0.225,-6.463],[0.211,-6.428],[0.162,-6.386],[0.064,-6.357],[-0.049,-6.357],[-0.105,-6.371],[-0.168,-6.4],[-0.231,-6.456],[-0.245,-6.456],[-0.252,-6.421],[-0.252,-6.315],[-0.175,-6.006],[-0.14,-5.781],[-0.112,-5.563],[-0.084,-5.457],[-0.042,-5.429]]]]},"properties":{"abbr":"CLi","name":"caudal linear nucleus of the raphe","plate":38,"ap_bregma_mm":-5.15,"area_mm2":0.3522,"traced_fraction":[1.0],"n_labels":1,"no_drawn_outline":false}},{"type":"Feature","geometry":{"type":"MultiPolygon","coordinates":[[[[4.859,-5.724],[4.916,-5.893],[5.098,-6.287],[5.154,-6.47],[5.308,-6.85],[5.329,-6.913],[5.329,-6.976],[5.07,-6.836],[4.929,-6.794],[4.817,-6.772],[4.579,-6.794],[4.579,-6.744],[4.656,-6.505],[4.691,-6.259],[4.712,-5.76],[4.782,-5.753],[4.859,-5.724]]],[[[-4.753,-6.259],[-4.641,-6.259],[-4.641,-6.449],[-4.816,-6.421],[-4.999,-6.428],[-4.999,-6.259],[-4.753,-6.259]]]]},"properties":{"abbr":"MEnt","name":"medial entorhinal cortex","plate":38,"ap_bregma_mm":-5.15,"area_mm2":0.5129,"traced_fraction":[1.0,0.403],"n_labels":2,"no_drawn_outline":false}},{"type":"Feature","geometry":{"type":"MultiPolygon","coordinates":[[[[-1.037,-6.484],[-1.121,-6.484],[-1.163,-6.519],[-1.178,-6.561],[-1.178,-6.639],[-1.233,-6.611],[-1.325,-6.519],[-1.381,-6.442],[-1.556,-6.266],[-1.598,-6.196],[-1.542,-6.139],[-1.037,-6.139],[-1.037,-6.484]]],[[[1.185,-6.477],[1.157,-6.456],[1.031,-6.47],[0.996,-6.456],[0.996,-6.146],[1.263,-6.146],[1.263,-6.4],[1.185,-6.477]]]]},"properties":{"abbr":"PTg","name":"pedunculopontine tegmental nucleus","plate":38,"ap_bregma_mm":-5.15,"area_mm2":0.2574,"traced_fraction":[0.486,0.233],"n_labels":2,"no_drawn_outline":true}},{"type":"Feature","geometry":{"type":"MultiPolygon","coordinates":[[[[-2.138,-5.584],[-2.082,-5.598],[-1.984,-5.696],[-1.956,-5.746],[-1.731,-6.006],[-1.598,-6.196],[-1.556,-6.266],[-1.381,-6.442],[-1.325,-6.519],[-1.233,-6.611],[-1.178,-6.639],[-1.142,-6.716],[-1.178,-6.772],[-1.227,-6.779],[-1.479,-6.709],[-1.675,-6.597],[-1.794,-6.491],[-1.83,-6.442],[-1.83,-6.386],[-1.788,-6.343],[-1.668,-6.35],[-1.654,-6.336],[-1.661,-6.238],[-1.844,-5.978],[-1.942,-5.865],[-1.998,-5.837],[-2.089,-5.823],[-2.131,-5.788],[-2.152,-5.739],[-2.152,-5.612],[-2.138,-5.584]]],[[[2.307,-5.647],[2.307,-5.71],[2.272,-5.774],[2.209,-5.823],[2.09,-5.879],[2.013,-5.935],[1.957,-5.999],[1.943,-5.999],[1.873,-6.083],[1.795,-6.139],[1.613,-6.371],[1.613,-6.442],[1.641,-6.484],[1.676,-6.498],[1.753,-6.498],[1.844,-6.463],[1.915,-6.47],[1.943,-6.533],[1.915,-6.597],[1.641,-6.744],[1.382,-6.85],[1.305,-6.85],[1.227,-6.801],[1.22,-6.744],[1.248,-6.702],[1.255,-6.66],[1.284,-6.59],[1.382,-6.519],[1.487,-6.407],[1.718,-6.111],[1.83,-5.935],[1.957,-5.802],[1.957,-5.788],[2.097,-5.682],[2.188,-5.654],[2.307,-5.647]]]]},"properties":{"abbr":"SNC","name":"substantia nigra, compact part","plate":38,"ap_bregma_mm":-5.15,"area_mm2":0.5616,"traced_fraction":[1.0,1.0],"n_labels":2,"no_drawn_outline":false}},{"type":"Feature","geometry":{"type":"MultiPolygon","coordinates":[[[[0.288,-6.294],[0.323,-6.294],[0.379,-6.336],[0.463,-6.371],[0.674,-6.435],[0.996,-6.456],[1.031,-6.47],[0.989,-6.519],[0.877,-6.582],[0.477,-6.885],[0.463,-6.885],[0.414,-6.786],[0.365,-6.723],[0.302,-6.674],[0.253,-6.611],[0.253,-6.484],[0.281,-6.442],[0.288,-6.294]]],[[[-0.252,-6.315],[-0.252,-6.421],[-0.245,-6.456],[-0.231,-6.456],[-0.231,-6.463],[-0.245,-6.47],[-0.259,-6.519],[-0.266,-6.625],[-0.287,-6.639],[-0.301,-6.674],[-0.322,-6.674],[-0.371,-6.723],[-0.462,-6.871],[-0.582,-6.808],[-0.939,-6.575],[-1.009,-6.505],[-1.023,-6.505],[-1.023,-6.491],[-0.988,-6.477],[-0.869,-6.477],[-0.603,-6.442],[-0.434,-6.393],[-0.301,-6.308],[-0.252,-6.315]]]]},"properties":{"abbr":"VTA","name":"ventral tegmental area","plate":38,"ap_bregma_mm":-5.15,"area_mm2":0.4394,"traced_fraction":[1.0,1.0],"n_labels":2,"no_drawn_outline":false}},{"type":"Feature","geometry":{"type":"MultiPolygon","coordinates":[[[[0.225,-6.463],[0.183,-6.484],[0.176,-6.505],[0.134,-6.533],[0.049,-6.568],[-0.049,-6.568],[-0.154,-6.526],[-0.231,-6.463],[-0.231,-6.456],[-0.189,-6.414],[-0.126,-6.379],[-0.049,-6.357],[0.064,-6.357],[0.162,-6.386],[0.211,-6.428],[0.225,-6.463]]]]},"properties":{"abbr":"IF","name":"interfascicular nucleus","plate":38,"ap_bregma_mm":-5.15,"area_mm2":0.0686,"traced_fraction":[0.987],"n_labels":1,"no_drawn_outline":false}},{"type":"Feature","geometry":{"type":"MultiPolygon","coordinates":[[[[1.185,-6.477],[1.234,-6.526],[1.269,-6.59],[1.284,-6.59],[1.255,-6.66],[1.22,-6.667],[1.066,-6.836],[0.891,-6.962],[0.828,-7.026],[0.828,-7.04],[0.596,-7.026],[0.533,-7.075],[0.505,-6.969],[0.491,-6.962],[0.47,-6.906],[0.477,-6.885],[0.877,-6.582],[0.989,-6.519],[1.031,-6.47],[1.157,-6.456],[1.185,-6.477]]],[[[-1.037,-6.484],[-1.023,-6.491],[-1.023,-6.505],[-1.009,-6.505],[-0.939,-6.575],[-0.582,-6.808],[-0.462,-6.871],[-0.483,-6.955],[-0.504,-6.976],[-0.546,-7.096],[-0.574,-7.082],[-0.736,-7.082],[-0.771,-7.033],[-0.904,-6.941],[-1.128,-6.716],[-1.142,-6.716],[-1.178,-6.639],[-1.178,-6.561],[-1.163,-6.519],[-1.121,-6.484],[-1.037,-6.484]]]]},"properties":{"abbr":"ml","name":"medial lemniscus","plate":38,"ap_bregma_mm":-5.15,"area_mm2":0.4458,"traced_fraction":[1.0,1.0],"n_labels":2,"no_drawn_outline":false}},{"type":"Feature","geometry":{"type":"MultiPolygon","coordinates":[[[[-0.736,-7.082],[-0.574,-7.082],[-0.546,-7.096],[-0.568,-7.265],[-1.206,-7.166],[-1.437,-7.082],[-1.591,-6.983],[-1.83,-6.744],[-1.963,-6.54],[-2.012,-6.491],[-2.145,-6.287],[-2.166,-6.273],[-2.32,-5.935],[-2.299,-5.921],[-2.257,-5.921],[-2.222,-5.95],[-2.089,-6.203],[-1.991,-6.322],[-1.879,-6.498],[-1.788,-6.618],[-1.605,-6.794],[-1.514,-6.843],[-1.388,-6.878],[-1.318,-6.92],[-1.037,-6.997],[-0.876,-7.068],[-0.736,-7.082]]],[[[2.384,-6.006],[2.223,-6.329],[2.223,-6.35],[2.055,-6.667],[1.894,-6.892],[1.697,-7.082],[1.564,-7.152],[1.48,-7.173],[1.242,-7.3],[1.122,-7.335],[0.919,-7.328],[0.533,-7.209],[0.533,-7.194],[0.533,-7.075],[0.596,-7.026],[0.828,-7.04],[1.052,-7.054],[1.276,-7.019],[1.522,-6.927],[1.746,-6.808],[1.88,-6.709],[2.076,-6.477],[2.244,-6.125],[2.279,-6.02],[2.314,-5.992],[2.384,-6.006]]]]},"properties":{"abbr":"cp","name":"cerebral peduncle","plate":38,"ap_bregma_mm":-5.15,"area_mm2":0.7324,"traced_fraction":[1.0,1.0],"n_labels":2,"no_drawn_outline":false}},{"type":"Feature","geometry":{"type":"MultiPolygon","coordinates":[[[[0.127,-6.815],[0.127,-6.836],[0.148,-6.85],[0.218,-7.005],[0.281,-7.286],[0.309,-7.335],[0.127,-7.426],[0.028,-7.441],[-0.098,-7.426],[-0.238,-7.363],[-0.238,-7.244],[-0.21,-7.068],[-0.098,-6.822],[0.036,-6.85],[0.127,-6.815]]]]},"properties":{"abbr":"IPC","name":"interpeduncular nucleus, caudal subnucleus","plate":38,"ap_bregma_mm":-5.15,"area_mm2":0.2516,"traced_fraction":[1.0],"n_labels":1,"no_drawn_outline":false}},{"type":"Feature","geometry":{"type":"MultiPolygon","coordinates":[[[[-0.21,-6.772],[-0.098,-6.822],[-0.21,-7.068],[-0.238,-7.244],[-0.238,-7.363],[-0.406,-7.293],[-0.392,-7.124],[-0.364,-7.005],[-0.322,-6.913],[-0.21,-6.772]]]]},"properties":{"abbr":"IPD","name":"interpeduncular nucleus, dorsal subnucleus","plate":38,"ap_bregma_mm":-5.15,"area_mm2":0.0908,"traced_fraction":[1.0],"n_labels":1,"no_drawn_outline":false}},{"type":"Feature","geometry":{"type":"MultiPolygon","coordinates":[[[[0.211,-6.772],[0.351,-6.962],[0.4,-7.082],[0.421,-7.194],[0.442,-7.23],[0.456,-7.23],[0.309,-7.335],[0.281,-7.286],[0.218,-7.005],[0.148,-6.85],[0.127,-6.836],[0.127,-6.815],[0.134,-6.808],[0.211,-6.772]]]]},"properties":{"abbr":"IPI","name":"interpeduncular nucleus, intermediate subnucleus","plate":38,"ap_bregma_mm":-5.15,"area_mm2":0.0755,"traced_fraction":[1.0],"n_labels":1,"no_drawn_outline":false}},{"type":"Feature","geometry":{"type":"MultiPolygon","coordinates":[[[[-0.301,-6.674],[-0.21,-6.772],[-0.21,-6.786],[-0.308,-6.892],[-0.364,-7.005],[-0.392,-7.124],[-0.406,-7.293],[-0.568,-7.265],[-0.546,-7.096],[-0.504,-6.976],[-0.483,-6.955],[-0.462,-6.871],[-0.371,-6.723],[-0.322,-6.674],[-0.301,-6.674]]],[[[0.302,-6.674],[0.365,-6.723],[0.414,-6.786],[0.463,-6.885],[0.477,-6.885],[0.47,-6.906],[0.491,-6.962],[0.505,-6.969],[0.533,-7.075],[0.533,-7.194],[0.505,-7.194],[0.491,-7.215],[0.456,-7.23],[0.442,-7.23],[0.421,-7.194],[0.4,-7.082],[0.351,-6.962],[0.211,-6.772],[0.225,-6.744],[0.302,-6.674]]]]},"properties":{"abbr":"IPL","name":"interpeduncular nucleus, lateral subnucleus","plate":38,"ap_bregma_mm":-5.15,"area_mm2":0.1699,"traced_fraction":[1.0,1.0],"n_labels":1,"no_drawn_outline":false}},{"type":"Feature","geometry":{"type":"MultiPolygon","coordinates":[[[[-2.818,-1.645],[-2.832,-1.673],[-2.881,-1.701],[-3.0,-1.821],[-3.015,-1.821],[-3.428,-2.271],[-3.625,-2.517],[-3.905,-2.918],[-4.017,-3.038],[-4.017,-3.052],[-4.122,-3.15],[-4.206,-3.185],[-4.22,-3.206],[-4.255,-3.192],[-4.473,-3.185],[-4.599,-3.214],[-4.704,-3.277],[-4.788,-3.361],[-4.886,-3.509],[-5.02,-3.502],[-4.943,-3.354],[-4.795,-3.143],[-4.739,-3.087],[-4.676,-2.981],[-4.55,-2.848],[-4.536,-2.813],[-4.508,-2.799],[-4.445,-2.693],[-4.094,-2.306],[-4.08,-2.306],[-3.884,-2.116],[-3.61,-1.912],[-3.134,-1.666],[-2.93,-1.582],[-2.881,-1.589],[-2.832,-1.645],[-2.818,-1.645]]],[[[3.548,-1.8],[3.829,-1.941],[4.004,-2.053],[4.046,-2.095],[4.228,-2.215],[4.319,-2.313],[4.333,-2.313],[4.474,-2.447],[4.474,-2.461],[4.614,-2.609],[4.705,-2.742],[4.74,-2.77],[4.908,-3.024],[5.056,-3.206],[5.077,-3.27],[5.105,-3.298],[5.175,-3.446],[5.217,-3.614],[5.077,-3.621],[4.986,-3.467],[4.88,-3.382],[4.803,-3.354],[4.516,-3.305],[4.411,-3.235],[3.695,-2.18],[3.562,-2.039],[3.506,-2.011],[3.457,-1.948],[3.471,-1.934],[3.471,-1.863],[3.534,-1.8],[3.548,-1.8]]]]},"properties":{"abbr":"dhc","name":"dorsal hippocampal commissure","plate":38,"ap_bregma_mm":-5.15,"area_mm2":1.8966,"traced_fraction":[0.964,0.961],"n_labels":2,"no_drawn_outline":false}},{"type":"Feature","geometry":{"type":"MultiPolygon","coordinates":[[[[-3.148,-1.575],[-3.134,-1.666],[-3.61,-1.912],[-3.884,-2.116],[-4.08,-2.306],[-4.094,-2.306],[-4.445,-2.693],[-4.508,-2.799],[-4.536,-2.813],[-4.55,-2.848],[-4.676,-2.981],[-4.739,-3.087],[-4.795,-3.143],[-4.943,-3.354],[-5.02,-3.502],[-5.111,-3.664],[-5.174,-3.875],[-5.188,-3.994],[-5.181,-4.444],[-5.153,-4.859],[-5.104,-5.113],[-5.02,-5.316],[-4.858,-5.556],[-4.943,-5.64],[-4.957,-5.64],[-4.978,-5.605],[-5.083,-5.506],[-5.139,-5.429],[-5.23,-5.253],[-5.265,-5.141],[-5.293,-4.972],[-5.286,-4.494],[-5.3,-4.409],[-5.321,-4.24],[-5.335,-4.114],[-5.321,-3.804],[-5.23,-3.474],[-5.209,-3.453],[-5.139,-3.277],[-5.006,-3.045],[-4.907,-2.904],[-4.732,-2.7],[-4.368,-2.341],[-4.354,-2.341],[-4.319,-2.299],[-4.108,-2.13],[-3.884,-1.976],[-3.849,-1.934],[-3.786,-1.912],[-3.625,-1.8],[-3.148,-1.575]]],[[[3.59,-1.708],[3.787,-1.8],[4.011,-1.934],[4.032,-1.934],[4.074,-1.976],[4.305,-2.13],[4.333,-2.166],[4.397,-2.201],[4.565,-2.334],[4.6,-2.377],[4.614,-2.377],[4.916,-2.672],[4.916,-2.686],[5.084,-2.869],[5.217,-3.059],[5.273,-3.178],[5.294,-3.192],[5.378,-3.396],[5.385,-3.404],[5.392,-3.425],[5.399,-3.439],[5.462,-3.776],[5.455,-3.84],[5.434,-4.029],[5.434,-4.072],[5.455,-4.121],[5.434,-4.128],[5.42,-4.219],[5.42,-4.339],[5.434,-4.381],[5.413,-4.388],[5.343,-4.859],[5.203,-5.331],[5.154,-5.422],[5.105,-5.471],[5.028,-5.598],[4.971,-5.654],[4.901,-5.689],[4.845,-5.591],[4.845,-5.57],[4.993,-5.408],[5.084,-5.246],[5.175,-5.0],[5.28,-4.564],[5.287,-4.374],[5.315,-4.17],[5.308,-4.008],[5.259,-3.699],[5.217,-3.614],[5.175,-3.446],[5.105,-3.298],[5.084,-3.284],[5.056,-3.206],[4.908,-3.024],[4.74,-2.77],[4.705,-2.742],[4.614,-2.609],[4.474,-2.461],[4.474,-2.447],[4.333,-2.313],[4.319,-2.313],[4.228,-2.215],[4.046,-2.095],[4.004,-2.053],[3.829,-1.941],[3.548,-1.8],[3.548,-1.772],[3.59,-1.708]]]]},"properties":{"abbr":"dcw","name":"deep cerebral white matter","plate":38,"ap_bregma_mm":-5.15,"area_mm2":1.5128,"traced_fraction":[0.982,0.981],"n_labels":2,"no_drawn_outline":false}},{"type":"Feature","geometry":{"type":"MultiPolygon","coordinates":[[[[-0.645,-2.897],[-0.497,-2.911],[-0.294,-2.974],[-0.196,-2.989],[0.169,-2.981],[0.512,-2.918],[0.631,-2.918],[0.716,-2.939],[0.646,-3.108],[0.547,-3.27],[0.526,-3.284],[0.498,-3.34],[0.351,-3.467],[0.253,-3.607],[0.225,-3.607],[0.106,-3.544],[0.015,-3.544],[-0.154,-3.6],[-0.294,-3.446],[-0.455,-3.361],[-0.546,-3.27],[-0.61,-3.15],[-0.631,-3.08],[-0.645,-2.897]]]]},"properties":{"abbr":"DMPAG","name":"dorsomedial periaqueductal gray","plate":38,"ap_bregma_mm":-5.15,"area_mm2":0.6272,"traced_fraction":[1.0],"n_labels":1,"no_drawn_outline":false}},{"type":"Feature","geometry":{"type":"MultiPolygon","coordinates":[[[[-5.02,-3.502],[-4.886,-3.509],[-4.936,-3.614],[-4.95,-3.621],[-4.95,-3.65],[-4.922,-3.65],[-4.922,-3.811],[-5.02,-3.811],[-5.055,-3.931],[-5.076,-4.058],[-5.076,-4.43],[-5.181,-4.444],[-5.188,-3.994],[-5.174,-3.875],[-5.111,-3.664],[-5.02,-3.502]]],[[[5.217,-3.614],[5.259,-3.699],[5.308,-4.008],[5.315,-4.17],[5.287,-4.374],[5.28,-4.564],[5.175,-5.0],[5.084,-5.246],[4.993,-5.408],[4.845,-5.57],[4.845,-5.591],[4.901,-5.689],[4.859,-5.724],[4.782,-5.753],[4.712,-5.76],[4.67,-5.753],[4.642,-5.717],[4.628,-5.675],[4.635,-5.563],[4.733,-5.457],[4.901,-5.373],[4.937,-5.302],[5.049,-5.12],[5.098,-5.007],[5.14,-4.803],[5.161,-4.564],[5.196,-4.374],[5.189,-4.177],[5.147,-3.896],[5.077,-3.621],[5.217,-3.614]]]]},"properties":{"abbr":"alv","name":"alveus of the hippocampus","plate":38,"ap_bregma_mm":-5.15,"area_mm2":0.4054,"traced_fraction":[0.838,0.97],"n_labels":2,"no_drawn_outline":false}},{"type":"Feature","geometry":{"type":"MultiPolygon","coordinates":[[[[-2.58,-4.979],[-2.489,-5.014],[-2.397,-5.07],[-2.39,-5.106],[-2.334,-5.169],[-2.299,-5.253],[-2.292,-5.302],[-2.306,-5.373],[-2.362,-5.443],[-2.418,-5.471],[-2.489,-5.471],[-2.51,-5.457],[-2.559,-5.464],[-2.664,-5.267],[-2.713,-5.063],[-2.685,-5.07],[-2.629,-5.0],[-2.58,-4.979]]]]},"properties":{"abbr":"PBG","name":"parabigeminal nucleus","plate":38,"ap_bregma_mm":-5.15,"area_mm2":0.1407,"traced_fraction":[1.0],"n_labels":1,"no_drawn_outline":false}},{"type":"Feature","geometry":{"type":"MultiPolygon","coordinates":[[[[-0.231,-6.463],[-0.154,-6.526],[-0.105,-6.547],[-0.049,-6.568],[0.049,-6.568],[0.113,-6.688],[0.113,-6.751],[0.134,-6.808],[0.127,-6.815],[0.036,-6.85],[-0.098,-6.822],[-0.21,-6.772],[-0.301,-6.674],[-0.287,-6.639],[-0.266,-6.625],[-0.259,-6.519],[-0.245,-6.47],[-0.231,-6.463]]]]},"properties":{"abbr":"IPR","name":"interpeduncular nucleus, rostral subnucleus","plate":38,"ap_bregma_mm":-5.15,"area_mm2":0.1006,"traced_fraction":[0.989],"n_labels":1,"no_drawn_outline":false}},{"type":"Feature","geometry":{"type":"Polygon","coordinates":[[[-1.444,-1.406],[-1.416,-1.511],[-1.809,-1.68],[-1.858,-1.561],[-1.844,-1.54],[-1.801,-1.533],[-1.612,-1.448],[-1.486,-1.406],[-1.444,-1.406]]]},"properties":{"abbr":null,"name":"unnamed sealed face","plate":38,"ap_bregma_mm":-5.15,"index":0}},{"type":"Feature","geometry":{"type":"Polygon","coordinates":[[[0.225,-6.463],[0.253,-6.484],[0.253,-6.611],[0.302,-6.674],[0.225,-6.744],[0.211,-6.772],[0.134,-6.808],[0.113,-6.751],[0.113,-6.688],[0.049,-6.568],[0.134,-6.533],[0.176,-6.505],[0.183,-6.484],[0.225,-6.463]]]},"properties":{"abbr":null,"name":"unnamed sealed face","plate":38,"ap_bregma_mm":-5.15,"index":1}},{"type":"Feature","geometry":{"type":"MultiPolygon","coordinates":[[[[0.085,-7.426],[-0.035,-7.434],[-0.091,-7.419],[-0.406,-7.286],[-1.199,-7.159],[-1.374,-7.103],[-1.486,-7.047],[-1.598,-6.969],[-1.822,-6.744],[-2.173,-6.252],[-2.426,-5.71],[-2.51,-5.57],[-2.664,-5.253],[-2.783,-4.796],[-2.867,-4.177],[-2.881,-3.741],[-2.867,-3.453],[-2.839,-3.27],[-2.811,-3.2],[-2.762,-3.15],[-2.552,-3.101],[-2.524,-3.073],[-2.524,-3.003],[-2.559,-2.96],[-2.594,-2.862],[-2.608,-2.644],[-2.517,-2.363],[-2.405,-2.159],[-2.215,-1.948],[-2.033,-1.807],[-1.809,-1.68],[-1.865,-1.547],[-2.159,-1.694],[-2.292,-1.786],[-2.418,-1.905],[-2.482,-1.997],[-2.622,-2.271],[-2.762,-2.503],[-2.902,-2.806],[-3.302,-3.347],[-3.463,-3.657],[-3.582,-4.072],[-3.625,-4.367],[-3.638,-4.613],[-3.631,-5.162],[-3.596,-5.324],[-3.526,-5.52],[-3.477,-5.612],[-3.267,-5.914],[-3.246,-5.992],[-3.246,-6.118],[-3.281,-6.196],[-3.421,-6.35],[-3.519,-6.519],[-3.568,-6.568],[-3.702,-6.611],[-3.968,-6.611],[-4.136,-6.575],[-4.529,-6.463],[-4.844,-6.414],[-4.964,-6.414],[-5.139,-6.442],[-5.475,-6.554],[-5.602,-6.547],[-5.749,-6.491],[-5.931,-6.371],[-6.1,-6.21],[-6.191,-6.055],[-6.247,-5.907],[-6.317,-5.661],[-6.331,-5.527],[-6.198,-5.26],[-6.191,-5.204],[-6.212,-5.141],[-6.226,-5.12],[-6.275,-5.099],[-6.331,-5.099],[-6.471,-5.127],[-6.555,-5.162],[-6.604,-5.162],[-6.646,-5.134],[-6.752,-4.937],[-6.836,-4.705],[-6.899,-4.367],[-6.892,-4.015],[-6.829,-3.678],[-6.695,-3.305],[-6.527,-2.981],[-6.289,-2.616],[-5.994,-2.222],[-5.735,-1.919],[-5.307,-1.483],[-4.992,-1.216],[-4.781,-1.068],[-4.424,-0.843],[-4.003,-0.632],[-3.779,-0.541],[-3.246,-0.379],[-2.748,-0.288],[-2.376,-0.245],[-2.075,-0.231],[-1.724,-0.239],[-1.472,-0.267],[-1.283,-0.309],[-1.135,-0.358],[-0.981,-0.428],[-0.897,-0.485],[-0.757,-0.632],[-0.715,-0.71],[-0.687,-0.808],[-0.694,-0.977],[-0.75,-1.104],[-0.785,-1.146],[-0.841,-1.181],[-1.03,-1.237],[-1.465,-1.399],[-1.451,-1.392],[-1.423,-1.511],[-1.1,-1.406],[-0.974,-1.378],[-0.799,-1.378],[-0.624,-1.427],[-0.441,-1.533],[-0.266,-1.687],[-0.126,-1.877],[-0.063,-2.011],[0.015,-1.99],[0.064,-1.877],[0.197,-1.73],[0.316,-1.638],[0.456,-1.561],[0.744,-1.483],[0.891,-1.483],[1.066,-1.519],[1.248,-1.589],[1.634,-1.779],[1.844,-1.905],[2.076,-2.067],[2.251,-2.215],[2.363,-2.334],[2.496,-2.517],[2.574,-2.665],[2.602,-2.756],[2.616,-2.883],[2.588,-3.122],[2.602,-3.192],[2.658,-3.277],[2.854,-3.432],[2.91,-3.544],[2.91,-3.664],[2.889,-3.769],[2.903,-4.029],[2.896,-4.339],[2.826,-4.684],[2.756,-4.895],[2.672,-5.218],[2.539,-5.605],[2.412,-5.928],[2.153,-6.47],[2.041,-6.667],[1.88,-6.892],[1.697,-7.068],[1.571,-7.138],[1.466,-7.173],[1.227,-7.293],[1.108,-7.328],[0.975,-7.328],[0.898,-7.314],[0.547,-7.201],[0.47,-7.215],[0.288,-7.342],[0.113,-7.419],[0.085,-7.426]]],[[[5.736,-7.047],[5.603,-7.047],[5.406,-7.012],[5.077,-6.836],[4.916,-6.786],[4.789,-6.765],[4.6,-6.779],[4.263,-6.878],[4.151,-6.878],[4.088,-6.864],[3.99,-6.822],[3.878,-6.744],[3.787,-6.653],[3.689,-6.512],[3.639,-6.414],[3.59,-6.266],[3.562,-6.062],[3.569,-5.921],[3.611,-5.753],[3.815,-5.316],[3.864,-5.183],[3.948,-4.824],[3.976,-4.592],[3.983,-4.423],[3.962,-4.086],[3.927,-3.875],[3.864,-3.65],[3.787,-3.474],[3.674,-3.277],[3.541,-3.094],[3.163,-2.637],[2.98,-2.37],[2.84,-2.102],[2.7,-1.934],[2.405,-1.73],[1.858,-1.462],[1.781,-1.413],[1.683,-1.378],[1.424,-1.237],[1.227,-1.104],[1.08,-0.963],[1.003,-0.829],[0.975,-0.731],[0.982,-0.576],[1.038,-0.421],[1.094,-0.358],[1.192,-0.316],[1.305,-0.295],[1.557,-0.281],[1.802,-0.295],[2.223,-0.344],[3.029,-0.471],[3.752,-0.632],[4.025,-0.71],[4.2,-0.787],[4.894,-1.195],[5.252,-1.441],[5.427,-1.589],[5.743,-1.898],[6.044,-2.257],[6.248,-2.531],[6.465,-2.862],[6.696,-3.298],[6.774,-3.502],[6.816,-3.671],[6.837,-3.811],[6.851,-4.29],[6.844,-4.641],[6.823,-4.789],[6.802,-4.88],[6.738,-5.042],[6.654,-5.155],[6.605,-5.197],[6.542,-5.239],[6.423,-5.288],[6.318,-5.31],[6.156,-5.31],[6.093,-5.324],[6.058,-5.352],[6.051,-5.408],[6.121,-5.619],[6.121,-5.696],[6.009,-6.076],[6.009,-6.203],[6.058,-6.463],[6.037,-6.716],[5.995,-6.857],[5.939,-6.948],[5.848,-7.019],[5.743,-7.047],[5.736,-7.047]]]]},"properties":{"abbr":"brain_outline","name":"outline of the section","plate":38,"ap_bregma_mm":-5.15}}]}
