{"type":"FeatureCollection","name":"GerbilAtlas plate 21","note":"Region extents cut from the atlas drawing (METHODS.md, Region extents). Coordinates are [ML, DV] in mm, ML positive to the right of the plate as printed, DV negative below the dorsal surface; AP is the plate bregma. traced_fraction is the share of each polygon boundary the atlas actually draws; below 0.5 the boundary is an estimate. no_drawn_outline marks a feature that lies only inside boundaries the atlas draws round more than one name and prints nothing within, so the whole of its outline is where the extraction cut it. Not a segmentation.","plate":21,"ap_bregma_mm":0.8,"features":[{"type":"Feature","geometry":{"type":"MultiPolygon","coordinates":[[[[1.417,-1.293],[1.417,-1.406],[1.445,-1.546],[1.529,-2.257],[1.564,-2.439],[1.592,-2.721],[1.634,-2.925],[1.431,-2.939],[1.333,-2.967],[1.228,-2.763],[0.996,-2.439],[0.653,-2.074],[0.653,-2.06],[0.386,-1.799],[0.386,-1.786],[0.218,-1.624],[0.218,-1.61],[0.176,-1.582],[0.176,-1.567],[0.267,-1.476],[0.351,-1.441],[0.358,-1.427],[0.449,-1.385],[0.695,-1.321],[1.143,-1.293],[1.417,-1.293]]],[[[-0.161,-1.617],[-0.574,-2.067],[-0.827,-2.397],[-1.009,-2.714],[-1.086,-2.918],[-1.114,-3.044],[-1.261,-3.002],[-1.444,-2.995],[-1.5,-2.981],[-1.486,-2.489],[-1.423,-1.722],[-1.409,-1.385],[-1.233,-1.371],[-0.848,-1.378],[-0.574,-1.42],[-0.35,-1.49],[-0.21,-1.567],[-0.161,-1.617]]]]},"properties":{"abbr":"M2","name":"secondary motor cortex","plate":21,"ap_bregma_mm":0.8,"area_mm2":2.5717,"traced_fraction":[1.0,1.0],"n_labels":2,"no_drawn_outline":false}},{"type":"Feature","geometry":{"type":"MultiPolygon","coordinates":[[[[1.417,-1.293],[1.753,-1.3],[2.146,-1.349],[2.518,-1.427],[2.244,-2.981],[1.838,-2.932],[1.634,-2.925],[1.592,-2.721],[1.564,-2.439],[1.529,-2.257],[1.445,-1.546],[1.417,-1.406],[1.417,-1.293]]],[[[-1.409,-1.385],[-1.423,-1.722],[-1.486,-2.489],[-1.5,-2.981],[-1.528,-2.995],[-1.752,-3.002],[-1.977,-3.037],[-2.103,-3.037],[-2.201,-2.679],[-2.25,-2.426],[-2.32,-2.179],[-2.46,-1.56],[-2.383,-1.532],[-2.033,-1.455],[-1.591,-1.392],[-1.409,-1.385]]]]},"properties":{"abbr":"M1","name":"primary motor cortex","plate":21,"ap_bregma_mm":0.8,"area_mm2":2.7182,"traced_fraction":[1.0,1.0],"n_labels":2,"no_drawn_outline":false}},{"type":"Feature","geometry":{"type":"MultiPolygon","coordinates":[[[[4.32,-2.081],[4.67,-2.278],[4.86,-2.404],[4.888,-2.439],[5.07,-2.552],[5.245,-2.728],[5.287,-2.798],[5.378,-2.904],[5.455,-3.03],[5.231,-3.129],[4.894,-3.248],[4.572,-3.389],[4.2,-3.516],[4.011,-3.6],[3.962,-3.607],[3.548,-3.755],[3.443,-3.558],[3.443,-3.537],[3.387,-3.481],[3.38,-3.452],[3.422,-3.403],[3.436,-3.403],[3.506,-3.438],[3.633,-3.284],[3.646,-3.248],[3.689,-3.22],[3.878,-3.22],[3.878,-2.869],[3.822,-2.826],[3.829,-2.798],[3.906,-2.7],[4.025,-2.503],[4.046,-2.489],[4.228,-2.2],[4.32,-2.081]]],[[[-4.122,-2.186],[-4.108,-2.193],[-3.786,-2.693],[-3.779,-2.721],[-3.723,-2.791],[-3.715,-2.819],[-3.568,-3.03],[-3.554,-3.073],[-3.47,-3.199],[-3.442,-3.22],[-3.4,-3.298],[-3.379,-3.305],[-3.379,-3.326],[-3.288,-3.452],[-3.183,-3.558],[-3.19,-3.586],[-3.302,-3.727],[-3.337,-3.818],[-3.603,-3.698],[-3.793,-3.579],[-4.017,-3.466],[-4.206,-3.333],[-4.248,-3.319],[-4.718,-2.995],[-4.893,-2.854],[-4.95,-2.784],[-4.809,-2.629],[-4.606,-2.496],[-4.599,-2.475],[-4.543,-2.447],[-4.389,-2.327],[-4.122,-2.186]]]]},"properties":{"abbr":"S1BF","name":"primary somatosensory cortex, barrel field","plate":21,"ap_bregma_mm":0.8,"area_mm2":2.8303,"traced_fraction":[0.889,1.0],"n_labels":2,"no_drawn_outline":false}},{"type":"Feature","geometry":{"type":"MultiPolygon","coordinates":[[[[-3.954,-2.102],[-3.8,-2.404],[-3.772,-2.433],[-3.645,-2.665],[-3.421,-3.009],[-3.386,-3.044],[-3.267,-3.044],[-3.267,-3.22],[-3.344,-3.262],[-3.379,-3.305],[-3.4,-3.298],[-3.442,-3.22],[-3.47,-3.199],[-3.554,-3.073],[-3.568,-3.03],[-3.715,-2.819],[-3.723,-2.791],[-3.779,-2.721],[-3.786,-2.693],[-4.108,-2.193],[-4.108,-2.179],[-3.954,-2.102]]],[[[3.822,-2.826],[3.878,-2.869],[3.878,-3.22],[3.689,-3.22],[3.64,-3.136],[3.612,-3.129],[3.612,-3.15],[3.583,-3.164],[3.541,-3.234],[3.492,-3.22],[3.492,-3.058],[3.667,-3.058],[3.675,-3.009],[3.745,-2.939],[3.801,-2.84],[3.822,-2.826]]]]},"properties":{"abbr":"S1DZ","name":"primary somatosensory cortex, dysgranular zone","plate":21,"ap_bregma_mm":0.8,"area_mm2":0.2951,"traced_fraction":[0.887,0.324],"n_labels":2,"no_drawn_outline":true}},{"type":"Feature","geometry":{"type":"MultiPolygon","coordinates":[[[[1.634,-2.925],[1.838,-2.932],[2.244,-2.981],[2.539,-3.051],[2.518,-3.094],[2.321,-3.066],[2.118,-3.016],[1.817,-2.981],[1.613,-2.995],[1.445,-3.037],[1.41,-3.066],[1.312,-3.101],[1.291,-3.129],[1.235,-3.157],[0.688,-3.727],[0.66,-3.706],[0.66,-3.692],[0.905,-3.424],[0.905,-3.41],[0.947,-3.375],[0.947,-3.361],[1.165,-3.108],[1.326,-2.974],[1.333,-2.967],[1.431,-2.939],[1.634,-2.925]]],[[[-1.5,-2.981],[-1.444,-2.995],[-1.261,-3.002],[-1.114,-3.044],[-1.03,-3.129],[-1.016,-3.129],[-0.995,-3.164],[-1.016,-3.164],[-1.044,-3.199],[-1.17,-3.199],[-1.17,-3.108],[-1.374,-3.058],[-1.535,-3.051],[-1.928,-3.08],[-1.97,-3.08],[-1.977,-3.037],[-1.752,-3.002],[-1.528,-2.995],[-1.5,-2.981]]]]},"properties":{"abbr":"cg","name":"cingulum","plate":21,"ap_bregma_mm":0.8,"area_mm2":0.2131,"traced_fraction":[1.0,0.931],"n_labels":2,"no_drawn_outline":false}},{"type":"Feature","geometry":{"type":"MultiPolygon","coordinates":[[[[1.165,-3.108],[0.947,-3.361],[0.947,-3.375],[0.905,-3.41],[0.905,-3.424],[0.66,-3.692],[0.66,-3.706],[0.569,-3.776],[0.498,-3.811],[0.358,-3.86],[0.316,-3.86],[0.288,-3.825],[0.253,-3.811],[0.148,-3.825],[0.134,-3.825],[0.099,-3.72],[0.078,-3.713],[0.064,-3.727],[0.05,-3.825],[0.029,-3.86],[-0.049,-3.818],[-0.049,-3.776],[-0.189,-3.776],[-0.189,-3.874],[-0.287,-3.846],[-0.525,-3.706],[-0.539,-3.677],[-0.609,-3.607],[-0.623,-3.607],[-0.68,-3.537],[-0.694,-3.537],[-0.855,-3.305],[-0.925,-3.234],[-0.925,-3.213],[-0.771,-3.051],[-0.588,-2.946],[-0.329,-2.854],[0.015,-2.798],[0.309,-2.798],[0.554,-2.84],[0.912,-2.967],[1.108,-3.058],[1.165,-3.108]]]]},"properties":{"abbr":"Cg2","name":"cingulate cortex, area 2","plate":21,"ap_bregma_mm":0.8,"area_mm2":1.5405,"traced_fraction":[0.952],"n_labels":2,"no_drawn_outline":false}},{"type":"Feature","geometry":{"type":"MultiPolygon","coordinates":[[[[-2.103,-3.037],[-1.977,-3.037],[-1.97,-3.08],[-1.928,-3.08],[-1.921,-3.22],[-2.012,-3.22],[-2.25,-3.255],[-2.537,-3.34],[-2.685,-3.417],[-2.832,-3.516],[-2.951,-3.628],[-3.0,-3.656],[-3.084,-3.748],[-3.162,-3.895],[-3.225,-4.071],[-3.281,-4.409],[-3.274,-4.789],[-3.246,-4.986],[-3.211,-5.084],[-3.211,-5.133],[-3.239,-5.119],[-3.281,-5.021],[-3.372,-4.571],[-3.407,-4.205],[-3.4,-4.064],[-3.337,-3.818],[-3.302,-3.727],[-3.19,-3.586],[-3.183,-3.558],[-3.07,-3.445],[-2.86,-3.298],[-2.552,-3.164],[-2.103,-3.037]]],[[[2.539,-3.051],[2.763,-3.108],[3.044,-3.206],[3.072,-3.234],[3.233,-3.326],[3.366,-3.452],[3.38,-3.452],[3.387,-3.481],[3.443,-3.537],[3.443,-3.558],[3.548,-3.755],[3.597,-3.902],[3.612,-4.036],[3.604,-4.099],[3.541,-4.613],[3.429,-5.035],[3.401,-5.105],[3.352,-5.33],[3.324,-5.372],[3.31,-5.45],[3.296,-5.457],[3.303,-5.478],[3.275,-5.492],[3.254,-5.555],[3.226,-5.569],[3.226,-5.506],[3.387,-4.95],[3.422,-4.718],[3.436,-4.557],[3.436,-4.113],[3.394,-3.938],[3.261,-3.649],[3.086,-3.481],[2.959,-3.396],[2.742,-3.284],[2.518,-3.206],[2.307,-3.157],[2.321,-3.066],[2.518,-3.094],[2.539,-3.051]]]]},"properties":{"abbr":"ec","name":"external capsule","plate":21,"ap_bregma_mm":0.8,"area_mm2":0.8861,"traced_fraction":[0.985,0.995],"n_labels":2,"no_drawn_outline":false}},{"type":"Feature","geometry":{"type":"MultiPolygon","coordinates":[[[[-4.95,-2.784],[-4.893,-2.854],[-4.718,-2.995],[-4.248,-3.319],[-4.206,-3.333],[-4.017,-3.466],[-3.793,-3.579],[-3.603,-3.698],[-3.337,-3.818],[-3.4,-4.064],[-3.407,-4.205],[-3.47,-4.205],[-3.603,-4.233],[-3.793,-4.289],[-3.933,-4.31],[-4.171,-4.381],[-4.957,-4.564],[-5.209,-4.627],[-5.251,-4.641],[-5.279,-4.669],[-5.412,-4.339],[-5.461,-4.128],[-5.475,-3.839],[-5.454,-3.656],[-5.398,-3.438],[-5.286,-3.199],[-5.146,-2.981],[-4.95,-2.784]]],[[[5.455,-3.03],[5.519,-3.122],[5.68,-3.466],[5.729,-3.67],[5.75,-3.895],[5.743,-4.219],[5.722,-4.324],[5.511,-4.725],[3.604,-4.099],[3.612,-4.036],[3.597,-3.902],[3.548,-3.755],[3.562,-3.741],[4.011,-3.6],[4.2,-3.516],[4.572,-3.389],[4.894,-3.248],[5.231,-3.129],[5.455,-3.03]]]]},"properties":{"abbr":"S1ULp","name":"primary somatosensory cortex, upper lip region","plate":21,"ap_bregma_mm":0.8,"area_mm2":4.5738,"traced_fraction":[1.0,1.0],"n_labels":2,"no_drawn_outline":false}},{"type":"Feature","geometry":{"type":"MultiPolygon","coordinates":[[[[2.321,-3.066],[2.307,-3.157],[2.069,-3.115],[1.817,-3.115],[1.62,-3.171],[1.452,-3.262],[1.27,-3.403],[1.024,-3.649],[1.024,-3.663],[0.877,-3.825],[0.87,-3.853],[0.856,-3.853],[0.786,-3.938],[0.73,-4.036],[0.533,-4.05],[0.365,-4.099],[0.141,-4.128],[-0.007,-4.128],[-0.112,-4.106],[-0.266,-4.099],[-0.518,-4.022],[-0.518,-3.917],[-0.659,-3.917],[-0.729,-3.811],[-0.897,-3.635],[-0.911,-3.635],[-0.981,-3.558],[-0.995,-3.558],[-1.184,-3.382],[-1.346,-3.277],[-1.479,-3.227],[-1.633,-3.206],[-1.921,-3.22],[-1.928,-3.08],[-1.535,-3.051],[-1.374,-3.058],[-1.17,-3.108],[-1.17,-3.199],[-1.044,-3.199],[-0.967,-3.305],[-0.89,-3.382],[-0.876,-3.382],[-0.848,-3.431],[-0.806,-3.459],[-0.785,-3.502],[-0.771,-3.502],[-0.771,-3.516],[-0.75,-3.523],[-0.75,-3.537],[-0.63,-3.656],[-0.553,-3.706],[-0.525,-3.706],[-0.399,-3.79],[-0.378,-3.79],[-0.238,-3.867],[-0.189,-3.874],[0.029,-3.888],[0.155,-3.888],[0.316,-3.86],[0.358,-3.86],[0.498,-3.811],[0.569,-3.776],[0.66,-3.706],[0.688,-3.727],[1.235,-3.157],[1.291,-3.129],[1.312,-3.101],[1.41,-3.066],[1.445,-3.037],[1.613,-2.995],[1.817,-2.981],[2.034,-3.002],[2.321,-3.066]]]]},"properties":{"abbr":"cc","name":"corpus callosum","plate":21,"ap_bregma_mm":0.8,"area_mm2":0.9494,"traced_fraction":[0.955],"n_labels":1,"no_drawn_outline":false}},{"type":"Feature","geometry":{"type":"MultiPolygon","coordinates":[[[[-0.518,-4.022],[-0.266,-4.099],[-0.266,-4.142],[-0.231,-4.247],[-0.189,-4.317],[-0.189,-4.353],[-0.301,-4.374],[-0.546,-4.451],[-0.708,-4.543],[-0.757,-4.549],[-0.764,-4.5],[-0.715,-4.317],[-0.617,-4.064],[-0.595,-4.008],[-0.518,-4.022]]],[[[0.73,-4.036],[0.737,-4.085],[0.751,-4.085],[0.765,-4.156],[0.87,-4.437],[0.891,-4.557],[0.863,-4.557],[0.751,-4.486],[0.611,-4.423],[0.414,-4.367],[0.309,-4.353],[0.316,-4.282],[0.365,-4.156],[0.365,-4.099],[0.533,-4.05],[0.73,-4.036]]]]},"properties":{"abbr":"LSD","name":"lateral septal nucleus, dorsal part","plate":21,"ap_bregma_mm":0.8,"area_mm2":0.352,"traced_fraction":[1.0,0.996],"n_labels":2,"no_drawn_outline":false}},{"type":"Feature","geometry":{"type":"MultiPolygon","coordinates":[[[[-0.189,-4.353],[-0.126,-4.409],[-0.091,-4.472],[-0.013,-4.535],[-0.252,-5.021],[-0.336,-5.323],[-0.364,-5.513],[-0.357,-5.703],[-0.378,-6.055],[-0.427,-6.055],[-0.469,-5.998],[-0.511,-5.984],[-0.553,-5.816],[-0.609,-5.724],[-0.609,-5.703],[-0.574,-5.647],[-0.525,-5.408],[-0.518,-5.168],[-0.532,-5.049],[-0.567,-4.887],[-0.63,-4.739],[-0.722,-4.641],[-0.778,-4.62],[-0.785,-4.578],[-0.771,-4.549],[-0.757,-4.549],[-0.708,-4.543],[-0.546,-4.451],[-0.301,-4.374],[-0.189,-4.353]]],[[[0.309,-4.353],[0.414,-4.367],[0.611,-4.423],[0.751,-4.486],[0.863,-4.557],[0.891,-4.557],[0.905,-4.613],[0.87,-4.62],[0.793,-4.669],[0.709,-4.747],[0.646,-4.859],[0.582,-5.063],[0.569,-5.175],[0.582,-5.485],[0.632,-5.696],[0.66,-5.759],[0.681,-5.766],[0.618,-5.907],[0.561,-5.921],[0.47,-6.012],[0.428,-6.019],[0.414,-5.893],[0.414,-5.562],[0.344,-5.183],[0.239,-4.845],[0.113,-4.578],[0.113,-4.549],[0.218,-4.444],[0.218,-4.43],[0.295,-4.353],[0.309,-4.353]]]]},"properties":{"abbr":"LSI","name":"lateral septal nucleus, intermediate part","plate":21,"ap_bregma_mm":0.8,"area_mm2":1.0532,"traced_fraction":[0.988,0.991],"n_labels":2,"no_drawn_outline":false}},{"type":"Feature","geometry":{"type":"MultiPolygon","coordinates":[[[[2.307,-3.157],[2.518,-3.206],[2.742,-3.284],[2.91,-3.368],[3.086,-3.481],[3.261,-3.649],[3.394,-3.938],[3.436,-4.113],[3.436,-4.557],[3.422,-4.718],[3.387,-4.95],[3.226,-5.506],[3.226,-5.569],[3.163,-5.752],[3.135,-5.752],[3.051,-5.858],[2.959,-6.019],[2.938,-6.034],[2.931,-6.069],[2.889,-6.118],[2.854,-6.202],[2.812,-6.23],[2.665,-6.427],[2.468,-6.568],[2.419,-6.624],[2.405,-6.624],[2.405,-6.638],[2.384,-6.638],[2.286,-6.723],[2.013,-6.638],[1.824,-6.533],[1.83,-6.442],[1.803,-6.287],[1.634,-6.041],[1.459,-5.879],[1.256,-5.766],[1.052,-5.626],[0.989,-5.604],[0.968,-5.576],[0.94,-5.478],[0.968,-5.26],[0.968,-5.042],[0.933,-4.732],[0.905,-4.613],[0.891,-4.557],[0.87,-4.437],[0.765,-4.156],[0.751,-4.085],[1.01,-4.085],[1.01,-3.931],[0.947,-3.931],[0.87,-3.853],[0.877,-3.825],[1.024,-3.663],[1.024,-3.649],[1.27,-3.403],[1.452,-3.262],[1.62,-3.171],[1.817,-3.115],[2.069,-3.115],[2.307,-3.157]]],[[[-0.659,-3.917],[-0.827,-3.917],[-0.827,-4.064],[-0.617,-4.064],[-0.715,-4.317],[-0.764,-4.5],[-0.757,-4.549],[-0.771,-4.549],[-0.785,-4.578],[-0.778,-4.62],[-0.792,-4.62],[-0.813,-4.676],[-0.869,-4.972],[-0.89,-5.295],[-0.876,-5.569],[-0.89,-5.604],[-0.939,-5.612],[-1.198,-5.745],[-1.5,-5.858],[-1.612,-5.914],[-1.78,-6.034],[-1.914,-6.16],[-1.998,-6.287],[-2.026,-6.406],[-2.019,-6.533],[-2.131,-6.575],[-2.285,-6.61],[-2.341,-6.596],[-2.404,-6.526],[-2.509,-6.47],[-2.601,-6.371],[-2.636,-6.322],[-2.636,-6.301],[-2.699,-6.223],[-2.741,-6.132],[-2.776,-6.097],[-2.811,-5.991],[-2.825,-5.984],[-2.874,-5.872],[-2.902,-5.844],[-2.93,-5.773],[-2.958,-5.745],[-3.007,-5.626],[-3.084,-5.548],[-3.105,-5.506],[-3.134,-5.379],[-3.204,-5.211],[-3.211,-5.133],[-3.211,-5.084],[-3.246,-4.986],[-3.274,-4.789],[-3.281,-4.409],[-3.225,-4.071],[-3.162,-3.895],[-3.084,-3.748],[-3.0,-3.656],[-2.951,-3.628],[-2.832,-3.516],[-2.685,-3.417],[-2.537,-3.34],[-2.25,-3.255],[-2.012,-3.22],[-1.921,-3.22],[-1.633,-3.206],[-1.479,-3.227],[-1.346,-3.277],[-1.184,-3.382],[-0.995,-3.558],[-0.981,-3.558],[-0.911,-3.635],[-0.897,-3.635],[-0.729,-3.811],[-0.659,-3.917]]]]},"properties":{"abbr":"CPu","name":"caudate putamen (striatum)","plate":21,"ap_bregma_mm":0.8,"area_mm2":13.2714,"traced_fraction":[0.944,0.952],"n_labels":2,"no_drawn_outline":false}},{"type":"Feature","geometry":{"type":"MultiPolygon","coordinates":[[[[3.604,-4.099],[5.511,-4.725],[5.308,-5.126],[5.189,-5.337],[5.161,-5.365],[5.077,-5.534],[4.817,-5.844],[4.726,-5.78],[4.628,-5.738],[4.348,-5.569],[4.137,-5.464],[3.64,-5.147],[3.429,-5.035],[3.541,-4.613],[3.604,-4.099]]],[[[-3.407,-4.205],[-3.372,-4.571],[-3.281,-5.021],[-3.33,-5.035],[-3.358,-5.063],[-3.491,-5.126],[-3.652,-5.232],[-3.842,-5.323],[-3.87,-5.351],[-4.164,-5.506],[-4.304,-5.598],[-4.417,-5.647],[-4.522,-5.717],[-5.111,-5.049],[-5.153,-4.95],[-5.167,-4.95],[-5.23,-4.824],[-5.279,-4.669],[-5.251,-4.641],[-5.209,-4.627],[-4.957,-4.564],[-4.171,-4.381],[-3.933,-4.31],[-3.793,-4.289],[-3.603,-4.233],[-3.47,-4.205],[-3.407,-4.205]]]]},"properties":{"abbr":"S2","name":"secondary somatosensory cortex","plate":21,"ap_bregma_mm":0.8,"area_mm2":3.8185,"traced_fraction":[1.0,1.0],"n_labels":2,"no_drawn_outline":false}},{"type":"Feature","geometry":{"type":"MultiPolygon","coordinates":[[[[0.905,-4.613],[0.933,-4.732],[0.968,-5.042],[0.968,-5.26],[0.94,-5.478],[0.919,-5.478],[0.849,-5.548],[0.716,-5.738],[0.681,-5.766],[0.66,-5.759],[0.632,-5.696],[0.582,-5.485],[0.569,-5.365],[0.569,-5.175],[0.582,-5.063],[0.646,-4.859],[0.709,-4.747],[0.793,-4.669],[0.856,-4.627],[0.905,-4.613]]],[[[-0.778,-4.62],[-0.722,-4.641],[-0.63,-4.739],[-0.567,-4.887],[-0.532,-5.049],[-0.518,-5.168],[-0.525,-5.408],[-0.574,-5.647],[-0.609,-5.703],[-0.729,-5.604],[-0.82,-5.569],[-0.876,-5.569],[-0.89,-5.295],[-0.869,-4.972],[-0.813,-4.676],[-0.792,-4.62],[-0.778,-4.62]]]]},"properties":{"abbr":"LSV","name":"lateral septal nucleus, ventral part","plate":21,"ap_bregma_mm":0.8,"area_mm2":0.6328,"traced_fraction":[0.986,1.0],"n_labels":2,"no_drawn_outline":false}},{"type":"Feature","geometry":{"type":"MultiPolygon","coordinates":[[[[-3.204,-5.211],[-3.169,-5.274],[-3.105,-5.506],[-3.084,-5.548],[-3.007,-5.626],[-2.958,-5.745],[-3.021,-5.745],[-3.028,-5.745],[-3.049,-5.745],[-3.176,-5.647],[-3.183,-5.64],[-3.218,-5.604],[-3.281,-5.485],[-3.288,-5.443],[-3.26,-5.274],[-3.204,-5.211]]],[[[3.303,-5.478],[3.324,-5.506],[3.331,-5.598],[3.317,-5.682],[3.338,-5.703],[3.268,-5.766],[3.24,-5.816],[3.177,-5.865],[3.163,-5.865],[3.156,-5.837],[3.163,-5.752],[3.226,-5.569],[3.254,-5.555],[3.275,-5.492],[3.303,-5.478]]]]},"properties":{"abbr":"DCl","name":"dorsal part of claustrum","plate":21,"ap_bregma_mm":0.8,"area_mm2":0.1103,"traced_fraction":[0.967,0.962],"n_labels":2,"no_drawn_outline":false}},{"type":"Feature","geometry":{"type":"MultiPolygon","coordinates":[[[[0.323,-6.083],[0.295,-6.125],[0.295,-6.195],[0.323,-6.427],[0.351,-6.533],[0.351,-6.631],[0.071,-6.723],[-0.049,-6.723],[-0.28,-6.631],[-0.294,-6.624],[-0.301,-6.624],[-0.308,-6.61],[-0.329,-6.61],[-0.287,-6.364],[-0.266,-6.139],[-0.182,-5.541],[-0.062,-5.239],[-0.041,-5.154],[0.036,-5.028],[0.078,-5.056],[0.099,-5.098],[0.211,-5.429],[0.253,-5.64],[0.288,-6.055],[0.323,-6.083]]]]},"properties":{"abbr":"MS","name":"medial septal nucleus","plate":21,"ap_bregma_mm":0.8,"area_mm2":0.756,"traced_fraction":[0.993],"n_labels":1,"no_drawn_outline":false}},{"type":"Feature","geometry":{"type":"MultiPolygon","coordinates":[[[[-3.021,-5.745],[-2.958,-5.745],[-2.93,-5.773],[-2.902,-5.844],[-2.874,-5.872],[-2.825,-5.984],[-2.811,-5.991],[-2.776,-6.097],[-2.818,-6.139],[-2.923,-6.132],[-2.937,-6.09],[-2.965,-6.062],[-2.972,-6.041],[-2.979,-6.034],[-2.986,-6.005],[-3.035,-6.005],[-3.035,-5.808],[-3.028,-5.759],[-3.021,-5.745]]],[[[3.163,-5.752],[3.156,-5.837],[3.163,-5.865],[3.177,-5.865],[3.149,-5.914],[3.142,-6.041],[3.114,-6.174],[3.107,-6.188],[3.093,-6.223],[3.036,-6.28],[3.008,-6.287],[2.973,-6.294],[2.917,-6.28],[2.854,-6.202],[2.861,-6.167],[3.051,-5.858],[3.135,-5.752],[3.163,-5.752]]]]},"properties":{"abbr":"VCl","name":"ventral part of claustrum","plate":21,"ap_bregma_mm":0.8,"area_mm2":0.1502,"traced_fraction":[0.845,0.984],"n_labels":2,"no_drawn_outline":false}},{"type":"Feature","geometry":{"type":"MultiPolygon","coordinates":[[[[1.129,-6.35],[1.073,-6.28],[1.052,-6.23],[1.038,-6.167],[1.045,-6.055],[1.108,-6.019],[1.157,-6.027],[1.27,-6.202],[1.326,-6.202],[1.424,-6.23],[1.522,-6.308],[1.515,-6.378],[1.487,-6.406],[1.403,-6.427],[1.228,-6.413],[1.178,-6.392],[1.129,-6.35]]],[[[-1.219,-6.125],[-1.079,-6.132],[-1.051,-6.167],[-1.044,-6.266],[-1.065,-6.329],[-1.121,-6.399],[-1.128,-6.427],[-1.212,-6.498],[-1.276,-6.498],[-1.325,-6.463],[-1.395,-6.456],[-1.416,-6.434],[-1.416,-6.378],[-1.388,-6.301],[-1.325,-6.209],[-1.219,-6.125]]]]},"properties":{"abbr":"aca","name":"anterior commissure, anterior part","plate":21,"ap_bregma_mm":0.8,"area_mm2":0.208,"traced_fraction":[1.0,1.0],"n_labels":2,"no_drawn_outline":false}},{"type":"Feature","geometry":{"type":"MultiPolygon","coordinates":[[[[-2.601,-6.371],[-2.509,-6.47],[-2.404,-6.526],[-2.341,-6.596],[-2.369,-6.638],[-2.362,-6.695],[-2.46,-6.667],[-2.531,-6.624],[-2.629,-6.603],[-2.629,-6.582],[-2.671,-6.533],[-2.657,-6.498],[-2.636,-6.484],[-2.622,-6.406],[-2.601,-6.371]]],[[[2.665,-6.427],[2.693,-6.561],[2.756,-6.631],[2.441,-6.751],[2.434,-6.667],[2.405,-6.638],[2.405,-6.624],[2.419,-6.624],[2.468,-6.568],[2.665,-6.427]]]]},"properties":{"abbr":"IEn","name":"intermediate endopiriform nucleus","plate":21,"ap_bregma_mm":0.8,"area_mm2":0.1045,"traced_fraction":[0.935,1.0],"n_labels":2,"no_drawn_outline":false}},{"type":"Feature","geometry":{"type":"MultiPolygon","coordinates":[[[[0.618,-5.907],[0.548,-6.245],[0.548,-6.463],[0.576,-6.505],[0.569,-6.533],[0.653,-6.674],[0.737,-6.758],[0.856,-6.835],[0.947,-6.927],[0.933,-6.927],[0.919,-6.976],[0.898,-6.997],[0.8,-6.997],[0.737,-6.976],[0.604,-6.849],[0.477,-6.645],[0.421,-6.519],[0.393,-6.392],[0.393,-6.28],[0.47,-6.012],[0.561,-5.921],[0.618,-5.907]]],[[[-0.511,-5.984],[-0.469,-5.998],[-0.427,-6.055],[-0.406,-6.125],[-0.385,-6.301],[-0.413,-6.54],[-0.546,-6.765],[-0.757,-7.004],[-0.855,-7.053],[-0.974,-7.053],[-1.016,-7.025],[-1.058,-6.955],[-1.058,-6.934],[-1.023,-6.899],[-0.89,-6.863],[-0.834,-6.828],[-0.75,-6.744],[-0.687,-6.653],[-0.553,-6.287],[-0.511,-5.984]]]]},"properties":{"abbr":"ICjM","name":"islands of Calleja, major island","plate":21,"ap_bregma_mm":0.8,"area_mm2":0.3885,"traced_fraction":[1.0,0.992],"n_labels":1,"no_drawn_outline":false}},{"type":"Feature","geometry":{"type":"MultiPolygon","coordinates":[[[[-2.776,-6.097],[-2.741,-6.132],[-2.699,-6.223],[-2.636,-6.301],[-2.636,-6.322],[-2.601,-6.371],[-2.622,-6.406],[-2.636,-6.484],[-2.657,-6.498],[-2.671,-6.533],[-2.699,-6.54],[-2.699,-6.554],[-2.804,-6.561],[-2.853,-6.547],[-2.895,-6.505],[-2.923,-6.42],[-2.93,-6.343],[-2.923,-6.132],[-2.818,-6.139],[-2.776,-6.097]]],[[[2.854,-6.202],[2.917,-6.28],[2.973,-6.294],[3.008,-6.287],[3.023,-6.456],[2.987,-6.547],[2.896,-6.624],[2.847,-6.638],[2.756,-6.631],[2.693,-6.561],[2.665,-6.427],[2.812,-6.23],[2.854,-6.202]]]]},"properties":{"abbr":"DEn","name":"dorsal endopiriform nucleus","plate":21,"ap_bregma_mm":0.8,"area_mm2":0.2166,"traced_fraction":[1.0,1.0],"n_labels":2,"no_drawn_outline":false}},{"type":"Feature","geometry":{"type":"MultiPolygon","coordinates":[[[[-0.89,-5.604],[-0.89,-5.661],[-0.939,-5.844],[-0.89,-5.844],[-0.792,-5.977],[-0.792,-5.998],[-0.736,-6.097],[-0.694,-6.266],[-0.701,-6.357],[-0.729,-6.449],[-0.827,-6.561],[-0.967,-6.638],[-1.044,-6.659],[-1.114,-6.702],[-1.289,-6.772],[-1.43,-6.8],[-1.57,-6.807],[-1.717,-6.786],[-1.857,-6.723],[-1.949,-6.638],[-2.019,-6.533],[-2.026,-6.406],[-1.998,-6.287],[-1.914,-6.16],[-1.78,-6.034],[-1.612,-5.914],[-1.5,-5.858],[-1.198,-5.745],[-0.939,-5.612],[-0.89,-5.604]]],[[[0.989,-5.604],[1.052,-5.626],[1.256,-5.766],[1.459,-5.879],[1.634,-6.041],[1.803,-6.287],[1.83,-6.442],[1.824,-6.533],[1.803,-6.547],[1.76,-6.624],[1.697,-6.681],[1.655,-6.709],[1.494,-6.758],[1.396,-6.772],[1.171,-6.765],[1.052,-6.702],[1.052,-6.688],[1.052,-6.505],[1.066,-6.498],[1.066,-6.406],[1.115,-6.35],[1.129,-6.35],[1.178,-6.392],[1.228,-6.413],[1.403,-6.427],[1.487,-6.406],[1.522,-6.364],[1.522,-6.308],[1.424,-6.23],[1.326,-6.202],[1.27,-6.202],[1.157,-6.027],[1.108,-6.019],[1.045,-6.055],[1.031,-5.83],[1.003,-5.759],[0.989,-5.604]]],[[[-1.219,-6.125],[-1.325,-6.209],[-1.388,-6.301],[-1.416,-6.378],[-1.416,-6.434],[-1.395,-6.456],[-1.325,-6.463],[-1.276,-6.498],[-1.212,-6.498],[-1.142,-6.442],[-1.065,-6.329],[-1.044,-6.266],[-1.051,-6.167],[-1.079,-6.132],[-1.219,-6.125]]]]},"properties":{"abbr":"AcbC","name":"accumbens nucleus, core","plate":21,"ap_bregma_mm":0.8,"area_mm2":1.4884,"traced_fraction":[0.998,0.913,1.0],"n_labels":2,"no_drawn_outline":false}},{"type":"Feature","geometry":{"type":"MultiPolygon","coordinates":[[[[-3.33,-6.322],[-3.126,-6.336],[-3.084,-6.399],[-3.105,-6.519],[-2.986,-6.547],[-2.965,-6.575],[-2.951,-6.638],[-2.986,-6.667],[-3.007,-6.667],[-3.056,-6.716],[-3.113,-6.667],[-3.204,-6.638],[-3.267,-6.589],[-3.267,-6.54],[-3.253,-6.519],[-3.26,-6.463],[-3.456,-6.463],[-3.463,-6.42],[-3.449,-6.385],[-3.4,-6.343],[-3.33,-6.322]]],[[[3.345,-6.42],[3.38,-6.434],[3.45,-6.505],[3.436,-6.505],[3.415,-6.554],[3.359,-6.603],[3.352,-6.695],[3.331,-6.716],[3.275,-6.723],[3.24,-6.751],[3.233,-6.849],[3.219,-6.878],[3.135,-6.948],[3.029,-6.948],[3.029,-6.821],[3.079,-6.8],[3.212,-6.519],[3.254,-6.477],[3.317,-6.449],[3.345,-6.42]]],[[[-2.397,-7.271],[-2.376,-7.285],[-2.341,-7.412],[-2.278,-7.468],[-2.236,-7.553],[-2.145,-7.616],[-2.082,-7.679],[-2.047,-7.757],[-1.956,-7.834],[-1.836,-7.855],[-1.844,-8.017],[-1.865,-8.038],[-2.054,-7.975],[-2.131,-7.918],[-2.327,-7.729],[-2.404,-7.581],[-2.432,-7.447],[-2.432,-7.342],[-2.425,-7.307],[-2.397,-7.271]]],[[[2.377,-7.51],[2.434,-7.525],[2.462,-7.574],[2.462,-7.623],[2.384,-7.7],[2.321,-7.729],[2.237,-7.736],[2.181,-7.757],[2.139,-7.799],[2.111,-7.911],[2.083,-7.947],[1.964,-7.961],[1.83,-8.08],[1.676,-8.129],[1.669,-7.989],[1.69,-7.982],[1.746,-7.918],[1.824,-7.904],[1.852,-7.883],[1.922,-7.876],[2.013,-7.827],[2.055,-7.785],[2.09,-7.686],[2.146,-7.637],[2.279,-7.644],[2.314,-7.63],[2.335,-7.595],[2.342,-7.518],[2.377,-7.51]]]]},"properties":{"abbr":"2","name":"layer 2 of cortex","plate":21,"ap_bregma_mm":0.8,"area_mm2":0.4524,"traced_fraction":[0.955,0.952,0.925,0.962],"n_labels":4,"no_drawn_outline":false}},{"type":"Feature","geometry":{"type":"MultiPolygon","coordinates":[[[[-2.951,-6.638],[-2.874,-6.674],[-2.846,-6.702],[-2.839,-6.73],[-2.804,-6.758],[-2.643,-6.765],[-2.594,-6.779],[-2.474,-6.849],[-2.418,-6.92],[-2.383,-7.018],[-2.369,-7.194],[-2.397,-7.271],[-2.418,-7.293],[-2.432,-7.342],[-2.488,-7.342],[-2.495,-7.307],[-2.503,-7.124],[-2.552,-7.011],[-2.594,-6.969],[-2.657,-6.941],[-2.825,-6.934],[-2.937,-6.899],[-3.007,-6.828],[-3.056,-6.716],[-3.007,-6.667],[-2.986,-6.667],[-2.951,-6.638]]],[[[3.029,-6.821],[3.029,-6.948],[3.002,-6.948],[2.945,-7.004],[2.903,-7.004],[2.875,-6.976],[2.833,-6.976],[2.784,-7.018],[2.756,-7.018],[2.721,-6.99],[2.665,-7.004],[2.623,-7.046],[2.574,-7.131],[2.539,-7.229],[2.532,-7.314],[2.518,-7.335],[2.455,-7.349],[2.434,-7.37],[2.405,-7.475],[2.377,-7.51],[2.342,-7.518],[2.342,-7.51],[2.328,-7.482],[2.335,-7.377],[2.356,-7.314],[2.434,-7.18],[2.476,-6.962],[2.553,-6.87],[2.77,-6.828],[2.868,-6.744],[2.917,-6.744],[2.987,-6.807],[3.029,-6.821]]]]},"properties":{"abbr":"Pir","name":"piriform cortex","plate":21,"ap_bregma_mm":0.8,"area_mm2":0.3161,"traced_fraction":[0.969,0.971],"n_labels":2,"no_drawn_outline":false}},{"type":"Feature","geometry":{"type":"MultiPolygon","coordinates":[[[[-2.341,-6.596],[-2.285,-6.61],[-2.278,-6.645],[-2.194,-6.723],[-2.11,-6.863],[-2.061,-7.025],[-2.054,-7.103],[-2.131,-7.11],[-2.194,-7.067],[-2.236,-6.983],[-2.25,-6.842],[-2.292,-6.772],[-2.362,-6.695],[-2.369,-6.638],[-2.341,-6.596]]],[[[2.405,-6.638],[2.434,-6.667],[2.441,-6.751],[2.377,-6.835],[2.293,-7.004],[2.237,-7.082],[2.188,-7.117],[2.132,-7.124],[2.125,-7.025],[2.146,-6.941],[2.188,-6.856],[2.286,-6.723],[2.384,-6.638],[2.405,-6.638]]]]},"properties":{"abbr":"LSS","name":"lateral stripe of the striatum","plate":21,"ap_bregma_mm":0.8,"area_mm2":0.1371,"traced_fraction":[1.0,1.0],"n_labels":2,"no_drawn_outline":false}},{"type":"Feature","geometry":{"type":"MultiPolygon","coordinates":[[[[-0.329,-6.624],[-0.301,-6.624],[-0.294,-6.624],[-0.28,-6.631],[-0.049,-6.723],[0.106,-6.716],[0.351,-6.631],[0.456,-6.892],[0.456,-6.92],[0.435,-6.941],[0.428,-7.074],[0.379,-7.067],[0.372,-7.053],[0.295,-7.025],[0.176,-7.025],[0.099,-7.053],[0.036,-7.131],[0.008,-7.11],[-0.02,-7.11],[-0.062,-7.138],[-0.154,-7.039],[-0.182,-7.025],[-0.266,-7.025],[-0.567,-7.145],[-0.567,-7.138],[-0.399,-6.849],[-0.329,-6.624]]]]},"properties":{"abbr":"VDB","name":"nucleus of the vertical limb of the diagonal band","plate":21,"ap_bregma_mm":0.8,"area_mm2":0.3269,"traced_fraction":[0.951],"n_labels":1,"no_drawn_outline":false}},{"type":"Feature","geometry":{"type":"MultiPolygon","coordinates":[[[[-0.876,-5.569],[-0.771,-5.583],[-0.694,-5.626],[-0.609,-5.703],[-0.609,-5.724],[-0.553,-5.816],[-0.511,-5.984],[-0.553,-6.287],[-0.687,-6.653],[-0.75,-6.744],[-0.834,-6.828],[-0.89,-6.863],[-1.023,-6.899],[-1.058,-6.934],[-1.058,-6.955],[-1.072,-6.955],[-1.184,-7.074],[-1.198,-7.117],[-1.212,-7.117],[-1.233,-7.159],[-1.297,-7.187],[-1.43,-7.314],[-1.682,-7.314],[-1.71,-7.384],[-1.759,-7.356],[-1.907,-7.314],[-2.033,-7.18],[-2.054,-7.103],[-2.061,-7.025],[-2.11,-6.863],[-2.194,-6.723],[-2.278,-6.645],[-2.285,-6.61],[-2.131,-6.575],[-2.019,-6.533],[-1.949,-6.638],[-1.857,-6.723],[-1.717,-6.786],[-1.57,-6.807],[-1.43,-6.8],[-1.289,-6.772],[-1.114,-6.702],[-1.044,-6.659],[-0.967,-6.638],[-0.827,-6.561],[-0.729,-6.449],[-0.701,-6.357],[-0.694,-6.266],[-0.736,-6.097],[-0.792,-5.998],[-0.792,-5.977],[-0.89,-5.844],[-0.939,-5.844],[-0.89,-5.661],[-0.89,-5.604],[-0.876,-5.569]]],[[[1.824,-6.533],[2.013,-6.638],[2.286,-6.723],[2.188,-6.856],[2.146,-6.941],[2.125,-7.025],[2.132,-7.124],[2.125,-7.18],[1.971,-7.307],[1.866,-7.349],[1.781,-7.356],[1.718,-7.356],[1.669,-7.335],[1.662,-7.335],[1.613,-7.307],[1.557,-7.321],[1.536,-7.293],[1.536,-7.18],[1.298,-7.18],[1.284,-7.18],[1.249,-7.138],[1.22,-7.131],[1.165,-7.082],[1.122,-7.025],[0.947,-6.927],[0.856,-6.835],[0.919,-6.772],[0.926,-6.723],[0.989,-6.659],[1.052,-6.688],[1.052,-6.702],[1.171,-6.765],[1.396,-6.772],[1.494,-6.758],[1.655,-6.709],[1.697,-6.681],[1.76,-6.624],[1.803,-6.547],[1.824,-6.533]]]]},"properties":{"abbr":"LAcbSh","name":"lateral accumbens shell","plate":21,"ap_bregma_mm":0.8,"area_mm2":1.4886,"traced_fraction":[0.957,0.869],"n_labels":2,"no_drawn_outline":false}},{"type":"Feature","geometry":{"type":"MultiPolygon","coordinates":[[[[0.47,-6.012],[0.393,-6.28],[0.393,-6.392],[0.421,-6.519],[0.477,-6.645],[0.604,-6.849],[0.737,-6.976],[0.73,-7.096],[0.716,-7.096],[0.716,-7.201],[0.695,-7.222],[0.597,-7.166],[0.561,-7.124],[0.428,-7.074],[0.435,-6.941],[0.456,-6.92],[0.456,-6.892],[0.351,-6.631],[0.351,-6.533],[0.323,-6.427],[0.295,-6.195],[0.295,-6.125],[0.323,-6.083],[0.365,-6.069],[0.428,-6.019],[0.47,-6.012]]],[[[-0.427,-6.055],[-0.378,-6.055],[-0.315,-6.118],[-0.266,-6.139],[-0.287,-6.364],[-0.329,-6.61],[-0.329,-6.624],[-0.399,-6.849],[-0.567,-7.138],[-0.574,-7.145],[-0.581,-7.152],[-0.722,-7.25],[-0.729,-7.117],[-0.75,-7.117],[-0.757,-7.004],[-0.546,-6.765],[-0.413,-6.54],[-0.385,-6.301],[-0.406,-6.125],[-0.427,-6.055]]]]},"properties":{"abbr":"SIB","name":"substantia innominata, basal part","plate":21,"ap_bregma_mm":0.8,"area_mm2":0.3434,"traced_fraction":[0.875,0.913],"n_labels":2,"no_drawn_outline":false}},{"type":"Feature","geometry":{"type":"MultiPolygon","coordinates":[[[[-2.495,-7.307],[-2.488,-7.342],[-2.524,-7.51],[-2.58,-7.623],[-2.755,-7.433],[-2.783,-7.398],[-2.776,-7.391],[-2.79,-7.391],[-2.804,-7.377],[-2.825,-7.349],[-2.818,-7.342],[-2.832,-7.328],[-2.839,-7.335],[-2.853,-7.321],[-2.846,-7.314],[-2.86,-7.314],[-2.881,-7.285],[-2.902,-7.264],[-2.895,-7.257],[-2.909,-7.257],[-2.93,-7.229],[-3.021,-7.124],[-3.021,-7.11],[-3.0,-7.103],[-2.923,-7.103],[-2.72,-7.138],[-2.594,-7.201],[-2.531,-7.264],[-2.516,-7.3],[-2.495,-7.307]]],[[[3.1,-7.243],[2.903,-7.468],[2.756,-7.581],[2.721,-7.609],[2.686,-7.637],[2.539,-7.757],[2.525,-7.75],[2.504,-7.693],[2.539,-7.426],[2.581,-7.335],[2.651,-7.257],[2.721,-7.222],[2.791,-7.208],[3.002,-7.215],[3.1,-7.243]]]]},"properties":{"abbr":"lo","name":"lateral olfactory tract","plate":21,"ap_bregma_mm":0.8,"area_mm2":0.2927,"traced_fraction":[1.0,1.0],"n_labels":2,"no_drawn_outline":false}},{"type":"Feature","geometry":{"type":"MultiPolygon","coordinates":[[[[1.298,-7.18],[1.536,-7.18],[1.536,-7.293],[1.557,-7.321],[1.55,-7.342],[1.536,-7.342],[1.536,-7.363],[1.508,-7.377],[1.431,-7.489],[1.396,-7.489],[1.375,-7.461],[1.326,-7.236],[1.298,-7.18]]],[[[-1.43,-7.314],[-1.458,-7.356],[-1.486,-7.482],[-1.521,-7.595],[-1.542,-7.623],[-1.57,-7.623],[-1.64,-7.525],[-1.654,-7.504],[-1.654,-7.482],[-1.689,-7.44],[-1.71,-7.384],[-1.682,-7.314],[-1.43,-7.314]]]]},"properties":{"abbr":"CB","name":"cell bridges of the ventral striatum","plate":21,"ap_bregma_mm":0.8,"area_mm2":0.1053,"traced_fraction":[0.678,0.736],"n_labels":2,"no_drawn_outline":true}},{"type":"Feature","geometry":{"type":"MultiPolygon","coordinates":[[[[-0.062,-7.138],[-0.07,-7.271],[-0.084,-7.314],[-0.217,-7.461],[-0.315,-7.539],[-0.532,-7.665],[-0.553,-7.665],[-0.806,-7.799],[-0.862,-7.799],[-0.883,-7.778],[-0.918,-7.771],[-0.925,-7.764],[-0.925,-7.736],[-0.96,-7.658],[-0.96,-7.588],[-0.918,-7.482],[-0.848,-7.377],[-0.722,-7.25],[-0.581,-7.152],[-0.574,-7.145],[-0.567,-7.145],[-0.266,-7.025],[-0.182,-7.025],[-0.154,-7.039],[-0.062,-7.138]]],[[[0.428,-7.074],[0.561,-7.124],[0.597,-7.166],[0.695,-7.222],[0.884,-7.356],[1.003,-7.482],[1.031,-7.546],[1.031,-7.63],[0.968,-7.722],[0.947,-7.722],[0.926,-7.743],[0.737,-7.757],[0.632,-7.729],[0.456,-7.637],[0.358,-7.56],[0.225,-7.482],[0.134,-7.384],[0.099,-7.314],[0.085,-7.222],[0.043,-7.166],[0.036,-7.131],[0.099,-7.053],[0.176,-7.025],[0.295,-7.025],[0.372,-7.053],[0.379,-7.067],[0.428,-7.074]]]]},"properties":{"abbr":"HDB","name":"nucleus of the horizontal limb of the diagonal band","plate":21,"ap_bregma_mm":0.8,"area_mm2":0.8256,"traced_fraction":[1.0,1.0],"n_labels":2,"no_drawn_outline":false}},{"type":"Feature","geometry":{"type":"MultiPolygon","coordinates":[[[[3.107,-6.188],[3.114,-6.188],[3.149,-6.209],[3.345,-6.42],[3.317,-6.449],[3.254,-6.477],[3.212,-6.519],[3.079,-6.8],[3.029,-6.821],[2.987,-6.807],[2.917,-6.744],[2.868,-6.744],[2.77,-6.828],[2.553,-6.87],[2.476,-6.962],[2.434,-7.18],[2.398,-7.257],[2.37,-7.285],[2.335,-7.377],[2.328,-7.482],[2.279,-7.489],[2.279,-7.504],[2.342,-7.51],[2.342,-7.518],[2.342,-7.567],[2.314,-7.63],[2.279,-7.644],[2.146,-7.637],[2.09,-7.686],[2.055,-7.785],[2.013,-7.827],[1.922,-7.876],[1.852,-7.883],[1.824,-7.904],[1.746,-7.918],[1.69,-7.982],[1.669,-7.989],[1.494,-8.003],[1.382,-7.996],[1.354,-8.024],[1.298,-8.038],[1.165,-8.024],[1.115,-7.996],[1.052,-7.925],[1.024,-7.869],[0.996,-7.75],[0.968,-7.722],[1.031,-7.63],[1.031,-7.546],[1.003,-7.482],[0.884,-7.356],[0.695,-7.222],[0.716,-7.201],[0.716,-7.096],[0.73,-7.096],[0.737,-6.976],[0.8,-6.997],[0.898,-6.997],[0.919,-6.976],[0.933,-6.927],[0.947,-6.927],[1.122,-7.025],[1.165,-7.082],[1.136,-7.096],[1.115,-7.138],[1.115,-7.166],[1.143,-7.194],[1.207,-7.201],[1.22,-7.131],[1.249,-7.138],[1.284,-7.18],[1.298,-7.18],[1.326,-7.236],[1.375,-7.461],[1.396,-7.489],[1.431,-7.489],[1.508,-7.377],[1.536,-7.363],[1.55,-7.419],[1.571,-7.44],[1.571,-7.574],[1.746,-7.574],[1.746,-7.461],[1.775,-7.433],[1.781,-7.356],[1.866,-7.349],[1.971,-7.307],[2.125,-7.18],[2.132,-7.124],[2.188,-7.117],[2.237,-7.082],[2.293,-7.004],[2.377,-6.835],[2.441,-6.751],[2.756,-6.631],[2.847,-6.638],[2.896,-6.624],[2.987,-6.547],[3.023,-6.456],[3.008,-6.287],[3.036,-6.28],[3.093,-6.223],[3.107,-6.188]]],[[[-2.033,-7.18],[-1.907,-7.314],[-1.759,-7.356],[-1.71,-7.384],[-1.689,-7.44],[-1.654,-7.482],[-1.654,-7.504],[-1.717,-7.51],[-1.745,-7.546],[-1.738,-7.658],[-1.717,-7.679],[-1.689,-7.679],[-1.689,-7.933],[-1.759,-7.883],[-1.836,-7.855],[-1.956,-7.834],[-2.047,-7.757],[-2.082,-7.679],[-2.145,-7.616],[-2.236,-7.553],[-2.278,-7.468],[-2.341,-7.412],[-2.376,-7.285],[-2.397,-7.271],[-2.369,-7.194],[-2.208,-7.215],[-2.124,-7.208],[-2.033,-7.18]]]]},"properties":{"abbr":"3","name":"layer 3 of cortex","plate":21,"ap_bregma_mm":0.8,"area_mm2":1.4875,"traced_fraction":[0.931,0.914],"n_labels":3,"no_drawn_outline":false}},{"type":"Feature","geometry":{"type":"MultiPolygon","coordinates":[[[[0.968,-7.722],[0.996,-7.75],[1.024,-7.869],[1.052,-7.925],[1.115,-7.996],[1.165,-8.024],[1.298,-8.038],[1.354,-8.024],[1.382,-7.996],[1.494,-8.003],[1.669,-7.989],[1.676,-8.129],[1.634,-8.144],[1.424,-8.129],[1.347,-8.179],[1.284,-8.179],[1.235,-8.144],[1.115,-8.165],[1.038,-8.137],[0.982,-8.087],[0.933,-7.961],[0.912,-7.883],[0.926,-7.743],[0.947,-7.722],[0.968,-7.722]]],[[[-0.925,-7.764],[-0.918,-7.771],[-0.96,-7.897],[-1.037,-8.059],[-1.1,-8.158],[-1.17,-8.214],[-1.212,-8.214],[-1.289,-8.165],[-1.339,-8.172],[-1.409,-8.214],[-1.479,-8.214],[-1.591,-8.186],[-1.654,-8.151],[-1.752,-8.158],[-1.822,-8.115],[-1.865,-8.038],[-1.844,-8.017],[-1.836,-7.855],[-1.759,-7.883],[-1.689,-7.933],[-1.605,-8.038],[-1.535,-8.073],[-1.416,-8.08],[-1.268,-8.038],[-1.177,-8.038],[-1.114,-7.989],[-1.058,-7.89],[-0.974,-7.785],[-0.925,-7.764]]]]},"properties":{"abbr":"Tu","name":"olfactory tubercle","plate":21,"ap_bregma_mm":0.8,"area_mm2":0.2812,"traced_fraction":[0.962,0.945],"n_labels":2,"no_drawn_outline":false}},{"type":"Feature","geometry":{"type":"MultiPolygon","coordinates":[[[[-0.939,-8.312],[-0.946,-8.242],[-0.925,-8.193],[-0.813,-8.108],[-0.708,-8.059],[-0.701,-8.045],[-0.539,-7.968],[-0.406,-7.933],[-0.329,-7.94],[-0.273,-7.982],[-0.245,-8.08],[-0.238,-8.277],[-0.259,-8.425],[-0.301,-8.509],[-0.406,-8.58],[-0.574,-8.573],[-0.687,-8.537],[-0.848,-8.439],[-0.939,-8.312]]]]},"properties":{"abbr":"och","name":"optic chiasm","plate":21,"ap_bregma_mm":0.8,"area_mm2":0.3384,"traced_fraction":[1.0],"n_labels":1,"no_drawn_outline":false}},{"type":"Feature","geometry":{"type":"MultiPolygon","coordinates":[[[[2.518,-1.427],[3.128,-1.588],[3.717,-1.807],[3.717,-1.828],[3.703,-1.835],[3.703,-1.856],[3.513,-2.214],[3.38,-2.517],[3.044,-3.206],[2.763,-3.108],[2.539,-3.051],[2.244,-2.981],[2.518,-1.427]]],[[[-2.46,-1.56],[-2.32,-2.179],[-2.25,-2.426],[-2.201,-2.679],[-2.103,-3.037],[-2.552,-3.164],[-2.86,-3.298],[-2.895,-3.248],[-3.0,-2.988],[-3.12,-2.756],[-3.218,-2.51],[-3.491,-1.912],[-2.986,-1.715],[-2.46,-1.56]]]]},"properties":{"abbr":"S1HL","name":"primary somatosensory cortex, hindlimb region","plate":21,"ap_bregma_mm":0.8,"area_mm2":3.0616,"traced_fraction":[1.0,1.0],"n_labels":2,"no_drawn_outline":false}},{"type":"Feature","geometry":{"type":"MultiPolygon","coordinates":[[[[3.717,-1.807],[3.815,-1.835],[4.32,-2.081],[4.228,-2.2],[4.095,-2.418],[4.025,-2.503],[4.004,-2.552],[3.829,-2.798],[3.822,-2.826],[3.801,-2.84],[3.745,-2.939],[3.675,-3.009],[3.667,-3.058],[3.492,-3.058],[3.492,-3.22],[3.541,-3.234],[3.443,-3.368],[3.436,-3.403],[3.422,-3.403],[3.38,-3.452],[3.366,-3.452],[3.233,-3.326],[3.072,-3.234],[3.044,-3.206],[3.38,-2.517],[3.513,-2.214],[3.625,-1.989],[3.64,-1.982],[3.703,-1.835],[3.717,-1.828],[3.717,-1.807]]],[[[-3.491,-1.912],[-3.218,-2.51],[-3.12,-2.756],[-3.0,-2.988],[-2.895,-3.248],[-2.86,-3.298],[-3.07,-3.445],[-3.183,-3.558],[-3.288,-3.452],[-3.379,-3.326],[-3.379,-3.305],[-3.344,-3.262],[-3.267,-3.22],[-3.267,-3.044],[-3.386,-3.044],[-3.421,-3.009],[-3.645,-2.665],[-3.772,-2.433],[-3.8,-2.404],[-3.954,-2.102],[-3.491,-1.912]]]]},"properties":{"abbr":"S1FL","name":"primary somatosensory cortex, forelimb region","plate":21,"ap_bregma_mm":0.8,"area_mm2":1.5303,"traced_fraction":[0.889,0.919],"n_labels":2,"no_drawn_outline":false}},{"type":"Feature","geometry":{"type":"MultiPolygon","coordinates":[[[[0.176,-1.582],[0.211,-1.603],[0.218,-1.624],[0.386,-1.786],[0.386,-1.799],[0.653,-2.06],[0.653,-2.074],[0.996,-2.439],[1.228,-2.763],[1.333,-2.967],[1.326,-2.974],[1.165,-3.108],[1.108,-3.058],[0.912,-2.967],[0.554,-2.84],[0.309,-2.798],[0.015,-2.798],[-0.329,-2.854],[-0.588,-2.946],[-0.771,-3.051],[-0.925,-3.213],[-0.946,-3.213],[-0.995,-3.164],[-1.002,-3.143],[-1.114,-3.044],[-1.086,-2.918],[-1.009,-2.714],[-0.827,-2.397],[-0.574,-2.067],[-0.161,-1.617],[-0.105,-1.666],[-0.041,-1.771],[-0.028,-1.771],[-0.028,-1.792],[0.001,-1.828],[0.022,-1.828],[0.05,-1.786],[0.176,-1.582]]]]},"properties":{"abbr":"Cg1","name":"cingulate cortex, area 1","plate":21,"ap_bregma_mm":0.8,"area_mm2":1.9601,"traced_fraction":[1.0],"n_labels":2,"no_drawn_outline":false}},{"type":"Feature","geometry":{"type":"MultiPolygon","coordinates":[[[[0.87,-3.853],[0.947,-3.931],[1.01,-3.931],[1.01,-4.085],[0.751,-4.085],[0.737,-4.085],[0.73,-4.036],[0.786,-3.938],[0.842,-3.867],[0.87,-3.853]]],[[[-0.659,-3.917],[-0.518,-3.917],[-0.518,-4.022],[-0.595,-4.008],[-0.617,-4.064],[-0.827,-4.064],[-0.827,-3.917],[-0.659,-3.917]]]]},"properties":{"abbr":"E","name":"ependyma and subependymal layer","plate":21,"ap_bregma_mm":0.8,"area_mm2":0.0878,"traced_fraction":[0.4,0.331],"n_labels":4,"no_drawn_outline":true}},{"type":"Feature","geometry":{"type":"MultiPolygon","coordinates":[[[[-0.266,-4.099],[-0.112,-4.106],[-0.007,-4.128],[0.141,-4.128],[0.365,-4.099],[0.365,-4.156],[0.316,-4.282],[0.309,-4.353],[0.295,-4.353],[0.113,-4.549],[0.05,-4.486],[-0.013,-4.535],[-0.091,-4.472],[-0.126,-4.409],[-0.189,-4.353],[-0.189,-4.317],[-0.231,-4.247],[-0.266,-4.142],[-0.266,-4.099]]]]},"properties":{"abbr":"SHi","name":"septohippocampal nucleus","plate":21,"ap_bregma_mm":0.8,"area_mm2":0.1897,"traced_fraction":[0.969],"n_labels":1,"no_drawn_outline":false}},{"type":"Feature","geometry":{"type":"MultiPolygon","coordinates":[[[[0.113,-4.549],[0.113,-4.578],[0.239,-4.845],[0.344,-5.183],[0.414,-5.562],[0.414,-5.893],[0.428,-6.019],[0.365,-6.069],[0.323,-6.083],[0.288,-6.055],[0.253,-5.64],[0.211,-5.429],[0.099,-5.098],[0.078,-5.056],[0.036,-5.028],[-0.041,-5.154],[-0.062,-5.239],[-0.182,-5.541],[-0.266,-6.139],[-0.287,-6.139],[-0.378,-6.055],[-0.357,-5.703],[-0.364,-5.513],[-0.336,-5.323],[-0.252,-5.021],[-0.013,-4.535],[0.05,-4.486],[0.113,-4.549]]]]},"properties":{"abbr":"Ld","name":"lambdoid septal zone","plate":21,"ap_bregma_mm":0.8,"area_mm2":0.5552,"traced_fraction":[0.999],"n_labels":1,"no_drawn_outline":false}},{"type":"Feature","geometry":{"type":"MultiPolygon","coordinates":[[[[-3.281,-5.021],[-3.239,-5.119],[-3.211,-5.133],[-3.204,-5.211],[-3.26,-5.274],[-3.323,-5.288],[-3.47,-5.387],[-3.708,-5.506],[-3.947,-5.661],[-4.171,-5.773],[-4.304,-5.865],[-4.368,-5.886],[-4.382,-5.907],[-4.522,-5.717],[-4.417,-5.647],[-4.304,-5.598],[-4.164,-5.506],[-3.87,-5.351],[-3.842,-5.323],[-3.652,-5.232],[-3.491,-5.126],[-3.358,-5.063],[-3.33,-5.035],[-3.281,-5.021]]],[[[3.429,-5.035],[3.64,-5.147],[4.137,-5.464],[4.348,-5.569],[4.628,-5.738],[4.726,-5.78],[4.817,-5.844],[4.726,-5.942],[4.726,-5.956],[4.593,-6.083],[4.467,-5.991],[4.292,-5.9],[4.228,-5.851],[3.745,-5.569],[3.604,-5.471],[3.352,-5.33],[3.401,-5.105],[3.429,-5.035]]]]},"properties":{"abbr":"GI","name":"granular insular cortex","plate":21,"ap_bregma_mm":0.8,"area_mm2":0.7812,"traced_fraction":[1.0,1.0],"n_labels":2,"no_drawn_outline":false}},{"type":"Feature","geometry":{"type":"MultiPolygon","coordinates":[[[[-3.26,-5.274],[-3.288,-5.443],[-3.281,-5.485],[-3.218,-5.604],[-3.218,-5.64],[-3.715,-5.935],[-3.779,-5.984],[-4.059,-6.139],[-4.15,-6.216],[-4.22,-6.167],[-4.382,-5.907],[-4.368,-5.886],[-4.304,-5.865],[-4.171,-5.773],[-3.947,-5.661],[-3.708,-5.506],[-3.47,-5.387],[-3.323,-5.288],[-3.26,-5.274]]],[[[3.352,-5.33],[3.604,-5.471],[3.745,-5.569],[4.228,-5.851],[4.292,-5.9],[4.467,-5.991],[4.593,-6.083],[4.481,-6.209],[4.418,-6.245],[4.418,-6.259],[4.383,-6.273],[4.369,-6.294],[4.278,-6.336],[4.271,-6.336],[4.256,-6.336],[4.165,-6.252],[4.102,-6.223],[3.871,-6.062],[3.843,-6.055],[3.338,-5.703],[3.317,-5.682],[3.331,-5.598],[3.324,-5.506],[3.303,-5.478],[3.296,-5.457],[3.31,-5.45],[3.324,-5.372],[3.352,-5.33]]],[[[4.271,-6.336],[4.278,-6.336],[4.271,-6.343],[4.271,-6.336]]]]},"properties":{"abbr":"DI","name":"dysgranular insular cortex","plate":21,"ap_bregma_mm":0.8,"area_mm2":0.9119,"traced_fraction":[0.985,1.0,1.0],"n_labels":2,"no_drawn_outline":false}},{"type":"Feature","geometry":{"type":"MultiPolygon","coordinates":[[[[-3.218,-5.64],[-3.183,-5.64],[-3.176,-5.647],[-3.162,-5.647],[-3.113,-5.703],[-3.049,-5.745],[-3.028,-5.745],[-3.028,-5.759],[-3.035,-5.808],[-3.035,-6.005],[-2.986,-6.005],[-2.979,-6.034],[-2.972,-6.041],[-2.965,-6.062],[-3.113,-6.174],[-3.316,-6.294],[-3.33,-6.322],[-3.4,-6.343],[-3.449,-6.385],[-3.484,-6.385],[-3.617,-6.47],[-3.8,-6.554],[-3.835,-6.575],[-3.863,-6.617],[-3.898,-6.589],[-3.968,-6.413],[-3.975,-6.399],[-3.982,-6.385],[-4.024,-6.315],[-4.017,-6.308],[-4.031,-6.294],[-4.038,-6.301],[-4.052,-6.294],[-4.045,-6.287],[-4.059,-6.287],[-4.08,-6.273],[-4.15,-6.216],[-4.059,-6.139],[-3.779,-5.984],[-3.715,-5.935],[-3.218,-5.64]]],[[[3.338,-5.703],[3.843,-6.055],[3.871,-6.062],[4.102,-6.223],[4.165,-6.252],[4.256,-6.336],[4.25,-6.35],[4.081,-6.413],[3.948,-6.519],[3.871,-6.54],[3.731,-6.54],[3.682,-6.568],[3.667,-6.575],[3.59,-6.624],[3.576,-6.624],[3.485,-6.526],[3.45,-6.505],[3.38,-6.434],[3.345,-6.42],[3.226,-6.301],[3.226,-6.287],[3.114,-6.188],[3.114,-6.174],[3.142,-6.041],[3.149,-5.914],[3.177,-5.865],[3.191,-5.865],[3.268,-5.766],[3.338,-5.703]]]]},"properties":{"abbr":"AI","name":"agranular insular cortex","plate":21,"ap_bregma_mm":0.8,"area_mm2":1.0951,"traced_fraction":[0.945,0.98],"n_labels":2,"no_drawn_outline":false}},{"type":"Feature","geometry":{"type":"MultiPolygon","coordinates":[[[[0.94,-5.478],[0.968,-5.576],[0.989,-5.604],[1.003,-5.759],[1.031,-5.83],[1.045,-6.055],[1.038,-6.167],[1.052,-6.23],[1.073,-6.28],[1.129,-6.35],[1.115,-6.35],[1.066,-6.406],[1.066,-6.498],[1.052,-6.505],[1.052,-6.688],[0.989,-6.659],[0.926,-6.723],[0.919,-6.772],[0.856,-6.835],[0.737,-6.758],[0.653,-6.674],[0.618,-6.603],[0.597,-6.589],[0.569,-6.533],[0.576,-6.505],[0.548,-6.463],[0.548,-6.245],[0.618,-5.907],[0.681,-5.766],[0.716,-5.738],[0.849,-5.548],[0.919,-5.478],[0.94,-5.478]]]]},"properties":{"abbr":"AcbSh","name":"accumbens nucleus, shell","plate":21,"ap_bregma_mm":0.8,"area_mm2":0.5026,"traced_fraction":[0.849],"n_labels":1,"no_drawn_outline":false}},{"type":"Feature","geometry":{"type":"MultiPolygon","coordinates":[[[[-3.449,-6.385],[-3.463,-6.42],[-3.456,-6.463],[-3.26,-6.463],[-3.253,-6.519],[-3.267,-6.54],[-3.267,-6.589],[-3.232,-6.624],[-3.113,-6.667],[-3.056,-6.716],[-3.007,-6.828],[-2.937,-6.899],[-2.825,-6.934],[-2.657,-6.941],[-2.615,-6.955],[-2.552,-7.011],[-2.503,-7.124],[-2.495,-7.307],[-2.516,-7.3],[-2.531,-7.264],[-2.594,-7.201],[-2.72,-7.138],[-2.923,-7.103],[-3.0,-7.103],[-3.021,-7.11],[-3.021,-7.124],[-3.147,-7.053],[-3.47,-6.948],[-3.582,-6.863],[-3.666,-6.821],[-3.863,-6.617],[-3.863,-6.603],[-3.8,-6.554],[-3.617,-6.47],[-3.484,-6.385],[-3.449,-6.385]]],[[[3.45,-6.505],[3.485,-6.526],[3.576,-6.624],[3.59,-6.624],[3.583,-6.638],[3.548,-6.667],[3.471,-6.737],[3.422,-6.814],[3.366,-6.87],[3.226,-7.082],[3.212,-7.082],[3.142,-7.201],[3.1,-7.243],[3.002,-7.215],[2.791,-7.208],[2.721,-7.222],[2.651,-7.257],[2.595,-7.314],[2.539,-7.426],[2.504,-7.665],[2.525,-7.75],[2.539,-7.757],[2.384,-7.911],[2.272,-8.031],[2.209,-8.059],[2.174,-8.094],[2.076,-8.151],[1.88,-8.214],[1.389,-8.298],[1.242,-8.298],[1.122,-8.263],[0.933,-8.165],[0.702,-7.89],[0.688,-7.89],[0.548,-7.764],[0.26,-7.588],[0.036,-7.37],[0.022,-7.335],[-0.013,-7.321],[-0.034,-7.356],[-0.028,-7.377],[-0.049,-7.377],[-0.154,-7.532],[-0.301,-7.658],[-0.651,-7.841],[-0.771,-7.933],[-0.841,-7.989],[-0.869,-8.038],[-0.883,-8.038],[-0.911,-8.094],[-0.946,-8.129],[-0.988,-8.221],[-1.002,-8.221],[-1.03,-8.27],[-1.051,-8.27],[-1.163,-8.333],[-1.374,-8.34],[-1.57,-8.305],[-1.949,-8.207],[-2.138,-8.087],[-2.46,-7.771],[-2.46,-7.757],[-2.58,-7.623],[-2.524,-7.51],[-2.488,-7.342],[-2.432,-7.342],[-2.432,-7.447],[-2.404,-7.581],[-2.327,-7.729],[-2.096,-7.947],[-2.012,-7.996],[-1.865,-8.038],[-1.822,-8.115],[-1.752,-8.158],[-1.654,-8.151],[-1.591,-8.186],[-1.479,-8.214],[-1.409,-8.214],[-1.339,-8.172],[-1.289,-8.165],[-1.212,-8.214],[-1.17,-8.214],[-1.1,-8.158],[-1.037,-8.059],[-0.96,-7.897],[-0.918,-7.771],[-0.897,-7.771],[-0.862,-7.799],[-0.806,-7.799],[-0.553,-7.665],[-0.532,-7.665],[-0.315,-7.539],[-0.217,-7.461],[-0.084,-7.314],[-0.07,-7.271],[-0.062,-7.138],[-0.02,-7.11],[0.008,-7.11],[0.036,-7.131],[0.043,-7.166],[0.085,-7.222],[0.099,-7.314],[0.134,-7.384],[0.225,-7.482],[0.316,-7.532],[0.456,-7.637],[0.632,-7.729],[0.737,-7.757],[0.926,-7.743],[0.926,-7.792],[0.912,-7.82],[0.919,-7.911],[0.982,-8.087],[1.038,-8.137],[1.115,-8.165],[1.235,-8.144],[1.284,-8.179],[1.347,-8.179],[1.424,-8.129],[1.55,-8.129],[1.62,-8.144],[1.676,-8.129],[1.83,-8.08],[1.964,-7.961],[2.083,-7.947],[2.111,-7.911],[2.139,-7.799],[2.181,-7.757],[2.237,-7.736],[2.321,-7.729],[2.384,-7.7],[2.462,-7.623],[2.462,-7.574],[2.434,-7.525],[2.377,-7.51],[2.405,-7.475],[2.434,-7.37],[2.455,-7.349],[2.518,-7.335],[2.532,-7.314],[2.539,-7.229],[2.574,-7.131],[2.623,-7.046],[2.665,-7.004],[2.721,-6.99],[2.756,-7.018],[2.784,-7.018],[2.833,-6.976],[2.875,-6.976],[2.903,-7.004],[2.945,-7.004],[3.002,-6.948],[3.029,-6.948],[3.135,-6.948],[3.219,-6.878],[3.233,-6.849],[3.24,-6.751],[3.261,-6.73],[3.331,-6.716],[3.352,-6.695],[3.359,-6.603],[3.415,-6.554],[3.436,-6.505],[3.45,-6.505]]]]},"properties":{"abbr":"1","name":"layer 1 of cortex","plate":21,"ap_bregma_mm":0.8,"area_mm2":1.5367,"traced_fraction":[1.0,1.0],"n_labels":4,"no_drawn_outline":false}},{"type":"Feature","geometry":{"type":"MultiPolygon","coordinates":[[[[-1.058,-6.955],[-1.016,-7.025],[-1.044,-7.046],[-1.051,-7.257],[-1.135,-7.257],[-1.135,-7.159],[-1.149,-7.131],[-1.198,-7.117],[-1.184,-7.074],[-1.072,-6.955],[-1.058,-6.955]]],[[[1.669,-7.335],[1.718,-7.356],[1.704,-7.398],[1.711,-7.447],[1.746,-7.461],[1.746,-7.574],[1.571,-7.574],[1.571,-7.44],[1.627,-7.426],[1.662,-7.342],[1.669,-7.335]]],[[[-1.051,-7.665],[-1.128,-7.665],[-1.135,-7.722],[-1.114,-7.764],[-1.086,-7.778],[-1.037,-7.771],[-0.974,-7.785],[-1.058,-7.89],[-1.114,-7.989],[-1.177,-8.038],[-1.268,-8.038],[-1.416,-8.08],[-1.535,-8.073],[-1.605,-8.038],[-1.689,-7.933],[-1.689,-7.679],[-1.661,-7.658],[-1.668,-7.546],[-1.64,-7.525],[-1.591,-7.602],[-1.57,-7.623],[-1.542,-7.623],[-1.521,-7.595],[-1.486,-7.482],[-1.451,-7.489],[-1.444,-7.461],[-1.423,-7.44],[-1.402,-7.44],[-1.381,-7.461],[-1.374,-7.497],[-1.283,-7.497],[-1.283,-7.602],[-1.184,-7.609],[-1.17,-7.623],[-1.051,-7.623],[-1.051,-7.665]]]]},"properties":{"abbr":"ICj","name":"islands of Calleja","plate":21,"ap_bregma_mm":0.8,"area_mm2":0.3558,"traced_fraction":[0.655,0.534,0.78],"n_labels":4,"no_drawn_outline":true}},{"type":"Feature","geometry":{"type":"MultiPolygon","coordinates":[[[[-0.757,-7.004],[-0.75,-7.117],[-0.729,-7.117],[-0.722,-7.25],[-0.848,-7.377],[-0.89,-7.356],[-1.009,-7.356],[-1.009,-7.328],[-1.072,-7.328],[-1.135,-7.264],[-1.135,-7.257],[-1.051,-7.257],[-1.044,-7.046],[-1.016,-7.025],[-0.974,-7.053],[-0.855,-7.053],[-0.757,-7.004]]]]},"properties":{"abbr":"VP","name":"ventral pallidum","plate":21,"ap_bregma_mm":0.8,"area_mm2":0.098,"traced_fraction":[0.443],"n_labels":1,"no_drawn_outline":true}},{"type":"Feature","geometry":{"type":"MultiPolygon","coordinates":[[[[-1.233,-7.159],[-1.233,-7.201],[-1.219,-7.222],[-1.226,-7.257],[-1.191,-7.271],[-1.135,-7.264],[-1.086,-7.321],[-1.009,-7.328],[-1.009,-7.356],[-0.89,-7.356],[-0.848,-7.377],[-0.918,-7.482],[-0.96,-7.588],[-0.96,-7.658],[-0.932,-7.714],[-0.925,-7.764],[-0.974,-7.785],[-1.037,-7.771],[-1.03,-7.7],[-1.051,-7.665],[-1.051,-7.623],[-1.17,-7.623],[-1.184,-7.609],[-1.283,-7.602],[-1.283,-7.497],[-1.374,-7.497],[-1.374,-7.475],[-1.402,-7.44],[-1.423,-7.44],[-1.451,-7.489],[-1.486,-7.482],[-1.479,-7.419],[-1.43,-7.314],[-1.297,-7.187],[-1.233,-7.159]]]]},"properties":{"abbr":"mfb","name":"medial forebrain bundle","plate":21,"ap_bregma_mm":0.8,"area_mm2":0.1761,"traced_fraction":[0.704],"n_labels":1,"no_drawn_outline":true}},{"type":"Feature","geometry":{"type":"Polygon","coordinates":[[[3.689,-3.22],[3.646,-3.248],[3.633,-3.284],[3.506,-3.438],[3.436,-3.403],[3.443,-3.368],[3.541,-3.234],[3.583,-3.164],[3.612,-3.15],[3.612,-3.129],[3.64,-3.136],[3.689,-3.22]]]},"properties":{"abbr":null,"name":"unnamed sealed face","plate":21,"ap_bregma_mm":0.8,"index":0}},{"type":"Feature","geometry":{"type":"Polygon","coordinates":[[[-0.995,-3.164],[-0.946,-3.213],[-0.925,-3.213],[-0.925,-3.234],[-0.855,-3.305],[-0.694,-3.537],[-0.68,-3.537],[-0.68,-3.551],[-0.609,-3.607],[-0.525,-3.706],[-0.553,-3.706],[-0.63,-3.656],[-0.75,-3.537],[-0.75,-3.523],[-0.785,-3.502],[-0.806,-3.459],[-0.848,-3.431],[-0.876,-3.382],[-0.89,-3.382],[-0.967,-3.305],[-1.044,-3.199],[-1.016,-3.164],[-0.995,-3.164]]]},"properties":{"abbr":null,"name":"unnamed sealed face","plate":21,"ap_bregma_mm":0.8,"index":1}},{"type":"Feature","geometry":{"type":"Polygon","coordinates":[[[-2.965,-6.062],[-2.937,-6.09],[-2.923,-6.132],[-2.93,-6.343],[-2.923,-6.42],[-2.895,-6.505],[-2.853,-6.547],[-2.804,-6.561],[-2.699,-6.554],[-2.699,-6.54],[-2.671,-6.533],[-2.629,-6.582],[-2.629,-6.603],[-2.531,-6.624],[-2.46,-6.667],[-2.362,-6.695],[-2.292,-6.772],[-2.25,-6.842],[-2.236,-6.983],[-2.194,-7.067],[-2.131,-7.11],[-2.054,-7.103],[-2.033,-7.18],[-2.124,-7.208],[-2.208,-7.215],[-2.369,-7.194],[-2.383,-7.018],[-2.418,-6.92],[-2.474,-6.849],[-2.509,-6.821],[-2.643,-6.765],[-2.804,-6.758],[-2.839,-6.73],[-2.846,-6.702],[-2.874,-6.674],[-2.951,-6.638],[-2.965,-6.575],[-2.986,-6.547],[-3.105,-6.519],[-3.084,-6.399],[-3.126,-6.336],[-3.33,-6.322],[-3.316,-6.294],[-3.113,-6.174],[-2.965,-6.062]]]},"properties":{"abbr":null,"name":"unnamed sealed face","plate":21,"ap_bregma_mm":0.8,"index":2}},{"type":"Feature","geometry":{"type":"Polygon","coordinates":[[[-0.771,-7.933],[-0.701,-8.045],[-0.708,-8.059],[-0.813,-8.108],[-0.925,-8.193],[-0.946,-8.242],[-0.939,-8.312],[-1.03,-8.27],[-1.002,-8.221],[-0.988,-8.221],[-0.946,-8.129],[-0.911,-8.094],[-0.883,-8.038],[-0.869,-8.038],[-0.841,-7.989],[-0.771,-7.933]]]},"properties":{"abbr":null,"name":"unnamed sealed face","plate":21,"ap_bregma_mm":0.8,"index":3}},{"type":"Feature","geometry":{"type":"MultiPolygon","coordinates":[[[[-0.427,-8.573],[-0.539,-8.573],[-0.701,-8.523],[-0.855,-8.425],[-0.939,-8.305],[-1.044,-8.263],[-1.177,-8.326],[-1.36,-8.333],[-1.591,-8.291],[-1.899,-8.214],[-1.991,-8.179],[-2.145,-8.073],[-2.432,-7.792],[-3.042,-7.103],[-3.162,-7.046],[-3.442,-6.955],[-3.673,-6.807],[-3.898,-6.582],[-4.01,-6.322],[-4.213,-6.167],[-4.41,-5.865],[-4.522,-5.717],[-5.104,-5.049],[-5.216,-4.845],[-5.412,-4.324],[-5.461,-4.106],[-5.475,-3.867],[-5.454,-3.663],[-5.398,-3.445],[-5.293,-3.213],[-5.139,-2.974],[-4.816,-2.637],[-4.396,-2.334],[-4.038,-2.137],[-3.344,-1.849],[-2.937,-1.701],[-2.432,-1.546],[-2.019,-1.455],[-1.57,-1.392],[-1.17,-1.371],[-0.876,-1.378],[-0.553,-1.427],[-0.343,-1.497],[-0.21,-1.574],[-0.119,-1.659],[-0.041,-1.771],[0.05,-1.786],[0.183,-1.56],[0.267,-1.476],[0.435,-1.392],[0.702,-1.321],[1.199,-1.293],[1.718,-1.3],[2.125,-1.349],[2.553,-1.434],[3.135,-1.596],[3.801,-1.835],[4.284,-2.06],[4.67,-2.285],[5.07,-2.559],[5.224,-2.714],[5.364,-2.897],[5.504,-3.115],[5.617,-3.333],[5.673,-3.473],[5.722,-3.684],[5.743,-3.938],[5.736,-4.198],[5.715,-4.31],[5.68,-4.395],[5.294,-5.126],[5.063,-5.534],[4.768,-5.893],[4.481,-6.195],[4.348,-6.294],[4.221,-6.357],[4.095,-6.399],[3.941,-6.512],[3.85,-6.533],[3.738,-6.533],[3.625,-6.589],[3.576,-6.631],[3.632,-6.72],[3.541,-6.659],[3.478,-6.723],[3.296,-6.955],[3.128,-7.201],[2.91,-7.447],[2.546,-7.743],[2.272,-8.017],[2.083,-8.137],[1.894,-8.2],[1.368,-8.291],[1.249,-8.291],[1.108,-8.249],[0.926,-8.151],[0.709,-7.897],[0.548,-7.764],[0.253,-7.574],[0.036,-7.363],[-0.049,-7.37],[-0.168,-7.532],[-0.301,-7.644],[-0.659,-7.841],[-0.778,-7.925],[-0.701,-8.045],[-0.532,-7.968],[-0.399,-7.933],[-0.336,-7.94],[-0.28,-7.982],[-0.259,-8.038],[-0.245,-8.186],[-0.252,-8.355],[-0.273,-8.432],[-0.315,-8.509],[-0.399,-8.565],[-0.427,-8.573]]]]},"properties":{"abbr":"brain_outline","name":"outline of the section","plate":21,"ap_bregma_mm":0.8}}]}
