{"type":"FeatureCollection","name":"GerbilAtlas plate 14","note":"Region extents cut from the atlas drawing (METHODS.md, Region extents). Coordinates are [ML, DV] in mm, ML positive to the right of the plate as printed, DV negative below the dorsal surface; AP is the plate bregma. traced_fraction is the share of each polygon boundary the atlas actually draws; below 0.5 the boundary is an estimate. no_drawn_outline marks a feature that lies only inside boundaries the atlas draws round more than one name and prints nothing within, so the whole of its outline is where the extraction cut it. Not a segmentation.","plate":14,"ap_bregma_mm":3.25,"features":[{"type":"Feature","geometry":{"type":"MultiPolygon","coordinates":[[[[2.054,-2.123],[2.209,-2.137],[2.566,-2.235],[2.805,-2.334],[2.854,-2.369],[3.029,-2.446],[3.071,-2.482],[3.036,-2.545],[2.889,-2.693],[2.889,-2.707],[2.685,-2.918],[2.685,-2.932],[2.258,-3.396],[2.202,-3.473],[2.054,-3.614],[1.998,-3.691],[1.697,-4.015],[1.648,-3.98],[1.641,-3.952],[1.732,-3.544],[1.767,-3.438],[1.9,-2.805],[1.928,-2.728],[1.998,-2.369],[2.033,-2.263],[2.054,-2.123]]],[[[-1.753,-2.214],[-1.697,-3.994],[-1.683,-4.064],[-1.718,-4.113],[-1.76,-4.113],[-1.809,-4.057],[-1.809,-4.036],[-1.851,-3.973],[-2.04,-3.733],[-2.068,-3.677],[-2.391,-3.262],[-2.496,-3.101],[-2.601,-2.981],[-2.72,-2.805],[-2.91,-2.587],[-2.959,-2.503],[-2.734,-2.397],[-2.37,-2.292],[-2.047,-2.235],[-1.753,-2.214]]]]},"properties":{"abbr":"M1","name":"primary motor cortex","plate":14,"ap_bregma_mm":3.25,"area_mm2":2.3961,"traced_fraction":[1.0,1.0],"n_labels":2,"no_drawn_outline":false}},{"type":"Feature","geometry":{"type":"MultiPolygon","coordinates":[[[[2.054,-2.123],[2.033,-2.263],[1.998,-2.369],[1.928,-2.728],[1.9,-2.805],[1.767,-3.438],[1.732,-3.544],[1.641,-3.952],[1.571,-3.952],[1.543,-3.937],[1.374,-3.952],[1.122,-3.459],[1.094,-3.431],[0.939,-3.15],[0.561,-2.58],[0.379,-2.348],[0.442,-2.285],[0.61,-2.193],[0.736,-2.144],[0.947,-2.095],[1.199,-2.067],[1.451,-2.067],[1.69,-2.074],[2.054,-2.123]]],[[[-0.245,-2.482],[-0.28,-2.503],[-0.28,-2.517],[-0.505,-2.749],[-0.666,-2.96],[-0.813,-3.122],[-0.883,-3.234],[-0.911,-3.255],[-1.094,-3.522],[-1.136,-3.565],[-1.276,-3.783],[-1.318,-3.825],[-1.465,-4.057],[-1.57,-4.05],[-1.683,-4.064],[-1.697,-3.994],[-1.753,-2.214],[-1.563,-2.193],[-1.304,-2.193],[-1.045,-2.2],[-0.617,-2.235],[-0.533,-2.257],[-0.414,-2.313],[-0.322,-2.376],[-0.245,-2.482]]]]},"properties":{"abbr":"M2","name":"secondary motor cortex","plate":14,"ap_bregma_mm":3.25,"area_mm2":3.5078,"traced_fraction":[1.0,1.0],"n_labels":2,"no_drawn_outline":false}},{"type":"Feature","geometry":{"type":"MultiPolygon","coordinates":[[[[3.071,-2.482],[3.155,-2.524],[3.344,-2.686],[3.281,-2.756],[2.959,-3.009],[2.699,-3.241],[2.468,-3.417],[2.216,-3.649],[1.725,-4.043],[1.697,-4.015],[1.998,-3.691],[2.054,-3.614],[2.202,-3.473],[2.202,-3.459],[2.58,-3.051],[2.58,-3.037],[2.889,-2.707],[2.889,-2.693],[3.036,-2.545],[3.071,-2.482]]],[[[-2.959,-2.503],[-2.91,-2.587],[-2.72,-2.805],[-2.601,-2.981],[-2.496,-3.101],[-2.391,-3.262],[-2.068,-3.677],[-2.04,-3.733],[-1.851,-3.973],[-1.809,-4.036],[-1.809,-4.057],[-1.76,-4.113],[-1.774,-4.156],[-1.83,-4.127],[-1.963,-3.98],[-1.977,-3.98],[-2.293,-3.656],[-2.314,-3.649],[-2.314,-3.635],[-2.328,-3.635],[-2.741,-3.22],[-2.755,-3.22],[-2.903,-3.065],[-2.917,-3.065],[-2.938,-3.03],[-2.952,-3.03],[-3.204,-2.77],[-3.26,-2.728],[-3.26,-2.714],[-3.071,-2.559],[-2.959,-2.503]]]]},"properties":{"abbr":"Fr3","name":"frontal cortex, area 3","plate":14,"ap_bregma_mm":3.25,"area_mm2":0.8318,"traced_fraction":[1.0,1.0],"n_labels":2,"no_drawn_outline":false}},{"type":"Feature","geometry":{"type":"MultiPolygon","coordinates":[[[[3.344,-2.686],[3.471,-2.798],[3.513,-2.875],[3.541,-2.897],[3.695,-3.185],[3.716,-3.269],[3.73,-3.276],[3.751,-3.34],[3.786,-3.516],[3.786,-3.769],[3.765,-3.881],[3.709,-4.029],[3.583,-4.261],[3.471,-4.43],[3.45,-4.437],[3.352,-4.599],[3.148,-4.831],[3.015,-4.767],[2.896,-4.739],[2.601,-4.634],[2.335,-4.563],[2.082,-4.521],[1.9,-4.521],[1.865,-4.542],[1.711,-4.528],[1.725,-4.437],[1.767,-4.352],[1.781,-4.247],[1.767,-4.127],[1.725,-4.064],[1.725,-4.043],[2.216,-3.649],[2.468,-3.417],[2.699,-3.241],[2.959,-3.009],[3.281,-2.756],[3.344,-2.686]]],[[[-3.26,-2.714],[-3.26,-2.728],[-3.204,-2.77],[-2.952,-3.03],[-2.938,-3.03],[-2.917,-3.065],[-2.903,-3.065],[-1.977,-3.98],[-1.963,-3.98],[-1.83,-4.127],[-1.774,-4.156],[-1.774,-4.191],[-1.809,-4.282],[-1.809,-4.373],[-1.774,-4.458],[-1.774,-4.507],[-1.865,-4.521],[-2.18,-4.528],[-2.566,-4.585],[-2.839,-4.662],[-3.106,-4.718],[-3.169,-4.739],[-3.183,-4.76],[-3.204,-4.76],[-3.204,-4.774],[-3.267,-4.718],[-3.358,-4.592],[-3.407,-4.549],[-3.604,-4.261],[-3.702,-4.043],[-3.744,-3.839],[-3.744,-3.635],[-3.723,-3.522],[-3.618,-3.213],[-3.457,-2.911],[-3.4,-2.84],[-3.365,-2.819],[-3.33,-2.763],[-3.26,-2.714]]]]},"properties":{"abbr":"S1J","name":"primary somatosensory cortex, jaw region","plate":14,"ap_bregma_mm":3.25,"area_mm2":4.9485,"traced_fraction":[1.0,1.0],"n_labels":2,"no_drawn_outline":false}},{"type":"Feature","geometry":{"type":"MultiPolygon","coordinates":[[[[1.641,-3.952],[1.648,-3.98],[1.697,-4.015],[1.725,-4.043],[1.725,-4.064],[1.767,-4.127],[1.781,-4.247],[1.774,-4.324],[1.725,-4.437],[1.711,-4.528],[1.507,-4.613],[1.206,-4.803],[1.038,-4.971],[0.939,-5.112],[0.939,-5.147],[0.905,-5.182],[0.869,-5.267],[0.841,-5.295],[0.827,-5.288],[0.827,-5.253],[0.876,-5.007],[0.876,-4.929],[0.897,-4.887],[0.933,-4.697],[1.003,-4.472],[1.087,-4.282],[1.192,-4.099],[1.241,-4.071],[1.36,-3.952],[1.374,-3.952],[1.437,-3.937],[1.641,-3.952]]],[[[-1.465,-4.057],[-1.318,-4.127],[-1.262,-4.191],[-1.248,-4.191],[-1.164,-4.31],[-1.101,-4.458],[-1.059,-4.641],[-1.031,-4.929],[-1.038,-5.084],[-1.087,-5.049],[-1.178,-4.894],[-1.402,-4.683],[-1.627,-4.549],[-1.774,-4.507],[-1.774,-4.458],[-1.809,-4.373],[-1.809,-4.282],[-1.774,-4.191],[-1.774,-4.156],[-1.76,-4.113],[-1.718,-4.113],[-1.683,-4.064],[-1.57,-4.05],[-1.465,-4.057]]]]},"properties":{"abbr":"fmi","name":"forceps minor of the corpus callosum","plate":14,"ap_bregma_mm":3.25,"area_mm2":0.9636,"traced_fraction":[0.984,1.0],"n_labels":2,"no_drawn_outline":false}},{"type":"Feature","geometry":{"type":"MultiPolygon","coordinates":[[[[0.098,-3.445],[0.182,-3.466],[0.687,-3.797],[1.192,-4.099],[1.087,-4.282],[1.003,-4.472],[0.933,-4.697],[0.897,-4.887],[0.876,-4.929],[0.14,-4.929],[0.147,-4.613],[0.098,-3.726],[0.098,-3.445]]],[[[-0.133,-3.558],[-0.189,-4.936],[-1.031,-4.929],[-1.059,-4.641],[-1.101,-4.458],[-1.164,-4.31],[-1.248,-4.191],[-1.073,-4.078],[-0.911,-4.001],[-0.603,-3.804],[-0.442,-3.726],[-0.252,-3.6],[-0.182,-3.565],[-0.133,-3.558]]]]},"properties":{"abbr":"PrL","name":"prelimbic cortex","plate":14,"ap_bregma_mm":3.25,"area_mm2":2.1263,"traced_fraction":[0.988,1.0],"n_labels":2,"no_drawn_outline":false}},{"type":"Feature","geometry":{"type":"MultiPolygon","coordinates":[[[[-1.865,-4.521],[-1.942,-4.641],[-2.068,-4.669],[-2.265,-4.753],[-2.692,-4.894],[-2.91,-4.985],[-2.959,-4.992],[-2.987,-5.014],[-3.197,-4.788],[-3.204,-4.774],[-3.204,-4.76],[-3.183,-4.76],[-3.169,-4.739],[-3.106,-4.718],[-2.839,-4.662],[-2.566,-4.585],[-2.18,-4.528],[-1.865,-4.521]]],[[[3.148,-4.831],[2.959,-5.056],[2.861,-5.0],[2.622,-4.915],[2.04,-4.669],[1.97,-4.655],[1.865,-4.556],[1.865,-4.542],[1.9,-4.521],[2.082,-4.521],[2.335,-4.563],[2.601,-4.634],[2.896,-4.739],[3.015,-4.767],[3.148,-4.831]]]]},"properties":{"abbr":"GI","name":"granular insular cortex","plate":14,"ap_bregma_mm":3.25,"area_mm2":0.5586,"traced_fraction":[1.0,1.0],"n_labels":2,"no_drawn_outline":false}},{"type":"Feature","geometry":{"type":"MultiPolygon","coordinates":[[[[-1.774,-4.507],[-1.627,-4.549],[-1.402,-4.683],[-1.178,-4.894],[-1.087,-5.049],[-1.038,-5.084],[-1.038,-5.126],[-1.094,-5.119],[-1.325,-4.985],[-1.486,-4.922],[-1.514,-4.922],[-1.641,-4.873],[-1.718,-4.873],[-1.872,-4.824],[-1.935,-4.739],[-1.949,-4.69],[-1.942,-4.641],[-1.865,-4.521],[-1.774,-4.507]]],[[[1.711,-4.528],[1.865,-4.542],[1.865,-4.556],[1.97,-4.655],[1.949,-4.76],[1.921,-4.781],[1.9,-4.824],[1.872,-4.824],[1.809,-4.859],[1.69,-4.88],[1.655,-4.901],[1.536,-4.922],[1.423,-4.971],[1.388,-4.971],[1.164,-5.042],[0.996,-5.126],[0.989,-5.14],[0.939,-5.147],[0.939,-5.112],[0.975,-5.056],[1.171,-4.831],[1.444,-4.648],[1.711,-4.528]]]]},"properties":{"abbr":"Cl","name":"claustrum","plate":14,"ap_bregma_mm":3.25,"area_mm2":0.4841,"traced_fraction":[1.0,1.0],"n_labels":2,"no_drawn_outline":false}},{"type":"Feature","geometry":{"type":"MultiPolygon","coordinates":[[[[-1.942,-4.641],[-1.949,-4.69],[-1.935,-4.739],[-1.872,-4.824],[-1.907,-4.859],[-1.998,-4.908],[-2.265,-5.091],[-2.279,-5.112],[-2.356,-5.154],[-2.496,-5.267],[-2.538,-5.316],[-2.552,-5.316],[-2.629,-5.4],[-2.65,-5.407],[-2.65,-5.421],[-2.664,-5.421],[-2.685,-5.393],[-2.762,-5.281],[-2.987,-5.014],[-2.959,-4.992],[-2.91,-4.985],[-2.692,-4.894],[-2.265,-4.753],[-2.068,-4.669],[-1.942,-4.641]]],[[[1.97,-4.655],[2.04,-4.669],[2.622,-4.915],[2.861,-5.0],[2.959,-5.056],[2.587,-5.492],[2.545,-5.478],[1.9,-4.824],[1.921,-4.781],[1.949,-4.76],[1.97,-4.655]]]]},"properties":{"abbr":"DI","name":"dysgranular insular cortex","plate":14,"ap_bregma_mm":3.25,"area_mm2":0.7442,"traced_fraction":[1.0,1.0],"n_labels":2,"no_drawn_outline":false}},{"type":"Feature","geometry":{"type":"MultiPolygon","coordinates":[[[[-1.872,-4.824],[-1.718,-4.873],[-2.012,-5.309],[-2.146,-5.576],[-2.258,-5.843],[-2.279,-5.928],[-2.314,-5.942],[-2.363,-5.928],[-2.412,-5.851],[-2.489,-5.668],[-2.566,-5.562],[-2.58,-5.541],[-2.622,-5.485],[-2.622,-5.464],[-2.636,-5.464],[-2.636,-5.443],[-2.65,-5.443],[-2.65,-5.421],[-2.65,-5.407],[-2.629,-5.4],[-2.552,-5.316],[-2.538,-5.316],[-2.496,-5.267],[-2.356,-5.154],[-2.279,-5.112],[-2.265,-5.091],[-1.998,-4.908],[-1.907,-4.859],[-1.872,-4.824]]],[[[1.9,-4.824],[2.545,-5.478],[2.587,-5.492],[2.461,-5.668],[2.363,-5.872],[2.307,-5.9],[2.251,-5.773],[2.124,-5.562],[1.886,-5.211],[1.676,-4.95],[1.655,-4.901],[1.69,-4.88],[1.809,-4.859],[1.872,-4.824],[1.9,-4.824]]],[[[-1.262,-6.842],[-1.059,-6.842],[-1.059,-6.983],[-1.129,-6.983],[-1.178,-6.955],[-1.206,-6.955],[-1.255,-6.913],[-1.269,-6.87],[-1.262,-6.842]]]]},"properties":{"abbr":"AI","name":"agranular insular cortex","plate":14,"ap_bregma_mm":3.25,"area_mm2":0.7781,"traced_fraction":[1.0,1.0,0.558],"n_labels":3,"no_drawn_outline":false}},{"type":"Feature","geometry":{"type":"MultiPolygon","coordinates":[[[[-1.718,-4.873],[-1.641,-4.873],[-1.514,-4.922],[-1.521,-5.175],[-1.57,-5.421],[-1.662,-5.64],[-1.802,-5.815],[-1.802,-5.843],[-1.809,-5.843],[-1.949,-5.858],[-2.209,-5.928],[-2.279,-5.928],[-2.258,-5.843],[-2.146,-5.576],[-2.012,-5.309],[-1.718,-4.873]]],[[[1.655,-4.901],[1.676,-4.95],[1.886,-5.211],[2.124,-5.562],[2.251,-5.773],[2.307,-5.9],[2.202,-5.914],[2.103,-5.928],[1.9,-5.886],[1.753,-5.872],[1.739,-5.822],[1.655,-5.738],[1.599,-5.654],[1.486,-5.4],[1.43,-5.182],[1.423,-4.971],[1.536,-4.922],[1.655,-4.901]]]]},"properties":{"abbr":"LO","name":"lateral orbital cortex","plate":14,"ap_bregma_mm":3.25,"area_mm2":0.8959,"traced_fraction":[1.0,1.0],"n_labels":2,"no_drawn_outline":false}},{"type":"Feature","geometry":{"type":"MultiPolygon","coordinates":[[[[-1.514,-4.922],[-1.486,-4.922],[-1.325,-4.985],[-1.094,-5.119],[-1.038,-5.126],[-0.975,-5.267],[-0.904,-5.513],[-0.876,-5.696],[-0.862,-5.956],[-0.876,-6.16],[-0.89,-6.181],[-0.904,-6.181],[-0.94,-6.132],[-1.073,-6.033],[-1.248,-5.949],[-1.395,-5.9],[-1.591,-5.858],[-1.802,-5.843],[-1.802,-5.815],[-1.662,-5.64],[-1.57,-5.421],[-1.521,-5.175],[-1.514,-4.922]]],[[[1.423,-4.971],[1.43,-5.182],[1.486,-5.4],[1.599,-5.654],[1.655,-5.738],[1.739,-5.822],[1.753,-5.872],[1.718,-5.886],[1.704,-5.872],[1.536,-5.872],[1.199,-5.9],[0.996,-5.956],[0.785,-6.054],[0.757,-5.949],[0.764,-5.64],[0.806,-5.4],[0.841,-5.295],[0.869,-5.267],[0.89,-5.203],[0.939,-5.147],[0.989,-5.14],[0.996,-5.126],[1.164,-5.042],[1.388,-4.971],[1.423,-4.971]]]]},"properties":{"abbr":"VO","name":"ventral orbital cortex","plate":14,"ap_bregma_mm":3.25,"area_mm2":1.2908,"traced_fraction":[1.0,1.0],"n_labels":2,"no_drawn_outline":false}},{"type":"Feature","geometry":{"type":"MultiPolygon","coordinates":[[[[-1.031,-4.929],[-0.189,-4.936],[-0.182,-5.984],[-0.862,-5.956],[-0.876,-5.696],[-0.904,-5.513],[-0.975,-5.267],[-1.038,-5.126],[-1.038,-5.084],[-1.031,-4.929]]],[[[0.14,-4.929],[0.876,-4.929],[0.876,-5.007],[0.827,-5.253],[0.827,-5.288],[0.841,-5.295],[0.806,-5.4],[0.764,-5.64],[0.757,-5.949],[0.645,-5.963],[0.505,-5.956],[0.091,-5.97],[0.119,-5.661],[0.14,-4.929]]]]},"properties":{"abbr":"IL","name":"infralimbic cortex","plate":14,"ap_bregma_mm":3.25,"area_mm2":1.4866,"traced_fraction":[1.0,1.0],"n_labels":4,"no_drawn_outline":false}},{"type":"Feature","geometry":{"type":"MultiPolygon","coordinates":[[[[-1.15,-6.223],[-1.143,-6.343],[-1.199,-6.357],[-1.395,-6.364],[-1.395,-6.35],[-1.599,-6.343],[-1.578,-6.223],[-1.479,-6.111],[-1.444,-6.104],[-1.325,-6.125],[-1.199,-6.181],[-1.164,-6.223],[-1.15,-6.223]]],[[[1.374,-6.146],[1.465,-6.216],[1.5,-6.315],[1.255,-6.329],[1.22,-6.315],[1.136,-6.315],[1.017,-6.343],[0.961,-6.343],[0.926,-6.329],[0.926,-6.251],[1.031,-6.181],[1.143,-6.146],[1.234,-6.132],[1.374,-6.146]]]]},"properties":{"abbr":"DEn","name":"dorsal endopiriform nucleus","plate":14,"ap_bregma_mm":3.25,"area_mm2":0.1775,"traced_fraction":[0.893,0.868],"n_labels":2,"no_drawn_outline":false}},{"type":"Feature","geometry":{"type":"MultiPolygon","coordinates":[[[[-1.809,-5.843],[-1.802,-5.843],[-1.591,-5.858],[-1.395,-5.9],[-1.248,-5.949],[-1.073,-6.033],[-0.94,-6.132],[-0.904,-6.181],[-0.89,-6.181],[-0.862,-6.251],[-0.771,-6.343],[-0.638,-6.441],[-0.533,-6.491],[-0.505,-6.526],[-0.575,-6.54],[-0.715,-6.512],[-0.827,-6.462],[-1.003,-6.287],[-1.15,-6.223],[-1.164,-6.223],[-1.199,-6.181],[-1.325,-6.125],[-1.444,-6.104],[-1.479,-6.111],[-1.521,-6.076],[-1.585,-6.062],[-1.627,-6.04],[-1.669,-6.04],[-1.676,-6.005],[-1.774,-5.914],[-1.809,-5.843]]],[[[1.718,-5.886],[1.697,-5.914],[1.578,-5.97],[1.557,-6.005],[1.479,-6.033],[1.437,-6.069],[1.437,-6.083],[1.416,-6.083],[1.381,-6.118],[1.374,-6.146],[1.262,-6.132],[1.143,-6.146],[1.031,-6.181],[0.926,-6.251],[0.905,-6.251],[0.799,-6.315],[0.75,-6.371],[0.687,-6.413],[0.645,-6.469],[0.568,-6.526],[0.491,-6.554],[0.393,-6.554],[0.379,-6.568],[0.365,-6.568],[0.344,-6.533],[0.344,-6.519],[0.477,-6.427],[0.624,-6.294],[0.757,-6.125],[0.785,-6.054],[0.996,-5.956],[1.199,-5.9],[1.536,-5.872],[1.704,-5.872],[1.718,-5.886]]]]},"properties":{"abbr":"Dtr","name":"dorsal transition zone","plate":14,"ap_bregma_mm":3.25,"area_mm2":0.4808,"traced_fraction":[1.0,1.0],"n_labels":2,"no_drawn_outline":false}},{"type":"Feature","geometry":{"type":"MultiPolygon","coordinates":[[[[0.757,-5.949],[0.785,-6.054],[0.757,-6.125],[0.624,-6.294],[0.547,-6.371],[0.344,-6.519],[0.344,-6.533],[0.295,-6.54],[0.267,-6.561],[0.168,-6.582],[0.07,-6.582],[0.07,-6.216],[0.091,-5.97],[0.505,-5.956],[0.645,-5.963],[0.757,-5.949]]],[[[-0.862,-5.956],[-0.182,-5.984],[-0.182,-6.272],[-0.217,-6.596],[-0.266,-6.596],[-0.393,-6.554],[-0.428,-6.554],[-0.505,-6.526],[-0.533,-6.491],[-0.638,-6.441],[-0.771,-6.343],[-0.862,-6.251],[-0.89,-6.181],[-0.876,-6.16],[-0.862,-5.956]]]]},"properties":{"abbr":"DP","name":"dorsal peduncular cortex","plate":14,"ap_bregma_mm":3.25,"area_mm2":0.6692,"traced_fraction":[1.0,1.0],"n_labels":2,"no_drawn_outline":false}},{"type":"Feature","geometry":{"type":"MultiPolygon","coordinates":[[[[-1.585,-6.062],[-1.521,-6.076],[-1.479,-6.111],[-1.578,-6.223],[-1.599,-6.343],[-1.606,-6.392],[-1.549,-6.568],[-1.493,-6.617],[-1.423,-6.61],[-1.395,-6.723],[-1.332,-6.814],[-1.493,-6.962],[-1.57,-6.814],[-1.648,-6.582],[-1.718,-6.434],[-1.788,-6.357],[-1.949,-6.251],[-1.977,-6.209],[-1.984,-6.167],[-1.984,-6.16],[-1.97,-6.139],[-1.935,-6.125],[-1.641,-6.118],[-1.613,-6.111],[-1.585,-6.062]]],[[[1.437,-6.083],[1.522,-6.118],[1.725,-6.125],[1.795,-6.146],[1.83,-6.181],[1.823,-6.244],[1.795,-6.287],[1.767,-6.294],[1.732,-6.343],[1.669,-6.385],[1.522,-6.533],[1.522,-6.547],[1.374,-6.716],[1.241,-6.92],[1.213,-6.92],[1.185,-6.87],[1.122,-6.814],[1.136,-6.73],[1.199,-6.624],[1.311,-6.617],[1.409,-6.547],[1.486,-6.427],[1.507,-6.343],[1.5,-6.315],[1.465,-6.216],[1.374,-6.146],[1.381,-6.118],[1.416,-6.083],[1.437,-6.083]]],[[[-0.729,-6.793],[-0.659,-6.8],[-0.694,-6.913],[-0.729,-6.976],[-0.799,-7.06],[-0.841,-7.081],[-0.968,-7.081],[-1.052,-7.011],[-1.052,-6.99],[-0.925,-6.969],[-0.813,-6.92],[-0.75,-6.849],[-0.729,-6.793]]]]},"properties":{"abbr":"3","name":"layer 3 of cortex","plate":14,"ap_bregma_mm":3.25,"area_mm2":0.4019,"traced_fraction":[0.989,1.0,0.987],"n_labels":3,"no_drawn_outline":false}},{"type":"Feature","geometry":{"type":"MultiPolygon","coordinates":[[[[1.557,-6.005],[1.606,-6.026],[1.907,-6.04],[1.963,-6.054],[2.019,-6.097],[2.026,-6.181],[1.991,-6.266],[1.949,-6.322],[1.851,-6.392],[1.851,-6.329],[1.823,-6.308],[1.823,-6.287],[1.795,-6.287],[1.83,-6.216],[1.83,-6.181],[1.795,-6.146],[1.725,-6.125],[1.522,-6.118],[1.437,-6.083],[1.437,-6.069],[1.479,-6.033],[1.557,-6.005]]]]},"properties":{"abbr":"Pir","name":"piriform cortex","plate":14,"ap_bregma_mm":3.25,"area_mm2":0.0893,"traced_fraction":[0.947],"n_labels":1,"no_drawn_outline":false}},{"type":"Feature","geometry":{"type":"MultiPolygon","coordinates":[[[[1.5,-6.315],[1.507,-6.343],[1.486,-6.427],[1.409,-6.547],[1.311,-6.617],[1.199,-6.624],[1.269,-6.441],[1.269,-6.357],[1.255,-6.329],[1.5,-6.315]]],[[[-1.599,-6.343],[-1.395,-6.35],[-1.395,-6.364],[-1.423,-6.371],[-1.444,-6.406],[-1.444,-6.519],[-1.423,-6.61],[-1.493,-6.617],[-1.549,-6.568],[-1.606,-6.392],[-1.599,-6.343]]]]},"properties":{"abbr":"IEn","name":"intermediate endopiriform nucleus","plate":14,"ap_bregma_mm":3.25,"area_mm2":0.0954,"traced_fraction":[0.826,0.822],"n_labels":2,"no_drawn_outline":false}},{"type":"Feature","geometry":{"type":"MultiPolygon","coordinates":[[[[1.795,-6.287],[1.823,-6.287],[1.823,-6.308],[1.851,-6.329],[1.851,-6.392],[1.802,-6.441],[1.739,-6.476],[1.634,-6.582],[1.458,-6.807],[1.269,-7.004],[1.255,-6.934],[1.241,-6.92],[1.374,-6.716],[1.522,-6.547],[1.522,-6.533],[1.669,-6.385],[1.732,-6.343],[1.767,-6.294],[1.795,-6.287]]],[[[-0.505,-6.526],[-0.428,-6.554],[-0.428,-6.687],[-0.498,-6.941],[-0.519,-7.018],[-0.547,-7.046],[-0.575,-7.117],[-0.701,-7.236],[-0.827,-7.299],[-0.996,-7.306],[-1.066,-7.292],[-1.143,-7.222],[-1.178,-7.138],[-1.178,-7.081],[-1.164,-7.074],[-1.129,-6.983],[-1.059,-6.983],[-1.052,-6.99],[-1.052,-7.011],[-0.968,-7.081],[-0.841,-7.081],[-0.799,-7.06],[-0.729,-6.976],[-0.694,-6.913],[-0.659,-6.8],[-0.631,-6.68],[-0.575,-6.54],[-0.505,-6.526]]],[[[0.82,-7.025],[0.862,-7.039],[0.926,-7.088],[0.841,-7.229],[0.757,-7.278],[0.61,-7.271],[0.47,-7.215],[0.421,-7.18],[0.4,-7.145],[0.414,-7.145],[0.435,-7.109],[0.449,-7.109],[0.512,-7.046],[0.54,-7.067],[0.617,-7.088],[0.708,-7.088],[0.764,-7.067],[0.82,-7.025]]]]},"properties":{"abbr":"2","name":"layer 2 of cortex","plate":14,"ap_bregma_mm":3.25,"area_mm2":0.4084,"traced_fraction":[0.932,1.0,1.0],"n_labels":4,"no_drawn_outline":false}},{"type":"Feature","geometry":{"type":"MultiPolygon","coordinates":[[[[-0.428,-6.554],[-0.393,-6.554],[-0.266,-6.596],[-0.217,-6.596],[-0.231,-6.765],[-0.287,-6.948],[-0.498,-6.941],[-0.428,-6.687],[-0.428,-6.554]]],[[[0.267,-6.561],[0.259,-6.73],[0.288,-6.92],[0.33,-7.053],[0.372,-7.131],[0.4,-7.145],[0.4,-7.159],[0.47,-7.215],[0.463,-7.426],[0.203,-7.321],[0.189,-7.292],[0.168,-7.285],[0.119,-7.194],[0.07,-6.92],[0.07,-6.582],[0.168,-6.582],[0.267,-6.561]]]]},"properties":{"abbr":"DTT","name":"dorsal tenia tecta","plate":14,"ap_bregma_mm":3.25,"area_mm2":0.2671,"traced_fraction":[0.884,0.927],"n_labels":2,"no_drawn_outline":false}},{"type":"Feature","geometry":{"type":"MultiPolygon","coordinates":[[[[-2.293,-6.251],[-2.244,-6.272],[-2.174,-6.392],[-1.998,-6.582],[-1.809,-6.716],[-1.76,-6.779],[-1.697,-6.898],[-1.613,-7.123],[-1.591,-7.187],[-1.591,-7.264],[-1.599,-7.271],[-1.641,-7.257],[-1.725,-7.194],[-1.802,-7.109],[-1.858,-7.018],[-1.9,-6.976],[-1.977,-6.814],[-1.984,-6.8],[-1.991,-6.786],[-1.998,-6.772],[-2.005,-6.758],[-2.012,-6.744],[-2.033,-6.702],[-2.18,-6.554],[-2.23,-6.483],[-2.286,-6.343],[-2.293,-6.251]]],[[[-1.599,-7.271],[-1.591,-7.271],[-1.591,-7.278],[-1.599,-7.271]]]]},"properties":{"abbr":"lo","name":"lateral olfactory tract","plate":14,"ap_bregma_mm":3.25,"area_mm2":0.167,"traced_fraction":[1.0,1.0],"n_labels":1,"no_drawn_outline":false}},{"type":"Feature","geometry":{"type":"MultiPolygon","coordinates":[[[[0.379,-2.348],[0.561,-2.58],[0.939,-3.15],[1.094,-3.431],[1.122,-3.459],[1.374,-3.952],[1.36,-3.952],[1.241,-4.071],[1.192,-4.099],[0.687,-3.797],[0.182,-3.466],[0.098,-3.445],[0.105,-2.89],[0.133,-2.728],[0.224,-2.503],[0.246,-2.489],[0.259,-2.453],[0.379,-2.348]]],[[[-0.245,-2.482],[-0.203,-2.524],[-0.133,-2.678],[-0.098,-2.854],[-0.098,-3.192],[-0.119,-3.305],[-0.133,-3.558],[-0.182,-3.565],[-0.252,-3.6],[-0.442,-3.726],[-0.603,-3.804],[-0.911,-4.001],[-1.073,-4.078],[-1.248,-4.191],[-1.262,-4.191],[-1.318,-4.127],[-1.465,-4.057],[-1.318,-3.825],[-1.276,-3.783],[-1.136,-3.565],[-1.094,-3.522],[-0.911,-3.255],[-0.883,-3.234],[-0.813,-3.122],[-0.666,-2.96],[-0.505,-2.749],[-0.28,-2.517],[-0.28,-2.503],[-0.245,-2.482]]]]},"properties":{"abbr":"Cg1","name":"cingulate cortex, area 1","plate":14,"ap_bregma_mm":3.25,"area_mm2":2.0759,"traced_fraction":[0.998,1.0],"n_labels":2,"no_drawn_outline":false}},{"type":"Feature","geometry":{"type":"MultiPolygon","coordinates":[[[[-1.15,-6.223],[-1.003,-6.287],[-0.827,-6.462],[-0.715,-6.512],[-0.575,-6.54],[-0.631,-6.68],[-0.659,-6.8],[-0.729,-6.793],[-0.729,-6.694],[-0.806,-6.596],[-0.876,-6.568],[-0.989,-6.568],[-1.08,-6.61],[-1.094,-6.568],[-1.052,-6.505],[-1.052,-6.413],[-1.066,-6.385],[-1.115,-6.371],[-1.143,-6.343],[-1.15,-6.223]]]]},"properties":{"abbr":"4","name":"layer 4 of cortex","plate":14,"ap_bregma_mm":3.25,"area_mm2":0.1091,"traced_fraction":[0.993],"n_labels":1,"no_drawn_outline":false}},{"type":"Feature","geometry":{"type":"MultiPolygon","coordinates":[[[[1.255,-6.329],[1.269,-6.357],[1.269,-6.441],[1.199,-6.624],[1.136,-6.73],[1.122,-6.814],[1.024,-6.765],[0.975,-6.709],[0.968,-6.68],[0.933,-6.659],[0.918,-6.624],[0.897,-6.61],[0.884,-6.547],[0.918,-6.526],[0.939,-6.476],[0.961,-6.413],[0.961,-6.343],[1.017,-6.343],[1.136,-6.315],[1.22,-6.315],[1.255,-6.329]]],[[[-1.143,-6.343],[-1.115,-6.371],[-1.136,-6.427],[-1.136,-6.512],[-1.094,-6.568],[-1.08,-6.61],[-1.136,-6.687],[-1.157,-6.694],[-1.171,-6.723],[-1.262,-6.807],[-1.332,-6.814],[-1.395,-6.723],[-1.423,-6.61],[-1.444,-6.519],[-1.444,-6.406],[-1.423,-6.371],[-1.395,-6.364],[-1.199,-6.357],[-1.143,-6.343]]]]},"properties":{"abbr":"aca","name":"anterior commissure, anterior part","plate":14,"ap_bregma_mm":3.25,"area_mm2":0.2483,"traced_fraction":[1.0,1.0],"n_labels":2,"no_drawn_outline":false}},{"type":"Feature","geometry":{"type":"MultiPolygon","coordinates":[[[[0.897,-6.61],[0.918,-6.624],[0.926,-6.652],[0.968,-6.68],[0.975,-6.709],[1.024,-6.765],[1.01,-6.779],[1.01,-6.87],[0.982,-6.913],[0.905,-6.948],[0.771,-6.962],[0.659,-6.92],[0.659,-6.906],[0.589,-6.856],[0.526,-6.744],[0.533,-6.652],[0.589,-6.589],[0.687,-6.547],[0.771,-6.547],[0.897,-6.61]]],[[[-0.729,-6.793],[-0.75,-6.849],[-0.813,-6.92],[-0.925,-6.969],[-1.052,-6.99],[-1.059,-6.983],[-1.059,-6.842],[-1.262,-6.842],[-1.262,-6.807],[-1.171,-6.723],[-1.157,-6.694],[-1.136,-6.687],[-1.08,-6.61],[-0.989,-6.568],[-0.876,-6.568],[-0.806,-6.596],[-0.729,-6.694],[-0.729,-6.793]]]]},"properties":{"abbr":"AOVP","name":"anterior olfactory nucleus, ventroposterior part","plate":14,"ap_bregma_mm":3.25,"area_mm2":0.2938,"traced_fraction":[1.0,0.811],"n_labels":2,"no_drawn_outline":false}},{"type":"Feature","geometry":{"type":"MultiPolygon","coordinates":[[[[1.024,-6.765],[1.122,-6.814],[1.185,-6.87],[1.213,-6.92],[1.241,-6.92],[1.255,-6.934],[1.269,-7.004],[1.129,-7.131],[1.024,-7.131],[0.926,-7.088],[0.897,-7.06],[0.82,-7.025],[0.771,-6.962],[0.905,-6.948],[0.982,-6.913],[1.01,-6.87],[1.01,-6.779],[1.024,-6.765]]],[[[-1.262,-6.807],[-1.262,-6.842],[-1.269,-6.87],[-1.255,-6.913],[-1.206,-6.955],[-1.178,-6.955],[-1.129,-6.983],[-1.129,-7.004],[-1.178,-7.081],[-1.234,-7.095],[-1.276,-7.123],[-1.325,-7.131],[-1.458,-7.095],[-1.493,-7.067],[-1.493,-6.962],[-1.332,-6.814],[-1.262,-6.807]]]]},"properties":{"abbr":"AOP","name":"anterior olfactory nucleus, posterior part","plate":14,"ap_bregma_mm":3.25,"area_mm2":0.1676,"traced_fraction":[0.984,1.0],"n_labels":2,"no_drawn_outline":false}},{"type":"Feature","geometry":{"type":"MultiPolygon","coordinates":[[[[-1.809,-5.843],[-1.774,-5.914],[-1.676,-6.005],[-1.669,-6.04],[-2.026,-6.033],[-2.082,-6.054],[-2.117,-6.09],[-2.124,-6.16],[-2.068,-6.272],[-1.886,-6.413],[-1.809,-6.498],[-1.746,-6.638],[-1.732,-6.645],[-1.591,-7.011],[-1.563,-7.046],[-1.493,-7.067],[-1.458,-7.095],[-1.325,-7.131],[-1.276,-7.123],[-1.234,-7.095],[-1.178,-7.081],[-1.178,-7.138],[-1.143,-7.222],[-1.066,-7.292],[-0.996,-7.306],[-0.827,-7.299],[-0.701,-7.236],[-0.575,-7.117],[-0.547,-7.046],[-0.519,-7.018],[-0.498,-6.941],[-0.287,-6.948],[-0.358,-7.208],[-0.428,-7.342],[-0.512,-7.419],[-0.638,-7.454],[-0.841,-7.524],[-1.066,-7.517],[-1.234,-7.461],[-1.585,-7.278],[-1.591,-7.278],[-1.591,-7.271],[-1.591,-7.264],[-1.591,-7.187],[-1.613,-7.123],[-1.676,-6.948],[-1.76,-6.779],[-1.809,-6.716],[-1.998,-6.582],[-2.174,-6.392],[-2.244,-6.272],[-2.293,-6.251],[-2.349,-6.076],[-2.356,-5.977],[-2.342,-5.977],[-2.314,-5.942],[-2.279,-5.928],[-2.209,-5.928],[-1.949,-5.858],[-1.809,-5.843]]],[[[1.753,-5.872],[1.9,-5.886],[2.103,-5.928],[2.202,-5.914],[2.166,-5.977],[2.174,-6.019],[2.132,-6.076],[2.054,-6.272],[1.949,-6.427],[1.893,-6.498],[1.753,-6.631],[1.739,-6.631],[1.655,-6.737],[1.641,-6.737],[1.627,-6.772],[1.543,-6.87],[1.536,-6.898],[1.522,-6.898],[1.5,-6.948],[1.479,-6.962],[1.346,-7.173],[1.304,-7.264],[1.304,-7.285],[1.318,-7.292],[1.227,-7.363],[1.178,-7.377],[1.157,-7.398],[0.905,-7.475],[0.659,-7.489],[0.575,-7.475],[0.463,-7.426],[0.47,-7.215],[0.61,-7.271],[0.757,-7.278],[0.841,-7.229],[0.926,-7.088],[1.024,-7.131],[1.129,-7.131],[1.269,-7.004],[1.458,-6.807],[1.634,-6.582],[1.739,-6.476],[1.802,-6.441],[1.851,-6.392],[1.949,-6.322],[1.991,-6.266],[2.026,-6.181],[2.019,-6.097],[1.991,-6.069],[1.907,-6.04],[1.606,-6.026],[1.557,-6.005],[1.578,-5.97],[1.697,-5.914],[1.718,-5.886],[1.753,-5.872]]]]},"properties":{"abbr":"VTT","name":"ventral tenia tecta","plate":14,"ap_bregma_mm":3.25,"area_mm2":1.0734,"traced_fraction":[0.98,0.975],"n_labels":2,"no_drawn_outline":false}},{"type":"Feature","geometry":{"type":"Polygon","coordinates":[[[2.174,-6.019],[2.209,-6.125],[2.195,-6.272],[1.97,-6.631],[1.865,-6.744],[1.851,-6.744],[1.585,-6.983],[1.465,-7.173],[1.367,-7.271],[1.318,-7.292],[1.304,-7.285],[1.304,-7.264],[1.346,-7.173],[1.479,-6.962],[1.5,-6.948],[1.522,-6.898],[1.536,-6.898],[1.543,-6.87],[1.627,-6.772],[1.641,-6.737],[1.655,-6.737],[1.718,-6.652],[1.753,-6.631],[1.851,-6.526],[1.865,-6.526],[1.949,-6.427],[2.054,-6.272],[2.132,-6.076],[2.174,-6.019]]]},"properties":{"abbr":null,"name":"unnamed sealed face","plate":14,"ap_bregma_mm":3.25,"index":0}},{"type":"Feature","geometry":{"type":"Polygon","coordinates":[[[-1.669,-6.04],[-1.627,-6.04],[-1.585,-6.062],[-1.591,-6.09],[-1.641,-6.118],[-1.935,-6.125],[-1.97,-6.139],[-1.984,-6.16],[-1.984,-6.167],[-1.977,-6.209],[-1.949,-6.251],[-1.788,-6.357],[-1.718,-6.434],[-1.648,-6.582],[-1.57,-6.814],[-1.493,-6.962],[-1.493,-7.067],[-1.563,-7.046],[-1.591,-7.011],[-1.732,-6.645],[-1.746,-6.638],[-1.809,-6.498],[-1.886,-6.413],[-2.068,-6.272],[-2.124,-6.16],[-2.117,-6.09],[-2.082,-6.054],[-2.026,-6.033],[-1.669,-6.04]]]},"properties":{"abbr":null,"name":"unnamed sealed face","plate":14,"ap_bregma_mm":3.25,"index":1}},{"type":"Feature","geometry":{"type":"Polygon","coordinates":[[[0.926,-6.251],[0.926,-6.329],[0.961,-6.343],[0.961,-6.413],[0.939,-6.476],[0.918,-6.526],[0.884,-6.547],[0.897,-6.61],[0.771,-6.547],[0.687,-6.547],[0.589,-6.589],[0.533,-6.652],[0.526,-6.744],[0.589,-6.856],[0.659,-6.906],[0.659,-6.92],[0.771,-6.962],[0.82,-7.025],[0.764,-7.067],[0.708,-7.088],[0.617,-7.088],[0.54,-7.067],[0.512,-7.046],[0.449,-7.109],[0.435,-7.109],[0.414,-7.145],[0.4,-7.145],[0.386,-7.145],[0.351,-7.095],[0.288,-6.92],[0.259,-6.73],[0.267,-6.561],[0.295,-6.54],[0.344,-6.533],[0.365,-6.568],[0.379,-6.568],[0.393,-6.554],[0.491,-6.554],[0.568,-6.526],[0.645,-6.469],[0.687,-6.413],[0.75,-6.371],[0.799,-6.315],[0.862,-6.272],[0.926,-6.251]]]},"properties":{"abbr":null,"name":"unnamed sealed face","plate":14,"ap_bregma_mm":3.25,"index":2}},{"type":"Feature","geometry":{"type":"MultiPolygon","coordinates":[[[[0.701,-7.482],[0.61,-7.475],[0.498,-7.44],[0.203,-7.313],[0.154,-7.257],[0.119,-7.18],[0.07,-6.891],[0.07,-6.258],[0.119,-5.611],[0.147,-4.683],[0.098,-3.649],[0.105,-2.911],[0.133,-2.735],[0.217,-2.517],[0.267,-2.446],[0.435,-2.292],[0.596,-2.2],[0.743,-2.144],[0.961,-2.095],[1.234,-2.067],[1.655,-2.074],[2.195,-2.137],[2.531,-2.228],[2.685,-2.285],[2.994,-2.432],[3.134,-2.517],[3.281,-2.629],[3.457,-2.791],[3.583,-2.974],[3.688,-3.192],[3.744,-3.347],[3.779,-3.53],[3.779,-3.748],[3.758,-3.867],[3.695,-4.036],[3.569,-4.261],[3.337,-4.599],[2.566,-5.506],[2.461,-5.661],[2.356,-5.865],[2.293,-5.9],[2.202,-5.907],[2.16,-5.977],[2.202,-6.132],[2.188,-6.258],[2.16,-6.322],[1.956,-6.631],[1.886,-6.709],[1.585,-6.976],[1.451,-7.173],[1.36,-7.264],[1.29,-7.299],[1.22,-7.356],[1.073,-7.419],[0.884,-7.468],[0.708,-7.482],[0.701,-7.482]]],[[[-0.862,-7.517],[-1.059,-7.51],[-1.248,-7.447],[-1.648,-7.243],[-1.739,-7.173],[-1.795,-7.109],[-1.907,-6.955],[-2.033,-6.702],[-2.174,-6.554],[-2.237,-6.462],[-2.286,-6.329],[-2.293,-6.251],[-2.349,-6.062],[-2.363,-5.914],[-2.391,-5.886],[-2.482,-5.682],[-2.769,-5.274],[-2.987,-5.014],[-3.302,-4.669],[-3.464,-4.465],[-3.611,-4.24],[-3.702,-4.029],[-3.744,-3.818],[-3.744,-3.656],[-3.723,-3.53],[-3.611,-3.199],[-3.45,-2.904],[-3.316,-2.749],[-3.078,-2.566],[-2.91,-2.475],[-2.727,-2.397],[-2.391,-2.299],[-2.033,-2.235],[-1.521,-2.193],[-1.094,-2.2],[-0.638,-2.235],[-0.547,-2.257],[-0.435,-2.306],[-0.322,-2.383],[-0.203,-2.538],[-0.14,-2.686],[-0.105,-2.868],[-0.105,-3.157],[-0.126,-3.333],[-0.168,-4.106],[-0.196,-5.021],[-0.189,-6.23],[-0.238,-6.751],[-0.364,-7.194],[-0.435,-7.335],[-0.498,-7.398],[-0.54,-7.419],[-0.834,-7.51],[-0.862,-7.517]]]]},"properties":{"abbr":"brain_outline","name":"outline of the section","plate":14,"ap_bregma_mm":3.25}}]}
