{"type":"FeatureCollection","name":"GerbilAtlas plate 15","note":"Region extents cut from the atlas drawing (METHODS.md, Region extents). Coordinates are [ML, DV] in mm, ML positive to the right of the plate as printed, DV negative below the dorsal surface; AP is the plate bregma. traced_fraction is the share of each polygon boundary the atlas actually draws; below 0.5 the boundary is an estimate. no_drawn_outline marks a feature that lies only inside boundaries the atlas draws round more than one name and prints nothing within, so the whole of its outline is where the extraction cut it. Not a segmentation.","plate":15,"ap_bregma_mm":2.9,"features":[{"type":"Feature","geometry":{"type":"MultiPolygon","coordinates":[[[[1.437,-1.891],[1.542,-3.312],[1.556,-3.685],[1.542,-4.043],[1.507,-4.05],[1.374,-3.706],[1.065,-3.115],[0.806,-2.693],[0.785,-2.679],[0.764,-2.63],[0.462,-2.179],[0.42,-2.137],[0.42,-2.116],[0.469,-2.067],[0.554,-2.025],[0.785,-1.947],[1.086,-1.905],[1.437,-1.891]]],[[[-0.288,-2.179],[-0.316,-2.201],[-0.344,-2.257],[-0.561,-2.545],[-1.045,-3.277],[-1.332,-3.797],[-1.332,-3.818],[-1.417,-3.98],[-1.431,-4.057],[-1.508,-4.064],[-1.508,-3.755],[-1.424,-2.995],[-1.326,-2.426],[-1.248,-2.081],[-1.234,-1.954],[-0.856,-1.954],[-0.688,-1.983],[-0.498,-2.039],[-0.365,-2.109],[-0.288,-2.179]]]]},"properties":{"abbr":"M2","name":"secondary motor cortex","plate":15,"ap_bregma_mm":2.9,"area_mm2":2.2658,"traced_fraction":[1.0,1.0],"n_labels":2,"no_drawn_outline":false}},{"type":"Feature","geometry":{"type":"MultiPolygon","coordinates":[[[[1.437,-1.891],[1.963,-1.905],[2.229,-1.94],[2.51,-1.997],[2.818,-2.095],[2.916,-2.144],[2.944,-2.172],[3.071,-2.229],[3.106,-2.264],[3.05,-2.348],[2.685,-2.77],[2.615,-2.876],[2.552,-2.939],[2.531,-2.981],[2.391,-3.143],[2.369,-3.185],[2.103,-3.509],[2.026,-3.621],[1.991,-3.649],[1.942,-3.727],[1.907,-3.755],[1.858,-3.832],[1.64,-4.078],[1.542,-4.043],[1.556,-3.853],[1.542,-3.312],[1.437,-1.891]]],[[[-1.234,-1.954],[-1.248,-2.081],[-1.326,-2.426],[-1.424,-2.995],[-1.508,-3.755],[-1.508,-4.064],[-1.585,-4.1],[-1.655,-4.17],[-1.669,-4.17],[-1.774,-4.043],[-1.851,-3.896],[-1.978,-3.713],[-2.069,-3.537],[-2.286,-3.185],[-2.335,-3.08],[-2.658,-2.552],[-2.742,-2.383],[-2.756,-2.376],[-2.791,-2.285],[-2.707,-2.243],[-2.342,-2.137],[-1.879,-2.032],[-1.508,-1.975],[-1.234,-1.954]]]]},"properties":{"abbr":"M1","name":"primary motor cortex","plate":15,"ap_bregma_mm":2.9,"area_mm2":3.8463,"traced_fraction":[1.0,1.0],"n_labels":2,"no_drawn_outline":false}},{"type":"Feature","geometry":{"type":"MultiPolygon","coordinates":[[[[3.106,-2.264],[3.281,-2.39],[3.414,-2.538],[3.393,-2.538],[3.274,-2.665],[3.26,-2.665],[3.197,-2.735],[3.183,-2.735],[3.057,-2.862],[2.98,-2.918],[2.383,-3.481],[2.369,-3.481],[1.97,-3.86],[1.879,-3.931],[1.766,-4.05],[1.675,-4.121],[1.64,-4.093],[1.64,-4.078],[1.858,-3.832],[1.907,-3.755],[1.942,-3.727],[1.991,-3.649],[2.026,-3.621],[2.103,-3.509],[2.369,-3.185],[2.391,-3.143],[2.531,-2.981],[2.552,-2.939],[2.615,-2.876],[2.685,-2.77],[2.874,-2.552],[2.874,-2.538],[3.014,-2.39],[3.106,-2.264]]],[[[-2.791,-2.285],[-2.791,-2.306],[-2.686,-2.503],[-2.335,-3.08],[-2.286,-3.185],[-2.069,-3.537],[-1.978,-3.713],[-1.851,-3.896],[-1.774,-4.043],[-1.669,-4.17],[-1.718,-4.24],[-1.887,-4.085],[-1.95,-4.001],[-2.167,-3.79],[-2.167,-3.776],[-2.258,-3.692],[-2.335,-3.593],[-2.553,-3.375],[-2.553,-3.361],[-2.686,-3.227],[-2.742,-3.15],[-3.015,-2.862],[-3.064,-2.791],[-3.233,-2.623],[-3.233,-2.608],[-3.282,-2.566],[-3.282,-2.545],[-3.261,-2.517],[-3.135,-2.433],[-2.791,-2.285]]]]},"properties":{"abbr":"Fr3","name":"frontal cortex, area 3","plate":15,"ap_bregma_mm":2.9,"area_mm2":1.2455,"traced_fraction":[1.0,1.0],"n_labels":2,"no_drawn_outline":false}},{"type":"Feature","geometry":{"type":"MultiPolygon","coordinates":[[[[0.42,-2.116],[0.42,-2.137],[0.462,-2.179],[0.764,-2.63],[0.785,-2.679],[0.806,-2.693],[1.065,-3.115],[1.374,-3.706],[1.507,-4.05],[1.458,-4.064],[1.353,-4.128],[1.185,-3.973],[0.883,-3.776],[0.546,-3.621],[0.238,-3.516],[0.161,-3.502],[0.14,-2.981],[0.14,-2.7],[0.161,-2.517],[0.217,-2.348],[0.266,-2.264],[0.322,-2.194],[0.42,-2.116]]],[[[-0.288,-2.179],[-0.197,-2.257],[-0.148,-2.327],[-0.078,-2.468],[-0.035,-2.63],[-0.014,-2.77],[-0.014,-3.284],[-0.029,-3.488],[-0.162,-3.523],[-0.33,-3.607],[-0.505,-3.67],[-0.87,-3.853],[-1.066,-3.966],[-1.283,-4.128],[-1.368,-4.071],[-1.431,-4.057],[-1.417,-3.98],[-1.332,-3.818],[-1.332,-3.797],[-1.045,-3.277],[-0.561,-2.545],[-0.519,-2.503],[-0.316,-2.201],[-0.288,-2.179]]]]},"properties":{"abbr":"Cg1","name":"cingulate cortex, area 1","plate":15,"ap_bregma_mm":2.9,"area_mm2":2.5432,"traced_fraction":[1.0,1.0],"n_labels":2,"no_drawn_outline":false}},{"type":"Feature","geometry":{"type":"MultiPolygon","coordinates":[[[[3.414,-2.538],[3.568,-2.707],[3.709,-2.904],[3.863,-3.22],[3.919,-3.502],[3.912,-3.713],[3.891,-3.889],[3.877,-3.917],[3.596,-3.917],[2.993,-3.987],[2.306,-4.1],[1.717,-4.219],[1.675,-4.121],[1.766,-4.05],[1.879,-3.931],[1.893,-3.931],[2.229,-3.607],[2.243,-3.607],[2.299,-3.544],[2.383,-3.481],[2.98,-2.918],[2.993,-2.918],[3.26,-2.665],[3.274,-2.665],[3.393,-2.538],[3.414,-2.538]]],[[[-3.282,-2.545],[-3.282,-2.566],[-3.233,-2.608],[-3.233,-2.623],[-3.064,-2.791],[-3.015,-2.862],[-2.742,-3.15],[-2.742,-3.164],[-2.616,-3.291],[-2.553,-3.375],[-2.335,-3.593],[-2.335,-3.607],[-2.167,-3.776],[-2.167,-3.79],[-1.95,-4.001],[-1.887,-4.085],[-1.718,-4.24],[-1.739,-4.31],[-2.356,-4.149],[-2.476,-4.107],[-3.008,-3.98],[-3.52,-3.896],[-3.758,-3.867],[-3.878,-3.867],[-3.892,-3.804],[-3.892,-3.516],[-3.871,-3.375],[-3.794,-3.115],[-3.724,-2.981],[-3.576,-2.784],[-3.52,-2.742],[-3.422,-2.63],[-3.282,-2.545]]]]},"properties":{"abbr":"S1FL","name":"primary somatosensory cortex, forelimb region","plate":15,"ap_bregma_mm":2.9,"area_mm2":3.5211,"traced_fraction":[1.0,1.0],"n_labels":2,"no_drawn_outline":false}},{"type":"Feature","geometry":{"type":"MultiPolygon","coordinates":[[[[-0.029,-3.488],[-0.021,-3.924],[-0.063,-4.634],[-0.05,-4.852],[-0.561,-4.915],[-0.891,-4.937],[-0.989,-4.958],[-1.087,-4.606],[-1.129,-4.514],[-1.171,-4.367],[-1.283,-4.128],[-1.066,-3.966],[-0.87,-3.853],[-0.505,-3.67],[-0.33,-3.607],[-0.162,-3.523],[-0.029,-3.488]]],[[[0.161,-3.502],[0.238,-3.516],[0.546,-3.621],[0.883,-3.776],[1.185,-3.973],[1.353,-4.128],[1.269,-4.233],[1.198,-4.388],[1.023,-4.979],[0.995,-4.965],[0.638,-4.915],[0.07,-4.866],[0.105,-4.676],[0.14,-4.268],[0.161,-3.502]]]]},"properties":{"abbr":"PrL","name":"prelimbic cortex","plate":15,"ap_bregma_mm":2.9,"area_mm2":2.5838,"traced_fraction":[1.0,1.0],"n_labels":2,"no_drawn_outline":false}},{"type":"Feature","geometry":{"type":"MultiPolygon","coordinates":[[[[1.542,-4.043],[1.64,-4.078],[1.64,-4.093],[1.675,-4.121],[1.717,-4.219],[1.731,-4.318],[1.724,-4.367],[1.689,-4.451],[1.633,-4.536],[1.633,-4.571],[1.591,-4.592],[1.542,-4.648],[1.416,-4.74],[1.276,-4.88],[1.128,-5.084],[1.079,-5.169],[1.079,-5.19],[1.044,-5.225],[1.002,-5.309],[0.953,-5.359],[0.953,-5.26],[1.023,-4.979],[1.198,-4.388],[1.269,-4.233],[1.353,-4.128],[1.402,-4.093],[1.507,-4.05],[1.542,-4.043]]],[[[-1.431,-4.057],[-1.368,-4.071],[-1.283,-4.128],[-1.171,-4.367],[-1.129,-4.514],[-1.087,-4.606],[-0.989,-4.958],[-0.912,-5.302],[-0.905,-5.415],[-0.933,-5.401],[-0.982,-5.309],[-1.031,-5.26],[-1.045,-5.211],[-1.129,-5.091],[-1.228,-4.993],[-1.543,-4.761],[-1.641,-4.662],[-1.711,-4.557],[-1.746,-4.43],[-1.739,-4.31],[-1.718,-4.24],[-1.669,-4.17],[-1.655,-4.17],[-1.585,-4.1],[-1.508,-4.064],[-1.431,-4.057]]]]},"properties":{"abbr":"fmi","name":"forceps minor of the corpus callosum","plate":15,"ap_bregma_mm":2.9,"area_mm2":0.886,"traced_fraction":[1.0,1.0],"n_labels":2,"no_drawn_outline":false}},{"type":"Feature","geometry":{"type":"MultiPolygon","coordinates":[[[[-3.878,-3.867],[-3.758,-3.867],[-3.52,-3.896],[-3.008,-3.98],[-2.476,-4.107],[-2.356,-4.149],[-1.739,-4.31],[-1.746,-4.43],[-1.711,-4.557],[-1.879,-4.55],[-1.978,-4.585],[-2.097,-4.599],[-2.195,-4.634],[-2.518,-4.697],[-2.679,-4.747],[-2.931,-4.789],[-3.114,-4.845],[-3.275,-4.873],[-3.331,-4.908],[-3.401,-4.831],[-3.499,-4.669],[-3.52,-4.662],[-3.703,-4.374],[-3.857,-4.043],[-3.878,-3.867]]],[[[3.877,-3.917],[3.821,-4.05],[3.54,-4.458],[3.519,-4.486],[3.505,-4.5],[3.498,-4.514],[3.491,-4.508],[3.491,-4.522],[3.477,-4.543],[3.47,-4.536],[3.47,-4.55],[3.463,-4.564],[3.456,-4.557],[3.456,-4.571],[3.442,-4.592],[3.337,-4.74],[3.218,-4.866],[3.211,-4.859],[3.19,-4.838],[3.12,-4.817],[2.622,-4.718],[2.138,-4.599],[1.942,-4.571],[1.823,-4.536],[1.731,-4.543],[1.633,-4.571],[1.633,-4.536],[1.689,-4.451],[1.724,-4.367],[1.731,-4.318],[1.717,-4.219],[2.306,-4.1],[2.993,-3.987],[3.596,-3.917],[3.877,-3.917]]]]},"properties":{"abbr":"S1J","name":"primary somatosensory cortex, jaw region","plate":15,"ap_bregma_mm":2.9,"area_mm2":2.5405,"traced_fraction":[1.0,1.0],"n_labels":2,"no_drawn_outline":false}},{"type":"Feature","geometry":{"type":"MultiPolygon","coordinates":[[[[1.942,-4.571],[2.138,-4.599],[2.622,-4.718],[3.12,-4.817],[3.19,-4.838],[3.211,-4.859],[3.218,-4.866],[3.211,-4.88],[3.106,-5.014],[3.05,-5.063],[3.035,-5.077],[3.029,-5.07],[2.412,-4.824],[2.194,-4.754],[2.026,-4.676],[1.956,-4.669],[1.942,-4.571]]],[[[-1.978,-4.585],[-1.999,-4.683],[-2.062,-4.69],[-2.202,-4.754],[-2.349,-4.796],[-2.525,-4.88],[-2.819,-4.986],[-3.015,-5.084],[-3.148,-5.133],[-3.156,-5.14],[-3.331,-4.908],[-3.275,-4.873],[-3.114,-4.845],[-2.931,-4.789],[-2.679,-4.747],[-2.518,-4.697],[-2.195,-4.634],[-2.097,-4.599],[-1.978,-4.585]]]]},"properties":{"abbr":"GI","name":"granular insular cortex","plate":15,"ap_bregma_mm":2.9,"area_mm2":0.4595,"traced_fraction":[1.0,1.0],"n_labels":2,"no_drawn_outline":false}},{"type":"Feature","geometry":{"type":"MultiPolygon","coordinates":[[[[1.942,-4.571],[1.956,-4.669],[1.942,-4.747],[1.893,-4.81],[1.781,-4.922],[1.647,-5.014],[1.507,-5.07],[1.304,-5.112],[1.241,-5.148],[1.143,-5.183],[1.079,-5.19],[1.079,-5.169],[1.128,-5.084],[1.276,-4.88],[1.416,-4.74],[1.542,-4.648],[1.591,-4.592],[1.633,-4.571],[1.774,-4.536],[1.872,-4.543],[1.942,-4.571]]],[[[-1.711,-4.557],[-1.641,-4.662],[-1.543,-4.761],[-1.228,-4.993],[-1.129,-5.091],[-1.045,-5.211],[-1.031,-5.26],[-1.29,-5.239],[-1.529,-5.19],[-1.683,-5.119],[-1.788,-5.049],[-1.887,-4.965],[-1.964,-4.845],[-1.999,-4.683],[-1.978,-4.585],[-1.879,-4.55],[-1.711,-4.557]]]]},"properties":{"abbr":"Cl","name":"claustrum","plate":15,"ap_bregma_mm":2.9,"area_mm2":0.602,"traced_fraction":[1.0,1.0],"n_labels":2,"no_drawn_outline":false}},{"type":"Feature","geometry":{"type":"MultiPolygon","coordinates":[[[[1.956,-4.669],[2.026,-4.676],[2.194,-4.754],[2.412,-4.824],[3.029,-5.07],[3.035,-5.077],[2.762,-5.401],[2.419,-5.162],[2.391,-5.155],[2.159,-5.0],[2.124,-4.965],[1.998,-4.894],[1.893,-4.81],[1.942,-4.747],[1.956,-4.669]]],[[[-1.999,-4.683],[-1.964,-4.845],[-2.581,-5.218],[-2.7,-5.274],[-2.847,-5.373],[-2.945,-5.415],[-3.156,-5.14],[-3.148,-5.133],[-3.015,-5.084],[-2.819,-4.986],[-2.525,-4.88],[-2.349,-4.796],[-2.202,-4.754],[-2.062,-4.69],[-1.999,-4.683]]]]},"properties":{"abbr":"DI","name":"dysgranular insular cortex","plate":15,"ap_bregma_mm":2.9,"area_mm2":0.6424,"traced_fraction":[1.0,1.0],"n_labels":2,"no_drawn_outline":false}},{"type":"Feature","geometry":{"type":"MultiPolygon","coordinates":[[[[-0.05,-4.852],[-0.029,-4.951],[-0.035,-4.979],[-0.007,-5.07],[0.028,-5.056],[0.049,-4.979],[0.07,-4.866],[0.518,-4.901],[0.995,-4.965],[1.023,-4.979],[0.953,-5.26],[0.953,-5.359],[0.904,-5.513],[0.904,-5.647],[0.981,-5.851],[0.834,-5.893],[0.56,-6.02],[0.448,-6.048],[0.231,-6.132],[0.084,-6.167],[-0.014,-6.167],[-0.05,-6.139],[-0.281,-6.09],[-0.919,-5.858],[-0.926,-5.823],[-0.891,-5.766],[-0.87,-5.696],[-0.87,-5.541],[-0.905,-5.415],[-0.912,-5.302],[-0.989,-4.958],[-0.891,-4.937],[-0.561,-4.915],[-0.05,-4.852]]]]},"properties":{"abbr":"IL","name":"infralimbic cortex","plate":15,"ap_bregma_mm":2.9,"area_mm2":2.0845,"traced_fraction":[1.0],"n_labels":2,"no_drawn_outline":false}},{"type":"Feature","geometry":{"type":"MultiPolygon","coordinates":[[[[1.893,-4.81],[1.998,-4.894],[2.124,-4.965],[2.159,-5.0],[2.391,-5.155],[2.419,-5.162],[2.762,-5.401],[2.545,-5.689],[2.51,-5.759],[2.503,-5.759],[2.033,-5.344],[1.717,-5.091],[1.647,-5.014],[1.781,-4.922],[1.893,-4.81]]],[[[-1.964,-4.845],[-1.887,-4.965],[-1.788,-5.049],[-2.468,-5.724],[-2.637,-5.858],[-2.945,-5.415],[-2.847,-5.373],[-2.7,-5.274],[-2.581,-5.218],[-1.964,-4.845]]]]},"properties":{"abbr":"AI","name":"agranular insular cortex","plate":15,"ap_bregma_mm":2.9,"area_mm2":0.8704,"traced_fraction":[1.0,1.0],"n_labels":2,"no_drawn_outline":false}},{"type":"Feature","geometry":{"type":"MultiPolygon","coordinates":[[[[1.647,-5.014],[1.717,-5.091],[2.033,-5.344],[2.503,-5.759],[2.503,-5.766],[2.425,-5.907],[2.404,-5.914],[2.397,-5.935],[2.341,-5.956],[2.278,-5.956],[2.089,-5.9],[1.97,-5.886],[1.963,-5.858],[1.738,-5.64],[1.724,-5.64],[1.549,-5.457],[1.535,-5.457],[1.395,-5.302],[1.325,-5.253],[1.255,-5.183],[1.241,-5.148],[1.304,-5.112],[1.458,-5.084],[1.647,-5.014]]],[[[-1.788,-5.049],[-1.683,-5.119],[-1.529,-5.19],[-1.753,-5.555],[-1.957,-5.844],[-2.013,-5.963],[-2.209,-5.991],[-2.3,-6.02],[-2.377,-6.069],[-2.419,-6.076],[-2.468,-6.083],[-2.553,-6.02],[-2.637,-5.858],[-2.468,-5.724],[-1.788,-5.049]]],[[[2.503,-5.759],[2.51,-5.759],[2.503,-5.766],[2.503,-5.759]]]]},"properties":{"abbr":"LO","name":"lateral orbital cortex","plate":15,"ap_bregma_mm":2.9,"area_mm2":0.9747,"traced_fraction":[1.0,1.0,1.0],"n_labels":2,"no_drawn_outline":false}},{"type":"Feature","geometry":{"type":"MultiPolygon","coordinates":[[[[1.241,-5.148],[1.255,-5.183],[1.325,-5.253],[1.395,-5.302],[1.535,-5.457],[1.549,-5.457],[1.724,-5.64],[1.738,-5.64],[1.963,-5.858],[1.97,-5.886],[1.865,-5.9],[1.731,-5.956],[1.703,-5.984],[1.661,-5.991],[1.367,-6.013],[1.192,-5.977],[1.051,-5.984],[1.044,-5.977],[0.981,-5.851],[0.904,-5.647],[0.904,-5.513],[0.953,-5.359],[0.981,-5.337],[1.044,-5.225],[1.079,-5.19],[1.143,-5.183],[1.241,-5.148]]],[[[-1.529,-5.19],[-1.29,-5.239],[-1.031,-5.26],[-0.982,-5.309],[-0.933,-5.401],[-0.905,-5.415],[-0.87,-5.541],[-0.87,-5.696],[-0.891,-5.766],[-0.926,-5.823],[-0.919,-5.858],[-0.968,-5.893],[-1.024,-5.991],[-1.255,-5.977],[-1.389,-6.006],[-1.466,-5.984],[-1.69,-5.991],[-2.013,-5.963],[-1.957,-5.844],[-1.753,-5.555],[-1.529,-5.19]]]]},"properties":{"abbr":"VO","name":"ventral orbital cortex","plate":15,"ap_bregma_mm":2.9,"area_mm2":1.2104,"traced_fraction":[1.0,1.0],"n_labels":2,"no_drawn_outline":false}},{"type":"Feature","geometry":{"type":"MultiPolygon","coordinates":[[[[-1.024,-5.991],[-0.975,-6.02],[-0.954,-6.118],[-0.968,-6.21],[-0.968,-6.217],[-1.045,-6.301],[-1.298,-6.343],[-1.354,-6.364],[-1.403,-6.406],[-1.522,-6.322],[-1.578,-6.195],[-1.55,-6.125],[-1.508,-6.083],[-1.389,-6.006],[-1.255,-5.977],[-1.024,-5.991]]],[[[1.367,-6.013],[1.367,-6.034],[1.437,-6.09],[1.472,-6.146],[1.346,-6.315],[1.332,-6.357],[1.304,-6.35],[1.241,-6.294],[1.093,-6.266],[1.044,-6.146],[1.051,-5.984],[1.192,-5.977],[1.367,-6.013]]]]},"properties":{"abbr":"DEn","name":"dorsal endopiriform nucleus","plate":15,"ap_bregma_mm":2.9,"area_mm2":0.2991,"traced_fraction":[1.0,1.0],"n_labels":2,"no_drawn_outline":false}},{"type":"Feature","geometry":{"type":"MultiPolygon","coordinates":[[[[0.981,-5.851],[1.044,-5.977],[0.918,-5.999],[0.841,-6.027],[0.82,-6.048],[0.785,-6.055],[0.68,-6.125],[0.575,-6.231],[0.469,-6.371],[0.28,-6.512],[0.238,-6.568],[0.203,-6.582],[0.14,-6.589],[0.133,-6.603],[0.035,-6.646],[-0.056,-6.653],[-0.155,-6.624],[-0.288,-6.554],[-0.484,-6.414],[-0.582,-6.315],[-0.681,-6.174],[-0.744,-6.111],[-0.884,-6.034],[-0.975,-6.02],[-1.024,-5.991],[-0.968,-5.893],[-0.919,-5.858],[-0.281,-6.09],[-0.05,-6.139],[-0.014,-6.167],[0.084,-6.167],[0.231,-6.132],[0.448,-6.048],[0.56,-6.02],[0.834,-5.893],[0.981,-5.851]]]]},"properties":{"abbr":"DP","name":"dorsal peduncular cortex","plate":15,"ap_bregma_mm":2.9,"area_mm2":0.6363,"traced_fraction":[1.0],"n_labels":2,"no_drawn_outline":false}},{"type":"Feature","geometry":{"type":"MultiPolygon","coordinates":[[[[1.044,-5.977],[1.051,-5.984],[1.044,-6.146],[1.093,-6.266],[0.981,-6.273],[0.967,-6.224],[0.932,-6.203],[0.862,-6.224],[0.827,-6.21],[0.82,-6.048],[0.827,-6.034],[0.918,-5.999],[1.044,-5.977]]],[[[-0.975,-6.02],[-0.884,-6.034],[-0.744,-6.111],[-0.681,-6.174],[-0.582,-6.315],[-0.484,-6.414],[-0.288,-6.554],[-0.302,-6.589],[-0.365,-6.575],[-0.421,-6.624],[-0.442,-6.751],[-0.442,-6.807],[-0.428,-6.828],[-0.456,-6.85],[-0.484,-6.962],[-0.512,-7.011],[-0.561,-7.054],[-0.631,-7.082],[-0.772,-7.089],[-0.772,-6.92],[-0.702,-6.892],[-0.631,-6.807],[-0.624,-6.709],[-0.645,-6.66],[-0.709,-6.589],[-0.786,-6.554],[-0.891,-6.547],[-0.926,-6.561],[-0.989,-6.561],[-0.961,-6.484],[-0.919,-6.42],[-0.905,-6.357],[-0.905,-6.266],[-0.919,-6.259],[-0.919,-6.238],[-0.961,-6.21],[-0.968,-6.21],[-0.954,-6.118],[-0.975,-6.02]]]]},"properties":{"abbr":"Dtr","name":"dorsal transition zone","plate":15,"ap_bregma_mm":2.9,"area_mm2":0.371,"traced_fraction":[0.862,0.965],"n_labels":2,"no_drawn_outline":false}},{"type":"Feature","geometry":{"type":"MultiPolygon","coordinates":[[[[-2.013,-5.963],[-1.69,-5.991],[-1.704,-6.069],[-1.676,-6.083],[-1.669,-6.139],[-1.739,-6.167],[-1.915,-6.195],[-1.999,-6.224],[-1.999,-6.329],[-1.823,-6.406],[-1.711,-6.512],[-1.585,-6.751],[-1.515,-6.85],[-1.48,-6.941],[-1.494,-6.99],[-1.529,-7.018],[-1.592,-6.941],[-1.627,-6.864],[-1.774,-6.632],[-1.866,-6.533],[-2.069,-6.414],[-2.132,-6.364],[-2.16,-6.322],[-2.174,-6.322],[-2.244,-6.392],[-2.244,-6.406],[-2.286,-6.392],[-2.328,-6.357],[-2.384,-6.357],[-2.44,-6.259],[-2.447,-6.195],[-2.433,-6.132],[-2.419,-6.076],[-2.377,-6.069],[-2.3,-6.02],[-2.209,-5.991],[-2.013,-5.963]]],[[[1.703,-5.984],[1.781,-6.013],[1.991,-6.048],[2.054,-6.076],[2.089,-6.111],[2.096,-6.167],[2.068,-6.231],[2.019,-6.287],[1.991,-6.294],[1.9,-6.364],[1.886,-6.364],[1.865,-6.322],[1.816,-6.301],[1.872,-6.224],[1.879,-6.153],[1.844,-6.125],[1.745,-6.111],[1.668,-6.083],[1.647,-6.055],[1.661,-5.991],[1.703,-5.984]]]]},"properties":{"abbr":"Pir","name":"piriform cortex","plate":15,"ap_bregma_mm":2.9,"area_mm2":0.3915,"traced_fraction":[0.973,0.965],"n_labels":2,"no_drawn_outline":false}},{"type":"Feature","geometry":{"type":"MultiPolygon","coordinates":[[[[0.82,-6.048],[0.827,-6.21],[0.862,-6.224],[0.834,-6.28],[0.834,-6.357],[0.862,-6.428],[0.897,-6.463],[0.897,-6.491],[0.876,-6.498],[0.876,-6.519],[0.848,-6.519],[0.785,-6.484],[0.687,-6.484],[0.603,-6.533],[0.483,-6.42],[0.483,-6.385],[0.469,-6.371],[0.575,-6.231],[0.68,-6.125],[0.785,-6.055],[0.82,-6.048]]]]},"properties":{"abbr":"4","name":"layer 4 of cortex","plate":15,"ap_bregma_mm":2.9,"area_mm2":0.1193,"traced_fraction":[0.81],"n_labels":1,"no_drawn_outline":false}},{"type":"Feature","geometry":{"type":"MultiPolygon","coordinates":[[[[1.816,-6.301],[1.865,-6.322],[1.886,-6.364],[1.9,-6.364],[1.759,-6.505],[1.612,-6.702],[1.542,-6.835],[1.507,-6.962],[1.486,-6.983],[1.423,-6.983],[1.416,-6.927],[1.423,-6.828],[1.507,-6.624],[1.577,-6.519],[1.591,-6.519],[1.591,-6.505],[1.675,-6.42],[1.689,-6.42],[1.71,-6.385],[1.816,-6.301]]],[[[-1.529,-7.018],[-1.529,-7.054],[-1.48,-7.103],[-1.305,-7.173],[-1.115,-7.194],[-0.996,-7.152],[-0.968,-7.208],[-0.898,-7.243],[-0.631,-7.243],[-0.631,-7.314],[-0.561,-7.314],[-0.561,-7.405],[-0.589,-7.426],[-0.842,-7.504],[-1.045,-7.511],[-1.129,-7.483],[-1.34,-7.342],[-1.571,-7.258],[-1.627,-7.222],[-1.62,-7.152],[-1.648,-7.068],[-1.711,-6.934],[-1.809,-6.793],[-2.006,-6.596],[-2.02,-6.596],[-2.188,-6.449],[-2.223,-6.435],[-2.244,-6.406],[-2.244,-6.392],[-2.174,-6.322],[-2.16,-6.322],[-2.16,-6.336],[-2.069,-6.414],[-1.866,-6.533],[-1.774,-6.632],[-1.627,-6.864],[-1.592,-6.941],[-1.529,-7.018]]]]},"properties":{"abbr":"2","name":"layer 2 of cortex","plate":15,"ap_bregma_mm":2.9,"area_mm2":0.4544,"traced_fraction":[0.97,0.949],"n_labels":2,"no_drawn_outline":false}},{"type":"Feature","geometry":{"type":"MultiPolygon","coordinates":[[[[-1.389,-6.006],[-1.508,-6.083],[-1.564,-6.146],[-1.578,-6.195],[-1.606,-6.21],[-1.634,-6.287],[-1.634,-6.378],[-1.599,-6.491],[-1.55,-6.575],[-1.48,-6.639],[-1.389,-6.653],[-1.354,-6.716],[-1.305,-6.758],[-1.228,-6.758],[-1.164,-6.723],[-1.136,-6.723],[-1.136,-6.857],[-1.29,-6.871],[-1.48,-6.941],[-1.515,-6.85],[-1.585,-6.751],[-1.711,-6.512],[-1.823,-6.406],[-1.999,-6.329],[-1.999,-6.224],[-1.915,-6.195],[-1.739,-6.167],[-1.669,-6.139],[-1.669,-6.097],[-1.704,-6.069],[-1.69,-5.991],[-1.466,-5.984],[-1.389,-6.006]]],[[[0.469,-6.371],[0.483,-6.385],[0.483,-6.42],[0.603,-6.533],[0.554,-6.589],[0.532,-6.66],[0.56,-6.772],[0.609,-6.828],[0.638,-6.835],[0.666,-6.864],[0.771,-6.913],[0.848,-6.927],[0.883,-6.99],[0.883,-7.018],[0.827,-7.025],[0.785,-7.054],[0.68,-7.082],[0.56,-7.075],[0.483,-7.025],[0.378,-6.906],[0.329,-6.8],[0.294,-6.618],[0.238,-6.568],[0.28,-6.512],[0.469,-6.371]]],[[[-0.94,-6.92],[-0.898,-6.934],[-0.814,-6.934],[-0.772,-6.92],[-0.772,-7.089],[-0.926,-7.089],[-0.975,-7.103],[-0.968,-6.99],[-0.94,-6.92]]]]},"properties":{"abbr":"3","name":"layer 3 of cortex","plate":15,"ap_bregma_mm":2.9,"area_mm2":0.4547,"traced_fraction":[0.979,0.936,0.856],"n_labels":4,"no_drawn_outline":false}},{"type":"Feature","geometry":{"type":"MultiPolygon","coordinates":[[[[1.472,-6.146],[1.5,-6.16],[1.528,-6.231],[1.528,-6.315],[1.5,-6.414],[1.472,-6.491],[1.402,-6.603],[1.339,-6.667],[1.311,-6.674],[1.304,-6.624],[1.346,-6.47],[1.332,-6.357],[1.346,-6.315],[1.472,-6.146]]]]},"properties":{"abbr":"IEn","name":"intermediate endopiriform nucleus","plate":15,"ap_bregma_mm":2.9,"area_mm2":0.0639,"traced_fraction":[1.0],"n_labels":1,"no_drawn_outline":false}},{"type":"Feature","geometry":{"type":"MultiPolygon","coordinates":[[[[1.093,-6.266],[1.241,-6.294],[1.304,-6.35],[1.332,-6.357],[1.346,-6.47],[1.304,-6.624],[1.311,-6.674],[1.227,-6.765],[1.17,-6.765],[1.114,-6.737],[1.009,-6.653],[0.925,-6.54],[0.897,-6.491],[0.897,-6.463],[0.925,-6.442],[0.939,-6.392],[0.96,-6.371],[0.981,-6.315],[0.981,-6.273],[1.093,-6.266]]],[[[-1.045,-6.301],[-1.045,-6.399],[-1.024,-6.435],[-0.961,-6.484],[-0.989,-6.561],[-1.136,-6.723],[-1.164,-6.723],[-1.228,-6.758],[-1.305,-6.758],[-1.354,-6.716],[-1.389,-6.653],[-1.41,-6.561],[-1.403,-6.406],[-1.354,-6.364],[-1.298,-6.343],[-1.045,-6.301]]]]},"properties":{"abbr":"aca","name":"anterior commissure, anterior part","plate":15,"ap_bregma_mm":2.9,"area_mm2":0.3069,"traced_fraction":[1.0,1.0],"n_labels":2,"no_drawn_outline":false}},{"type":"Feature","geometry":{"type":"MultiPolygon","coordinates":[[[[0.876,-6.519],[0.925,-6.54],[1.009,-6.653],[0.995,-6.667],[1.002,-6.765],[0.981,-6.8],[0.988,-6.828],[0.848,-6.927],[0.771,-6.913],[0.666,-6.864],[0.638,-6.835],[0.609,-6.828],[0.56,-6.772],[0.532,-6.66],[0.554,-6.589],[0.603,-6.533],[0.687,-6.484],[0.785,-6.484],[0.848,-6.519],[0.876,-6.519]]],[[[-0.772,-6.92],[-0.814,-6.934],[-0.898,-6.934],[-0.94,-6.92],[-1.052,-6.871],[-1.136,-6.857],[-1.136,-6.723],[-0.989,-6.561],[-0.926,-6.561],[-0.891,-6.547],[-0.786,-6.554],[-0.709,-6.589],[-0.645,-6.66],[-0.624,-6.709],[-0.631,-6.807],[-0.702,-6.892],[-0.772,-6.92]]]]},"properties":{"abbr":"AOVP","name":"anterior olfactory nucleus, ventroposterior part","plate":15,"ap_bregma_mm":2.9,"area_mm2":0.3085,"traced_fraction":[1.0,1.0],"n_labels":2,"no_drawn_outline":false}},{"type":"Feature","geometry":{"type":"MultiPolygon","coordinates":[[[[0.981,-6.273],[0.981,-6.315],[0.96,-6.371],[0.946,-6.378],[0.925,-6.442],[0.897,-6.463],[0.862,-6.428],[0.834,-6.357],[0.834,-6.28],[0.862,-6.224],[0.932,-6.203],[0.967,-6.224],[0.981,-6.273]]],[[[-0.961,-6.21],[-0.947,-6.21],[-0.905,-6.266],[-0.912,-6.399],[-0.961,-6.484],[-0.975,-6.484],[-1.045,-6.399],[-1.045,-6.301],[-0.968,-6.217],[-0.961,-6.21]]]]},"properties":{"abbr":"E","name":"ependyma and subependymal layer","plate":15,"ap_bregma_mm":2.9,"area_mm2":0.0548,"traced_fraction":[1.0,1.0],"n_labels":4,"no_drawn_outline":false}},{"type":"Feature","geometry":{"type":"MultiPolygon","coordinates":[[[[2.243,-6.245],[2.187,-6.561],[2.096,-6.709],[1.907,-6.899],[1.893,-6.899],[1.584,-7.18],[1.542,-7.201],[1.542,-7.194],[1.542,-7.124],[1.689,-6.835],[1.787,-6.688],[1.935,-6.519],[1.935,-6.505],[2.11,-6.322],[2.124,-6.322],[2.187,-6.259],[2.243,-6.245]]],[[[-2.244,-6.406],[-2.223,-6.435],[-2.188,-6.449],[-2.02,-6.596],[-2.006,-6.596],[-1.809,-6.793],[-1.711,-6.934],[-1.648,-7.068],[-1.62,-7.152],[-1.627,-7.222],[-1.739,-7.145],[-2.041,-6.843],[-2.125,-6.716],[-2.349,-6.435],[-2.384,-6.357],[-2.328,-6.357],[-2.286,-6.392],[-2.244,-6.406]]]]},"properties":{"abbr":"lo","name":"lateral olfactory tract","plate":15,"ap_bregma_mm":2.9,"area_mm2":0.3593,"traced_fraction":[1.0,1.0],"n_labels":2,"no_drawn_outline":false}},{"type":"Feature","geometry":{"type":"MultiPolygon","coordinates":[[[[1.416,-6.927],[1.423,-6.983],[1.409,-7.039],[1.346,-7.096],[1.276,-7.131],[1.206,-7.145],[1.086,-7.131],[0.988,-7.089],[0.932,-7.046],[0.911,-7.046],[0.883,-7.018],[0.883,-6.99],[0.848,-6.927],[0.988,-6.828],[1.107,-6.814],[1.227,-6.835],[1.395,-6.927],[1.416,-6.927]]],[[[-1.136,-6.857],[-1.052,-6.871],[-0.94,-6.92],[-0.968,-6.99],[-0.975,-7.103],[-0.996,-7.152],[-1.115,-7.194],[-1.277,-7.18],[-1.396,-7.145],[-1.48,-7.103],[-1.529,-7.054],[-1.529,-7.018],[-1.494,-6.99],[-1.48,-6.941],[-1.29,-6.871],[-1.136,-6.857]]]]},"properties":{"abbr":"AOP","name":"anterior olfactory nucleus, posterior part","plate":15,"ap_bregma_mm":2.9,"area_mm2":0.2832,"traced_fraction":[1.0,1.0],"n_labels":2,"no_drawn_outline":false}},{"type":"Feature","geometry":{"type":"MultiPolygon","coordinates":[[[[1.97,-5.886],[2.089,-5.9],[2.278,-5.956],[2.278,-5.977],[2.313,-6.02],[2.299,-6.132],[2.243,-6.245],[2.187,-6.259],[2.124,-6.322],[2.11,-6.322],[1.935,-6.505],[1.935,-6.519],[1.787,-6.688],[1.689,-6.835],[1.542,-7.124],[1.542,-7.194],[1.542,-7.201],[1.423,-7.286],[1.22,-7.335],[1.143,-7.384],[1.009,-7.44],[0.813,-7.454],[0.575,-7.447],[0.455,-7.419],[0.245,-7.314],[0.217,-7.279],[0.203,-7.279],[0.091,-7.152],[0.042,-6.976],[0.021,-6.843],[-0.035,-6.751],[-0.063,-6.758],[-0.084,-6.786],[-0.113,-6.934],[-0.106,-6.962],[-0.141,-7.103],[-0.183,-7.194],[-0.204,-7.201],[-0.218,-7.229],[-0.309,-7.293],[-0.561,-7.405],[-0.561,-7.314],[-0.631,-7.314],[-0.631,-7.243],[-0.463,-7.187],[-0.463,-7.173],[-0.435,-7.166],[-0.323,-7.032],[-0.281,-6.934],[-0.281,-6.878],[-0.26,-6.821],[-0.26,-6.681],[-0.302,-6.589],[-0.288,-6.554],[-0.155,-6.624],[-0.056,-6.653],[0.035,-6.646],[0.133,-6.603],[0.14,-6.589],[0.203,-6.582],[0.182,-6.646],[0.182,-6.786],[0.224,-6.835],[0.196,-6.857],[0.203,-6.906],[0.28,-7.061],[0.329,-7.131],[0.378,-7.173],[0.441,-7.201],[0.603,-7.236],[0.729,-7.229],[0.869,-7.173],[0.904,-7.124],[0.911,-7.046],[0.932,-7.046],[1.044,-7.117],[1.206,-7.145],[1.276,-7.131],[1.346,-7.096],[1.409,-7.039],[1.423,-6.983],[1.486,-6.983],[1.507,-6.962],[1.542,-6.835],[1.612,-6.702],[1.759,-6.505],[1.9,-6.364],[2.047,-6.259],[2.096,-6.167],[2.089,-6.111],[2.054,-6.076],[1.991,-6.048],[1.781,-6.013],[1.703,-5.984],[1.731,-5.956],[1.865,-5.9],[1.97,-5.886]]]]},"properties":{"abbr":"VTT","name":"ventral tenia tecta","plate":15,"ap_bregma_mm":2.9,"area_mm2":0.8468,"traced_fraction":[0.978],"n_labels":2,"no_drawn_outline":false}},{"type":"Feature","geometry":{"type":"Polygon","coordinates":[[[1.661,-5.991],[1.647,-6.055],[1.668,-6.083],[1.745,-6.111],[1.844,-6.125],[1.879,-6.153],[1.872,-6.224],[1.816,-6.301],[1.802,-6.301],[1.781,-6.336],[1.71,-6.385],[1.71,-6.399],[1.689,-6.406],[1.689,-6.42],[1.675,-6.42],[1.591,-6.505],[1.591,-6.519],[1.577,-6.519],[1.507,-6.624],[1.423,-6.828],[1.416,-6.927],[1.395,-6.927],[1.227,-6.835],[1.107,-6.814],[0.988,-6.828],[0.981,-6.8],[1.002,-6.765],[0.995,-6.667],[1.009,-6.653],[1.114,-6.737],[1.17,-6.765],[1.227,-6.765],[1.311,-6.674],[1.339,-6.667],[1.402,-6.603],[1.472,-6.491],[1.5,-6.414],[1.528,-6.315],[1.528,-6.231],[1.514,-6.181],[1.486,-6.146],[1.472,-6.146],[1.437,-6.09],[1.367,-6.034],[1.367,-6.013],[1.661,-5.991]]]},"properties":{"abbr":null,"name":"unnamed sealed face","plate":15,"ap_bregma_mm":2.9,"index":0}},{"type":"Feature","geometry":{"type":"Polygon","coordinates":[[[-1.578,-6.195],[-1.522,-6.322],[-1.403,-6.406],[-1.41,-6.561],[-1.389,-6.653],[-1.48,-6.639],[-1.55,-6.575],[-1.599,-6.491],[-1.634,-6.378],[-1.634,-6.287],[-1.606,-6.21],[-1.578,-6.195]]]},"properties":{"abbr":null,"name":"unnamed sealed face","plate":15,"ap_bregma_mm":2.9,"index":1}},{"type":"Feature","geometry":{"type":"Polygon","coordinates":[[[0.238,-6.568],[0.294,-6.618],[0.329,-6.8],[0.378,-6.906],[0.483,-7.025],[0.56,-7.075],[0.68,-7.082],[0.785,-7.054],[0.827,-7.025],[0.883,-7.018],[0.911,-7.046],[0.89,-7.152],[0.834,-7.194],[0.729,-7.229],[0.603,-7.236],[0.441,-7.201],[0.378,-7.173],[0.329,-7.131],[0.28,-7.061],[0.203,-6.906],[0.196,-6.857],[0.224,-6.843],[0.182,-6.786],[0.182,-6.646],[0.203,-6.582],[0.238,-6.568]]]},"properties":{"abbr":null,"name":"unnamed sealed face","plate":15,"ap_bregma_mm":2.9,"index":2}},{"type":"Feature","geometry":{"type":"Polygon","coordinates":[[[-0.302,-6.589],[-0.26,-6.681],[-0.26,-6.821],[-0.281,-6.878],[-0.281,-6.934],[-0.323,-7.032],[-0.4,-7.131],[-0.435,-7.166],[-0.463,-7.173],[-0.463,-7.187],[-0.631,-7.243],[-0.898,-7.243],[-0.968,-7.208],[-0.996,-7.152],[-0.975,-7.103],[-0.926,-7.089],[-0.772,-7.089],[-0.631,-7.082],[-0.561,-7.054],[-0.512,-7.011],[-0.484,-6.962],[-0.456,-6.85],[-0.428,-6.828],[-0.442,-6.807],[-0.442,-6.751],[-0.421,-6.624],[-0.365,-6.575],[-0.302,-6.589]]]},"properties":{"abbr":null,"name":"unnamed sealed face","plate":15,"ap_bregma_mm":2.9,"index":3}},{"type":"Feature","geometry":{"type":"Polygon","coordinates":[[[0.042,-6.976],[-0.106,-6.962],[-0.099,-6.828],[-0.078,-6.772],[-0.035,-6.751],[0.021,-6.843],[0.042,-6.976]]]},"properties":{"abbr":null,"name":"unnamed sealed face","plate":15,"ap_bregma_mm":2.9,"index":4}},{"type":"Feature","geometry":{"type":"MultiPolygon","coordinates":[[[[-0.863,-7.497],[-1.031,-7.504],[-1.115,-7.483],[-1.319,-7.349],[-1.599,-7.236],[-1.711,-7.159],[-1.844,-7.039],[-2.027,-6.85],[-2.363,-6.406],[-2.433,-6.266],[-2.447,-6.21],[-2.433,-6.132],[-2.476,-6.069],[-2.546,-6.02],[-2.63,-5.872],[-2.931,-5.429],[-3.394,-4.831],[-3.625,-4.493],[-3.73,-4.31],[-3.857,-4.029],[-3.892,-3.776],[-3.892,-3.537],[-3.871,-3.382],[-3.794,-3.122],[-3.73,-2.995],[-3.625,-2.841],[-3.429,-2.637],[-3.12,-2.426],[-2.721,-2.25],[-2.307,-2.13],[-1.866,-2.032],[-1.487,-1.975],[-1.178,-1.947],[-0.884,-1.954],[-0.702,-1.983],[-0.491,-2.046],[-0.365,-2.116],[-0.211,-2.25],[-0.141,-2.355],[-0.084,-2.475],[-0.05,-2.602],[-0.021,-2.791],[-0.021,-3.242],[-0.035,-3.403],[-0.029,-3.853],[-0.071,-4.704],[-0.042,-4.944],[0.049,-4.979],[0.105,-4.648],[0.14,-4.226],[0.161,-3.368],[0.147,-3.213],[0.14,-2.735],[0.161,-2.524],[0.224,-2.334],[0.301,-2.215],[0.469,-2.067],[0.539,-2.032],[0.792,-1.947],[0.96,-1.919],[1.213,-1.898],[1.584,-1.891],[1.935,-1.905],[2.208,-1.94],[2.524,-2.004],[2.804,-2.095],[3.064,-2.229],[3.239,-2.362],[3.365,-2.482],[3.575,-2.728],[3.695,-2.897],[3.814,-3.115],[3.877,-3.291],[3.912,-3.523],[3.905,-3.678],[3.884,-3.874],[3.821,-4.029],[3.589,-4.381],[3.351,-4.704],[2.762,-5.394],[2.531,-5.703],[2.425,-5.886],[2.391,-5.928],[2.341,-5.949],[2.306,-6.02],[2.292,-6.118],[2.236,-6.252],[2.173,-6.575],[2.082,-6.709],[1.928,-6.864],[1.584,-7.166],[1.43,-7.272],[1.206,-7.335],[1.058,-7.412],[0.967,-7.44],[0.659,-7.447],[0.539,-7.433],[0.441,-7.405],[0.259,-7.314],[0.196,-7.265],[0.091,-7.145],[0.042,-6.969],[-0.12,-6.955],[-0.106,-6.857],[-0.134,-7.054],[-0.183,-7.173],[-0.218,-7.215],[-0.33,-7.293],[-0.603,-7.419],[-0.835,-7.49],[-0.863,-7.497]]]]},"properties":{"abbr":"brain_outline","name":"outline of the section","plate":15,"ap_bregma_mm":2.9}}]}
