{"type":"FeatureCollection","name":"GerbilAtlas plate 19","note":"Region extents cut from the atlas drawing (METHODS.md, Region extents). Coordinates are [ML, DV] in mm, ML positive to the right of the plate as printed, DV negative below the dorsal surface; AP is the plate bregma. traced_fraction is the share of each polygon boundary the atlas actually draws; below 0.5 the boundary is an estimate. no_drawn_outline marks a feature that lies only inside boundaries the atlas draws round more than one name and prints nothing within, so the whole of its outline is where the extraction cut it. Not a segmentation.","plate":19,"ap_bregma_mm":1.5,"features":[{"type":"Feature","geometry":{"type":"MultiPolygon","coordinates":[[[[1.62,-1.464],[1.655,-2.273],[1.725,-3.046],[1.725,-3.159],[1.571,-3.159],[1.409,-3.187],[1.297,-3.011],[0.975,-2.575],[0.764,-2.343],[0.764,-2.329],[0.533,-2.069],[0.533,-2.055],[0.231,-1.731],[0.189,-1.668],[0.196,-1.654],[0.33,-1.59],[0.554,-1.527],[0.785,-1.492],[1.62,-1.464]]],[[[-0.449,-1.71],[-0.582,-1.914],[-0.673,-2.097],[-0.799,-2.294],[-0.989,-2.666],[-1.157,-3.081],[-1.255,-3.377],[-1.613,-3.342],[-1.641,-3.166],[-1.739,-2.055],[-1.802,-1.611],[-1.528,-1.569],[-0.968,-1.562],[-0.638,-1.626],[-0.526,-1.661],[-0.449,-1.71]]]]},"properties":{"abbr":"M2","name":"secondary motor cortex","plate":19,"ap_bregma_mm":1.5,"area_mm2":2.9867,"traced_fraction":[1.0,1.0],"n_labels":2,"no_drawn_outline":false}},{"type":"Feature","geometry":{"type":"MultiPolygon","coordinates":[[[[1.62,-1.464],[1.753,-1.464],[2.251,-1.513],[2.755,-1.619],[2.868,-1.654],[3.008,-1.731],[3.008,-1.738],[2.706,-2.547],[2.671,-2.61],[2.503,-3.053],[2.391,-3.292],[2.209,-3.243],[2.145,-3.25],[2.089,-3.215],[1.725,-3.159],[1.725,-3.046],[1.655,-2.273],[1.62,-1.464]]],[[[-1.802,-1.611],[-1.739,-2.055],[-1.641,-3.166],[-1.613,-3.342],[-1.641,-3.356],[-1.76,-3.363],[-2.019,-3.412],[-2.237,-3.482],[-2.321,-3.525],[-2.37,-3.532],[-2.461,-3.37],[-2.517,-3.222],[-2.601,-3.06],[-3.057,-1.984],[-3.057,-1.977],[-2.854,-1.886],[-2.587,-1.794],[-2.033,-1.647],[-1.802,-1.611]]]]},"properties":{"abbr":"M1","name":"primary motor cortex","plate":19,"ap_bregma_mm":1.5,"area_mm2":3.6448,"traced_fraction":[1.0,1.0],"n_labels":2,"no_drawn_outline":false}},{"type":"Feature","geometry":{"type":"MultiPolygon","coordinates":[[[[0.189,-1.668],[0.231,-1.731],[0.533,-2.055],[0.533,-2.069],[0.624,-2.16],[0.764,-2.343],[0.975,-2.575],[1.297,-3.011],[1.409,-3.187],[1.381,-3.229],[1.283,-3.3],[1.269,-3.306],[1.108,-3.25],[0.855,-3.138],[0.4,-2.976],[0.168,-2.913],[-0.007,-2.892],[-0.021,-2.913],[-0.154,-2.927],[-0.28,-2.969],[-0.533,-3.081],[-0.792,-3.229],[-1.024,-3.398],[-1.136,-3.461],[-1.255,-3.377],[-1.157,-3.081],[-0.989,-2.666],[-0.799,-2.294],[-0.673,-2.097],[-0.582,-1.914],[-0.449,-1.71],[-0.372,-1.745],[-0.315,-1.808],[-0.245,-1.858],[-0.161,-2.012],[-0.126,-2.146],[-0.07,-2.582],[-0.063,-2.603],[-0.014,-2.596],[-0.021,-2.61],[-0.063,-2.617],[-0.049,-2.652],[-0.056,-2.695],[-0.042,-2.807],[-0.021,-2.87],[0.0,-2.878],[0.014,-2.814],[0.014,-2.645],[0.014,-2.589],[0.0,-2.005],[0.028,-1.872],[0.063,-1.787],[0.154,-1.689],[0.189,-1.668]]]]},"properties":{"abbr":"Cg1","name":"cingulate cortex, area 1","plate":19,"ap_bregma_mm":1.5,"area_mm2":2.1621,"traced_fraction":[1.0],"n_labels":2,"no_drawn_outline":false}},{"type":"Feature","geometry":{"type":"MultiPolygon","coordinates":[[[[1.725,-3.159],[2.089,-3.215],[2.145,-3.25],[2.089,-3.257],[1.886,-3.222],[1.627,-3.215],[1.515,-3.236],[1.451,-3.264],[1.318,-3.377],[1.318,-3.391],[1.108,-3.616],[1.052,-3.714],[1.024,-3.736],[0.947,-3.848],[0.905,-3.869],[0.905,-3.834],[0.939,-3.771],[1.269,-3.306],[1.283,-3.3],[1.381,-3.229],[1.409,-3.187],[1.571,-3.159],[1.725,-3.159]]],[[[-1.613,-3.342],[-1.255,-3.377],[-1.136,-3.461],[-1.129,-3.489],[-1.045,-3.581],[-1.017,-3.637],[-0.989,-3.658],[-0.898,-3.792],[-0.631,-4.087],[-0.61,-4.144],[-0.638,-4.136],[-0.687,-4.094],[-0.764,-3.989],[-0.82,-3.94],[-0.94,-3.785],[-1.101,-3.609],[-1.115,-3.574],[-1.22,-3.475],[-1.346,-3.419],[-1.486,-3.391],[-1.753,-3.405],[-1.76,-3.363],[-1.641,-3.356],[-1.613,-3.342]]]]},"properties":{"abbr":"cg","name":"cingulum","plate":19,"ap_bregma_mm":1.5,"area_mm2":0.1562,"traced_fraction":[1.0,1.0],"n_labels":2,"no_drawn_outline":false}},{"type":"Feature","geometry":{"type":"MultiPolygon","coordinates":[[[[1.269,-3.306],[0.939,-3.771],[0.905,-3.834],[0.905,-3.869],[0.855,-3.918],[0.841,-3.954],[0.813,-3.954],[0.785,-3.989],[0.771,-3.989],[0.771,-4.003],[0.701,-4.073],[0.694,-4.108],[0.505,-4.319],[0.414,-4.376],[0.323,-4.404],[0.07,-4.404],[0.098,-4.347],[0.098,-4.284],[0.056,-4.214],[0.035,-4.214],[-0.007,-4.277],[-0.007,-4.326],[0.021,-4.397],[0.035,-4.404],[0.014,-4.418],[-0.042,-4.418],[-0.105,-4.425],[-0.105,-4.404],[-0.133,-4.397],[-0.182,-4.432],[-0.28,-4.418],[-0.4,-4.34],[-0.575,-4.179],[-0.589,-4.179],[-0.61,-4.144],[-0.631,-4.087],[-0.898,-3.792],[-0.989,-3.658],[-1.017,-3.637],[-1.045,-3.581],[-1.129,-3.489],[-1.136,-3.461],[-1.024,-3.398],[-0.792,-3.229],[-0.533,-3.081],[-0.28,-2.969],[-0.154,-2.927],[-0.021,-2.913],[-0.007,-2.892],[0.168,-2.913],[0.4,-2.976],[0.855,-3.138],[1.108,-3.25],[1.269,-3.306]]]]},"properties":{"abbr":"Cg2","name":"cingulate cortex, area 2","plate":19,"ap_bregma_mm":1.5,"area_mm2":2.3371,"traced_fraction":[1.0],"n_labels":2,"no_drawn_outline":false}},{"type":"Feature","geometry":{"type":"MultiPolygon","coordinates":[[[[4.074,-2.329],[4.228,-2.434],[4.2,-2.484],[4.095,-2.589],[4.095,-2.603],[3.94,-2.765],[3.94,-2.779],[3.737,-2.983],[3.737,-2.997],[3.323,-3.433],[3.323,-3.447],[3.302,-3.454],[3.302,-3.475],[3.415,-3.574],[3.415,-3.876],[2.987,-3.883],[2.966,-3.771],[2.924,-3.672],[2.938,-3.672],[3.008,-3.602],[3.008,-3.588],[3.12,-3.482],[3.183,-3.398],[3.218,-3.377],[3.218,-3.363],[3.492,-3.074],[3.611,-2.913],[3.786,-2.716],[3.856,-2.61],[3.969,-2.491],[4.039,-2.378],[4.067,-2.357],[4.074,-2.329]]],[[[-4.214,-2.674],[-4.207,-2.681],[-4.102,-2.8],[-4.088,-2.8],[-3.849,-3.046],[-3.835,-3.046],[-3.541,-3.335],[-3.527,-3.335],[-3.358,-3.496],[-3.344,-3.496],[-3.316,-3.532],[-3.232,-3.588],[-3.19,-3.637],[-2.91,-3.862],[-2.945,-3.911],[-2.966,-3.911],[-3.134,-3.792],[-3.274,-3.714],[-3.302,-3.679],[-3.513,-3.532],[-3.59,-3.454],[-3.667,-3.405],[-3.996,-3.117],[-4.011,-3.117],[-4.34,-2.786],[-4.256,-2.709],[-4.214,-2.674]]]]},"properties":{"abbr":"S1DZ","name":"primary somatosensory cortex, dysgranular zone","plate":19,"ap_bregma_mm":1.5,"area_mm2":0.6141,"traced_fraction":[0.886,0.995],"n_labels":2,"no_drawn_outline":false}},{"type":"Feature","geometry":{"type":"MultiPolygon","coordinates":[[[[2.391,-3.292],[2.594,-3.384],[2.742,-3.475],[2.861,-3.588],[2.924,-3.672],[2.966,-3.771],[2.987,-3.883],[2.987,-3.933],[2.973,-4.207],[2.945,-4.383],[2.889,-4.65],[2.791,-4.938],[2.784,-4.995],[2.755,-5.044],[2.749,-5.114],[2.734,-5.114],[2.706,-5.149],[2.692,-5.199],[2.636,-5.276],[2.615,-5.346],[2.601,-5.353],[2.552,-5.466],[2.489,-5.494],[2.475,-5.494],[2.468,-5.473],[2.482,-5.346],[2.608,-5.051],[2.727,-4.636],[2.798,-4.122],[2.791,-3.933],[2.734,-3.785],[2.587,-3.637],[2.321,-3.482],[2.181,-3.433],[2.089,-3.419],[2.089,-3.257],[2.145,-3.25],[2.209,-3.243],[2.391,-3.292]]],[[[-2.566,-3.658],[-2.566,-3.736],[-2.552,-3.743],[-2.552,-3.778],[-2.524,-3.806],[-2.664,-3.947],[-2.727,-4.038],[-2.769,-4.144],[-2.784,-4.242],[-2.776,-4.453],[-2.72,-4.854],[-2.664,-5.142],[-2.587,-5.374],[-2.587,-5.409],[-2.622,-5.438],[-2.643,-5.424],[-2.678,-5.332],[-2.72,-5.269],[-2.741,-5.177],[-2.784,-5.107],[-2.812,-4.966],[-2.861,-4.826],[-2.882,-4.636],[-2.917,-4.502],[-2.917,-4.108],[-2.903,-4.038],[-2.839,-3.904],[-2.713,-3.757],[-2.615,-3.679],[-2.566,-3.658]]]]},"properties":{"abbr":"ec","name":"external capsule","plate":19,"ap_bregma_mm":1.5,"area_mm2":0.7119,"traced_fraction":[0.981,0.967],"n_labels":2,"no_drawn_outline":false}},{"type":"Feature","geometry":{"type":"MultiPolygon","coordinates":[[[[-5.006,-3.806],[-4.599,-3.841],[-4.081,-3.911],[-2.903,-4.038],[-2.917,-4.108],[-2.945,-4.094],[-3.127,-4.087],[-5.013,-4.059],[-5.02,-3.911],[-5.006,-3.806]]],[[[5.048,-3.841],[5.034,-3.933],[4.992,-4.052],[4.971,-4.038],[4.901,-4.031],[4.698,-4.031],[4.494,-4.017],[4.459,-4.003],[2.987,-3.933],[2.987,-3.883],[3.415,-3.876],[3.821,-3.869],[3.905,-3.855],[4.403,-3.855],[4.494,-3.841],[4.915,-3.827],[5.048,-3.841]]]]},"properties":{"abbr":"S1DZO","name":"primary somatosensory cortex, oral dysgranular zone","plate":19,"ap_bregma_mm":1.5,"area_mm2":0.5841,"traced_fraction":[1.0,1.0],"n_labels":2,"no_drawn_outline":false}},{"type":"Feature","geometry":{"type":"MultiPolygon","coordinates":[[[[2.987,-3.933],[4.459,-4.003],[4.494,-4.017],[4.698,-4.031],[4.901,-4.031],[4.971,-4.038],[4.992,-4.052],[4.95,-4.172],[4.859,-4.347],[4.845,-4.347],[4.817,-4.418],[4.803,-4.425],[4.775,-4.495],[4.326,-5.121],[4.214,-5.051],[3.842,-4.861],[3.835,-4.847],[3.632,-4.748],[3.485,-4.657],[3.267,-4.551],[3.085,-4.439],[2.987,-4.39],[2.945,-4.383],[2.973,-4.207],[2.987,-3.933]]],[[[-5.013,-4.059],[-3.127,-4.087],[-2.945,-4.094],[-2.917,-4.108],[-2.917,-4.502],[-2.98,-4.516],[-3.099,-4.58],[-3.106,-4.594],[-3.394,-4.741],[-3.66,-4.903],[-3.821,-4.98],[-3.849,-5.009],[-4.312,-5.262],[-4.326,-5.262],[-4.508,-5.016],[-4.599,-4.861],[-4.831,-4.53],[-4.971,-4.256],[-5.013,-4.059]]]]},"properties":{"abbr":"S1ULp","name":"primary somatosensory cortex, upper lip region","plate":19,"ap_bregma_mm":1.5,"area_mm2":3.0697,"traced_fraction":[1.0,1.0],"n_labels":2,"no_drawn_outline":false}},{"type":"Feature","geometry":{"type":"MultiPolygon","coordinates":[[[[2.089,-3.419],[2.181,-3.433],[2.321,-3.482],[2.587,-3.637],[2.734,-3.785],[2.791,-3.933],[2.798,-4.122],[2.727,-4.636],[2.608,-5.051],[2.482,-5.346],[2.468,-5.473],[2.475,-5.494],[2.489,-5.494],[2.419,-5.585],[2.363,-5.705],[2.349,-5.712],[2.328,-5.775],[2.321,-5.888],[2.3,-5.909],[2.272,-6.162],[2.223,-6.275],[2.209,-6.275],[2.096,-6.38],[2.096,-6.394],[2.019,-6.471],[2.019,-6.493],[1.977,-6.507],[1.97,-6.373],[1.935,-6.268],[1.858,-6.155],[1.676,-5.986],[1.522,-5.881],[1.269,-5.747],[0.897,-5.613],[0.82,-5.599],[0.771,-5.606],[0.743,-5.592],[0.729,-5.297],[0.715,-5.283],[0.673,-5.114],[0.666,-5.051],[0.61,-4.91],[0.603,-4.847],[0.603,-4.784],[0.659,-4.657],[0.75,-4.509],[0.841,-4.383],[0.947,-4.27],[1.15,-3.989],[1.55,-3.567],[1.648,-3.496],[1.83,-3.433],[1.991,-3.412],[2.089,-3.419]]],[[[-0.505,-4.713],[-0.428,-4.826],[-0.421,-4.861],[-0.442,-4.938],[-0.456,-4.945],[-0.533,-5.121],[-0.61,-5.304],[-0.631,-5.416],[-0.645,-5.656],[-0.708,-5.656],[-0.743,-5.677],[-0.898,-5.719],[-1.15,-5.768],[-1.346,-5.839],[-1.507,-5.916],[-1.627,-5.993],[-1.816,-6.169],[-1.977,-6.422],[-2.026,-6.408],[-2.033,-6.401],[-2.089,-6.338],[-2.103,-6.338],[-2.11,-6.317],[-2.188,-6.26],[-2.216,-6.162],[-2.223,-6.028],[-2.251,-5.888],[-2.293,-5.768],[-2.328,-5.733],[-2.412,-5.606],[-2.503,-5.543],[-2.531,-5.543],[-2.566,-5.501],[-2.608,-5.48],[-2.622,-5.438],[-2.587,-5.409],[-2.587,-5.374],[-2.664,-5.142],[-2.72,-4.854],[-2.776,-4.453],[-2.784,-4.242],[-2.769,-4.144],[-2.727,-4.038],[-2.664,-3.947],[-2.524,-3.806],[-2.405,-3.736],[-2.265,-3.686],[-1.956,-3.63],[-1.795,-3.623],[-1.655,-3.637],[-1.458,-3.693],[-1.325,-3.778],[-0.989,-4.129],[-0.925,-4.214],[-0.715,-4.432],[-0.505,-4.713]]]]},"properties":{"abbr":"CPu","name":"caudate putamen (striatum)","plate":19,"ap_bregma_mm":1.5,"area_mm2":8.5409,"traced_fraction":[1.0,1.0],"n_labels":2,"no_drawn_outline":false}},{"type":"Feature","geometry":{"type":"MultiPolygon","coordinates":[[[[-1.76,-3.363],[-1.753,-3.405],[-1.486,-3.391],[-1.346,-3.419],[-1.22,-3.475],[-1.115,-3.574],[-1.101,-3.609],[-0.94,-3.785],[-0.82,-3.94],[-0.764,-3.989],[-0.687,-4.094],[-0.638,-4.136],[-0.61,-4.144],[-0.589,-4.179],[-0.575,-4.179],[-0.4,-4.34],[-0.407,-4.685],[-0.47,-4.685],[-0.505,-4.713],[-0.715,-4.432],[-0.925,-4.214],[-0.989,-4.129],[-1.325,-3.778],[-1.458,-3.693],[-1.655,-3.637],[-1.795,-3.623],[-1.956,-3.63],[-2.265,-3.686],[-2.405,-3.736],[-2.524,-3.806],[-2.552,-3.778],[-2.552,-3.743],[-2.566,-3.736],[-2.566,-3.658],[-2.517,-3.616],[-2.405,-3.567],[-2.37,-3.532],[-2.321,-3.525],[-2.237,-3.482],[-2.019,-3.412],[-1.76,-3.363]]]]},"properties":{"abbr":"LSD","name":"lateral septal nucleus, dorsal part","plate":19,"ap_bregma_mm":1.5,"area_mm2":0.6593,"traced_fraction":[0.903],"n_labels":2,"no_drawn_outline":false}},{"type":"Feature","geometry":{"type":"MultiPolygon","coordinates":[[[[0.449,-5.093],[0.547,-5.107],[0.582,-5.128],[0.673,-5.114],[0.715,-5.283],[0.729,-5.297],[0.743,-5.592],[0.729,-5.592],[0.624,-5.691],[0.61,-5.691],[0.526,-5.592],[0.47,-5.445],[0.449,-5.093]]],[[[-0.287,-5.1],[-0.301,-5.332],[-0.322,-5.424],[-0.4,-5.599],[-0.449,-5.67],[-0.533,-5.747],[-0.638,-5.67],[-0.645,-5.656],[-0.631,-5.416],[-0.61,-5.304],[-0.533,-5.121],[-0.47,-5.142],[-0.372,-5.1],[-0.287,-5.1]]]]},"properties":{"abbr":"LSV","name":"lateral septal nucleus, ventral part","plate":19,"ap_bregma_mm":1.5,"area_mm2":0.2908,"traced_fraction":[0.968,0.996],"n_labels":2,"no_drawn_outline":false}},{"type":"Feature","geometry":{"type":"MultiPolygon","coordinates":[[[[0.449,-5.093],[0.47,-5.445],[0.526,-5.592],[0.561,-5.642],[0.624,-5.691],[0.603,-5.768],[0.512,-5.916],[0.442,-6.071],[0.175,-6.071],[0.161,-5.937],[0.063,-5.937],[0.063,-5.374],[0.133,-5.36],[0.203,-5.283],[0.224,-5.184],[0.217,-5.121],[0.33,-5.093],[0.449,-5.093]]],[[[-0.287,-5.1],[-0.182,-5.114],[-0.133,-5.135],[-0.133,-5.255],[-0.119,-5.29],[-0.063,-5.353],[-0.007,-5.374],[0.0,-5.431],[-0.042,-5.438],[-0.056,-5.466],[-0.098,-5.649],[-0.203,-6.408],[-0.203,-6.457],[-0.182,-6.471],[-0.217,-6.514],[-0.259,-6.668],[-0.273,-6.894],[-0.343,-6.872],[-0.322,-6.781],[-0.351,-6.753],[-0.351,-6.732],[-0.294,-6.654],[-0.294,-6.542],[-0.294,-6.366],[-0.337,-6.183],[-0.407,-5.993],[-0.533,-5.747],[-0.449,-5.67],[-0.4,-5.599],[-0.322,-5.424],[-0.301,-5.332],[-0.287,-5.1]]]]},"properties":{"abbr":"LSI","name":"lateral septal nucleus, intermediate part","plate":19,"ap_bregma_mm":1.5,"area_mm2":0.7333,"traced_fraction":[0.904,0.995],"n_labels":2,"no_drawn_outline":false}},{"type":"Feature","geometry":{"type":"MultiPolygon","coordinates":[[[[2.819,-5.297],[3.036,-5.473],[3.667,-5.937],[3.534,-6.12],[3.527,-6.113],[2.706,-5.459],[2.706,-5.438],[2.749,-5.374],[2.755,-5.325],[2.819,-5.297]]],[[[-2.762,-5.353],[-2.748,-5.48],[-2.706,-5.564],[-2.769,-5.592],[-2.917,-5.712],[-3.134,-5.86],[-3.155,-5.888],[-3.183,-5.895],[-3.415,-6.064],[-3.513,-6.12],[-3.555,-6.155],[-3.555,-6.169],[-3.569,-6.169],[-3.709,-6.035],[-3.709,-6.014],[-3.681,-5.986],[-3.527,-5.895],[-3.513,-5.874],[-3.457,-5.846],[-3.443,-5.824],[-3.386,-5.796],[-3.373,-5.775],[-2.762,-5.353]]]]},"properties":{"abbr":"DI","name":"dysgranular insular cortex","plate":19,"ap_bregma_mm":1.5,"area_mm2":0.4471,"traced_fraction":[0.993,0.968],"n_labels":2,"no_drawn_outline":false}},{"type":"Feature","geometry":{"type":"MultiPolygon","coordinates":[[[[-2.328,-5.733],[-2.3,-5.754],[-2.251,-5.888],[-2.223,-6.028],[-2.216,-6.162],[-2.188,-6.26],[-2.201,-6.268],[-2.23,-6.345],[-2.272,-6.373],[-2.405,-6.366],[-2.475,-6.338],[-2.531,-6.289],[-2.552,-6.218],[-2.552,-6.148],[-2.51,-6.035],[-2.454,-5.979],[-2.377,-5.986],[-2.335,-5.951],[-2.321,-5.839],[-2.342,-5.782],[-2.342,-5.733],[-2.328,-5.733]]],[[[2.321,-5.888],[2.384,-5.965],[2.489,-5.958],[2.489,-5.986],[2.559,-6.169],[2.559,-6.246],[2.545,-6.246],[2.531,-6.275],[2.468,-6.324],[2.391,-6.352],[2.293,-6.331],[2.223,-6.275],[2.272,-6.162],[2.3,-5.909],[2.321,-5.888]]]]},"properties":{"abbr":"DEn","name":"dorsal endopiriform nucleus","plate":19,"ap_bregma_mm":1.5,"area_mm2":0.2348,"traced_fraction":[1.0,1.0],"n_labels":2,"no_drawn_outline":false}},{"type":"Feature","geometry":{"type":"MultiPolygon","coordinates":[[[[1.977,-6.507],[1.956,-6.535],[1.949,-6.591],[1.928,-6.598],[1.893,-6.661],[1.851,-6.668],[1.795,-6.718],[1.718,-6.76],[1.564,-6.809],[1.416,-6.809],[1.36,-6.795],[1.234,-6.753],[1.136,-6.682],[1.038,-6.577],[0.954,-6.415],[0.876,-6.162],[0.876,-6.042],[0.905,-5.937],[0.905,-5.881],[0.855,-5.768],[0.771,-5.627],[0.771,-5.606],[0.82,-5.599],[0.897,-5.613],[1.269,-5.747],[1.522,-5.881],[1.676,-5.986],[1.858,-6.155],[1.935,-6.268],[1.97,-6.373],[1.977,-6.507]]],[[[-0.645,-5.656],[-0.638,-5.67],[-0.771,-5.86],[-0.834,-5.993],[-0.848,-6.232],[-0.925,-6.542],[-0.989,-6.661],[-1.059,-6.732],[-1.073,-6.732],[-1.15,-6.809],[-1.262,-6.851],[-1.493,-6.858],[-1.578,-6.844],[-1.725,-6.788],[-1.795,-6.725],[-1.83,-6.711],[-1.858,-6.668],[-1.9,-6.528],[-1.977,-6.422],[-1.816,-6.169],[-1.627,-5.993],[-1.507,-5.916],[-1.346,-5.839],[-1.15,-5.768],[-0.898,-5.719],[-0.743,-5.677],[-0.708,-5.656],[-0.645,-5.656]]],[[[1.332,-6.197],[1.276,-6.246],[1.276,-6.345],[1.311,-6.422],[1.367,-6.493],[1.515,-6.57],[1.571,-6.57],[1.585,-6.514],[1.613,-6.514],[1.669,-6.556],[1.732,-6.556],[1.767,-6.528],[1.774,-6.45],[1.718,-6.373],[1.676,-6.352],[1.606,-6.352],[1.578,-6.38],[1.522,-6.38],[1.473,-6.26],[1.423,-6.211],[1.402,-6.197],[1.332,-6.197]]],[[[-1.514,-6.514],[-1.5,-6.514],[-1.493,-6.535],[-1.521,-6.57],[-1.528,-6.612],[-1.521,-6.633],[-1.493,-6.647],[-1.423,-6.64],[-1.353,-6.584],[-1.325,-6.528],[-1.325,-6.471],[-1.36,-6.443],[-1.451,-6.443],[-1.43,-6.352],[-1.43,-6.26],[-1.458,-6.232],[-1.528,-6.232],[-1.606,-6.296],[-1.683,-6.422],[-1.683,-6.45],[-1.697,-6.464],[-1.697,-6.556],[-1.676,-6.584],[-1.634,-6.584],[-1.549,-6.521],[-1.514,-6.514]]]]},"properties":{"abbr":"AcbC","name":"accumbens nucleus, core","plate":19,"ap_bregma_mm":1.5,"area_mm2":1.644,"traced_fraction":[0.987,0.976,1.0,1.0],"n_labels":2,"no_drawn_outline":false}},{"type":"Feature","geometry":{"type":"MultiPolygon","coordinates":[[[[0.0,-5.431],[-0.042,-6.19],[-0.042,-6.457],[-0.14,-6.443],[-0.182,-6.471],[-0.203,-6.457],[-0.203,-6.408],[-0.098,-5.649],[-0.056,-5.466],[-0.042,-5.438],[0.0,-5.431]]],[[[0.442,-6.071],[0.372,-6.268],[0.358,-6.5],[0.337,-6.5],[0.301,-6.556],[0.28,-6.64],[0.252,-6.591],[0.21,-6.45],[0.133,-6.429],[0.063,-6.471],[0.063,-5.937],[0.161,-5.937],[0.175,-6.071],[0.442,-6.071]]]]},"properties":{"abbr":"MS","name":"medial septal nucleus","plate":19,"ap_bregma_mm":1.5,"area_mm2":0.2632,"traced_fraction":[0.988,0.877],"n_labels":2,"no_drawn_outline":false}},{"type":"Feature","geometry":{"type":"MultiPolygon","coordinates":[[[[2.517,-5.93],[2.706,-6.078],[2.931,-6.183],[2.896,-6.225],[2.847,-6.246],[2.749,-6.331],[2.699,-6.45],[2.503,-6.493],[2.447,-6.528],[2.363,-6.549],[2.342,-6.577],[2.3,-6.598],[2.216,-6.69],[2.16,-6.795],[2.145,-6.851],[2.153,-6.985],[2.047,-6.95],[1.949,-6.858],[1.977,-6.788],[1.977,-6.647],[1.949,-6.591],[1.956,-6.535],[1.977,-6.507],[2.019,-6.493],[2.075,-6.493],[2.124,-6.471],[2.251,-6.45],[2.37,-6.45],[2.482,-6.422],[2.531,-6.394],[2.566,-6.352],[2.573,-6.275],[2.559,-6.246],[2.559,-6.169],[2.517,-6.071],[2.489,-5.958],[2.517,-5.93]]],[[[-2.51,-6.035],[-2.552,-6.148],[-2.552,-6.218],[-2.531,-6.289],[-2.475,-6.338],[-2.489,-6.373],[-2.391,-6.436],[-2.398,-6.528],[-2.475,-6.507],[-2.594,-6.5],[-2.755,-6.429],[-2.818,-6.282],[-2.868,-6.239],[-2.938,-6.225],[-2.959,-6.197],[-2.924,-6.176],[-2.706,-6.12],[-2.573,-6.05],[-2.51,-6.035]]],[[[-1.942,-6.844],[-1.823,-7.055],[-1.746,-7.119],[-1.69,-7.126],[-1.676,-7.111],[-1.627,-7.119],[-1.563,-7.168],[-1.57,-7.21],[-1.557,-7.238],[-1.472,-7.301],[-1.416,-7.315],[-1.381,-7.351],[-1.276,-7.344],[-1.269,-7.301],[-0.975,-7.315],[-0.975,-7.548],[-1.073,-7.618],[-1.122,-7.688],[-1.143,-7.688],[-1.185,-7.604],[-1.248,-7.548],[-1.311,-7.548],[-1.402,-7.611],[-1.458,-7.611],[-1.479,-7.59],[-1.507,-7.463],[-1.563,-7.407],[-1.795,-7.407],[-1.837,-7.393],[-1.879,-7.33],[-1.893,-7.182],[-1.921,-7.119],[-1.97,-7.083],[-2.096,-7.09],[-2.124,-7.076],[-2.174,-7.027],[-2.201,-6.915],[-2.201,-6.894],[-2.075,-6.858],[-1.942,-6.844]]],[[[0.743,-7.119],[0.989,-7.175],[1.094,-7.196],[1.045,-7.259],[1.052,-7.315],[1.101,-7.365],[1.185,-7.351],[1.199,-7.351],[1.213,-7.358],[1.199,-7.435],[1.227,-7.463],[1.227,-7.484],[1.339,-7.484],[1.374,-7.519],[1.311,-7.618],[1.283,-7.639],[1.22,-7.632],[1.157,-7.562],[1.087,-7.562],[1.024,-7.604],[0.989,-7.611],[0.939,-7.604],[0.905,-7.526],[0.905,-7.28],[0.975,-7.273],[0.989,-7.266],[0.989,-7.238],[0.771,-7.189],[0.75,-7.175],[0.743,-7.168],[0.743,-7.119]]],[[[-1.767,-7.175],[-1.802,-7.203],[-1.83,-7.252],[-1.837,-7.301],[-1.816,-7.315],[-1.746,-7.301],[-1.711,-7.238],[-1.718,-7.182],[-1.767,-7.175]]],[[[-1.395,-7.365],[-1.458,-7.379],[-1.479,-7.407],[-1.479,-7.449],[-1.437,-7.491],[-1.353,-7.519],[-1.332,-7.505],[-1.332,-7.435],[-1.374,-7.365],[-1.395,-7.365]]]]},"properties":{"abbr":"3","name":"layer 3 of cortex","plate":19,"ap_bregma_mm":1.5,"area_mm2":0.7984,"traced_fraction":[1.0,0.984,0.949,0.918,1.0,1.0],"n_labels":4,"no_drawn_outline":false}},{"type":"Feature","geometry":{"type":"MultiPolygon","coordinates":[[[[2.559,-6.246],[2.573,-6.275],[2.566,-6.352],[2.531,-6.394],[2.482,-6.422],[2.37,-6.45],[2.251,-6.45],[2.124,-6.471],[2.075,-6.493],[2.019,-6.493],[2.019,-6.471],[2.096,-6.394],[2.096,-6.38],[2.209,-6.275],[2.223,-6.275],[2.293,-6.331],[2.391,-6.352],[2.468,-6.324],[2.482,-6.303],[2.517,-6.289],[2.545,-6.246],[2.559,-6.246]]],[[[-2.188,-6.26],[-2.11,-6.317],[-2.103,-6.338],[-2.089,-6.338],[-2.033,-6.401],[-2.026,-6.408],[-2.026,-6.493],[-2.103,-6.493],[-2.103,-6.507],[-2.026,-6.507],[-2.005,-6.647],[-1.942,-6.844],[-2.075,-6.858],[-2.201,-6.894],[-2.195,-6.704],[-2.209,-6.668],[-2.286,-6.584],[-2.398,-6.528],[-2.391,-6.436],[-2.314,-6.457],[-2.251,-6.457],[-2.272,-6.373],[-2.23,-6.345],[-2.201,-6.268],[-2.188,-6.26]]]]},"properties":{"abbr":"IEn","name":"intermediate endopiriform nucleus","plate":19,"ap_bregma_mm":1.5,"area_mm2":0.2034,"traced_fraction":[1.0,0.939],"n_labels":2,"no_drawn_outline":false}},{"type":"Feature","geometry":{"type":"MultiPolygon","coordinates":[[[[0.743,-5.592],[0.771,-5.606],[0.771,-5.627],[0.855,-5.768],[0.905,-5.881],[0.905,-5.937],[0.876,-6.042],[0.876,-6.162],[0.954,-6.415],[1.038,-6.577],[1.136,-6.682],[1.003,-6.809],[1.003,-6.908],[0.989,-6.908],[0.989,-7.175],[0.743,-7.119],[0.694,-7.097],[0.694,-7.034],[0.603,-7.034],[0.54,-6.964],[0.491,-6.943],[0.442,-6.886],[0.442,-6.865],[0.428,-6.865],[0.428,-6.83],[0.372,-6.682],[0.358,-6.5],[0.372,-6.268],[0.442,-6.071],[0.512,-5.916],[0.603,-5.768],[0.624,-5.691],[0.729,-5.592],[0.743,-5.592]]],[[[-0.638,-5.67],[-0.533,-5.747],[-0.407,-5.993],[-0.337,-6.183],[-0.294,-6.366],[-0.294,-6.542],[-0.301,-6.542],[-0.925,-6.542],[-0.862,-6.317],[-0.834,-5.993],[-0.771,-5.86],[-0.638,-5.67]]]]},"properties":{"abbr":"AcbSh","name":"accumbens nucleus, shell","plate":19,"ap_bregma_mm":1.5,"area_mm2":1.1014,"traced_fraction":[0.848,0.776],"n_labels":2,"no_drawn_outline":false}},{"type":"Feature","geometry":{"type":"MultiPolygon","coordinates":[[[[3.008,-6.211],[3.127,-6.289],[3.26,-6.422],[3.281,-6.422],[2.945,-6.753],[2.798,-6.753],[2.699,-6.781],[2.524,-6.865],[2.426,-6.936],[2.342,-7.02],[2.293,-7.111],[2.237,-7.273],[2.258,-7.33],[2.061,-7.512],[1.781,-7.674],[1.718,-7.723],[1.507,-7.829],[1.353,-7.878],[1.143,-7.892],[0.729,-7.752],[0.617,-7.695],[0.603,-7.674],[0.477,-7.618],[0.246,-7.435],[0.246,-7.421],[0.161,-7.337],[0.084,-7.196],[0.126,-7.161],[0.168,-7.175],[0.246,-7.161],[0.259,-7.238],[0.316,-7.33],[0.379,-7.379],[0.47,-7.421],[0.659,-7.632],[0.743,-7.681],[0.869,-7.688],[0.947,-7.73],[0.989,-7.73],[1.024,-7.73],[1.073,-7.695],[1.136,-7.695],[1.22,-7.78],[1.29,-7.787],[1.339,-7.752],[1.473,-7.583],[1.536,-7.555],[1.62,-7.555],[1.69,-7.639],[1.739,-7.632],[1.795,-7.569],[1.844,-7.548],[1.914,-7.491],[1.928,-7.449],[1.893,-7.393],[1.893,-7.33],[1.921,-7.266],[1.963,-7.238],[2.068,-7.224],[2.111,-7.203],[2.166,-7.147],[2.166,-7.126],[2.188,-7.105],[2.166,-6.992],[2.23,-6.943],[2.279,-6.823],[2.328,-6.767],[2.44,-6.718],[2.524,-6.654],[2.664,-6.626],[2.727,-6.598],[2.833,-6.549],[2.903,-6.471],[2.959,-6.359],[2.98,-6.268],[3.008,-6.211]]],[[[-3.064,-6.218],[-3.029,-6.331],[-2.931,-6.415],[-2.91,-6.471],[-2.854,-6.528],[-2.755,-6.584],[-2.657,-6.612],[-2.608,-6.612],[-2.587,-6.626],[-2.524,-6.626],[-2.44,-6.647],[-2.37,-6.682],[-2.3,-6.76],[-2.279,-6.858],[-2.244,-6.915],[-2.251,-6.992],[-2.272,-7.034],[-2.265,-7.076],[-2.195,-7.161],[-2.061,-7.217],[-2.047,-7.273],[-1.977,-7.337],[-1.949,-7.435],[-1.9,-7.498],[-1.802,-7.526],[-1.634,-7.541],[-1.613,-7.576],[-1.606,-7.688],[-1.557,-7.737],[-1.479,-7.745],[-1.402,-7.723],[-1.304,-7.723],[-1.255,-7.745],[-1.199,-7.801],[-1.164,-7.808],[-1.143,-7.822],[-1.08,-7.815],[-0.883,-7.688],[-0.575,-7.646],[-0.47,-7.611],[-0.407,-7.569],[-0.315,-7.456],[-0.28,-7.386],[-0.259,-7.301],[-0.266,-7.196],[-0.294,-7.083],[-0.322,-7.055],[-0.358,-7.062],[-0.372,-7.083],[-0.4,-7.048],[-0.379,-7.013],[-0.343,-6.872],[-0.273,-6.894],[-0.266,-6.999],[-0.238,-7.105],[-0.175,-7.175],[-0.14,-7.175],[-0.098,-7.14],[-0.07,-7.076],[-0.056,-6.985],[-0.014,-6.992],[0.0,-6.999],[0.0,-6.978],[0.021,-6.971],[0.063,-6.992],[0.098,-7.083],[0.098,-7.105],[0.056,-7.133],[0.042,-7.133],[0.014,-7.097],[-0.007,-7.097],[-0.042,-7.154],[-0.042,-7.196],[-0.056,-7.196],[-0.084,-7.266],[-0.182,-7.414],[-0.182,-7.435],[-0.224,-7.463],[-0.224,-7.477],[-0.337,-7.597],[-0.54,-7.723],[-0.61,-7.745],[-0.89,-7.878],[-1.031,-7.913],[-1.213,-7.927],[-1.367,-7.913],[-1.521,-7.871],[-1.739,-7.766],[-1.788,-7.723],[-1.886,-7.674],[-1.998,-7.59],[-2.033,-7.548],[-2.159,-7.463],[-2.328,-7.301],[-2.314,-7.287],[-2.307,-7.224],[-2.314,-7.126],[-2.342,-7.097],[-2.384,-6.985],[-2.461,-6.901],[-2.566,-6.844],[-2.692,-6.809],[-2.847,-6.816],[-2.868,-6.837],[-2.875,-6.844],[-2.966,-6.774],[-2.98,-6.746],[-3.05,-6.697],[-3.085,-6.654],[-3.141,-6.619],[-3.316,-6.415],[-3.211,-6.31],[-3.099,-6.225],[-3.064,-6.218]]]]},"properties":{"abbr":"1","name":"layer 1 of cortex","plate":19,"ap_bregma_mm":1.5,"area_mm2":1.3643,"traced_fraction":[1.0,0.994],"n_labels":4,"no_drawn_outline":false}},{"type":"Feature","geometry":{"type":"MultiPolygon","coordinates":[[[[2.931,-6.183],[2.987,-6.19],[3.008,-6.211],[2.987,-6.246],[2.959,-6.359],[2.903,-6.471],[2.833,-6.549],[2.727,-6.598],[2.721,-6.464],[2.699,-6.45],[2.749,-6.331],[2.798,-6.282],[2.896,-6.225],[2.931,-6.183]]],[[[-2.959,-6.197],[-2.938,-6.225],[-2.868,-6.239],[-2.818,-6.282],[-2.755,-6.429],[-2.594,-6.5],[-2.608,-6.612],[-2.657,-6.612],[-2.755,-6.584],[-2.854,-6.528],[-2.91,-6.471],[-2.931,-6.415],[-3.029,-6.331],[-3.064,-6.218],[-3.05,-6.197],[-2.959,-6.197]]],[[[2.16,-6.992],[2.166,-6.992],[2.188,-7.076],[2.166,-7.147],[2.111,-7.203],[2.068,-7.224],[1.963,-7.238],[1.921,-7.266],[1.893,-7.33],[1.893,-7.393],[1.928,-7.449],[1.921,-7.477],[1.865,-7.534],[1.795,-7.569],[1.739,-7.632],[1.69,-7.639],[1.62,-7.555],[1.536,-7.555],[1.473,-7.583],[1.339,-7.752],[1.29,-7.787],[1.22,-7.78],[1.136,-7.695],[1.073,-7.695],[1.024,-7.73],[0.989,-7.73],[0.989,-7.611],[1.01,-7.611],[1.087,-7.562],[1.157,-7.562],[1.22,-7.632],[1.283,-7.639],[1.311,-7.618],[1.374,-7.519],[1.409,-7.491],[1.409,-7.477],[1.528,-7.4],[1.585,-7.4],[1.648,-7.442],[1.648,-7.456],[1.704,-7.505],[1.753,-7.491],[1.767,-7.491],[1.788,-7.456],[1.816,-7.435],[1.809,-7.245],[1.83,-7.189],[1.893,-7.133],[2.019,-7.133],[2.054,-7.119],[2.096,-7.083],[2.124,-7.027],[2.16,-6.992]]],[[[-1.164,-7.808],[-1.164,-7.709],[-1.143,-7.688],[-1.122,-7.688],[-1.073,-7.618],[-0.975,-7.548],[-0.673,-7.548],[-0.568,-7.526],[-0.505,-7.498],[-0.442,-7.414],[-0.414,-7.344],[-0.393,-7.154],[-0.372,-7.083],[-0.343,-7.055],[-0.309,-7.062],[-0.294,-7.083],[-0.266,-7.196],[-0.259,-7.301],[-0.28,-7.386],[-0.315,-7.456],[-0.407,-7.569],[-0.456,-7.604],[-0.547,-7.639],[-0.883,-7.688],[-1.08,-7.815],[-1.143,-7.822],[-1.164,-7.808]]]]},"properties":{"abbr":"2","name":"layer 2 of cortex","plate":19,"ap_bregma_mm":1.5,"area_mm2":0.5001,"traced_fraction":[0.895,0.953,0.981,0.977],"n_labels":4,"no_drawn_outline":false}},{"type":"Feature","geometry":{"type":"MultiPolygon","coordinates":[[[[1.332,-6.197],[1.402,-6.197],[1.423,-6.211],[1.473,-6.26],[1.522,-6.38],[1.578,-6.38],[1.606,-6.352],[1.676,-6.352],[1.718,-6.373],[1.774,-6.45],[1.767,-6.528],[1.732,-6.556],[1.669,-6.556],[1.613,-6.514],[1.585,-6.514],[1.571,-6.57],[1.515,-6.57],[1.367,-6.493],[1.311,-6.422],[1.276,-6.345],[1.276,-6.246],[1.332,-6.197]]],[[[-1.451,-6.443],[-1.5,-6.5],[-1.514,-6.5],[-1.514,-6.514],[-1.549,-6.521],[-1.634,-6.584],[-1.676,-6.584],[-1.697,-6.556],[-1.697,-6.464],[-1.683,-6.45],[-1.683,-6.422],[-1.606,-6.296],[-1.528,-6.232],[-1.458,-6.232],[-1.43,-6.26],[-1.43,-6.352],[-1.451,-6.443]]]]},"properties":{"abbr":"aca","name":"anterior commissure, anterior part","plate":19,"ap_bregma_mm":1.5,"area_mm2":0.1684,"traced_fraction":[1.0,1.0],"n_labels":2,"no_drawn_outline":false}},{"type":"Feature","geometry":{"type":"MultiPolygon","coordinates":[[[[2.699,-6.45],[2.721,-6.464],[2.727,-6.598],[2.664,-6.626],[2.524,-6.654],[2.44,-6.718],[2.328,-6.767],[2.279,-6.823],[2.23,-6.943],[2.166,-6.992],[2.16,-6.992],[2.153,-6.985],[2.145,-6.851],[2.16,-6.795],[2.216,-6.69],[2.3,-6.598],[2.342,-6.577],[2.363,-6.549],[2.412,-6.542],[2.503,-6.493],[2.699,-6.45]]],[[[-2.594,-6.5],[-2.475,-6.507],[-2.398,-6.528],[-2.286,-6.584],[-2.209,-6.668],[-2.195,-6.704],[-2.201,-6.894],[-2.201,-6.915],[-2.244,-6.915],[-2.279,-6.858],[-2.3,-6.76],[-2.37,-6.682],[-2.44,-6.647],[-2.524,-6.626],[-2.587,-6.626],[-2.608,-6.612],[-2.594,-6.5]]]]},"properties":{"abbr":"Pir","name":"piriform cortex","plate":19,"ap_bregma_mm":1.5,"area_mm2":0.1769,"traced_fraction":[0.935,0.954],"n_labels":2,"no_drawn_outline":false}},{"type":"Feature","geometry":{"type":"MultiPolygon","coordinates":[[[[0.28,-6.64],[0.288,-6.682],[0.274,-6.957],[0.301,-6.999],[0.267,-7.034],[0.246,-7.161],[0.203,-7.161],[0.182,-7.175],[0.126,-7.161],[0.084,-7.196],[0.063,-7.168],[0.056,-7.133],[0.098,-7.105],[0.098,-7.083],[0.063,-6.992],[0.021,-6.971],[0.021,-6.886],[0.042,-6.577],[0.063,-6.471],[0.133,-6.429],[0.21,-6.45],[0.252,-6.591],[0.28,-6.64]]],[[[-0.042,-6.457],[-0.049,-6.514],[-0.021,-6.894],[-0.028,-6.964],[-0.014,-6.971],[-0.014,-6.992],[-0.056,-6.985],[-0.07,-7.076],[-0.098,-7.14],[-0.14,-7.175],[-0.175,-7.175],[-0.238,-7.105],[-0.266,-6.999],[-0.273,-6.894],[-0.259,-6.668],[-0.217,-6.514],[-0.182,-6.471],[-0.14,-6.443],[-0.042,-6.457]]]]},"properties":{"abbr":"VDB","name":"nucleus of the vertical limb of the diagonal band","plate":19,"ap_bregma_mm":1.5,"area_mm2":0.3042,"traced_fraction":[0.996,0.98],"n_labels":2,"no_drawn_outline":false}},{"type":"Feature","geometry":{"type":"MultiPolygon","coordinates":[[[[2.945,-6.753],[2.819,-6.936],[2.713,-7.041],[2.51,-7.147],[2.342,-7.28],[2.258,-7.33],[2.237,-7.273],[2.293,-7.111],[2.342,-7.02],[2.426,-6.936],[2.524,-6.865],[2.699,-6.781],[2.798,-6.753],[2.945,-6.753]]],[[[-2.328,-7.301],[-2.503,-7.14],[-2.58,-7.09],[-2.868,-6.851],[-2.868,-6.837],[-2.847,-6.816],[-2.692,-6.809],[-2.566,-6.844],[-2.461,-6.901],[-2.384,-6.985],[-2.349,-7.083],[-2.314,-7.126],[-2.307,-7.224],[-2.314,-7.287],[-2.328,-7.301]]]]},"properties":{"abbr":"lo","name":"lateral olfactory tract","plate":19,"ap_bregma_mm":1.5,"area_mm2":0.2653,"traced_fraction":[1.0,1.0],"n_labels":2,"no_drawn_outline":false}},{"type":"Feature","geometry":{"type":"MultiPolygon","coordinates":[[[[-2.026,-6.408],[-1.977,-6.422],[-1.9,-6.528],[-1.858,-6.668],[-1.83,-6.711],[-1.844,-6.711],[-1.844,-6.767],[-1.816,-6.886],[-1.732,-7.034],[-1.683,-7.083],[-1.676,-7.111],[-1.69,-7.126],[-1.725,-7.126],[-1.774,-7.105],[-1.858,-7.006],[-1.942,-6.844],[-2.005,-6.647],[-2.026,-6.507],[-2.026,-6.493],[-2.026,-6.408]]],[[[1.949,-6.858],[2.047,-6.95],[2.153,-6.985],[2.16,-6.992],[2.124,-7.027],[2.096,-7.083],[2.054,-7.119],[2.019,-7.133],[1.893,-7.133],[1.83,-7.189],[1.809,-7.245],[1.816,-7.435],[1.788,-7.456],[1.76,-7.365],[1.739,-7.344],[1.739,-7.28],[1.76,-7.231],[1.753,-7.168],[1.739,-7.168],[1.662,-7.252],[1.557,-7.28],[1.543,-7.294],[1.55,-7.322],[1.655,-7.372],[1.753,-7.491],[1.704,-7.505],[1.648,-7.456],[1.648,-7.442],[1.585,-7.4],[1.528,-7.4],[1.409,-7.477],[1.374,-7.463],[1.374,-7.337],[1.227,-7.337],[1.227,-7.358],[1.213,-7.358],[1.199,-7.351],[1.178,-7.322],[1.164,-7.28],[1.143,-7.273],[1.101,-7.196],[1.143,-7.189],[1.143,-7.168],[1.339,-7.154],[1.5,-7.097],[1.655,-7.02],[1.697,-7.013],[1.697,-6.922],[1.767,-6.922],[1.76,-6.971],[1.844,-6.957],[1.949,-6.858]]],[[[0.491,-6.943],[0.54,-6.964],[0.603,-7.034],[0.603,-7.048],[0.582,-7.048],[0.561,-7.076],[0.561,-7.154],[0.589,-7.175],[0.694,-7.168],[0.694,-7.189],[0.498,-7.189],[0.498,-7.041],[0.47,-7.006],[0.491,-6.943]]],[[[-0.54,-7.069],[-0.484,-7.076],[-0.463,-7.133],[-0.533,-7.196],[-0.61,-7.231],[-0.701,-7.231],[-0.715,-7.21],[-0.659,-7.147],[-0.54,-7.069]]],[[[1.515,-7.133],[1.473,-7.154],[1.465,-7.189],[1.515,-7.217],[1.543,-7.217],[1.557,-7.203],[1.564,-7.14],[1.515,-7.133]]]]},"properties":{"abbr":"VP","name":"ventral pallidum","plate":19,"ap_bregma_mm":1.5,"area_mm2":0.371,"traced_fraction":[1.0,0.955,0.77,1.0,1.0],"n_labels":5,"no_drawn_outline":false}},{"type":"Feature","geometry":{"type":"MultiPolygon","coordinates":[[[[-0.925,-6.542],[-0.301,-6.542],[-0.351,-6.654],[-0.351,-6.732],[-0.351,-6.753],[-0.393,-6.795],[-0.442,-6.936],[-0.491,-7.006],[-0.498,-7.041],[-0.526,-7.041],[-0.54,-7.069],[-0.659,-7.147],[-0.715,-7.21],[-0.841,-7.28],[-0.975,-7.315],[-1.269,-7.301],[-1.325,-7.266],[-1.36,-7.266],[-1.395,-7.231],[-1.465,-7.217],[-1.563,-7.168],[-1.613,-7.126],[-1.676,-7.111],[-1.683,-7.083],[-1.732,-7.034],[-1.816,-6.886],[-1.844,-6.767],[-1.844,-6.711],[-1.83,-6.711],[-1.795,-6.725],[-1.725,-6.788],[-1.578,-6.844],[-1.493,-6.858],[-1.262,-6.851],[-1.15,-6.809],[-1.073,-6.732],[-1.059,-6.732],[-0.989,-6.661],[-0.925,-6.542]]],[[[1.893,-6.661],[1.893,-6.697],[1.767,-6.922],[1.697,-6.922],[1.697,-7.013],[1.655,-7.02],[1.5,-7.097],[1.339,-7.154],[1.143,-7.168],[1.143,-7.189],[1.101,-7.196],[1.094,-7.196],[0.989,-7.175],[0.989,-6.908],[1.003,-6.908],[1.003,-6.809],[1.136,-6.682],[1.234,-6.753],[1.36,-6.795],[1.416,-6.809],[1.564,-6.809],[1.718,-6.76],[1.795,-6.718],[1.851,-6.668],[1.893,-6.661]]]]},"properties":{"abbr":"LAcbSh","name":"lateral accumbens shell","plate":19,"ap_bregma_mm":1.5,"area_mm2":0.9811,"traced_fraction":[0.837,0.77],"n_labels":2,"no_drawn_outline":false}},{"type":"Feature","geometry":{"type":"MultiPolygon","coordinates":[[[[0.288,-6.682],[0.309,-6.704],[0.337,-6.704],[0.372,-6.682],[0.428,-6.83],[0.428,-6.865],[0.372,-6.879],[0.379,-6.95],[0.407,-6.999],[0.47,-7.006],[0.498,-7.041],[0.498,-7.189],[0.694,-7.189],[0.694,-7.168],[0.743,-7.168],[0.75,-7.175],[0.771,-7.189],[0.771,-7.217],[0.785,-7.231],[0.855,-7.273],[0.905,-7.28],[0.905,-7.526],[0.848,-7.519],[0.792,-7.555],[0.729,-7.548],[0.659,-7.484],[0.645,-7.449],[0.582,-7.379],[0.428,-7.294],[0.4,-7.266],[0.379,-7.21],[0.365,-7.027],[0.337,-6.992],[0.301,-6.999],[0.274,-6.957],[0.288,-6.682]]],[[[-0.351,-6.753],[-0.322,-6.781],[-0.343,-6.872],[-0.379,-7.013],[-0.4,-7.048],[-0.372,-7.083],[-0.393,-7.154],[-0.414,-7.344],[-0.442,-7.414],[-0.505,-7.498],[-0.568,-7.526],[-0.673,-7.548],[-0.975,-7.548],[-0.975,-7.315],[-0.841,-7.28],[-0.715,-7.21],[-0.701,-7.231],[-0.61,-7.231],[-0.533,-7.196],[-0.463,-7.133],[-0.484,-7.076],[-0.498,-7.041],[-0.491,-7.006],[-0.442,-6.936],[-0.393,-6.795],[-0.351,-6.753]]]]},"properties":{"abbr":"mfb","name":"medial forebrain bundle","plate":19,"ap_bregma_mm":1.5,"area_mm2":0.3777,"traced_fraction":[0.854,0.928],"n_labels":2,"no_drawn_outline":false}},{"type":"Feature","geometry":{"type":"MultiPolygon","coordinates":[[[[-2.244,-6.915],[-2.201,-6.915],[-2.174,-7.027],[-2.124,-7.076],[-2.096,-7.09],[-1.97,-7.083],[-1.921,-7.119],[-1.893,-7.182],[-1.879,-7.33],[-1.837,-7.393],[-1.795,-7.407],[-1.563,-7.407],[-1.507,-7.463],[-1.479,-7.59],[-1.458,-7.611],[-1.402,-7.611],[-1.311,-7.548],[-1.248,-7.548],[-1.185,-7.604],[-1.143,-7.688],[-1.164,-7.709],[-1.164,-7.808],[-1.199,-7.801],[-1.255,-7.745],[-1.304,-7.723],[-1.402,-7.723],[-1.479,-7.745],[-1.557,-7.737],[-1.606,-7.688],[-1.613,-7.576],[-1.634,-7.541],[-1.802,-7.526],[-1.9,-7.498],[-1.949,-7.435],[-1.977,-7.337],[-2.047,-7.273],[-2.061,-7.217],[-2.195,-7.161],[-2.265,-7.076],[-2.272,-7.034],[-2.251,-6.992],[-2.244,-6.915]]],[[[0.905,-7.526],[0.933,-7.597],[0.989,-7.611],[0.989,-7.73],[0.947,-7.73],[0.869,-7.688],[0.743,-7.681],[0.659,-7.632],[0.47,-7.421],[0.379,-7.379],[0.316,-7.33],[0.259,-7.238],[0.246,-7.161],[0.267,-7.034],[0.301,-6.999],[0.337,-6.992],[0.365,-7.027],[0.379,-7.21],[0.4,-7.266],[0.428,-7.294],[0.582,-7.379],[0.645,-7.449],[0.659,-7.484],[0.729,-7.548],[0.792,-7.555],[0.848,-7.519],[0.905,-7.526]]]]},"properties":{"abbr":"Tu","name":"olfactory tubercle","plate":19,"ap_bregma_mm":1.5,"area_mm2":0.3258,"traced_fraction":[0.982,0.969],"n_labels":2,"no_drawn_outline":false}},{"type":"Feature","geometry":{"type":"MultiPolygon","coordinates":[[[[3.008,-1.731],[3.66,-2.069],[4.074,-2.329],[4.067,-2.357],[4.039,-2.378],[3.969,-2.491],[3.856,-2.61],[3.786,-2.716],[3.611,-2.913],[3.492,-3.074],[3.218,-3.363],[3.218,-3.377],[3.183,-3.398],[3.12,-3.482],[3.008,-3.588],[3.008,-3.602],[2.938,-3.672],[2.924,-3.672],[2.861,-3.588],[2.742,-3.475],[2.594,-3.384],[2.391,-3.292],[2.503,-3.053],[2.671,-2.61],[2.706,-2.547],[3.008,-1.738],[3.008,-1.731]]],[[[-3.057,-1.977],[-3.057,-1.984],[-2.601,-3.06],[-2.517,-3.222],[-2.461,-3.37],[-2.37,-3.532],[-2.405,-3.567],[-2.517,-3.616],[-2.566,-3.658],[-2.594,-3.665],[-2.713,-3.757],[-2.839,-3.904],[-2.91,-3.862],[-3.19,-3.637],[-3.232,-3.588],[-3.358,-3.496],[-3.527,-3.335],[-3.541,-3.335],[-3.835,-3.046],[-3.849,-3.046],[-4.088,-2.8],[-4.102,-2.8],[-4.207,-2.681],[-4.214,-2.674],[-4.137,-2.603],[-3.989,-2.512],[-3.919,-2.449],[-3.716,-2.308],[-3.499,-2.202],[-3.267,-2.069],[-3.057,-1.977]]]]},"properties":{"abbr":"S1FL","name":"primary somatosensory cortex, forelimb region","plate":19,"ap_bregma_mm":1.5,"area_mm2":3.3555,"traced_fraction":[0.987,0.999],"n_labels":2,"no_drawn_outline":false}},{"type":"Feature","geometry":{"type":"MultiPolygon","coordinates":[[[[4.228,-2.434],[4.417,-2.561],[4.613,-2.744],[4.613,-2.758],[4.824,-2.997],[4.852,-3.06],[4.908,-3.131],[5.006,-3.321],[5.055,-3.489],[5.062,-3.693],[5.048,-3.841],[4.915,-3.827],[4.494,-3.841],[4.403,-3.855],[3.905,-3.855],[3.821,-3.869],[3.415,-3.876],[3.415,-3.574],[3.302,-3.475],[3.302,-3.454],[3.323,-3.447],[3.323,-3.433],[3.436,-3.328],[3.436,-3.314],[3.737,-2.997],[3.737,-2.983],[3.94,-2.779],[3.94,-2.765],[4.003,-2.709],[4.095,-2.589],[4.2,-2.484],[4.228,-2.434]]],[[[-4.34,-2.786],[-4.011,-3.117],[-3.996,-3.117],[-3.702,-3.377],[-3.59,-3.454],[-3.513,-3.532],[-3.302,-3.679],[-3.274,-3.714],[-3.134,-3.792],[-2.966,-3.911],[-2.945,-3.911],[-2.91,-3.862],[-2.839,-3.904],[-2.903,-4.038],[-4.081,-3.911],[-4.599,-3.841],[-5.006,-3.806],[-4.957,-3.588],[-4.852,-3.37],[-4.726,-3.18],[-4.599,-3.039],[-4.599,-3.025],[-4.41,-2.835],[-4.34,-2.786]]]]},"properties":{"abbr":"S1J","name":"primary somatosensory cortex, jaw region","plate":19,"ap_bregma_mm":1.5,"area_mm2":2.8779,"traced_fraction":[0.921,0.999],"n_labels":1,"no_drawn_outline":false}},{"type":"Feature","geometry":{"type":"MultiPolygon","coordinates":[[[[2.089,-3.257],[2.089,-3.419],[1.991,-3.412],[1.83,-3.433],[1.648,-3.496],[1.55,-3.567],[1.15,-3.989],[0.947,-4.27],[0.841,-4.383],[0.75,-4.509],[0.568,-4.509],[0.568,-4.587],[0.512,-4.587],[0.512,-4.826],[0.056,-4.847],[-0.189,-4.84],[-0.421,-4.861],[-0.428,-4.826],[-0.505,-4.713],[-0.47,-4.685],[-0.407,-4.685],[-0.4,-4.34],[-0.28,-4.418],[-0.182,-4.432],[-0.182,-4.474],[-0.042,-4.474],[-0.042,-4.418],[0.014,-4.418],[0.035,-4.404],[0.07,-4.404],[0.323,-4.404],[0.414,-4.376],[0.505,-4.319],[0.694,-4.108],[0.736,-4.094],[0.841,-3.954],[0.855,-3.918],[0.905,-3.869],[0.947,-3.848],[1.024,-3.736],[1.052,-3.714],[1.108,-3.616],[1.213,-3.51],[1.318,-3.377],[1.451,-3.264],[1.515,-3.236],[1.627,-3.215],[1.886,-3.222],[2.089,-3.257]]]]},"properties":{"abbr":"gcc","name":"genu of the corpus callosum","plate":19,"ap_bregma_mm":1.5,"area_mm2":0.948,"traced_fraction":[0.826],"n_labels":1,"no_drawn_outline":false}},{"type":"Feature","geometry":{"type":"MultiPolygon","coordinates":[[[[0.568,-4.587],[0.589,-4.587],[0.589,-4.657],[0.659,-4.657],[0.603,-4.784],[0.568,-4.791],[0.54,-4.826],[0.512,-4.826],[0.512,-4.587],[0.568,-4.587]]]]},"properties":{"abbr":"E","name":"ependyma and subependymal layer","plate":19,"ap_bregma_mm":1.5,"area_mm2":0.0225,"traced_fraction":[0.453],"n_labels":1,"no_drawn_outline":true}},{"type":"Feature","geometry":{"type":"MultiPolygon","coordinates":[[[[2.945,-4.383],[2.987,-4.39],[3.085,-4.439],[3.267,-4.551],[3.485,-4.657],[3.492,-4.671],[4.326,-5.121],[4.13,-5.388],[3.807,-5.74],[3.758,-5.691],[3.639,-5.62],[3.45,-5.473],[3.415,-5.459],[3.394,-5.431],[3.239,-5.332],[3.106,-5.22],[2.91,-5.086],[2.854,-5.03],[2.784,-4.995],[2.791,-4.938],[2.889,-4.65],[2.945,-4.383]]],[[[-2.917,-4.502],[-2.882,-4.636],[-2.861,-4.826],[-2.812,-4.966],[-2.784,-5.107],[-3.134,-5.353],[-3.176,-5.395],[-3.373,-5.522],[-3.386,-5.543],[-3.807,-5.817],[-3.849,-5.867],[-4.13,-5.543],[-4.319,-5.269],[-4.312,-5.262],[-3.849,-5.009],[-3.821,-4.98],[-3.66,-4.903],[-3.394,-4.741],[-3.106,-4.594],[-3.099,-4.58],[-2.98,-4.516],[-2.917,-4.502]]]]},"properties":{"abbr":"S2","name":"secondary somatosensory cortex","plate":19,"ap_bregma_mm":1.5,"area_mm2":1.9929,"traced_fraction":[1.0,1.0],"n_labels":2,"no_drawn_outline":false}},{"type":"Feature","geometry":{"type":"MultiPolygon","coordinates":[[[[0.217,-5.121],[0.224,-5.184],[0.203,-5.283],[0.133,-5.36],[0.063,-5.374],[0.077,-5.241],[0.056,-5.177],[0.021,-5.177],[-0.007,-5.22],[-0.007,-5.374],[-0.063,-5.353],[-0.119,-5.29],[-0.133,-5.255],[-0.133,-5.135],[-0.063,-5.044],[-0.063,-5.009],[0.091,-5.016],[0.168,-5.002],[0.217,-5.121]]]]},"properties":{"abbr":"SHi","name":"septohippocampal nucleus","plate":19,"ap_bregma_mm":1.5,"area_mm2":0.0945,"traced_fraction":[1.0],"n_labels":1,"no_drawn_outline":false}},{"type":"Feature","geometry":{"type":"MultiPolygon","coordinates":[[[[2.749,-5.114],[2.763,-5.142],[2.77,-5.248],[2.819,-5.297],[2.755,-5.325],[2.749,-5.374],[2.713,-5.424],[2.706,-5.459],[2.629,-5.536],[2.552,-5.466],[2.601,-5.353],[2.615,-5.346],[2.636,-5.276],[2.692,-5.199],[2.706,-5.149],[2.734,-5.114],[2.749,-5.114]]],[[[-2.72,-5.269],[-2.678,-5.332],[-2.643,-5.424],[-2.622,-5.438],[-2.608,-5.48],[-2.566,-5.501],[-2.531,-5.543],[-2.58,-5.571],[-2.629,-5.627],[-2.664,-5.613],[-2.706,-5.564],[-2.748,-5.48],[-2.762,-5.353],[-2.741,-5.283],[-2.72,-5.269]]]]},"properties":{"abbr":"DCl","name":"dorsal part of claustrum","plate":19,"ap_bregma_mm":1.5,"area_mm2":0.0853,"traced_fraction":[0.986,1.0],"n_labels":2,"no_drawn_outline":false}},{"type":"Feature","geometry":{"type":"MultiPolygon","coordinates":[[[[2.784,-4.995],[2.854,-5.03],[2.91,-5.086],[3.106,-5.22],[3.239,-5.332],[3.394,-5.431],[3.415,-5.459],[3.45,-5.473],[3.639,-5.62],[3.758,-5.691],[3.807,-5.74],[3.667,-5.937],[3.036,-5.473],[2.819,-5.297],[2.77,-5.248],[2.763,-5.142],[2.749,-5.114],[2.755,-5.044],[2.784,-4.995]]],[[[-2.784,-5.107],[-2.741,-5.177],[-2.72,-5.269],[-2.734,-5.269],[-2.762,-5.353],[-3.373,-5.775],[-3.386,-5.796],[-3.443,-5.824],[-3.457,-5.846],[-3.513,-5.874],[-3.527,-5.895],[-3.681,-5.986],[-3.709,-6.014],[-3.709,-6.035],[-3.751,-6.0],[-3.849,-5.867],[-3.807,-5.817],[-3.386,-5.543],[-3.373,-5.522],[-3.176,-5.395],[-3.134,-5.353],[-2.784,-5.107]]]]},"properties":{"abbr":"GI","name":"granular insular cortex","plate":19,"ap_bregma_mm":1.5,"area_mm2":0.5562,"traced_fraction":[1.0,1.0],"n_labels":2,"no_drawn_outline":false}},{"type":"Feature","geometry":{"type":"MultiPolygon","coordinates":[[[[2.552,-5.466],[2.629,-5.536],[2.643,-5.592],[2.636,-5.719],[2.587,-5.824],[2.538,-5.881],[2.517,-5.93],[2.489,-5.958],[2.384,-5.965],[2.321,-5.888],[2.328,-5.775],[2.349,-5.712],[2.363,-5.705],[2.419,-5.585],[2.489,-5.494],[2.552,-5.466]]],[[[-2.531,-5.543],[-2.503,-5.543],[-2.412,-5.606],[-2.328,-5.733],[-2.342,-5.733],[-2.342,-5.782],[-2.321,-5.839],[-2.335,-5.951],[-2.377,-5.986],[-2.454,-5.979],[-2.524,-5.909],[-2.608,-5.775],[-2.636,-5.684],[-2.629,-5.627],[-2.58,-5.571],[-2.531,-5.543]]]]},"properties":{"abbr":"VCl","name":"ventral part of claustrum","plate":19,"ap_bregma_mm":1.5,"area_mm2":0.2017,"traced_fraction":[1.0,1.0],"n_labels":2,"no_drawn_outline":false}},{"type":"Feature","geometry":{"type":"MultiPolygon","coordinates":[[[[2.706,-5.459],[3.527,-6.113],[3.527,-6.127],[3.513,-6.148],[3.365,-6.345],[3.281,-6.422],[3.26,-6.422],[3.169,-6.324],[3.064,-6.239],[3.008,-6.211],[2.987,-6.19],[2.931,-6.183],[2.706,-6.078],[2.517,-5.93],[2.524,-5.902],[2.587,-5.824],[2.636,-5.719],[2.643,-5.592],[2.629,-5.536],[2.706,-5.459]]],[[[-2.706,-5.564],[-2.664,-5.613],[-2.629,-5.627],[-2.636,-5.684],[-2.615,-5.761],[-2.524,-5.909],[-2.454,-5.979],[-2.51,-6.035],[-2.573,-6.05],[-2.706,-6.12],[-2.924,-6.176],[-2.959,-6.197],[-3.05,-6.197],[-3.064,-6.218],[-3.085,-6.218],[-3.148,-6.26],[-3.316,-6.415],[-3.351,-6.394],[-3.464,-6.254],[-3.555,-6.169],[-3.555,-6.155],[-3.513,-6.12],[-3.415,-6.064],[-3.183,-5.895],[-3.155,-5.888],[-3.134,-5.86],[-3.099,-5.846],[-3.05,-5.796],[-2.917,-5.712],[-2.769,-5.592],[-2.706,-5.564]]]]},"properties":{"abbr":"AI","name":"agranular insular cortex","plate":19,"ap_bregma_mm":1.5,"area_mm2":0.8251,"traced_fraction":[1.0,0.971],"n_labels":2,"no_drawn_outline":false}},{"type":"Feature","geometry":{"type":"Polygon","coordinates":[[[0.512,-4.826],[0.54,-4.826],[0.547,-4.84],[0.603,-4.847],[0.61,-4.91],[0.666,-5.051],[0.673,-5.114],[0.582,-5.128],[0.547,-5.107],[0.449,-5.093],[0.33,-5.093],[0.217,-5.121],[0.168,-5.002],[0.091,-5.016],[-0.063,-5.009],[-0.063,-5.044],[-0.133,-5.135],[-0.182,-5.114],[-0.287,-5.1],[-0.372,-5.1],[-0.47,-5.142],[-0.533,-5.121],[-0.512,-5.058],[-0.442,-4.938],[-0.421,-4.861],[-0.189,-4.84],[0.056,-4.847],[0.512,-4.826]]]},"properties":{"abbr":null,"name":"unnamed sealed face","plate":19,"ap_bregma_mm":1.5,"index":0}},{"type":"Feature","geometry":{"type":"Polygon","coordinates":[[[0.063,-5.374],[0.063,-5.937],[0.063,-6.471],[0.042,-6.577],[0.021,-6.886],[-0.021,-6.894],[-0.049,-6.514],[-0.042,-6.457],[-0.042,-6.19],[0.0,-5.431],[-0.007,-5.374],[-0.014,-5.248],[0.0,-5.199],[0.021,-5.177],[0.056,-5.177],[0.056,-5.199],[0.07,-5.199],[0.077,-5.29],[0.063,-5.374]]]},"properties":{"abbr":null,"name":"unnamed sealed face","plate":19,"ap_bregma_mm":1.5,"index":1}},{"type":"Feature","geometry":{"type":"Polygon","coordinates":[[[-1.451,-6.443],[-1.36,-6.443],[-1.325,-6.471],[-1.325,-6.528],[-1.353,-6.584],[-1.423,-6.64],[-1.493,-6.647],[-1.521,-6.633],[-1.528,-6.612],[-1.521,-6.57],[-1.493,-6.535],[-1.5,-6.514],[-1.514,-6.514],[-1.514,-6.5],[-1.5,-6.5],[-1.451,-6.443]]]},"properties":{"abbr":null,"name":"unnamed sealed face","plate":19,"ap_bregma_mm":1.5,"index":2}},{"type":"Feature","geometry":{"type":"Polygon","coordinates":[[[1.949,-6.591],[1.977,-6.647],[1.977,-6.788],[1.949,-6.858],[1.844,-6.957],[1.76,-6.971],[1.767,-6.922],[1.893,-6.697],[1.893,-6.661],[1.928,-6.598],[1.949,-6.591]]]},"properties":{"abbr":null,"name":"unnamed sealed face","plate":19,"ap_bregma_mm":1.5,"index":3}},{"type":"Feature","geometry":{"type":"Polygon","coordinates":[[[0.603,-7.034],[0.694,-7.034],[0.694,-7.097],[0.743,-7.119],[0.743,-7.168],[0.694,-7.168],[0.589,-7.175],[0.561,-7.154],[0.561,-7.076],[0.582,-7.048],[0.603,-7.048],[0.603,-7.034]]]},"properties":{"abbr":null,"name":"unnamed sealed face","plate":19,"ap_bregma_mm":1.5,"index":4}},{"type":"Feature","geometry":{"type":"Polygon","coordinates":[[[-1.563,-7.168],[-1.465,-7.217],[-1.395,-7.231],[-1.36,-7.266],[-1.325,-7.266],[-1.269,-7.301],[-1.276,-7.344],[-1.381,-7.351],[-1.416,-7.315],[-1.472,-7.301],[-1.557,-7.238],[-1.57,-7.21],[-1.563,-7.168]]]},"properties":{"abbr":null,"name":"unnamed sealed face","plate":19,"ap_bregma_mm":1.5,"index":5}},{"type":"Feature","geometry":{"type":"Polygon","coordinates":[[[1.788,-7.456],[1.788,-7.47],[1.753,-7.491],[1.655,-7.372],[1.55,-7.322],[1.543,-7.294],[1.571,-7.273],[1.662,-7.252],[1.739,-7.168],[1.753,-7.168],[1.76,-7.231],[1.739,-7.28],[1.739,-7.344],[1.76,-7.365],[1.788,-7.456]]]},"properties":{"abbr":null,"name":"unnamed sealed face","plate":19,"ap_bregma_mm":1.5,"index":6}},{"type":"Feature","geometry":{"type":"Polygon","coordinates":[[[-0.084,-7.266],[0.035,-7.33],[0.049,-7.358],[0.049,-7.428],[0.035,-7.456],[-0.007,-7.484],[-0.091,-7.484],[-0.182,-7.435],[-0.182,-7.414],[-0.084,-7.266]]]},"properties":{"abbr":null,"name":"unnamed sealed face","plate":19,"ap_bregma_mm":1.5,"index":7}},{"type":"Feature","geometry":{"type":"Polygon","coordinates":[[[1.409,-7.477],[1.409,-7.491],[1.374,-7.519],[1.339,-7.484],[1.227,-7.484],[1.227,-7.463],[1.199,-7.435],[1.213,-7.358],[1.227,-7.358],[1.227,-7.337],[1.374,-7.337],[1.374,-7.463],[1.409,-7.477]]]},"properties":{"abbr":null,"name":"unnamed sealed face","plate":19,"ap_bregma_mm":1.5,"index":8}},{"type":"Feature","geometry":{"type":"MultiPolygon","coordinates":[[[[-1.164,-7.92],[-1.36,-7.906],[-1.536,-7.857],[-1.697,-7.78],[-1.872,-7.674],[-2.167,-7.449],[-2.496,-7.147],[-2.797,-6.908],[-3.162,-6.591],[-3.492,-6.225],[-3.737,-6.007],[-4.144,-5.515],[-4.515,-4.995],[-4.824,-4.53],[-4.971,-4.249],[-5.006,-4.115],[-5.02,-3.94],[-4.999,-3.743],[-4.957,-3.595],[-4.859,-3.384],[-4.719,-3.173],[-4.585,-3.011],[-4.431,-2.856],[-4.144,-2.61],[-3.723,-2.315],[-3.169,-2.019],[-2.847,-1.886],[-2.601,-1.801],[-2.026,-1.647],[-1.507,-1.569],[-1.003,-1.562],[-0.834,-1.583],[-0.652,-1.626],[-0.54,-1.661],[-0.4,-1.731],[-0.259,-1.851],[-0.168,-2.012],[-0.14,-2.118],[-0.07,-2.603],[0.014,-2.589],[-0.07,-2.61],[-0.063,-2.645],[0.014,-2.638],[0.0,-2.019],[0.035,-1.851],[0.07,-1.78],[0.147,-1.696],[0.21,-1.647],[0.316,-1.598],[0.561,-1.527],[0.862,-1.485],[1.711,-1.464],[2.23,-1.513],[2.742,-1.619],[2.875,-1.661],[3.66,-2.076],[4.067,-2.322],[4.417,-2.568],[4.586,-2.723],[4.81,-2.99],[4.915,-3.159],[4.999,-3.328],[5.048,-3.496],[5.055,-3.651],[5.034,-3.89],[4.992,-4.038],[4.929,-4.193],[4.761,-4.495],[4.249,-5.22],[4.109,-5.395],[3.786,-5.754],[3.569,-6.064],[3.344,-6.352],[2.938,-6.753],[2.805,-6.936],[2.713,-7.027],[2.503,-7.147],[2.251,-7.33],[2.061,-7.498],[1.718,-7.709],[1.494,-7.822],[1.311,-7.878],[1.15,-7.885],[0.736,-7.745],[0.477,-7.611],[0.274,-7.456],[0.168,-7.337],[0.063,-7.161],[-0.056,-7.189],[-0.091,-7.259],[0.026,-7.327],[0.044,-7.362],[0.044,-7.415],[0.018,-7.459],[-0.018,-7.477],[-0.088,-7.477],[-0.196,-7.428],[-0.337,-7.583],[-0.491,-7.688],[-0.883,-7.864],[-1.003,-7.899],[-1.129,-7.913],[-1.164,-7.92]]]]},"properties":{"abbr":"brain_outline","name":"outline of the section","plate":19,"ap_bregma_mm":1.5}}]}
