{"type":"FeatureCollection","name":"GerbilAtlas plate 35","note":"Region extents cut from the atlas drawing (METHODS.md, Region extents). Coordinates are [ML, DV] in mm, ML positive to the right of the plate as printed, DV negative below the dorsal surface; AP is the plate bregma. traced_fraction is the share of each polygon boundary the atlas actually draws; below 0.5 the boundary is an estimate. no_drawn_outline marks a feature that lies only inside boundaries the atlas draws round more than one name and prints nothing within, so the whole of its outline is where the extraction cut it. Not a segmentation.","plate":35,"ap_bregma_mm":-4.1,"features":[{"type":"Feature","geometry":{"type":"MultiPolygon","coordinates":[[[[2.308,-4.289],[2.294,-4.584],[1.972,-5.175],[1.929,-5.203],[1.901,-5.225],[1.81,-5.26],[1.537,-5.231],[1.425,-5.161],[1.376,-4.922],[1.46,-4.788],[1.88,-4.591],[2.308,-4.289]]],[[[-2.228,-4.451],[-2.179,-4.472],[-1.59,-4.824],[-1.506,-4.999],[-1.52,-5.217],[-1.59,-5.316],[-1.73,-5.351],[-1.808,-5.351],[-2.06,-5.253],[-2.2,-5.091],[-2.228,-4.451]]]]},"properties":{"abbr":"APT","name":"anterior pretectal nucleus","plate":35,"ap_bregma_mm":-4.1,"area_mm2":0.8919,"traced_fraction":[1.0,0.955],"n_labels":2,"no_drawn_outline":false}},{"type":"Feature","geometry":{"type":"MultiPolygon","coordinates":[[[[-5.503,-6.652],[-5.341,-6.905],[-5.334,-7.299],[-5.566,-7.299],[-5.776,-7.306],[-5.965,-7.285],[-6.007,-7.271],[-6.225,-7.194],[-6.134,-6.976],[-5.937,-6.751],[-5.72,-6.652],[-5.503,-6.652]]],[[[5.73,-7.489],[5.568,-7.552],[5.491,-7.56],[5.491,-7.56],[5.407,-7.567],[5.19,-7.531],[5.176,-7.524],[5.176,-7.524],[5.028,-7.447],[5.028,-7.447],[5.015,-7.44],[4.888,-7.377],[4.874,-7.37],[4.874,-7.37],[4.776,-7.363],[4.811,-7.348],[4.888,-7.032],[5.07,-6.814],[5.337,-6.863],[5.561,-7.032],[5.667,-7.208],[5.73,-7.489]]]]},"properties":{"abbr":"APir","name":"amygdalopiriform transition area","plate":35,"ap_bregma_mm":-4.1,"area_mm2":0.9242,"traced_fraction":[0.994,0.941],"n_labels":2,"no_drawn_outline":false}},{"type":"Feature","geometry":{"type":"MultiPolygon","coordinates":[[[[0.022,-4.507],[-0.048,-4.753],[-0.104,-4.479],[-0.139,-4.282],[-0.027,-4.162],[0.078,-4.282],[0.022,-4.507]]]]},"properties":{"abbr":"Aq","name":"aqueduct","plate":35,"ap_bregma_mm":-4.1,"area_mm2":0.0659,"traced_fraction":[0.983],"n_labels":1,"no_drawn_outline":false}},{"type":"Feature","geometry":{"type":"MultiPolygon","coordinates":[[[[-5.902,-2.116],[-5.152,-2.868],[-5.615,-3.445],[-6.498,-2.798],[-6.463,-2.728],[-6.442,-2.664],[-6.442,-2.714],[-6.407,-2.65],[-6.372,-2.615],[-6.372,-2.615],[-6.351,-2.587],[-6.337,-2.573],[-6.33,-2.559],[-5.902,-2.116]]],[[[6.34,-2.369],[6.886,-3.115],[5.842,-3.684],[5.442,-3.1],[6.34,-2.369]]]]},"properties":{"abbr":"AuD","name":"secondary auditory cortex, dorsal area","plate":35,"ap_bregma_mm":-4.1,"area_mm2":1.8538,"traced_fraction":[1.0,1.0],"n_labels":2,"no_drawn_outline":false}},{"type":"Feature","geometry":{"type":"MultiPolygon","coordinates":[[[[-6.498,-2.798],[-5.615,-3.445],[-5.958,-4.064],[-6.134,-4.577],[-7.333,-4.423],[-7.122,-3.818],[-7.157,-3.783],[-7.108,-3.762],[-7.108,-3.762],[-7.101,-3.74],[-6.498,-2.798]]],[[[6.886,-3.115],[6.971,-3.22],[6.978,-3.234],[6.992,-3.255],[6.999,-3.269],[6.999,-3.269],[7.013,-3.283],[7.307,-4.043],[7.314,-4.085],[7.314,-4.085],[7.321,-4.12],[7.314,-4.155],[7.321,-4.12],[7.328,-4.162],[7.328,-4.162],[7.335,-4.205],[7.356,-4.669],[6.108,-4.76],[6.073,-4.268],[5.842,-3.684],[6.886,-3.115]]]]},"properties":{"abbr":"AuV","name":"secondary auditory cortex, ventral area","plate":35,"ap_bregma_mm":-4.1,"area_mm2":3.4885,"traced_fraction":[1.0,1.0],"n_labels":2,"no_drawn_outline":false}},{"type":"Feature","geometry":{"type":"MultiPolygon","coordinates":[[[[-3.567,-2.074],[-3.399,-2.334],[-3.231,-2.404],[-4.1,-2.805],[-4.83,-3.445],[-5.089,-3.424],[-5.096,-3.375],[-5.215,-3.536],[-5.299,-3.522],[-5.047,-3.164],[-4.598,-2.707],[-4.121,-2.355],[-3.567,-2.074]]],[[[3.43,-2.299],[4.047,-2.46],[4.348,-2.622],[4.818,-2.988],[5.211,-3.48],[5.134,-3.558],[4.951,-3.572],[4.769,-3.332],[4.362,-2.981],[4.04,-2.798],[3.065,-2.411],[3.142,-2.348],[3.43,-2.299]]]]},"properties":{"abbr":"CA1","name":"field CA1 of the hippocampus","plate":35,"ap_bregma_mm":-4.1,"area_mm2":1.4347,"traced_fraction":[0.944,0.95],"n_labels":2,"no_drawn_outline":false}},{"type":"Feature","geometry":{"type":"MultiPolygon","coordinates":[[[[4.026,-6.821],[3.304,-7.145],[3.199,-6.842],[4.026,-6.821]]]]},"properties":{"abbr":"CEnt","name":"caudomedial entothinal cortex","plate":35,"ap_bregma_mm":-4.1,"area_mm2":0.1262,"traced_fraction":[0.989],"n_labels":1,"no_drawn_outline":false}},{"type":"Feature","geometry":{"type":"MultiPolygon","coordinates":[[[[0.114,-3.74],[0.338,-3.797],[0.548,-3.994],[0.604,-4.184],[0.576,-4.444],[0.541,-4.507],[0.022,-4.507],[0.078,-4.282],[-0.027,-4.162],[-0.139,-4.282],[-0.104,-4.479],[-0.686,-4.479],[-0.714,-4.219],[-0.616,-3.98],[-0.461,-3.839],[-0.181,-3.755],[0.114,-3.74]]]]},"properties":{"abbr":"DMPAG","name":"dorsomedial periaqueductal gray","plate":35,"ap_bregma_mm":-4.1,"area_mm2":0.7945,"traced_fraction":[0.759],"n_labels":1,"no_drawn_outline":false}},{"type":"Feature","geometry":{"type":"MultiPolygon","coordinates":[[[[-2.733,-1.778],[-2.67,-2.024],[-2.453,-2.348],[-2.502,-2.481],[-2.712,-2.46],[-3.063,-2.552],[-3.231,-2.404],[-3.399,-2.334],[-3.567,-2.074],[-3.596,-1.989],[-3.112,-1.827],[-2.733,-1.778]]],[[[3.556,-2.024],[3.5,-2.2],[3.43,-2.299],[3.142,-2.348],[3.065,-2.411],[2.988,-2.517],[2.68,-2.411],[2.525,-2.467],[2.434,-2.383],[2.217,-2.32],[2.287,-2.186],[2.553,-2.003],[2.617,-1.87],[3.269,-1.933],[3.556,-2.024]]]]},"properties":{"abbr":"DS","name":"dorsal subiculum","plate":35,"ap_bregma_mm":-4.1,"area_mm2":1.0987,"traced_fraction":[0.995,0.977],"n_labels":2,"no_drawn_outline":false}},{"type":"Feature","geometry":{"type":"MultiPolygon","coordinates":[[[[-0.181,-5.344],[-0.286,-5.4],[-0.433,-4.915],[-0.546,-4.732],[-0.314,-4.725],[-0.167,-4.845],[-0.125,-5.133],[-0.181,-5.344]]],[[[0.401,-4.76],[0.31,-4.908],[0.142,-5.372],[0.065,-5.316],[-0.027,-5.126],[0.015,-4.88],[0.17,-4.746],[0.401,-4.76]]]]},"properties":{"abbr":"Dk","name":"nucleus of Darkschewitsch","plate":35,"ap_bregma_mm":-4.1,"area_mm2":0.2918,"traced_fraction":[1.0,1.0],"n_labels":2,"no_drawn_outline":false}},{"type":"Feature","geometry":{"type":"MultiPolygon","coordinates":[[[[1.663,-4.366],[1.341,-4.451],[1.081,-4.472],[0.78,-3.656],[0.513,-3.473],[0.114,-3.445],[-0.188,-3.445],[-0.721,-3.515],[-0.966,-3.656],[-1.198,-4.542],[-1.45,-4.493],[-1.597,-4.402],[-1.499,-4.373],[-1.436,-4.268],[-1.345,-3.431],[-1.261,-3.325],[-1.064,-3.234],[-0.524,-3.34],[0.941,-3.318],[1.249,-3.642],[1.432,-4.254],[1.663,-4.366]]]]},"properties":{"abbr":"DpG","name":"deep gray layer of the superior colliculus","plate":35,"ap_bregma_mm":-4.1,"area_mm2":1.2277,"traced_fraction":[0.97],"n_labels":2,"no_drawn_outline":false}},{"type":"Feature","geometry":{"type":"MultiPolygon","coordinates":[[[[-0.188,-3.445],[-0.181,-3.755],[-0.461,-3.839],[-0.616,-3.98],[-0.714,-4.219],[-0.686,-4.479],[-1.001,-4.556],[-1.198,-4.542],[-0.966,-3.656],[-0.721,-3.515],[-0.188,-3.445]]],[[[0.114,-3.445],[0.513,-3.473],[0.78,-3.656],[1.081,-4.472],[0.576,-4.444],[0.604,-4.184],[0.548,-3.994],[0.338,-3.797],[0.114,-3.74],[0.114,-3.445]]]]},"properties":{"abbr":"DpWh","name":"deep white layer of the superior colliculus","plate":35,"ap_bregma_mm":-4.1,"area_mm2":1.0248,"traced_fraction":[0.915,0.913],"n_labels":2,"no_drawn_outline":false}},{"type":"Feature","geometry":{"type":"MultiPolygon","coordinates":[[[[-7.361,-4.359],[-7.361,-4.549],[-7.333,-4.423],[-6.134,-4.577],[-6.141,-5.027],[-6.618,-5.485],[-7.164,-5.682],[-7.354,-5.231],[-7.361,-5.316],[-7.361,-4.359]]],[[[7.356,-4.669],[7.356,-4.704],[7.335,-4.929],[7.335,-4.929],[7.328,-5.013],[7.069,-5.787],[6.886,-6.012],[6.396,-5.745],[6.003,-5.309],[6.108,-4.76],[7.356,-4.669]]]]},"properties":{"abbr":"Ect","name":"ectorhinal cortex","plate":35,"ap_bregma_mm":-4.1,"area_mm2":2.3963,"traced_fraction":[0.997,1.0],"n_labels":2,"no_drawn_outline":false}},{"type":"Feature","geometry":{"type":"MultiPolygon","coordinates":[[[[-2.698,-2.763],[-3.203,-3.178],[-3.96,-3.966],[-4.318,-4.493],[-4.374,-4.838],[-4.177,-5.414],[-4.156,-5.717],[-4.198,-5.787],[-4.332,-5.801],[-4.521,-5.696],[-4.879,-5.231],[-4.977,-4.676],[-4.9,-4.345],[-4.808,-4.373],[-4.879,-4.81],[-4.802,-5.147],[-4.563,-5.492],[-4.381,-5.555],[-4.318,-5.316],[-4.444,-4.908],[-4.444,-4.676],[-4.367,-4.395],[-4.03,-3.902],[-2.993,-2.911],[-3.974,-3.389],[-4.598,-3.951],[-4.668,-3.902],[-4.381,-3.579],[-4.016,-3.29],[-3.609,-3.122],[-2.74,-2.615],[-2.67,-2.629],[-2.698,-2.763]]],[[[4.65,-5.147],[4.475,-5.372],[4.398,-5.316],[4.398,-5.147],[4.65,-5.147]]]]},"properties":{"abbr":"GrDG","name":"granular layer of the dentate gyrus","plate":35,"ap_bregma_mm":-4.1,"area_mm2":0.7949,"traced_fraction":[0.995,0.402],"n_labels":2,"no_drawn_outline":false}},{"type":"Feature","geometry":{"type":"MultiPolygon","coordinates":[[[[0.036,-6.73],[0.254,-7.18],[-0.181,-7.145],[-0.496,-7.187],[-0.307,-6.716],[-0.083,-6.652],[0.036,-6.73]]]]},"properties":{"abbr":"IF","name":"interfascicular nucleus","plate":35,"ap_bregma_mm":-4.1,"area_mm2":0.2496,"traced_fraction":[0.956],"n_labels":1,"no_drawn_outline":false}},{"type":"Feature","geometry":{"type":"MultiPolygon","coordinates":[[[[0.31,-4.908],[0.478,-5.056],[0.527,-5.246],[0.499,-5.464],[0.366,-5.738],[0.247,-5.836],[0.12,-5.815],[0.142,-5.372],[0.31,-4.908]]],[[[-0.433,-4.915],[-0.286,-5.4],[-0.293,-5.555],[-0.602,-5.555],[-0.679,-5.372],[-0.679,-5.196],[-0.602,-5.035],[-0.433,-4.915]]]]},"properties":{"abbr":"InC","name":"interstitial nucleus of Cajal","plate":35,"ap_bregma_mm":-4.1,"area_mm2":0.4301,"traced_fraction":[0.99,0.854],"n_labels":2,"no_drawn_outline":false}},{"type":"Feature","geometry":{"type":"MultiPolygon","coordinates":[[[[-0.083,-3.044],[-0.013,-3.051],[0.057,-3.051],[0.065,-3.058],[0.156,-3.143],[0.289,-3.136],[0.373,-2.847],[0.583,-2.707],[1.27,-2.756],[1.523,-2.854],[1.782,-3.037],[2.0,-3.255],[2.168,-3.607],[2.287,-3.712],[2.385,-3.79],[2.133,-3.98],[2.014,-4.078],[1.838,-3.684],[1.635,-3.41],[1.179,-3.058],[0.773,-2.974],[0.289,-3.213],[-0.111,-3.248],[-0.405,-3.171],[-0.735,-2.918],[-1.121,-2.875],[-1.408,-3.016],[-1.801,-3.382],[-1.997,-3.811],[-2.011,-4.205],[-2.228,-3.994],[-2.418,-3.839],[-2.291,-3.733],[-2.214,-3.558],[-2.137,-3.332],[-1.899,-3.023],[-1.436,-2.714],[-1.198,-2.622],[-0.826,-2.594],[-0.602,-2.636],[-0.447,-2.721],[-0.314,-3.107],[-0.16,-3.157],[-0.083,-3.044]]]]},"properties":{"abbr":"InG","name":"intermediate gray layer of the superior colliculus","plate":35,"ap_bregma_mm":-4.1,"area_mm2":1.6878,"traced_fraction":[0.992],"n_labels":2,"no_drawn_outline":false}},{"type":"Feature","geometry":{"type":"MultiPolygon","coordinates":[[[[2.014,-4.078],[1.838,-4.359],[1.663,-4.366],[1.432,-4.254],[1.249,-3.642],[0.941,-3.318],[-0.524,-3.34],[-1.064,-3.234],[-1.261,-3.325],[-1.345,-3.431],[-1.436,-4.268],[-1.499,-4.373],[-1.597,-4.402],[-1.695,-4.402],[-1.871,-4.507],[-2.011,-4.205],[-1.997,-3.811],[-1.801,-3.382],[-1.408,-3.016],[-1.121,-2.875],[-0.735,-2.918],[-0.405,-3.171],[-0.111,-3.248],[0.289,-3.213],[0.773,-2.974],[1.179,-3.058],[1.635,-3.41],[1.838,-3.684],[2.014,-4.078]]]]},"properties":{"abbr":"InWh","name":"intermediate white layer of the superior colliculus","plate":35,"ap_bregma_mm":-4.1,"area_mm2":1.9338,"traced_fraction":[0.972],"n_labels":2,"no_drawn_outline":false}},{"type":"Feature","geometry":{"type":"MultiPolygon","coordinates":[[[[-6.078,-5.442],[-5.874,-6.104],[-5.594,-6.42],[-5.271,-6.61],[-5.503,-6.652],[-5.72,-6.652],[-5.937,-6.751],[-6.134,-6.976],[-6.225,-7.194],[-6.575,-6.997],[-6.821,-6.687],[-6.828,-6.673],[-6.828,-6.673],[-6.989,-6.357],[-6.989,-6.357],[-6.996,-6.343],[-6.996,-6.343],[-7.003,-6.329],[-7.017,-6.188],[-6.989,-6.139],[-6.744,-6.076],[-6.078,-5.442]]],[[[5.849,-5.787],[6.157,-6.251],[6.417,-6.497],[6.557,-6.561],[6.564,-6.61],[6.557,-6.666],[6.375,-6.983],[6.08,-7.327],[5.73,-7.489],[5.667,-7.208],[5.561,-7.032],[5.337,-6.863],[5.07,-6.814],[4.881,-6.694],[5.526,-6.364],[5.68,-6.181],[5.849,-5.787]]]]},"properties":{"abbr":"LEnt","name":"lateral entorhinal cortex","plate":35,"ap_bregma_mm":-4.1,"area_mm2":2.54,"traced_fraction":[0.997,0.965],"n_labels":2,"no_drawn_outline":false}},{"type":"Feature","geometry":{"type":"MultiPolygon","coordinates":[[[[0.401,-7.222],[0.604,-7.285],[0.836,-7.461],[0.815,-7.623],[0.73,-7.749],[0.401,-7.222]]],[[[-0.721,-7.264],[-1.128,-7.876],[-1.156,-7.855],[-1.163,-7.841],[-1.163,-7.841],[-1.177,-7.82],[-1.177,-7.82],[-1.184,-7.806],[-1.184,-7.806],[-1.191,-7.792],[-1.184,-7.51],[-1.247,-7.545],[-1.184,-7.496],[-1.184,-7.496],[-1.17,-7.468],[-1.142,-7.44],[-0.721,-7.264]]]]},"properties":{"abbr":"LM","name":"lateral mammillary nucleus","plate":35,"ap_bregma_mm":-4.1,"area_mm2":0.2046,"traced_fraction":[1.0,1.0],"n_labels":2,"no_drawn_outline":false}},{"type":"Feature","geometry":{"type":"MultiPolygon","coordinates":[[[[-3.231,-2.404],[-3.063,-2.552],[-2.712,-2.46],[-2.502,-2.481],[-2.544,-2.728],[-2.565,-2.791],[-2.579,-2.77],[-2.698,-2.763],[-2.67,-2.629],[-2.74,-2.615],[-3.609,-3.122],[-4.016,-3.29],[-4.381,-3.579],[-4.668,-3.902],[-4.696,-3.944],[-4.815,-4.155],[-5.264,-4.134],[-4.83,-3.445],[-4.1,-2.805],[-3.231,-2.404]]],[[[3.065,-2.411],[4.04,-2.798],[4.362,-2.981],[4.601,-3.164],[4.951,-3.572],[5.281,-4.106],[5.4,-4.62],[5.295,-5.358],[5.106,-5.745],[4.888,-5.977],[4.615,-6.054],[4.432,-5.956],[4.846,-5.555],[5.099,-4.936],[5.12,-4.416],[4.986,-3.966],[4.762,-3.6],[4.355,-3.206],[2.988,-2.517],[3.065,-2.411]]]]},"properties":{"abbr":"LMol","name":"lacunosum moleculare layer of the hippocampus","plate":35,"ap_bregma_mm":-4.1,"area_mm2":2.3466,"traced_fraction":[0.936,0.978],"n_labels":2,"no_drawn_outline":false}},{"type":"Feature","geometry":{"type":"MultiPolygon","coordinates":[[[[-0.686,-4.479],[-0.104,-4.479],[-0.048,-4.753],[0.022,-4.507],[0.541,-4.507],[0.401,-4.76],[0.17,-4.746],[0.015,-4.88],[-0.027,-5.126],[0.065,-5.316],[-0.034,-5.414],[-0.055,-5.738],[-0.132,-5.731],[-0.104,-5.52],[-0.181,-5.344],[-0.125,-5.133],[-0.167,-4.845],[-0.314,-4.725],[-0.546,-4.732],[-0.686,-4.479]]]]},"properties":{"abbr":"LPAG","name":"lateral periaqueductal gray","plate":35,"ap_bregma_mm":-4.1,"area_mm2":0.4059,"traced_fraction":[0.794],"n_labels":2,"no_drawn_outline":false}},{"type":"Feature","geometry":{"type":"MultiPolygon","coordinates":[[[[0.065,-5.316],[0.142,-5.372],[0.12,-5.815],[0.043,-5.921],[-0.055,-5.738],[-0.034,-5.414],[0.065,-5.316]]],[[[-0.602,-5.555],[-0.293,-5.555],[-0.307,-5.822],[-0.419,-5.843],[-0.511,-5.752],[-0.602,-5.555]]]]},"properties":{"abbr":"MA3","name":"medial accessory oculomotor nucleus","plate":35,"ap_bregma_mm":-4.1,"area_mm2":0.1505,"traced_fraction":[0.983,0.75],"n_labels":2,"no_drawn_outline":false}},{"type":"Feature","geometry":{"type":"MultiPolygon","coordinates":[[[[-5.103,-5.921],[-4.97,-6.005],[-4.64,-5.935],[-4.29,-6.111],[-4.002,-6.16],[-3.988,-6.23],[-3.792,-6.378],[-3.764,-6.385],[-3.575,-6.512],[-3.476,-6.765],[-3.469,-6.68],[-3.441,-7.335],[-3.448,-7.215],[-3.511,-7.461],[-3.687,-7.609],[-3.722,-7.616],[-3.722,-7.616],[-4.093,-7.686],[-4.626,-7.51],[-4.647,-7.51],[-5.04,-7.363],[-5.054,-7.348],[-5.334,-7.299],[-5.341,-6.905],[-5.503,-6.652],[-5.271,-6.61],[-4.851,-6.786],[-4.577,-6.828],[-4.605,-6.737],[-5.117,-6.575],[-5.103,-5.921]]],[[[4.881,-6.694],[5.07,-6.814],[4.888,-7.032],[4.811,-7.348],[4.601,-7.356],[4.404,-7.356],[4.404,-7.356],[4.39,-7.363],[3.984,-7.419],[3.858,-7.426],[3.794,-7.419],[3.858,-7.426],[3.738,-7.433],[3.598,-7.398],[3.584,-7.391],[3.304,-7.145],[4.026,-6.821],[4.04,-6.807],[4.047,-6.807],[4.236,-6.828],[4.797,-6.701],[4.881,-6.694]]]]},"properties":{"abbr":"MEnt","name":"medial entorhinal cortex","plate":35,"ap_bregma_mm":-4.1,"area_mm2":3.2178,"traced_fraction":[0.925,0.997],"n_labels":2,"no_drawn_outline":false}},{"type":"Feature","geometry":{"type":"MultiPolygon","coordinates":[[[[2.785,-3.733],[3.255,-3.846],[3.423,-3.966],[3.549,-4.148],[3.283,-4.191],[2.743,-4.711],[2.595,-4.781],[2.603,-3.846],[2.631,-3.783],[2.785,-3.733]]],[[[-2.859,-3.769],[-2.509,-3.86],[-2.495,-3.944],[-2.565,-3.909],[-2.516,-4.395],[-2.544,-4.838],[-2.796,-4.718],[-2.999,-4.423],[-3.231,-4.254],[-3.385,-4.226],[-3.673,-4.275],[-3.511,-4.05],[-3.154,-3.804],[-2.859,-3.769]]]]},"properties":{"abbr":"MGD","name":"medial geniculate nucleus, dorsal part","plate":35,"ap_bregma_mm":-4.1,"area_mm2":1.1799,"traced_fraction":[1.0,0.994],"n_labels":2,"no_drawn_outline":false}},{"type":"Feature","geometry":{"type":"MultiPolygon","coordinates":[[[[2.406,-4.767],[2.589,-4.788],[2.589,-5.098],[2.666,-5.365],[2.666,-5.499],[2.582,-5.52],[2.322,-5.485],[2.21,-5.344],[2.252,-5.105],[2.406,-4.767]]],[[[-2.537,-4.838],[-2.327,-4.852],[-2.327,-4.873],[-2.319,-5.154],[-2.249,-5.274],[-2.158,-5.464],[-2.291,-5.534],[-2.544,-5.527],[-2.565,-5.414],[-2.537,-4.838]]]]},"properties":{"abbr":"MGM","name":"medial geniculate nucleus, medial part","plate":35,"ap_bregma_mm":-4.1,"area_mm2":0.4334,"traced_fraction":[1.0,0.982],"n_labels":2,"no_drawn_outline":false}},{"type":"Feature","geometry":{"type":"MultiPolygon","coordinates":[[[[3.549,-4.148],[3.668,-4.296],[3.675,-4.317],[3.675,-4.317],[3.682,-4.331],[3.682,-4.331],[3.689,-4.345],[3.689,-4.345],[3.696,-4.359],[3.696,-4.359],[3.703,-4.373],[3.703,-4.373],[3.71,-4.387],[3.71,-4.387],[3.717,-4.409],[3.717,-4.409],[3.724,-4.423],[3.766,-4.746],[3.759,-4.915],[3.752,-4.81],[3.647,-5.013],[3.269,-5.323],[2.666,-5.365],[2.589,-5.098],[2.589,-4.788],[2.595,-4.781],[2.743,-4.711],[3.283,-4.191],[3.549,-4.148]]],[[[-2.544,-4.838],[-2.537,-4.838],[-2.565,-5.414],[-3.042,-5.372],[-3.567,-5.21],[-3.617,-5.182],[-3.624,-5.168],[-3.771,-4.936],[-3.834,-4.711],[-3.827,-4.584],[-3.827,-4.584],[-3.82,-4.472],[-3.813,-4.563],[-3.743,-4.373],[-3.729,-4.352],[-3.729,-4.352],[-3.673,-4.275],[-3.385,-4.226],[-3.231,-4.254],[-2.999,-4.423],[-2.796,-4.718],[-2.544,-4.838]]]]},"properties":{"abbr":"MGV","name":"medial geniculate nucleus, ventral part","plate":35,"ap_bregma_mm":-4.1,"area_mm2":2.0562,"traced_fraction":[0.993,0.998],"n_labels":2,"no_drawn_outline":false}},{"type":"Feature","geometry":{"type":"MultiPolygon","coordinates":[[[[-0.581,-7.18],[-0.503,-7.208],[-0.342,-7.377],[-0.293,-7.531],[-0.433,-7.946],[-0.868,-8.024],[-1.043,-7.967],[-1.128,-7.876],[-0.721,-7.264],[-0.581,-7.18]]],[[[0.254,-7.18],[0.324,-7.187],[0.401,-7.222],[0.73,-7.749],[0.653,-7.862],[0.422,-7.946],[0.184,-7.932],[0.001,-7.714],[-0.034,-7.56],[0.05,-7.37],[0.254,-7.18]]]]},"properties":{"abbr":"ML","name":"medial mammillary nucleus, lateral part","plate":35,"ap_bregma_mm":-4.1,"area_mm2":0.8206,"traced_fraction":[0.979,1.0],"n_labels":2,"no_drawn_outline":false}},{"type":"Feature","geometry":{"type":"MultiPolygon","coordinates":[[[[0.254,-7.18],[0.05,-7.37],[-0.034,-7.56],[0.001,-7.714],[0.184,-7.932],[-0.16,-7.932],[-0.223,-7.932],[-0.433,-7.946],[-0.293,-7.531],[-0.342,-7.377],[-0.503,-7.208],[-0.496,-7.187],[-0.181,-7.145],[0.254,-7.18]]]]},"properties":{"abbr":"MM","name":"medial mammillary nucleus, medial part","plate":35,"ap_bregma_mm":-4.1,"area_mm2":0.3409,"traced_fraction":[0.984],"n_labels":1,"no_drawn_outline":false}},{"type":"Feature","geometry":{"type":"MultiPolygon","coordinates":[[[[1.018,-6.786],[1.074,-6.849],[0.962,-7.06],[0.976,-7.152],[0.955,-7.243],[0.927,-7.243],[0.913,-7.236],[0.913,-7.236],[0.899,-7.229],[0.899,-7.229],[0.885,-7.222],[0.766,-7.166],[0.766,-7.123],[0.815,-6.983],[1.018,-6.786]]],[[[-1.177,-6.948],[-1.1,-7.222],[-1.198,-7.257],[-1.233,-7.159],[-1.31,-7.152],[-1.289,-6.997],[-1.177,-6.948]]]]},"properties":{"abbr":"MT","name":"medial terminal nucleus of the accessory optic tract","plate":35,"ap_bregma_mm":-4.1,"area_mm2":0.1062,"traced_fraction":[0.963,0.754],"n_labels":2,"no_drawn_outline":false}},{"type":"Feature","geometry":{"type":"MultiPolygon","coordinates":[[[[3.647,-5.013],[3.437,-5.295],[3.423,-5.309],[3.423,-5.309],[3.402,-5.337],[3.269,-5.464],[2.666,-5.499],[2.666,-5.365],[3.269,-5.323],[3.647,-5.013]]],[[[-3.567,-5.21],[-3.042,-5.372],[-2.565,-5.414],[-2.544,-5.527],[-2.579,-5.541],[-3.014,-5.513],[-3.42,-5.407],[-3.546,-5.274],[-3.554,-5.26],[-3.567,-5.21]]]]},"properties":{"abbr":"MZMG","name":"marginal zone of the medial geniculate","plate":35,"ap_bregma_mm":-4.1,"area_mm2":0.2482,"traced_fraction":[0.984,1.0],"n_labels":2,"no_drawn_outline":false}},{"type":"Feature","geometry":{"type":"MultiPolygon","coordinates":[[[[2.988,-2.517],[4.355,-3.206],[4.762,-3.6],[4.986,-3.966],[5.12,-4.416],[5.099,-4.936],[4.846,-5.555],[4.432,-5.956],[4.145,-6.104],[3.731,-6.146],[3.71,-6.139],[3.556,-5.822],[3.584,-5.555],[3.591,-5.541],[3.591,-5.541],[3.598,-5.52],[3.598,-5.52],[3.605,-5.506],[3.612,-5.492],[3.619,-5.478],[3.619,-5.478],[3.626,-5.464],[3.626,-5.464],[3.633,-5.45],[3.633,-5.45],[3.64,-5.435],[3.64,-5.435],[3.647,-5.421],[3.647,-5.421],[3.647,-5.407],[3.858,-5.027],[3.858,-5.027],[3.851,-5.027],[3.865,-5.006],[3.865,-5.006],[3.893,-4.81],[3.886,-4.957],[3.935,-4.824],[3.893,-4.81],[3.928,-4.683],[3.921,-4.542],[3.914,-4.437],[3.773,-4.155],[3.591,-3.994],[3.437,-3.951],[3.5,-3.944],[3.479,-3.888],[3.065,-3.522],[2.68,-3.023],[2.561,-2.756],[2.525,-2.467],[2.68,-2.411],[2.988,-2.517]]],[[[2.68,-2.636],[2.652,-2.707],[2.806,-2.918],[3.64,-3.733],[3.9,-3.874],[4.138,-4.198],[4.187,-4.444],[4.159,-4.845],[3.858,-5.646],[4.012,-5.766],[4.18,-5.752],[4.58,-5.435],[4.825,-5.027],[4.888,-4.521],[4.79,-4.127],[4.587,-3.762],[4.383,-3.565],[3.794,-3.234],[3.276,-3.072],[2.799,-2.678],[2.68,-2.636]]],[[[-2.698,-2.763],[-2.579,-2.77],[-2.754,-3.065],[-2.768,-3.086],[-2.782,-3.1],[-2.978,-3.318],[-2.986,-3.34],[-3.021,-3.368],[-3.385,-3.712],[-3.399,-3.719],[-3.967,-4.359],[-4.149,-4.711],[-4.086,-4.915],[-4.079,-4.943],[-4.079,-4.943],[-4.072,-4.964],[-4.072,-4.964],[-4.065,-4.992],[-4.065,-4.992],[-4.058,-5.013],[-4.058,-5.013],[-4.051,-5.035],[-3.953,-5.358],[-3.946,-5.372],[-3.946,-5.372],[-3.939,-5.386],[-3.939,-5.386],[-3.932,-5.4],[-3.925,-5.407],[-3.918,-5.421],[-3.918,-5.421],[-3.911,-5.435],[-3.911,-5.435],[-3.806,-5.639],[-3.806,-5.639],[-3.799,-5.653],[-3.799,-5.907],[-3.911,-6.068],[-4.002,-6.16],[-4.29,-6.111],[-4.64,-5.935],[-4.97,-6.005],[-5.103,-5.921],[-5.229,-5.773],[-5.376,-5.506],[-5.489,-5.035],[-5.454,-4.669],[-5.264,-4.134],[-4.815,-4.155],[-4.872,-4.289],[-4.787,-4.324],[-4.808,-4.373],[-4.9,-4.345],[-4.977,-4.676],[-4.879,-5.231],[-4.521,-5.696],[-4.332,-5.801],[-4.198,-5.787],[-4.156,-5.717],[-4.177,-5.414],[-4.374,-4.838],[-4.318,-4.493],[-3.96,-3.966],[-3.203,-3.178],[-2.698,-2.763]]]]},"properties":{"abbr":"MoDG","name":"molecular layer of the dentate gyrus","plate":35,"ap_bregma_mm":-4.1,"area_mm2":4.6096,"traced_fraction":[0.999,0.969,0.964],"n_labels":2,"no_drawn_outline":false}},{"type":"Feature","geometry":{"type":"MultiPolygon","coordinates":[[[[2.54,-3.811],[2.35,-4.029],[2.147,-4.029],[2.133,-3.98],[2.385,-3.79],[2.54,-3.811]]],[[[-2.418,-3.839],[-2.228,-3.994],[-2.263,-4.078],[-2.439,-4.085],[-2.495,-3.944],[-2.509,-3.86],[-2.418,-3.839]]]]},"properties":{"abbr":"OT","name":"nucleus of the optic tract","plate":35,"ap_bregma_mm":-4.1,"area_mm2":0.0952,"traced_fraction":[0.769,0.757],"n_labels":2,"no_drawn_outline":false}},{"type":"Feature","geometry":{"type":"MultiPolygon","coordinates":[[[[-0.083,-3.037],[-0.083,-3.044],[-0.16,-3.157],[-0.314,-3.107],[-0.447,-2.721],[-0.602,-2.636],[-0.826,-2.594],[-1.198,-2.622],[-1.436,-2.714],[-1.899,-3.023],[-2.137,-3.332],[-2.214,-3.558],[-2.404,-3.551],[-2.376,-3.445],[-2.319,-3.086],[-2.116,-2.805],[-1.759,-2.496],[-1.268,-2.292],[-0.77,-2.256],[-0.328,-2.369],[-0.202,-2.531],[-0.167,-3.002],[-0.083,-3.037]]],[[[2.364,-3.522],[2.287,-3.6],[2.287,-3.712],[2.168,-3.607],[2.021,-3.283],[1.782,-3.037],[1.523,-2.854],[1.27,-2.756],[0.583,-2.707],[0.373,-2.847],[0.289,-3.136],[0.156,-3.143],[0.065,-3.058],[0.149,-3.023],[0.205,-2.474],[0.289,-2.334],[0.492,-2.271],[1.018,-2.327],[1.586,-2.545],[1.964,-2.812],[2.238,-3.136],[2.364,-3.522]]]]},"properties":{"abbr":"Op","name":"optic nerve layer of the superior colliculus","plate":35,"ap_bregma_mm":-4.1,"area_mm2":1.8594,"traced_fraction":[0.981,0.977],"n_labels":2,"no_drawn_outline":false}},{"type":"Feature","geometry":{"type":"MultiPolygon","coordinates":[[[[-3.596,-1.989],[-3.567,-2.074],[-4.121,-2.355],[-4.598,-2.707],[-5.047,-3.164],[-5.299,-3.522],[-5.657,-4.071],[-5.888,-4.725],[-5.916,-5.112],[-5.818,-5.639],[-5.909,-5.632],[-6.0,-5.098],[-5.993,-4.732],[-5.916,-4.444],[-5.622,-3.825],[-5.236,-3.241],[-4.745,-2.714],[-4.241,-2.327],[-3.596,-1.989]]],[[[3.556,-2.024],[3.97,-2.172],[4.545,-2.503],[5.042,-2.946],[5.575,-3.621],[5.793,-4.071],[5.933,-4.549],[5.94,-4.936],[5.807,-5.52],[5.617,-5.9],[5.512,-5.872],[5.73,-5.393],[5.807,-4.873],[5.772,-4.402],[5.547,-3.832],[5.204,-3.304],[4.615,-2.707],[4.131,-2.397],[3.5,-2.2],[3.556,-2.024]]]]},"properties":{"abbr":"Or","name":"oriens layer of the hippocampus","plate":35,"ap_bregma_mm":-4.1,"area_mm2":1.0655,"traced_fraction":[1.0,1.0],"n_labels":2,"no_drawn_outline":false}},{"type":"Feature","geometry":{"type":"MultiPolygon","coordinates":[[[[0.366,-5.738],[0.45,-5.766],[0.38,-5.914],[0.401,-6.061],[0.618,-6.272],[0.899,-6.216],[0.871,-6.427],[1.039,-6.512],[1.13,-6.483],[1.474,-6.146],[1.509,-6.301],[1.018,-6.786],[0.836,-6.955],[0.766,-7.123],[0.66,-7.116],[0.646,-6.99],[0.38,-6.8],[0.527,-6.645],[0.513,-6.554],[0.408,-6.547],[0.359,-6.441],[0.254,-6.42],[0.177,-6.561],[0.071,-6.568],[-0.048,-6.111],[0.043,-5.921],[0.12,-5.815],[0.247,-5.836],[0.366,-5.738]]],[[[-0.511,-5.752],[-0.419,-5.843],[-0.307,-5.822],[-0.286,-5.886],[-0.202,-6.125],[-0.328,-6.61],[-0.426,-6.603],[-0.482,-6.448],[-0.623,-6.476],[-0.672,-6.561],[-0.763,-6.596],[-0.805,-6.737],[-0.644,-6.856],[-0.763,-6.969],[-0.868,-6.969],[-0.868,-7.173],[-1.092,-7.222],[-1.1,-7.222],[-1.177,-6.948],[-1.289,-6.821],[-1.717,-6.357],[-1.674,-6.139],[-1.366,-6.526],[-1.163,-6.624],[-1.029,-6.596],[-1.001,-6.441],[-1.212,-6.174],[-1.191,-6.153],[-1.142,-6.181],[-0.98,-6.265],[-0.728,-6.251],[-0.63,-6.061],[-0.658,-5.759],[-0.511,-5.752]]]]},"properties":{"abbr":"PBP","name":"parabrachial pigmented nucleus of the ventral tegmental area","plate":35,"ap_bregma_mm":-4.1,"area_mm2":1.5509,"traced_fraction":[0.94,0.924],"n_labels":2,"no_drawn_outline":false}},{"type":"Feature","geometry":{"type":"MultiPolygon","coordinates":[[[[2.21,-5.344],[2.322,-5.485],[1.691,-5.808],[1.6,-5.731],[1.754,-5.583],[1.796,-5.435],[1.894,-5.485],[2.21,-5.344]]],[[[-2.158,-5.464],[-1.997,-5.52],[-1.766,-5.703],[-1.681,-5.703],[-1.59,-5.914],[-1.681,-5.998],[-2.277,-5.604],[-2.291,-5.534],[-2.158,-5.464]]]]},"properties":{"abbr":"PIL","name":"posterior intralaminar thalamic nucleus","plate":35,"ap_bregma_mm":-4.1,"area_mm2":0.2855,"traced_fraction":[0.944,0.927],"n_labels":2,"no_drawn_outline":false}},{"type":"Feature","geometry":{"type":"MultiPolygon","coordinates":[[[[2.54,-3.811],[2.561,-3.839],[2.385,-4.261],[2.399,-4.669],[2.294,-4.669],[2.294,-4.584],[2.308,-4.289],[2.315,-4.106],[2.35,-4.029],[2.54,-3.811]]],[[[-2.397,-4.176],[-2.228,-4.451],[-2.2,-5.091],[-2.06,-5.253],[-1.808,-5.351],[-2.011,-5.344],[-2.193,-5.231],[-2.327,-4.873],[-2.327,-4.852],[-2.298,-4.514],[-2.397,-4.176]]]]},"properties":{"abbr":"PLi","name":"posterior limitans thalamic nucleus","plate":35,"ap_bregma_mm":-4.1,"area_mm2":0.1779,"traced_fraction":[0.966,0.96],"n_labels":2,"no_drawn_outline":false}},{"type":"Feature","geometry":{"type":"MultiPolygon","coordinates":[[[[-2.579,-5.541],[-2.383,-5.843],[-2.628,-5.857],[-2.859,-5.97],[-2.95,-5.787],[-3.203,-5.583],[-3.301,-5.583],[-3.42,-5.407],[-3.014,-5.513],[-2.579,-5.541]]],[[[3.269,-5.464],[3.15,-5.632],[2.729,-5.893],[2.532,-5.836],[2.371,-5.822],[2.582,-5.52],[2.666,-5.499],[3.269,-5.464]]]]},"properties":{"abbr":"PP","name":"peripeduncular nucleus","plate":35,"ap_bregma_mm":-4.1,"area_mm2":0.4528,"traced_fraction":[1.0,0.993],"n_labels":2,"no_drawn_outline":false}},{"type":"Feature","geometry":{"type":"MultiPolygon","coordinates":[[[[2.133,-3.98],[2.147,-4.029],[2.35,-4.029],[2.315,-4.106],[2.105,-4.352],[1.957,-4.402],[1.838,-4.359],[2.014,-4.078],[2.133,-3.98]]],[[[-2.228,-3.994],[-2.011,-4.205],[-1.871,-4.507],[-2.179,-4.472],[-2.228,-4.451],[-2.397,-4.176],[-2.439,-4.085],[-2.263,-4.078],[-2.228,-3.994]]]]},"properties":{"abbr":"PPT","name":"posterior pretectal nucleus","plate":35,"ap_bregma_mm":-4.1,"area_mm2":0.2487,"traced_fraction":[0.838,0.833],"n_labels":2,"no_drawn_outline":false}},{"type":"Feature","geometry":{"type":"MultiPolygon","coordinates":[[[[-6.141,-5.027],[-6.078,-5.442],[-6.744,-6.076],[-6.989,-6.139],[-6.926,-6.026],[-6.926,-6.026],[-6.912,-6.005],[-6.912,-6.005],[-6.905,-5.991],[-6.905,-5.991],[-6.898,-5.977],[-6.891,-5.97],[-6.884,-5.956],[-6.884,-5.956],[-6.877,-5.942],[-6.877,-5.942],[-6.877,-5.85],[-6.87,-5.928],[-6.884,-5.787],[-7.094,-5.752],[-7.164,-5.682],[-6.618,-5.485],[-6.141,-5.027]]],[[[6.003,-5.309],[6.396,-5.745],[6.886,-6.012],[6.83,-6.09],[6.599,-6.188],[6.48,-6.35],[6.557,-6.561],[6.417,-6.497],[6.157,-6.251],[5.849,-5.787],[6.003,-5.309]]]]},"properties":{"abbr":"PRh","name":"perirhinal cortex","plate":35,"ap_bregma_mm":-4.1,"area_mm2":0.9469,"traced_fraction":[0.996,1.0],"n_labels":2,"no_drawn_outline":false}},{"type":"Feature","geometry":{"type":"MultiPolygon","coordinates":[[[[0.576,-4.444],[1.081,-4.472],[1.341,-4.451],[1.341,-4.711],[1.46,-4.788],[1.376,-4.922],[1.425,-5.161],[1.537,-5.231],[1.81,-5.26],[1.796,-5.435],[1.754,-5.583],[1.6,-5.731],[1.495,-5.843],[1.018,-6.139],[1.151,-5.907],[1.165,-5.646],[1.102,-5.576],[0.899,-5.555],[0.611,-5.639],[0.45,-5.766],[0.366,-5.738],[0.499,-5.464],[0.527,-5.246],[0.478,-5.056],[0.31,-4.908],[0.401,-4.76],[0.541,-4.507],[0.576,-4.444]]],[[[-0.686,-4.479],[-0.546,-4.732],[-0.433,-4.915],[-0.602,-5.035],[-0.679,-5.196],[-0.679,-5.372],[-0.602,-5.555],[-0.511,-5.752],[-0.658,-5.759],[-0.854,-5.618],[-1.128,-5.583],[-1.268,-5.675],[-1.289,-5.907],[-1.191,-6.153],[-1.212,-6.174],[-1.415,-5.949],[-1.59,-5.914],[-1.681,-5.703],[-1.73,-5.351],[-1.59,-5.316],[-1.52,-5.217],[-1.506,-4.999],[-1.59,-4.824],[-1.457,-4.711],[-1.45,-4.493],[-1.198,-4.542],[-1.001,-4.556],[-0.686,-4.479]]]]},"properties":{"abbr":"PaR","name":"pararubral nucleus","plate":35,"ap_bregma_mm":-4.1,"area_mm2":2.6005,"traced_fraction":[0.937,0.909],"n_labels":2,"no_drawn_outline":false}},{"type":"Feature","geometry":{"type":"MultiPolygon","coordinates":[[[[3.262,-6.547],[3.956,-6.751],[4.04,-6.807],[4.026,-6.821],[3.199,-6.842],[3.262,-6.547]]]]},"properties":{"abbr":"PaS","name":"parasubiculum","plate":35,"ap_bregma_mm":-4.1,"area_mm2":0.1398,"traced_fraction":[0.993],"n_labels":1,"no_drawn_outline":false}},{"type":"Feature","geometry":{"type":"MultiPolygon","coordinates":[[[[-4.808,-4.373],[-4.787,-4.324],[-4.626,-3.994],[-4.696,-3.944],[-4.668,-3.902],[-4.598,-3.951],[-3.974,-3.389],[-2.993,-2.911],[-4.03,-3.902],[-4.367,-4.395],[-4.444,-4.676],[-4.444,-4.908],[-4.318,-5.316],[-4.381,-5.555],[-4.563,-5.492],[-4.802,-5.147],[-4.879,-4.81],[-4.808,-4.373]]],[[[4.65,-5.147],[4.398,-5.147],[4.398,-5.316],[4.475,-5.372],[4.145,-5.604],[3.998,-5.576],[3.998,-5.457],[4.187,-5.07],[4.264,-4.753],[4.278,-4.465],[4.215,-4.162],[3.956,-3.811],[3.269,-3.276],[2.946,-2.925],[3.22,-3.129],[4.096,-3.501],[4.482,-3.797],[4.678,-4.113],[4.79,-4.486],[4.762,-4.873],[4.65,-5.147]]]]},"properties":{"abbr":"PoDG","name":"polymorph layer of the dentate gyrus","plate":35,"ap_bregma_mm":-4.1,"area_mm2":2.1789,"traced_fraction":[0.993,0.934],"n_labels":2,"no_drawn_outline":false}},{"type":"Feature","geometry":{"type":"MultiPolygon","coordinates":[[[[2.294,-4.669],[2.399,-4.669],[2.406,-4.767],[2.252,-5.105],[2.21,-5.344],[1.894,-5.485],[1.796,-5.435],[1.81,-5.26],[1.901,-5.225],[1.943,-5.253],[1.929,-5.203],[1.972,-5.175],[2.006,-5.21],[2.133,-5.07],[2.294,-4.669]]],[[[-2.193,-5.231],[-2.011,-5.344],[-1.808,-5.351],[-1.73,-5.351],[-1.681,-5.703],[-1.751,-5.71],[-1.997,-5.52],[-2.158,-5.464],[-2.249,-5.274],[-2.193,-5.231]]]]},"properties":{"abbr":"PoT","name":"posterior thalamic nuclear group, triangular part","plate":35,"ap_bregma_mm":-4.1,"area_mm2":0.2903,"traced_fraction":[0.96,0.925],"n_labels":2,"no_drawn_outline":false}},{"type":"Feature","geometry":{"type":"MultiPolygon","coordinates":[[[[-1.836,-1.687],[-1.73,-1.757],[-1.667,-1.933],[-2.453,-2.348],[-2.67,-2.024],[-2.733,-1.778],[-1.836,-1.687]]],[[[1.887,-1.827],[2.617,-1.87],[2.553,-2.003],[2.287,-2.186],[2.217,-2.32],[1.719,-2.074],[1.887,-1.827]]]]},"properties":{"abbr":"Post","name":"postsubiculum","plate":35,"ap_bregma_mm":-4.1,"area_mm2":0.6792,"traced_fraction":[1.0,0.966],"n_labels":2,"no_drawn_outline":false}},{"type":"Feature","geometry":{"type":"MultiPolygon","coordinates":[[[[-0.132,-5.731],[-0.055,-5.738],[0.043,-5.921],[-0.048,-6.111],[-0.104,-6.174],[-0.202,-6.125],[-0.286,-5.886],[-0.132,-5.731]]]]},"properties":{"abbr":"PrEW","name":"pre-Edinger–Westphal nucleus","plate":35,"ap_bregma_mm":-4.1,"area_mm2":0.0913,"traced_fraction":[1.0],"n_labels":1,"no_drawn_outline":false}},{"type":"Feature","geometry":{"type":"MultiPolygon","coordinates":[[[[3.71,-6.139],[3.731,-6.146],[3.956,-6.751],[3.262,-6.547],[3.346,-6.406],[3.346,-6.392],[3.71,-6.139]]]]},"properties":{"abbr":"PrS","name":"presubiculum","plate":35,"ap_bregma_mm":-4.1,"area_mm2":0.2099,"traced_fraction":[0.996],"n_labels":1,"no_drawn_outline":false}},{"type":"Feature","geometry":{"type":"MultiPolygon","coordinates":[[[[3.5,-2.2],[4.131,-2.397],[4.615,-2.707],[5.204,-3.304],[5.547,-3.832],[5.758,-4.345],[5.807,-4.873],[5.73,-5.393],[5.512,-5.872],[5.379,-5.801],[5.625,-5.267],[5.709,-4.62],[5.631,-4.226],[5.211,-3.48],[4.818,-2.988],[4.348,-2.622],[4.047,-2.46],[3.43,-2.299],[3.5,-2.2]]],[[[-5.089,-3.424],[-5.089,-3.565],[-5.229,-3.565],[-5.468,-3.93],[-5.734,-4.535],[-5.811,-5.084],[-5.65,-5.604],[-5.818,-5.639],[-5.916,-5.112],[-5.888,-4.725],[-5.657,-4.071],[-5.299,-3.522],[-5.215,-3.536],[-5.096,-3.375],[-5.089,-3.424]]]]},"properties":{"abbr":"Py","name":"pyramidal cell layer of the hippocampus","plate":35,"ap_bregma_mm":-4.1,"area_mm2":0.7405,"traced_fraction":[0.998,0.944],"n_labels":2,"no_drawn_outline":false}},{"type":"Feature","geometry":{"type":"MultiPolygon","coordinates":[[[[-0.048,-6.111],[0.071,-6.568],[0.036,-6.73],[-0.083,-6.652],[-0.307,-6.716],[-0.328,-6.61],[-0.202,-6.125],[-0.104,-6.174],[-0.048,-6.111]]]]},"properties":{"abbr":"RLi","name":"rostral linear nucleus of the raphe","plate":35,"ap_bregma_mm":-4.1,"area_mm2":0.163,"traced_fraction":[0.944],"n_labels":1,"no_drawn_outline":false}},{"type":"Feature","geometry":{"type":"MultiPolygon","coordinates":[[[[0.899,-5.555],[1.102,-5.576],[1.165,-5.646],[1.151,-5.907],[1.018,-6.139],[0.899,-6.216],[0.618,-6.272],[0.401,-6.061],[0.787,-5.843],[0.899,-5.555]]],[[[-0.658,-5.759],[-0.623,-6.012],[-0.728,-6.251],[-0.98,-6.265],[-1.142,-6.181],[-1.001,-6.068],[-1.008,-5.921],[-1.121,-5.85],[-1.289,-5.907],[-1.289,-5.717],[-1.128,-5.583],[-0.854,-5.618],[-0.658,-5.759]]]]},"properties":{"abbr":"RMC","name":"red nucleus, magnocellular part","plate":35,"ap_bregma_mm":-4.1,"area_mm2":0.5858,"traced_fraction":[0.954,0.985],"n_labels":2,"no_drawn_outline":false}},{"type":"Feature","geometry":{"type":"MultiPolygon","coordinates":[[[[0.899,-5.555],[0.787,-5.843],[0.401,-6.061],[0.38,-5.914],[0.45,-5.766],[0.611,-5.639],[0.899,-5.555]]],[[[-1.142,-6.181],[-1.191,-6.153],[-1.289,-5.907],[-1.121,-5.85],[-1.008,-5.921],[-1.001,-6.068],[-1.142,-6.181]]]]},"properties":{"abbr":"RPC","name":"red nucleus, parvicellular part","plate":35,"ap_bregma_mm":-4.1,"area_mm2":0.1845,"traced_fraction":[0.942,0.938],"n_labels":2,"no_drawn_outline":false}},{"type":"Feature","geometry":{"type":"MultiPolygon","coordinates":[[[[0.976,-0.062],[1.467,-0.076],[1.326,-0.083],[1.558,-0.118],[1.593,-1.047],[1.446,-1.131],[1.137,-0.751],[0.801,-0.125],[0.976,-0.062]]],[[[-0.77,-0.083],[-0.875,-0.09],[-0.469,-0.217],[-1.113,-1.026],[-1.282,-0.99],[-1.485,-1.047],[-1.562,-0.132],[-1.24,-0.09],[-1.506,-0.083],[-0.77,-0.083]]]]},"properties":{"abbr":"RSD","name":"retrosplenial dysgranular cortex","plate":35,"ap_bregma_mm":-4.1,"area_mm2":1.2109,"traced_fraction":[1.0,1.0],"n_labels":2,"no_drawn_outline":false}},{"type":"Feature","geometry":{"type":"MultiPolygon","coordinates":[[[[-1.233,-1.244],[-0.524,-1.588],[-0.391,-1.736],[-0.349,-1.912],[-0.833,-1.919],[-0.833,-1.841],[-1.008,-1.841],[-1.008,-1.919],[-1.667,-1.933],[-1.73,-1.757],[-1.836,-1.687],[-1.646,-1.518],[-1.233,-1.244]]],[[[1.502,-1.37],[1.768,-1.701],[1.887,-1.827],[1.719,-2.074],[1.439,-1.989],[1.137,-1.996],[0.85,-1.954],[0.667,-1.877],[0.766,-1.743],[1.502,-1.37]]]]},"properties":{"abbr":"RSGa","name":"retrosplenial granular cortex, a region","plate":35,"ap_bregma_mm":-4.1,"area_mm2":1.1134,"traced_fraction":[0.903,1.0],"n_labels":2,"no_drawn_outline":false}},{"type":"Feature","geometry":{"type":"MultiPolygon","coordinates":[[[[-1.156,-1.159],[0.065,-1.3],[-0.083,-1.623],[-0.272,-1.877],[-0.23,-1.877],[-0.153,-1.982],[-0.349,-1.912],[-0.391,-1.736],[-0.524,-1.588],[-1.233,-1.244],[-1.156,-1.159]]],[[[1.425,-1.194],[1.502,-1.37],[0.766,-1.743],[0.667,-1.877],[0.443,-1.841],[0.429,-1.834],[0.429,-1.834],[0.408,-1.82],[0.408,-1.82],[0.387,-1.806],[0.219,-1.307],[1.425,-1.194]]]]},"properties":{"abbr":"RSGb","name":"retrosplenial granular cortex, b region","plate":35,"ap_bregma_mm":-4.1,"area_mm2":0.907,"traced_fraction":[1.0,1.0],"n_labels":2,"no_drawn_outline":false}},{"type":"Feature","geometry":{"type":"MultiPolygon","coordinates":[[[[0.801,-0.125],[1.137,-0.751],[1.446,-1.131],[1.425,-1.194],[0.219,-1.307],[0.212,-1.356],[0.205,-1.293],[0.205,-1.293],[0.191,-1.173],[0.345,-0.674],[0.352,-0.66],[0.352,-0.66],[0.359,-0.646],[0.366,-0.639],[0.373,-0.625],[0.373,-0.625],[0.52,-0.371],[0.632,-0.245],[0.66,-0.224],[0.667,-0.217],[0.752,-0.146],[0.752,-0.154],[0.752,-0.154],[0.801,-0.125]]],[[[-0.469,-0.217],[-0.272,-0.4],[0.036,-0.892],[0.086,-1.033],[0.065,-1.3],[-1.156,-1.159],[-1.113,-1.026],[-0.469,-0.217]]]]},"properties":{"abbr":"RSGc","name":"retrosplenial granular cortex, c region","plate":35,"ap_bregma_mm":-4.1,"area_mm2":1.6029,"traced_fraction":[1.0,1.0],"n_labels":2,"no_drawn_outline":false}},{"type":"Feature","geometry":{"type":"MultiPolygon","coordinates":[[[[-5.089,-3.424],[-4.83,-3.445],[-5.264,-4.134],[-5.454,-4.669],[-5.489,-5.035],[-5.376,-5.506],[-5.229,-5.773],[-5.503,-5.794],[-5.65,-5.604],[-5.811,-5.084],[-5.734,-4.535],[-5.468,-3.93],[-5.229,-3.565],[-5.089,-3.565],[-5.089,-3.424]]],[[[5.211,-3.48],[5.631,-4.226],[5.709,-4.62],[5.625,-5.267],[5.379,-5.801],[5.085,-6.019],[4.888,-5.977],[5.106,-5.745],[5.295,-5.358],[5.4,-4.62],[5.281,-4.106],[4.951,-3.572],[5.134,-3.558],[5.211,-3.48]]]]},"properties":{"abbr":"Rad","name":"radiatum layer of the hippocampus","plate":35,"ap_bregma_mm":-4.1,"area_mm2":1.473,"traced_fraction":[0.905,0.914],"n_labels":2,"no_drawn_outline":false}},{"type":"Feature","geometry":{"type":"MultiPolygon","coordinates":[[[[2.561,-3.839],[2.603,-3.846],[2.595,-4.781],[2.589,-4.788],[2.406,-4.767],[2.399,-4.669],[2.385,-4.261],[2.561,-3.839]]],[[[-2.495,-3.944],[-2.439,-4.085],[-2.397,-4.176],[-2.298,-4.514],[-2.327,-4.852],[-2.537,-4.838],[-2.544,-4.838],[-2.516,-4.395],[-2.565,-3.909],[-2.495,-3.944]]]]},"properties":{"abbr":"SG","name":"suprageniculate thalamic nucleus","plate":35,"ap_bregma_mm":-4.1,"area_mm2":0.3167,"traced_fraction":[1.0,1.0],"n_labels":2,"no_drawn_outline":false}},{"type":"Feature","geometry":{"type":"MultiPolygon","coordinates":[[[[2.532,-5.836],[2.694,-6.082],[2.589,-6.293],[2.385,-6.308],[2.28,-6.097],[2.119,-6.097],[1.074,-6.849],[1.018,-6.786],[1.509,-6.301],[2.014,-5.963],[2.371,-5.822],[2.532,-5.836]]],[[[-2.383,-5.843],[-1.717,-6.357],[-1.289,-6.821],[-1.331,-6.856],[-1.562,-6.631],[-2.039,-6.315],[-2.355,-6.209],[-2.768,-6.216],[-2.866,-5.991],[-2.859,-5.97],[-2.628,-5.857],[-2.383,-5.843]]]]},"properties":{"abbr":"SNC","name":"substantia nigra, compact part","plate":35,"ap_bregma_mm":-4.1,"area_mm2":0.7487,"traced_fraction":[0.998,0.977],"n_labels":2,"no_drawn_outline":false}},{"type":"Feature","geometry":{"type":"MultiPolygon","coordinates":[[[[2.729,-5.893],[2.82,-6.104],[2.778,-6.272],[2.553,-6.603],[2.266,-6.898],[1.943,-7.074],[1.39,-7.25],[1.221,-7.25],[0.976,-7.152],[0.962,-7.06],[1.074,-6.849],[2.119,-6.097],[2.28,-6.097],[2.385,-6.308],[2.589,-6.293],[2.694,-6.082],[2.532,-5.836],[2.729,-5.893]]],[[[-2.866,-5.991],[-2.768,-6.216],[-2.355,-6.209],[-2.039,-6.315],[-1.562,-6.631],[-1.331,-6.856],[-1.289,-6.997],[-1.31,-7.152],[-1.436,-7.299],[-1.639,-7.327],[-2.193,-7.095],[-2.565,-6.786],[-2.88,-6.406],[-2.944,-6.16],[-2.866,-5.991]]]]},"properties":{"abbr":"SNR","name":"substantia nigra, reticular part","plate":35,"ap_bregma_mm":-4.1,"area_mm2":2.1533,"traced_fraction":[0.99,0.951],"n_labels":2,"no_drawn_outline":false}},{"type":"Feature","geometry":{"type":"MultiPolygon","coordinates":[[[[-0.083,-3.037],[-0.167,-3.002],[-0.202,-2.531],[-0.328,-2.369],[-0.77,-2.256],[-1.268,-2.292],[-1.759,-2.496],[-2.116,-2.805],[-2.319,-3.086],[-2.376,-3.445],[-2.453,-3.269],[-2.46,-3.037],[-2.284,-2.657],[-1.808,-2.263],[-1.149,-1.975],[-0.349,-2.003],[-0.202,-2.095],[-0.097,-2.299],[-0.083,-3.037]]],[[[2.469,-3.536],[2.364,-3.522],[2.238,-3.136],[1.964,-2.812],[1.586,-2.545],[1.018,-2.327],[0.492,-2.271],[0.289,-2.334],[0.205,-2.474],[0.149,-3.023],[0.065,-3.058],[0.057,-3.051],[0.071,-2.404],[0.198,-2.116],[0.464,-2.024],[1.011,-2.074],[1.663,-2.263],[2.07,-2.524],[2.259,-2.728],[2.371,-2.953],[2.469,-3.536]]]]},"properties":{"abbr":"SuG","name":"superficial gray layer of the superior colliculus","plate":35,"ap_bregma_mm":-4.1,"area_mm2":1.5659,"traced_fraction":[0.998,1.0],"n_labels":2,"no_drawn_outline":false}},{"type":"Feature","geometry":{"type":"MultiPolygon","coordinates":[[[[2.315,-4.106],[2.308,-4.289],[1.88,-4.591],[1.46,-4.788],[1.341,-4.711],[1.341,-4.451],[1.663,-4.366],[1.838,-4.359],[1.957,-4.402],[2.105,-4.352],[2.315,-4.106]]],[[[-1.597,-4.402],[-1.45,-4.493],[-1.457,-4.711],[-1.59,-4.824],[-2.179,-4.472],[-1.871,-4.507],[-1.695,-4.402],[-1.597,-4.402]]]]},"properties":{"abbr":"TG","name":"tectal gray","plate":35,"ap_bregma_mm":-4.1,"area_mm2":0.3768,"traced_fraction":[0.868,0.788],"n_labels":2,"no_drawn_outline":false}},{"type":"Feature","geometry":{"type":"MultiPolygon","coordinates":[[[[-4.079,-0.815],[-3.638,-1.806],[-4.213,-2.095],[-4.633,-2.39],[-5.243,-1.532],[-4.851,-1.237],[-4.836,-1.23],[-4.83,-1.222],[-4.815,-1.216],[-4.815,-1.216],[-4.794,-1.201],[-4.794,-1.201],[-4.781,-1.194],[-4.781,-1.194],[-4.759,-1.18],[-4.759,-1.18],[-4.738,-1.166],[-4.738,-1.166],[-4.724,-1.159],[-4.724,-1.159],[-4.703,-1.145],[-4.703,-1.145],[-4.682,-1.131],[-4.675,-1.124],[-4.654,-1.11],[-4.64,-1.103],[-4.619,-1.089],[-4.605,-1.082],[-4.591,-1.075],[-4.079,-0.815]]],[[[4.538,-0.955],[4.587,-0.969],[4.587,-0.969],[4.622,-0.976],[4.622,-0.976],[4.657,-0.983],[4.944,-1.124],[4.972,-1.145],[4.972,-1.145],[4.986,-1.152],[5.674,-1.701],[4.916,-2.566],[4.047,-2.017],[4.538,-0.955]]]]},"properties":{"abbr":"V1B","name":"primary visual cortex, binocular area","plate":35,"ap_bregma_mm":-4.1,"area_mm2":2.787,"traced_fraction":[1.0,1.0],"n_labels":2,"no_drawn_outline":false}},{"type":"Feature","geometry":{"type":"MultiPolygon","coordinates":[[[[-2.348,-0.301],[-2.151,-1.3],[-2.593,-1.448],[-3.638,-1.806],[-4.079,-0.815],[-3.119,-0.449],[-2.348,-0.301]]],[[[2.659,-0.435],[3.142,-0.512],[3.142,-0.512],[3.192,-0.519],[4.033,-0.716],[4.496,-0.934],[4.51,-0.941],[4.51,-0.941],[4.538,-0.955],[4.047,-2.017],[3.619,-1.849],[2.455,-1.441],[2.659,-0.435]]]]},"properties":{"abbr":"V1M","name":"primary visual cortex, monocular area","plate":35,"ap_bregma_mm":-4.1,"area_mm2":3.916,"traced_fraction":[1.0,1.0],"n_labels":2,"no_drawn_outline":false}},{"type":"Feature","geometry":{"type":"MultiPolygon","coordinates":[[[[-5.243,-1.532],[-4.633,-2.39],[-5.152,-2.868],[-5.902,-2.116],[-5.243,-1.532]]],[[[5.674,-1.701],[6.34,-2.369],[5.442,-3.1],[4.916,-2.566],[5.674,-1.701]]]]},"properties":{"abbr":"V2L","name":"secondary visual cortex, lateral area","plate":35,"ap_bregma_mm":-4.1,"area_mm2":1.8087,"traced_fraction":[1.0,1.0],"n_labels":2,"no_drawn_outline":false}},{"type":"Feature","geometry":{"type":"MultiPolygon","coordinates":[[[[1.558,-0.118],[1.901,-0.196],[1.915,-0.203],[1.915,-0.203],[2.133,-0.322],[2.28,-0.407],[2.483,-0.414],[2.659,-0.435],[2.455,-1.441],[1.593,-1.047],[1.558,-0.118]]],[[[-1.562,-0.132],[-1.485,-1.047],[-1.801,-1.208],[-2.151,-1.3],[-2.348,-0.301],[-1.983,-0.231],[-1.934,-0.224],[-1.934,-0.224],[-1.843,-0.203],[-1.843,-0.203],[-1.822,-0.196],[-1.808,-0.189],[-1.787,-0.182],[-1.562,-0.132]]]]},"properties":{"abbr":"V2M","name":"secondary visual cortex, medial area","plate":35,"ap_bregma_mm":-4.1,"area_mm2":1.6919,"traced_fraction":[0.998,1.0],"n_labels":2,"no_drawn_outline":false}},{"type":"Feature","geometry":{"type":"MultiPolygon","coordinates":[[[[-5.65,-5.604],[-5.503,-5.794],[-5.229,-5.773],[-5.103,-5.921],[-5.117,-6.575],[-5.187,-6.547],[-5.664,-6.195],[-5.909,-5.632],[-5.818,-5.639],[-5.65,-5.604]]],[[[5.379,-5.801],[5.512,-5.872],[5.617,-5.9],[5.463,-6.188],[5.099,-6.497],[4.047,-6.807],[4.04,-6.807],[3.956,-6.751],[3.731,-6.146],[4.145,-6.104],[4.432,-5.956],[4.615,-6.054],[4.888,-5.977],[5.085,-6.019],[5.379,-5.801]]]]},"properties":{"abbr":"VS","name":"ventral subiculum","plate":35,"ap_bregma_mm":-4.1,"area_mm2":1.4027,"traced_fraction":[0.784,0.987],"n_labels":2,"no_drawn_outline":false}},{"type":"Feature","geometry":{"type":"MultiPolygon","coordinates":[[[[0.408,-6.547],[0.513,-6.554],[0.527,-6.645],[0.38,-6.8],[0.646,-6.99],[0.66,-7.116],[0.324,-7.187],[0.254,-7.18],[0.036,-6.73],[0.071,-6.568],[0.177,-6.561],[0.212,-6.652],[0.317,-6.666],[0.408,-6.547]]],[[[-0.672,-6.561],[-0.644,-6.666],[-0.574,-6.701],[-0.426,-6.603],[-0.328,-6.61],[-0.307,-6.716],[-0.496,-7.187],[-0.503,-7.208],[-0.581,-7.18],[-0.868,-7.173],[-0.868,-6.969],[-0.763,-6.969],[-0.644,-6.856],[-0.805,-6.737],[-0.763,-6.596],[-0.672,-6.561]]]]},"properties":{"abbr":"VTAR","name":"ventral tegmental area, rostral part","plate":35,"ap_bregma_mm":-4.1,"area_mm2":0.458,"traced_fraction":[0.892,0.872],"n_labels":2,"no_drawn_outline":false}},{"type":"Feature","geometry":{"type":"MultiPolygon","coordinates":[[[[2.322,-5.485],[2.582,-5.52],[2.371,-5.822],[2.014,-5.963],[1.509,-6.301],[1.474,-6.146],[1.565,-5.984],[1.495,-5.843],[1.6,-5.731],[1.691,-5.808],[2.322,-5.485]]],[[[-2.544,-5.527],[-2.291,-5.534],[-2.277,-5.604],[-1.681,-5.998],[-1.674,-6.139],[-1.717,-6.357],[-2.383,-5.843],[-2.579,-5.541],[-2.544,-5.527]]]]},"properties":{"abbr":"ZIC","name":"zona incerta, caudal part","plate":35,"ap_bregma_mm":-4.1,"area_mm2":0.626,"traced_fraction":[0.982,0.979],"n_labels":2,"no_drawn_outline":false}},{"type":"Feature","geometry":{"type":"MultiPolygon","coordinates":[[[[0.366,-1.919],[0.85,-1.954],[1.137,-1.996],[1.712,-2.186],[2.252,-2.538],[2.406,-2.756],[2.567,-3.15],[2.54,-3.543],[2.469,-3.536],[2.399,-3.037],[2.217,-2.671],[2.0,-2.467],[1.663,-2.263],[1.011,-2.074],[0.464,-2.024],[0.198,-2.116],[0.071,-2.404],[0.057,-3.051],[-0.013,-3.051],[-0.013,-2.137],[0.254,-1.94],[0.296,-1.933],[0.296,-1.933],[0.331,-1.926],[0.331,-1.926],[0.366,-1.919]]]]},"properties":{"abbr":"Zo","name":"zonal layer of the superior colliculus","plate":35,"ap_bregma_mm":-4.1,"area_mm2":0.4448,"traced_fraction":[0.998],"n_labels":2,"no_drawn_outline":false}},{"type":"Feature","geometry":{"type":"MultiPolygon","coordinates":[[[[-3.112,-1.715],[-3.112,-1.827],[-3.596,-1.989],[-4.241,-2.327],[-4.745,-2.714],[-5.236,-3.241],[-5.622,-3.825],[-5.916,-4.444],[-5.993,-4.732],[-6.0,-5.098],[-5.909,-5.632],[-5.664,-6.195],[-5.187,-6.547],[-5.257,-6.561],[-5.44,-6.455],[-5.713,-6.209],[-5.965,-5.646],[-6.078,-4.852],[-6.021,-4.493],[-5.888,-4.127],[-5.334,-3.206],[-4.752,-2.601],[-3.995,-2.067],[-3.112,-1.715]]],[[[3.977,-2.109],[4.755,-2.566],[5.295,-3.072],[5.751,-3.719],[5.982,-4.352],[5.996,-5.042],[5.68,-6.026],[5.316,-6.434],[4.797,-6.701],[4.236,-6.828],[4.047,-6.807],[5.099,-6.497],[5.463,-6.188],[5.617,-5.9],[5.807,-5.52],[5.94,-4.936],[5.933,-4.549],[5.793,-4.071],[5.575,-3.621],[5.042,-2.946],[4.545,-2.503],[3.97,-2.172],[3.977,-2.109]]]]},"properties":{"abbr":"alv","name":"alveus of the hippocampus","plate":35,"ap_bregma_mm":-4.1,"area_mm2":1.0189,"traced_fraction":[0.992,0.992],"n_labels":2,"no_drawn_outline":false}},{"type":"Feature","geometry":{"type":"MultiPolygon","coordinates":[[[[2.364,-3.522],[2.469,-3.536],[2.54,-3.543],[2.589,-3.677],[2.785,-3.733],[2.631,-3.783],[2.603,-3.846],[2.561,-3.839],[2.54,-3.811],[2.385,-3.79],[2.287,-3.712],[2.287,-3.6],[2.364,-3.522]]],[[[-2.404,-3.551],[-2.214,-3.558],[-2.291,-3.733],[-2.418,-3.839],[-2.509,-3.86],[-2.859,-3.769],[-2.509,-3.747],[-2.481,-3.551],[-2.404,-3.551]]]]},"properties":{"abbr":"bsc","name":"brachium of the superior colliculus","plate":35,"ap_bregma_mm":-4.1,"area_mm2":0.1651,"traced_fraction":[0.894,0.896],"n_labels":2,"no_drawn_outline":false}},{"type":"Feature","geometry":{"type":"MultiPolygon","coordinates":[[[[-2.859,-5.97],[-2.866,-5.991],[-2.944,-6.16],[-2.88,-6.406],[-2.572,-6.779],[-2.193,-7.095],[-1.639,-7.327],[-1.436,-7.299],[-1.31,-7.152],[-1.233,-7.159],[-1.198,-7.257],[-1.429,-7.419],[-1.646,-7.461],[-1.808,-7.44],[-2.207,-7.236],[-2.221,-7.229],[-2.235,-7.215],[-2.256,-7.201],[-2.263,-7.194],[-2.425,-7.06],[-2.432,-7.053],[-2.453,-7.039],[-2.901,-6.49],[-3.301,-5.583],[-3.203,-5.583],[-2.95,-5.787],[-2.859,-5.97]]],[[[3.15,-5.632],[2.946,-6.04],[2.932,-6.076],[2.932,-6.076],[2.925,-6.111],[2.848,-6.378],[2.61,-6.687],[2.603,-6.701],[2.603,-6.701],[2.469,-6.863],[2.469,-6.863],[2.455,-6.877],[2.343,-6.969],[2.329,-6.969],[2.329,-6.962],[2.329,-6.962],[2.161,-7.095],[2.147,-7.102],[1.656,-7.348],[1.614,-7.356],[1.614,-7.356],[1.544,-7.377],[1.291,-7.405],[1.228,-7.398],[1.172,-7.37],[1.158,-7.363],[1.158,-7.363],[1.144,-7.356],[1.144,-7.356],[1.13,-7.348],[1.13,-7.348],[1.116,-7.341],[1.116,-7.341],[1.102,-7.335],[1.102,-7.335],[1.088,-7.327],[1.088,-7.327],[1.074,-7.32],[1.074,-7.32],[1.06,-7.313],[1.06,-7.313],[1.046,-7.306],[1.046,-7.306],[0.969,-7.264],[0.955,-7.243],[0.976,-7.152],[1.221,-7.25],[1.39,-7.25],[1.908,-7.088],[2.266,-6.898],[2.553,-6.603],[2.778,-6.272],[2.82,-6.104],[2.729,-5.893],[3.15,-5.632]]]]},"properties":{"abbr":"cp","name":"cerebral peduncle","plate":35,"ap_bregma_mm":-4.1,"area_mm2":0.7695,"traced_fraction":[0.994,1.0],"n_labels":2,"no_drawn_outline":false}},{"type":"Feature","geometry":{"type":"MultiPolygon","coordinates":[[[[-0.188,-3.445],[0.114,-3.445],[0.114,-3.74],[-0.181,-3.755],[-0.188,-3.445]]]]},"properties":{"abbr":"csc","name":"commissure of the superior colliculus","plate":35,"ap_bregma_mm":-4.1,"area_mm2":0.0901,"traced_fraction":[0.6],"n_labels":1,"no_drawn_outline":true}},{"type":"Feature","geometry":{"type":"MultiPolygon","coordinates":[[[[-2.593,-1.448],[-2.579,-1.539],[-3.112,-1.715],[-3.995,-2.067],[-4.752,-2.601],[-5.334,-3.206],[-5.888,-4.127],[-6.021,-4.493],[-6.078,-4.852],[-5.965,-5.646],[-5.713,-6.209],[-5.44,-6.455],[-5.257,-6.561],[-5.187,-6.547],[-5.117,-6.575],[-4.605,-6.737],[-4.577,-6.828],[-4.851,-6.786],[-5.271,-6.61],[-5.594,-6.42],[-5.874,-6.104],[-6.078,-5.442],[-6.141,-5.027],[-6.134,-4.577],[-5.958,-4.064],[-5.615,-3.445],[-5.152,-2.868],[-4.633,-2.39],[-4.213,-2.095],[-3.638,-1.806],[-2.593,-1.448]]],[[[3.619,-1.849],[4.047,-2.017],[4.916,-2.566],[5.442,-3.1],[5.842,-3.684],[6.073,-4.268],[6.108,-4.76],[6.003,-5.309],[5.849,-5.787],[5.68,-6.181],[5.526,-6.364],[4.881,-6.694],[4.797,-6.701],[5.316,-6.434],[5.68,-6.026],[5.996,-5.042],[5.982,-4.352],[5.751,-3.719],[5.295,-3.072],[4.755,-2.566],[3.977,-2.109],[3.612,-1.933],[3.619,-1.849]]]]},"properties":{"abbr":"dcw","name":"deep cerebral white matter","plate":35,"ap_bregma_mm":-4.1,"area_mm2":1.2702,"traced_fraction":[0.995,0.991],"n_labels":2,"no_drawn_outline":false}},{"type":"Feature","geometry":{"type":"MultiPolygon","coordinates":[[[[-1.646,-1.518],[-1.836,-1.687],[-2.733,-1.778],[-3.112,-1.827],[-3.112,-1.715],[-2.579,-1.539],[-1.899,-1.37],[-1.738,-1.377],[-1.646,-1.518]]],[[[3.612,-1.933],[3.977,-2.109],[3.97,-2.172],[3.556,-2.024],[3.269,-1.933],[2.617,-1.87],[1.887,-1.827],[1.768,-1.701],[1.929,-1.553],[2.238,-1.497],[3.612,-1.933]]]]},"properties":{"abbr":"dhc","name":"dorsal hippocampal commissure","plate":35,"ap_bregma_mm":-4.1,"area_mm2":0.7544,"traced_fraction":[0.973,0.988],"n_labels":2,"no_drawn_outline":false}},{"type":"Feature","geometry":{"type":"MultiPolygon","coordinates":[[[[-1.113,-1.026],[-1.156,-1.159],[-1.233,-1.244],[-1.646,-1.518],[-1.738,-1.377],[-1.899,-1.37],[-2.579,-1.539],[-2.593,-1.448],[-2.151,-1.3],[-1.801,-1.208],[-1.485,-1.047],[-1.282,-0.99],[-1.113,-1.026]]],[[[1.593,-1.047],[2.455,-1.441],[3.619,-1.849],[3.612,-1.933],[2.238,-1.497],[1.929,-1.553],[1.768,-1.701],[1.502,-1.37],[1.425,-1.194],[1.446,-1.131],[1.593,-1.047]]]]},"properties":{"abbr":"fmj","name":"forceps major of the corpus callosum","plate":35,"ap_bregma_mm":-4.1,"area_mm2":0.7339,"traced_fraction":[0.983,0.984],"n_labels":2,"no_drawn_outline":false}},{"type":"Feature","geometry":{"type":"MultiPolygon","coordinates":[[[[0.408,-6.547],[0.317,-6.666],[0.212,-6.652],[0.177,-6.561],[0.254,-6.42],[0.359,-6.441],[0.408,-6.547]]],[[[-0.426,-6.603],[-0.574,-6.701],[-0.644,-6.666],[-0.672,-6.561],[-0.623,-6.476],[-0.482,-6.448],[-0.426,-6.603]]]]},"properties":{"abbr":"fr","name":"fasciculus retroflexus","plate":35,"ap_bregma_mm":-4.1,"area_mm2":0.0799,"traced_fraction":[1.0,0.981],"n_labels":2,"no_drawn_outline":false}},{"type":"Feature","geometry":{"type":"MultiPolygon","coordinates":[[[[1.495,-5.843],[1.565,-5.984],[1.474,-6.146],[1.13,-6.483],[1.039,-6.512],[0.871,-6.427],[0.899,-6.216],[1.018,-6.139],[1.495,-5.843]]],[[[-1.212,-6.174],[-1.001,-6.441],[-1.029,-6.596],[-1.163,-6.624],[-1.366,-6.526],[-1.674,-6.139],[-1.681,-5.998],[-1.59,-5.914],[-1.415,-5.949],[-1.212,-6.174]]]]},"properties":{"abbr":"ml","name":"medial lemniscus","plate":35,"ap_bregma_mm":-4.1,"area_mm2":0.473,"traced_fraction":[1.0,1.0],"n_labels":2,"no_drawn_outline":false}},{"type":"Feature","geometry":{"type":"MultiPolygon","coordinates":[[[[0.66,-7.116],[0.766,-7.123],[0.766,-7.166],[0.681,-7.194],[0.766,-7.292],[0.836,-7.412],[0.836,-7.412],[0.843,-7.426],[0.836,-7.461],[0.604,-7.285],[0.401,-7.222],[0.324,-7.187],[0.66,-7.116]]],[[[-0.868,-7.173],[-0.581,-7.18],[-0.721,-7.264],[-1.142,-7.44],[-1.149,-7.433],[-1.142,-7.419],[-1.142,-7.419],[-1.134,-7.405],[-1.134,-7.405],[-1.128,-7.391],[-1.128,-7.391],[-1.121,-7.377],[-1.043,-7.299],[-1.092,-7.222],[-0.868,-7.173]]]]},"properties":{"abbr":"mp","name":"mammillary peduncle","plate":35,"ap_bregma_mm":-4.1,"area_mm2":0.1229,"traced_fraction":[1.0,1.0],"n_labels":2,"no_drawn_outline":false}},{"type":"Feature","geometry":{"type":"Polygon","coordinates":[[[-0.77,-0.083],[-0.475,-0.175],[-0.314,-0.301],[0.107,-0.997],[0.043,-1.49],[-0.23,-1.877],[-0.272,-1.877],[-0.083,-1.623],[0.065,-1.3],[0.086,-1.033],[0.036,-0.892],[-0.209,-0.484],[-0.469,-0.217],[-0.875,-0.09],[-0.77,-0.083]]]},"properties":{"abbr":null,"name":"unnamed sealed face","plate":35,"ap_bregma_mm":-4.1,"index":0}},{"type":"Feature","geometry":{"type":"Polygon","coordinates":[[[-1.983,-0.231],[-2.348,-0.301],[-3.119,-0.449],[-4.079,-0.815],[-4.591,-1.075],[-4.114,-0.772],[-3.392,-0.491],[-2.67,-0.315],[-1.983,-0.231]]]},"properties":{"abbr":null,"name":"unnamed sealed face","plate":35,"ap_bregma_mm":-4.1,"index":1}},{"type":"Feature","geometry":{"type":"Polygon","coordinates":[[[3.192,-0.519],[3.654,-0.582],[4.299,-0.779],[4.496,-0.934],[4.033,-0.716],[3.192,-0.519]]]},"properties":{"abbr":null,"name":"unnamed sealed face","plate":35,"ap_bregma_mm":-4.1,"index":2}},{"type":"Feature","geometry":{"type":"Polygon","coordinates":[[[4.986,-1.152],[5.148,-1.216],[5.891,-1.82],[6.277,-2.214],[6.753,-2.826],[6.971,-3.22],[6.886,-3.115],[6.34,-2.369],[5.674,-1.701],[4.986,-1.152]]]},"properties":{"abbr":null,"name":"unnamed sealed face","plate":35,"ap_bregma_mm":-4.1,"index":3}},{"type":"Feature","geometry":{"type":"Polygon","coordinates":[[[-4.851,-1.237],[-5.243,-1.532],[-5.902,-2.116],[-6.33,-2.559],[-6.148,-2.299],[-5.699,-1.849],[-5.166,-1.405],[-4.921,-1.279],[-4.914,-1.216],[-4.851,-1.237]]]},"properties":{"abbr":null,"name":"unnamed sealed face","plate":35,"ap_bregma_mm":-4.1,"index":4}},{"type":"Feature","geometry":{"type":"Polygon","coordinates":[[[-0.349,-1.912],[-0.153,-1.982],[0.022,-2.067],[0.135,-1.961],[0.254,-1.94],[-0.013,-2.137],[-0.013,-3.051],[-0.083,-3.044],[-0.083,-3.037],[-0.097,-2.299],[-0.202,-2.095],[-0.349,-2.003],[-1.149,-1.975],[-1.808,-2.263],[-2.284,-2.657],[-2.46,-3.037],[-2.453,-3.269],[-2.376,-3.445],[-2.404,-3.551],[-2.481,-3.551],[-2.509,-3.747],[-2.859,-3.769],[-3.154,-3.804],[-3.511,-4.05],[-3.399,-3.888],[-3.259,-3.839],[-3.245,-3.769],[-2.593,-3.733],[-2.579,-3.663],[-2.537,-3.677],[-2.565,-3.628],[-2.488,-3.593],[-2.6,-3.107],[-2.495,-2.728],[-2.544,-2.728],[-2.502,-2.481],[-2.453,-2.348],[-1.667,-1.933],[-1.008,-1.919],[-1.008,-1.841],[-0.833,-1.841],[-0.833,-1.919],[-0.349,-1.912]]]},"properties":{"abbr":null,"name":"unnamed sealed face","plate":35,"ap_bregma_mm":-4.1,"index":5}},{"type":"Feature","geometry":{"type":"Polygon","coordinates":[[[1.719,-2.074],[2.217,-2.32],[2.434,-2.383],[2.525,-2.467],[2.561,-2.756],[2.68,-3.023],[3.065,-3.522],[3.479,-3.888],[3.5,-3.944],[3.437,-3.951],[3.591,-3.994],[3.773,-4.155],[3.914,-4.437],[3.745,-4.191],[3.668,-4.296],[3.549,-4.148],[3.423,-3.966],[3.255,-3.846],[2.785,-3.733],[2.589,-3.677],[2.54,-3.543],[2.567,-3.15],[2.406,-2.756],[2.252,-2.538],[1.712,-2.186],[1.137,-1.996],[1.439,-1.989],[1.719,-2.074]]]},"properties":{"abbr":null,"name":"unnamed sealed face","plate":35,"ap_bregma_mm":-4.1,"index":6}},{"type":"Feature","geometry":{"type":"Polygon","coordinates":[[[2.68,-2.636],[2.799,-2.678],[3.276,-3.072],[3.794,-3.234],[4.383,-3.565],[4.587,-3.762],[4.79,-4.127],[4.888,-4.521],[4.825,-5.027],[4.58,-5.435],[4.18,-5.752],[4.012,-5.766],[3.858,-5.646],[4.159,-4.845],[4.187,-4.444],[4.138,-4.198],[3.9,-3.874],[3.64,-3.733],[2.806,-2.918],[2.652,-2.707],[2.68,-2.636]]]},"properties":{"abbr":null,"name":"unnamed sealed face","plate":35,"ap_bregma_mm":-4.1,"index":7}},{"type":"Feature","geometry":{"type":"Polygon","coordinates":[[[4.475,-5.372],[4.65,-5.147],[4.762,-4.873],[4.79,-4.486],[4.678,-4.113],[4.482,-3.797],[4.096,-3.501],[3.318,-3.178],[2.946,-2.925],[3.269,-3.276],[3.956,-3.811],[4.215,-4.162],[4.278,-4.465],[4.264,-4.753],[4.187,-5.07],[3.998,-5.457],[3.998,-5.576],[4.145,-5.604],[4.475,-5.372]]]},"properties":{"abbr":null,"name":"unnamed sealed face","plate":35,"ap_bregma_mm":-4.1,"index":8}},{"type":"Feature","geometry":{"type":"Polygon","coordinates":[[[-6.463,-2.728],[-6.498,-2.798],[-7.101,-3.74],[-7.038,-3.543],[-6.751,-3.072],[-6.463,-2.728]]]},"properties":{"abbr":null,"name":"unnamed sealed face","plate":35,"ap_bregma_mm":-4.1,"index":9}},{"type":"Feature","geometry":{"type":"Polygon","coordinates":[[[-3.399,-3.719],[-3.448,-3.79],[-3.413,-3.832],[-3.49,-3.832],[-3.687,-4.12],[-3.876,-4.268],[-4.135,-4.739],[-4.086,-4.915],[-4.149,-4.711],[-3.967,-4.359],[-3.399,-3.719]]]},"properties":{"abbr":null,"name":"unnamed sealed face","plate":35,"ap_bregma_mm":-4.1,"index":10}},{"type":"Feature","geometry":{"type":"Polygon","coordinates":[[[-4.696,-3.944],[-4.626,-3.994],[-4.787,-4.324],[-4.872,-4.289],[-4.815,-4.155],[-4.696,-3.944]]]},"properties":{"abbr":null,"name":"unnamed sealed face","plate":35,"ap_bregma_mm":-4.1,"index":11}},{"type":"Feature","geometry":{"type":"Polygon","coordinates":[[[2.294,-4.584],[2.294,-4.669],[2.133,-5.07],[2.006,-5.21],[1.972,-5.175],[2.294,-4.584]]]},"properties":{"abbr":null,"name":"unnamed sealed face","plate":35,"ap_bregma_mm":-4.1,"index":12}},{"type":"Feature","geometry":{"type":"Polygon","coordinates":[[[7.328,-5.013],[7.132,-5.731],[6.943,-6.04],[6.83,-6.09],[6.886,-6.012],[7.069,-5.787],[7.328,-5.013]]]},"properties":{"abbr":null,"name":"unnamed sealed face","plate":35,"ap_bregma_mm":-4.1,"index":13}},{"type":"Feature","geometry":{"type":"Polygon","coordinates":[[[-3.42,-5.407],[-3.301,-5.583],[-2.901,-6.49],[-2.453,-7.039],[-2.691,-6.849],[-3.021,-6.35],[-3.287,-5.639],[-3.546,-5.274],[-3.42,-5.407]]]},"properties":{"abbr":null,"name":"unnamed sealed face","plate":35,"ap_bregma_mm":-4.1,"index":14}},{"type":"Feature","geometry":{"type":"Polygon","coordinates":[[[-0.181,-5.344],[-0.104,-5.52],[-0.132,-5.731],[-0.286,-5.886],[-0.307,-5.822],[-0.293,-5.555],[-0.286,-5.4],[-0.181,-5.344]]]},"properties":{"abbr":null,"name":"unnamed sealed face","plate":35,"ap_bregma_mm":-4.1,"index":15}},{"type":"Feature","geometry":{"type":"Polygon","coordinates":[[[3.346,-6.406],[3.262,-6.547],[3.199,-6.842],[3.304,-7.145],[3.584,-7.391],[3.332,-7.264],[3.156,-6.927],[3.156,-6.73],[3.241,-6.469],[3.346,-6.406]]]},"properties":{"abbr":null,"name":"unnamed sealed face","plate":35,"ap_bregma_mm":-4.1,"index":16}},{"type":"Feature","geometry":{"type":"Polygon","coordinates":[[[6.557,-6.666],[6.382,-7.046],[6.038,-7.419],[5.568,-7.552],[5.73,-7.489],[6.08,-7.327],[6.375,-6.983],[6.557,-6.666]]]},"properties":{"abbr":null,"name":"unnamed sealed face","plate":35,"ap_bregma_mm":-4.1,"index":17}},{"type":"Feature","geometry":{"type":"Polygon","coordinates":[[[-6.225,-7.194],[-6.007,-7.271],[-6.316,-7.229],[-6.281,-7.187],[-6.582,-7.053],[-6.821,-6.687],[-6.575,-6.997],[-6.225,-7.194]]]},"properties":{"abbr":null,"name":"unnamed sealed face","plate":35,"ap_bregma_mm":-4.1,"index":18}},{"type":"Feature","geometry":{"type":"MultiPolygon","coordinates":[[[[0.895,-0.056],[1.509,-0.074],[1.877,-0.179],[2.228,-0.373],[3.649,-0.584],[4.333,-0.796],[4.526,-0.954],[4.877,-1.024],[4.947,-1.13],[5.14,-1.218],[5.895,-1.834],[6.228,-2.169],[6.754,-2.838],[7.246,-3.701],[7.403,-4.616],[7.351,-4.704],[7.316,-5.109],[7.123,-5.725],[6.93,-6.042],[6.597,-6.183],[6.509,-6.289],[6.509,-6.429],[6.579,-6.482],[6.544,-6.729],[6.368,-7.046],[6.123,-7.327],[5.983,-7.45],[5.684,-7.539],[5.281,-7.574],[4.86,-7.362],[4.421,-7.345],[4.298,-7.398],[3.667,-7.433],[3.333,-7.257],[3.158,-6.922],[3.158,-6.729],[3.246,-6.465],[3.351,-6.394],[3.298,-6.359],[3.439,-6.306],[3.667,-6.095],[3.526,-5.831],[3.526,-5.655],[3.649,-5.408],[3.596,-5.355],[3.702,-5.303],[3.877,-4.968],[3.877,-4.81],[3.93,-4.792],[3.912,-4.44],[3.737,-4.176],[3.649,-4.264],[3.772,-4.528],[3.754,-4.95],[3.702,-4.95],[3.702,-5.021],[3.403,-5.32],[3.281,-5.549],[3.211,-5.567],[2.93,-6.06],[2.877,-6.359],[2.351,-6.993],[2.333,-6.958],[1.86,-7.31],[1.544,-7.362],[1.526,-7.415],[1.228,-7.398],[0.824,-7.186],[0.702,-7.186],[0.86,-7.45],[0.842,-7.591],[0.684,-7.891],[0.649,-7.855],[0.368,-7.961],[-0.21,-7.926],[-0.737,-8.032],[-0.93,-8.032],[-1.105,-7.961],[-1.263,-7.644],[-1.246,-7.503],[-1.193,-7.503],[-1.088,-7.31],[-1.123,-7.239],[-1.298,-7.398],[-1.561,-7.468],[-1.982,-7.415],[-2.684,-6.852],[-3.018,-6.341],[-3.298,-5.62],[-3.561,-5.25],[-3.631,-5.232],[-3.614,-5.179],[-3.772,-5.003],[-3.842,-4.792],[-3.824,-4.475],[-3.404,-3.894],[-3.263,-3.841],[-3.246,-3.771],[-2.965,-3.718],[-2.597,-3.736],[-2.579,-3.665],[-2.526,-3.683],[-2.561,-3.63],[-2.491,-3.595],[-2.597,-3.102],[-2.491,-2.697],[-2.561,-2.732],[-2.579,-2.873],[-2.982,-3.313],[-2.965,-3.348],[-3.0,-3.331],[-3.263,-3.648],[-3.404,-3.718],[-3.456,-3.789],[-3.421,-3.824],[-3.491,-3.824],[-3.702,-4.123],[-3.877,-4.264],[-4.14,-4.739],[-3.965,-5.338],[-3.772,-5.708],[-3.772,-5.866],[-3.965,-6.13],[-3.965,-6.218],[-3.79,-6.377],[-3.631,-6.412],[-3.667,-6.429],[-3.544,-6.5],[-3.474,-6.658],[-3.439,-7.292],[-3.456,-7.398],[-3.614,-7.591],[-4.176,-7.697],[-4.456,-7.627],[-4.632,-7.503],[-4.719,-7.521],[-4.737,-7.468],[-5.017,-7.398],[-5.053,-7.345],[-5.193,-7.362],[-5.456,-7.292],[-5.982,-7.31],[-5.965,-7.274],[-6.316,-7.222],[-6.281,-7.186],[-6.579,-7.046],[-6.719,-6.887],[-7.053,-6.236],[-6.877,-5.936],[-6.877,-5.848],[-6.947,-5.778],[-7.123,-5.778],[-7.211,-5.708],[-7.368,-5.303],[-7.368,-4.37],[-7.158,-3.771],[-7.123,-3.789],[-7.035,-3.542],[-6.667,-2.943],[-6.456,-2.715],[-6.456,-2.644],[-6.439,-2.679],[-6.386,-2.627],[-6.14,-2.292],[-5.719,-1.87],[-5.175,-1.412],[-4.912,-1.271],[-4.912,-1.218],[-4.86,-1.236],[-4.123,-0.778],[-3.404,-0.496],[-2.684,-0.32],[-1.895,-0.215],[-1.491,-0.074],[-0.789,-0.074],[-0.474,-0.179],[-0.333,-0.285],[0.053,-0.866],[0.105,-1.024],[0.088,-1.324],[0.035,-1.482],[-0.246,-1.887],[-0.105,-2.028],[0.018,-2.063],[0.14,-1.958],[0.509,-1.887],[0.351,-1.782],[0.228,-1.517],[0.175,-1.077],[0.228,-0.848],[0.526,-0.373],[0.491,-0.355],[0.79,-0.109],[0.772,-0.074],[0.877,-0.074],[0.895,-0.056]]]]},"properties":{"abbr":"brain_outline","name":"outline of the section","plate":35,"ap_bregma_mm":-4.1}}]}
