{"type":"FeatureCollection","name":"GerbilAtlas plate 07","note":"Region extents cut from the atlas drawing (METHODS.md, Region extents). Coordinates are [ML, DV] in mm, ML positive to the right of the plate as printed, DV negative below the dorsal surface; AP is the plate bregma. traced_fraction is the share of each polygon boundary the atlas actually draws; below 0.5 the boundary is an estimate. no_drawn_outline marks a feature that lies only inside boundaries the atlas draws round more than one name and prints nothing within, so the whole of its outline is where the extraction cut it. Not a segmentation.","plate":7,"ap_bregma_mm":5.7,"features":[{"type":"Feature","geometry":{"type":"MultiPolygon","coordinates":[[[[-0.336,-4.415],[-0.427,-4.429],[-0.672,-4.394],[-0.792,-4.338],[-0.869,-4.324],[-1.142,-4.352],[-1.297,-4.408],[-1.514,-4.465],[-1.745,-4.577],[-1.822,-4.626],[-1.984,-4.795],[-2.012,-4.795],[-2.026,-4.809],[-2.047,-4.788],[-2.068,-4.795],[-2.082,-4.725],[-2.054,-4.605],[-2.005,-4.542],[-1.977,-4.479],[-1.907,-4.422],[-1.822,-4.324],[-1.808,-4.324],[-1.759,-4.268],[-1.57,-4.162],[-1.486,-4.134],[-1.43,-4.099],[-1.261,-4.05],[-1.135,-4.029],[-0.862,-4.021],[-0.75,-4.036],[-0.588,-4.078],[-0.273,-4.233],[-0.224,-4.275],[-0.21,-4.324],[-0.224,-4.359],[-0.238,-4.359],[-0.252,-4.387],[-0.336,-4.415]]]]},"properties":{"abbr":"FrA","name":"frontal association cortex","plate":7,"ap_bregma_mm":5.7,"area_mm2":0.5577,"traced_fraction":[1.0],"n_labels":1,"no_drawn_outline":false}},{"type":"Feature","geometry":{"type":"MultiPolygon","coordinates":[[[[1.305,-4.19],[1.277,-4.268],[1.22,-4.31],[1.178,-4.366],[1.031,-4.366],[0.863,-4.387],[0.786,-4.296],[0.695,-4.254],[0.631,-4.246],[0.631,-4.19],[0.618,-4.183],[0.751,-4.141],[1.017,-4.134],[1.305,-4.19]]],[[[-0.427,-4.429],[-0.427,-4.45],[-0.392,-4.479],[-0.392,-4.493],[-0.357,-4.507],[-0.357,-4.528],[-0.273,-4.605],[-0.245,-4.669],[-0.266,-4.669],[-0.308,-4.718],[-0.322,-4.718],[-0.406,-4.669],[-0.504,-4.556],[-0.567,-4.549],[-0.609,-4.563],[-0.645,-4.598],[-0.645,-4.64],[-0.602,-4.69],[-0.574,-4.76],[-0.595,-4.774],[-0.588,-4.83],[-0.623,-4.865],[-0.687,-5.126],[-0.729,-5.126],[-0.743,-5.112],[-0.743,-5.006],[-0.792,-4.788],[-0.848,-4.697],[-0.904,-4.64],[-0.939,-4.648],[-0.932,-4.711],[-0.925,-4.788],[-0.883,-4.943],[-0.883,-5.041],[-0.904,-5.119],[-0.96,-5.217],[-1.051,-5.301],[-1.142,-5.337],[-1.227,-5.337],[-1.269,-5.316],[-1.332,-5.231],[-1.395,-5.013],[-1.402,-4.823],[-1.353,-4.669],[-1.36,-4.619],[-1.374,-4.605],[-1.416,-4.612],[-1.472,-4.683],[-1.493,-4.69],[-1.57,-4.809],[-1.598,-4.795],[-1.668,-4.795],[-1.808,-4.865],[-1.886,-4.887],[-1.928,-4.887],[-1.977,-4.851],[-1.984,-4.795],[-1.822,-4.626],[-1.745,-4.577],[-1.514,-4.465],[-1.297,-4.408],[-1.142,-4.352],[-0.869,-4.324],[-0.792,-4.338],[-0.672,-4.394],[-0.427,-4.429]]]]},"properties":{"abbr":"GlA","name":"glomerular layer of the accessory olfactory bulb","plate":7,"ap_bregma_mm":5.7,"area_mm2":0.8972,"traced_fraction":[1.0,1.0],"n_labels":2,"no_drawn_outline":false}},{"type":"Feature","geometry":{"type":"MultiPolygon","coordinates":[[[[1.073,-4.683],[1.178,-4.697],[1.277,-4.739],[1.361,-4.83],[1.389,-4.929],[1.396,-5.034],[1.34,-5.224],[1.248,-5.309],[1.178,-5.33],[1.101,-5.316],[1.073,-5.301],[1.038,-5.252],[1.024,-5.252],[0.968,-5.161],[0.905,-4.957],[0.905,-4.858],[0.94,-4.76],[0.968,-4.725],[0.982,-4.725],[0.982,-4.711],[1.073,-4.683]]]]},"properties":{"abbr":"EPlA","name":"external plexiform layer of the accessory olfactory bulb","plate":7,"ap_bregma_mm":5.7,"area_mm2":0.2434,"traced_fraction":[1.0],"n_labels":2,"no_drawn_outline":false}},{"type":"Feature","geometry":{"type":"MultiPolygon","coordinates":[[[[-1.57,-4.809],[-1.577,-4.865],[-1.619,-4.894],[-1.682,-5.034],[-1.724,-5.168],[-1.731,-5.33],[-1.745,-5.344],[-1.738,-5.477],[-1.654,-5.66],[-1.85,-5.66],[-1.85,-5.731],[-2.019,-5.731],[-2.047,-5.611],[-2.11,-5.583],[-2.11,-5.484],[-2.068,-5.301],[-2.019,-5.168],[-2.005,-5.161],[-1.991,-5.105],[-1.9,-4.936],[-1.9,-4.915],[-1.886,-4.908],[-1.886,-4.887],[-1.808,-4.865],[-1.668,-4.795],[-1.598,-4.795],[-1.57,-4.809]]],[[[1.494,-4.802],[1.543,-4.823],[1.592,-4.873],[1.641,-4.95],[1.655,-5.027],[1.634,-5.133],[1.571,-5.133],[1.571,-5.098],[1.48,-5.091],[1.494,-4.802]]]]},"properties":{"abbr":"GrA","name":"granule cell layer of the accessory olfactory bulb","plate":7,"ap_bregma_mm":5.7,"area_mm2":0.3215,"traced_fraction":[0.856,0.836],"n_labels":2,"no_drawn_outline":false}},{"type":"Feature","geometry":{"type":"MultiPolygon","coordinates":[[[[-1.577,-4.865],[-1.563,-4.929],[-1.556,-5.189],[-1.507,-5.372],[-1.437,-5.505],[-1.332,-5.597],[-1.255,-5.632],[-1.142,-5.632],[-1.1,-5.618],[-1.037,-5.583],[-0.946,-5.491],[-0.848,-5.323],[-0.785,-5.154],[-0.757,-5.112],[-0.743,-5.112],[-0.729,-5.126],[-0.729,-5.175],[-0.715,-5.196],[-0.757,-5.393],[-0.841,-5.555],[-0.862,-5.639],[-0.883,-5.639],[-0.89,-5.66],[-0.911,-5.667],[-0.981,-5.787],[-1.065,-5.864],[-1.135,-5.892],[-1.24,-5.892],[-1.283,-5.878],[-1.402,-5.801],[-1.598,-5.597],[-1.668,-5.463],[-1.703,-5.358],[-1.731,-5.33],[-1.724,-5.168],[-1.71,-5.119],[-1.64,-4.929],[-1.619,-4.894],[-1.577,-4.865]]],[[[1.48,-5.091],[1.571,-5.098],[1.571,-5.133],[1.634,-5.133],[1.578,-5.301],[1.473,-5.463],[1.319,-5.632],[1.199,-5.695],[1.136,-5.695],[1.066,-5.674],[0.947,-5.583],[0.849,-5.421],[0.793,-5.231],[0.758,-5.182],[0.758,-5.168],[0.849,-5.147],[0.863,-5.203],[0.905,-5.273],[0.968,-5.358],[0.996,-5.372],[0.996,-5.386],[1.094,-5.442],[1.192,-5.442],[1.305,-5.414],[1.375,-5.358],[1.445,-5.217],[1.48,-5.091]]]]},"properties":{"abbr":"dlo","name":"dorsal lateral olfactory tract","plate":7,"ap_bregma_mm":5.7,"area_mm2":0.5115,"traced_fraction":[1.0,0.934],"n_labels":2,"no_drawn_outline":false}},{"type":"Feature","geometry":{"type":"MultiPolygon","coordinates":[[[[1.655,-5.027],[1.669,-5.027],[1.697,-5.076],[1.69,-5.252],[1.627,-5.4],[1.564,-5.505],[1.487,-5.597],[1.487,-5.618],[1.459,-5.632],[1.431,-5.681],[1.333,-5.78],[1.256,-5.899],[1.206,-6.089],[1.206,-6.181],[1.235,-6.371],[1.235,-6.532],[1.199,-6.61],[1.129,-6.61],[1.059,-6.497],[1.024,-6.371],[0.989,-6.146],[0.975,-5.822],[0.954,-5.731],[0.898,-5.583],[0.772,-5.33],[0.744,-5.217],[0.744,-5.182],[0.758,-5.182],[0.793,-5.231],[0.849,-5.421],[0.947,-5.583],[1.066,-5.674],[1.136,-5.695],[1.199,-5.695],[1.319,-5.632],[1.473,-5.463],[1.578,-5.301],[1.634,-5.133],[1.655,-5.027]]],[[[0.996,-5.703],[0.989,-5.752],[1.024,-5.864],[1.038,-6.054],[1.094,-6.399],[1.129,-6.483],[1.164,-6.497],[1.171,-6.427],[1.129,-6.3],[1.122,-6.16],[1.136,-6.019],[1.164,-5.942],[1.199,-5.752],[1.101,-5.745],[1.038,-5.709],[0.996,-5.703]]]]},"properties":{"abbr":"aci","name":"anterior commissure, intrabulbar part","plate":7,"ap_bregma_mm":5.7,"area_mm2":0.2421,"traced_fraction":[1.0,1.0],"n_labels":1,"no_drawn_outline":false}},{"type":"Feature","geometry":{"type":"MultiPolygon","coordinates":[[[[1.964,-5.569],[1.992,-5.59],[1.992,-5.611],[1.922,-5.745],[1.845,-5.843],[1.774,-5.906],[1.69,-6.047],[1.676,-6.103],[1.676,-6.293],[1.718,-6.483],[1.718,-6.575],[1.69,-6.568],[1.655,-6.532],[1.606,-6.434],[1.564,-6.216],[1.571,-6.11],[1.634,-5.956],[1.753,-5.787],[1.816,-5.724],[1.83,-5.688],[1.922,-5.597],[1.936,-5.597],[1.95,-5.569],[1.964,-5.569]]],[[[-2.11,-5.583],[-2.047,-5.611],[-2.019,-5.731],[-1.956,-5.998],[-1.858,-6.23],[-1.829,-6.392],[-1.794,-6.497],[-1.794,-6.582],[-1.766,-6.631],[-1.752,-6.715],[-1.696,-6.849],[-1.626,-6.94],[-1.619,-6.975],[-1.661,-6.961],[-1.731,-6.87],[-1.787,-6.729],[-1.808,-6.61],[-1.829,-6.568],[-1.822,-6.532],[-1.886,-6.343],[-1.949,-6.23],[-1.97,-6.146],[-2.068,-5.942],[-2.11,-5.78],[-2.11,-5.583]]]]},"properties":{"abbr":"AOL","name":"anterior olfactory nucleus, lateral part","plate":7,"ap_bregma_mm":5.7,"area_mm2":0.1902,"traced_fraction":[1.0,1.0],"n_labels":2,"no_drawn_outline":false}},{"type":"Feature","geometry":{"type":"MultiPolygon","coordinates":[[[[1.178,-4.366],[1.382,-4.408],[1.641,-4.535],[1.845,-4.725],[1.964,-4.887],[2.041,-5.02],[2.076,-5.189],[2.069,-5.414],[2.041,-5.569],[2.02,-5.618],[1.992,-5.611],[1.992,-5.59],[1.964,-5.569],[1.992,-5.491],[2.02,-5.33],[2.006,-5.133],[1.95,-4.985],[1.866,-4.858],[1.788,-4.774],[1.683,-4.704],[1.578,-4.605],[1.494,-4.549],[1.347,-4.486],[1.199,-4.45],[1.192,-4.605],[1.038,-4.598],[0.968,-4.619],[0.891,-4.669],[0.814,-4.746],[0.814,-4.767],[0.765,-4.802],[0.744,-4.851],[0.73,-4.964],[0.737,-5.091],[0.758,-5.168],[0.758,-5.182],[0.744,-5.182],[0.744,-5.217],[0.772,-5.33],[0.898,-5.583],[0.954,-5.731],[0.982,-5.892],[0.989,-6.146],[1.01,-6.3],[1.059,-6.497],[1.129,-6.61],[1.199,-6.61],[1.235,-6.532],[1.235,-6.371],[1.206,-6.181],[1.206,-6.089],[1.256,-5.899],[1.333,-5.78],[1.431,-5.681],[1.459,-5.632],[1.487,-5.618],[1.557,-5.695],[1.676,-5.709],[1.753,-5.787],[1.634,-5.956],[1.571,-6.11],[1.564,-6.216],[1.606,-6.434],[1.508,-6.434],[1.508,-6.582],[1.683,-6.582],[1.69,-6.568],[1.718,-6.575],[1.725,-6.589],[1.69,-6.631],[1.69,-6.666],[1.704,-6.673],[1.697,-6.701],[1.564,-6.701],[1.564,-6.849],[1.634,-6.856],[1.592,-6.933],[1.578,-6.933],[1.536,-6.99],[1.508,-6.997],[1.48,-7.025],[1.375,-7.06],[1.248,-7.046],[1.235,-7.067],[1.214,-7.067],[1.08,-7.039],[1.052,-6.997],[1.01,-6.983],[0.968,-6.99],[0.821,-6.877],[0.73,-6.757],[0.695,-6.68],[0.688,-6.56],[0.667,-6.469],[0.653,-6.033],[0.61,-5.695],[0.512,-5.344],[0.491,-4.985],[0.505,-4.865],[0.561,-4.704],[0.561,-4.683],[0.512,-4.669],[0.512,-4.64],[0.54,-4.591],[0.618,-4.507],[0.758,-4.422],[0.863,-4.387],[1.031,-4.366],[1.178,-4.366]]],[[[-0.588,-4.83],[-0.553,-4.865],[-0.511,-4.985],[-0.483,-4.999],[-0.469,-5.273],[-0.49,-5.309],[-0.483,-5.344],[-0.497,-5.358],[-0.497,-5.407],[-0.532,-5.534],[-0.623,-5.794],[-0.666,-6.026],[-0.687,-6.033],[-0.701,-6.068],[-0.701,-6.124],[-0.68,-6.16],[-0.68,-6.364],[-0.701,-6.364],[-0.708,-6.427],[-0.687,-6.455],[-0.722,-6.638],[-0.806,-6.814],[-0.89,-6.891],[-0.897,-6.912],[-0.939,-6.912],[-1.037,-6.961],[-1.051,-6.983],[-1.156,-7.025],[-1.198,-7.06],[-1.233,-7.06],[-1.248,-7.074],[-1.283,-7.053],[-1.374,-7.053],[-1.388,-7.067],[-1.472,-7.053],[-1.619,-6.975],[-1.626,-6.94],[-1.696,-6.849],[-1.752,-6.715],[-1.766,-6.631],[-1.794,-6.582],[-1.794,-6.497],[-1.829,-6.392],[-1.858,-6.23],[-1.956,-5.998],[-2.019,-5.731],[-1.85,-5.731],[-1.85,-5.66],[-1.654,-5.66],[-1.493,-5.928],[-1.388,-6.139],[-1.346,-6.279],[-1.339,-6.532],[-1.304,-6.596],[-1.261,-6.603],[-1.17,-6.56],[-1.107,-6.455],[-1.044,-6.244],[-1.009,-5.991],[-0.953,-5.864],[-0.932,-5.85],[-0.904,-5.794],[-0.862,-5.674],[-0.862,-5.639],[-0.841,-5.555],[-0.757,-5.393],[-0.715,-5.196],[-0.687,-5.126],[-0.623,-4.865],[-0.588,-4.83]]]]},"properties":{"abbr":"GrO","name":"granular cell layer of the olfactory bulb","plate":7,"ap_bregma_mm":5.7,"area_mm2":2.8617,"traced_fraction":[0.921,0.951],"n_labels":2,"no_drawn_outline":false}},{"type":"Feature","geometry":{"type":"MultiPolygon","coordinates":[[[[1.305,-4.19],[1.354,-4.19],[1.354,-4.24],[1.445,-4.324],[1.522,-4.366],[1.627,-4.394],[1.725,-4.394],[1.781,-4.366],[1.837,-4.408],[1.992,-4.661],[2.132,-4.83],[2.244,-5.055],[2.258,-5.203],[2.279,-5.252],[2.251,-5.252],[2.251,-5.309],[2.293,-5.4],[2.342,-5.463],[2.356,-5.555],[2.335,-5.583],[2.328,-5.667],[2.3,-5.716],[2.265,-5.85],[2.251,-5.878],[2.195,-5.92],[2.181,-5.956],[2.125,-6.019],[2.111,-6.082],[2.118,-6.258],[2.083,-6.356],[2.09,-6.42],[2.118,-6.476],[2.139,-6.483],[2.174,-6.539],[2.174,-6.546],[2.034,-6.687],[2.027,-6.68],[2.027,-6.694],[1.964,-6.75],[1.774,-7.046],[1.718,-7.088],[1.676,-7.081],[1.634,-7.102],[1.515,-7.215],[1.501,-7.243],[1.424,-7.292],[1.263,-7.264],[1.192,-7.292],[1.094,-7.278],[1.066,-7.299],[1.017,-7.299],[0.989,-7.271],[0.912,-7.25],[0.667,-7.222],[0.618,-7.165],[0.576,-7.088],[0.547,-7.06],[0.491,-7.039],[0.379,-6.919],[0.33,-6.743],[0.33,-6.673],[0.344,-6.638],[0.344,-6.546],[0.323,-6.504],[0.33,-6.321],[0.295,-6.223],[0.302,-6.089],[0.274,-6.033],[0.281,-5.892],[0.253,-5.857],[0.253,-5.773],[0.274,-5.731],[0.274,-5.639],[0.232,-5.527],[0.246,-5.337],[0.19,-5.266],[0.19,-5.21],[0.239,-5.133],[0.232,-4.978],[0.26,-4.894],[0.288,-4.64],[0.365,-4.556],[0.379,-4.556],[0.463,-4.408],[0.597,-4.289],[0.618,-4.246],[0.631,-4.246],[0.695,-4.254],[0.786,-4.296],[0.863,-4.387],[0.758,-4.422],[0.618,-4.507],[0.54,-4.591],[0.512,-4.64],[0.512,-4.669],[0.484,-4.732],[0.442,-4.95],[0.435,-5.196],[0.547,-5.667],[0.576,-5.85],[0.604,-6.167],[0.604,-6.596],[0.639,-6.722],[0.702,-6.849],[0.793,-6.961],[0.863,-7.018],[0.968,-7.074],[1.094,-7.109],[1.459,-7.109],[1.585,-7.046],[1.585,-7.032],[1.627,-7.004],[1.655,-6.961],[1.746,-6.779],[1.795,-6.589],[1.803,-6.49],[1.76,-6.307],[1.76,-6.153],[1.816,-6.033],[1.858,-5.991],[2.006,-5.752],[2.02,-5.618],[2.041,-5.569],[2.069,-5.414],[2.076,-5.189],[2.041,-5.02],[1.964,-4.887],[1.845,-4.725],[1.641,-4.535],[1.382,-4.408],[1.178,-4.366],[1.178,-4.352],[1.277,-4.268],[1.305,-4.19]]],[[[-0.322,-4.718],[-0.322,-4.795],[-0.301,-4.837],[-0.245,-4.894],[-0.238,-5.048],[-0.21,-5.084],[-0.175,-5.175],[-0.182,-5.273],[-0.168,-5.288],[-0.168,-5.344],[-0.224,-5.407],[-0.252,-5.47],[-0.259,-5.618],[-0.287,-5.731],[-0.287,-5.822],[-0.336,-5.956],[-0.322,-6.068],[-0.343,-6.167],[-0.343,-6.328],[-0.385,-6.427],[-0.392,-6.511],[-0.42,-6.554],[-0.406,-6.75],[-0.434,-6.807],[-0.455,-6.821],[-0.476,-6.891],[-0.532,-6.983],[-0.553,-7.074],[-0.602,-7.123],[-0.68,-7.165],[-0.764,-7.25],[-0.834,-7.271],[-1.023,-7.271],[-1.058,-7.278],[-1.107,-7.313],[-1.269,-7.32],[-1.311,-7.306],[-1.472,-7.306],[-1.577,-7.25],[-1.626,-7.257],[-1.738,-7.074],[-1.766,-7.053],[-1.808,-7.018],[-1.801,-6.99],[-1.822,-6.947],[-1.9,-6.863],[-1.914,-6.722],[-1.829,-6.715],[-1.794,-6.814],[-1.71,-6.961],[-1.696,-6.961],[-1.696,-6.975],[-1.647,-7.018],[-1.647,-7.032],[-1.612,-7.046],[-1.612,-7.06],[-1.507,-7.116],[-1.437,-7.123],[-1.367,-7.151],[-1.156,-7.13],[-1.03,-7.088],[-0.862,-6.983],[-0.743,-6.842],[-0.694,-6.743],[-0.651,-6.603],[-0.623,-6.42],[-0.623,-6.089],[-0.497,-5.632],[-0.455,-5.344],[-0.448,-5.295],[-0.469,-5.273],[-0.483,-4.999],[-0.476,-4.936],[-0.504,-4.858],[-0.518,-4.851],[-0.546,-4.781],[-0.574,-4.76],[-0.602,-4.69],[-0.645,-4.64],[-0.645,-4.598],[-0.609,-4.563],[-0.567,-4.549],[-0.504,-4.556],[-0.406,-4.669],[-0.322,-4.718]]]]},"properties":{"abbr":"EPl","name":"external plexiform layer of the olfactory bulb","plate":7,"ap_bregma_mm":5.7,"area_mm2":2.564,"traced_fraction":[1.0,0.997],"n_labels":2,"no_drawn_outline":false}},{"type":"Feature","geometry":{"type":"MultiPolygon","coordinates":[[[[0.225,-4.612],[0.288,-4.64],[0.26,-4.894],[0.232,-4.978],[0.239,-5.133],[0.19,-5.21],[0.19,-5.266],[0.246,-5.337],[0.232,-5.527],[0.274,-5.639],[0.274,-5.731],[0.253,-5.773],[0.253,-5.857],[0.281,-5.892],[0.274,-6.033],[0.302,-6.089],[0.295,-6.223],[0.33,-6.321],[0.323,-6.504],[0.344,-6.546],[0.33,-6.743],[0.379,-6.919],[0.491,-7.039],[0.547,-7.06],[0.576,-7.088],[0.618,-7.165],[0.667,-7.222],[0.912,-7.25],[0.989,-7.271],[1.017,-7.299],[1.066,-7.299],[1.094,-7.278],[1.192,-7.292],[1.263,-7.264],[1.424,-7.292],[1.501,-7.243],[1.515,-7.215],[1.634,-7.102],[1.676,-7.081],[1.718,-7.088],[1.69,-7.144],[1.529,-7.292],[1.41,-7.362],[1.403,-7.383],[1.298,-7.454],[1.206,-7.482],[1.143,-7.503],[1.08,-7.58],[0.982,-7.587],[0.919,-7.552],[0.828,-7.566],[0.772,-7.559],[0.681,-7.482],[0.604,-7.468],[0.533,-7.426],[0.372,-7.376],[0.33,-7.334],[0.267,-7.186],[0.141,-7.046],[0.134,-6.961],[0.155,-6.877],[0.155,-6.771],[0.127,-6.729],[0.113,-6.673],[0.12,-6.61],[0.148,-6.546],[0.148,-6.483],[0.134,-6.462],[0.141,-6.321],[0.106,-6.244],[0.099,-6.174],[0.113,-6.082],[0.099,-6.068],[0.085,-5.984],[0.085,-5.942],[0.106,-5.913],[0.099,-5.773],[0.113,-5.745],[0.113,-5.667],[0.043,-5.583],[0.029,-5.534],[0.021,-5.295],[0.043,-5.266],[0.071,-5.161],[0.134,-5.055],[0.134,-5.006],[0.169,-4.865],[0.176,-4.746],[0.211,-4.683],[0.225,-4.619],[0.225,-4.612]]],[[[-0.245,-4.669],[-0.238,-4.697],[-0.217,-4.711],[-0.224,-4.718],[-0.21,-4.732],[-0.203,-4.725],[-0.189,-4.732],[-0.126,-4.781],[-0.056,-4.95],[-0.028,-4.985],[-0.028,-5.055],[-0.013,-5.098],[0.008,-5.105],[-0.013,-5.491],[-0.056,-5.541],[-0.084,-5.653],[-0.077,-5.766],[-0.098,-5.822],[-0.098,-5.892],[-0.07,-5.963],[-0.07,-6.04],[-0.098,-6.117],[-0.105,-6.307],[-0.133,-6.399],[-0.133,-6.504],[-0.21,-6.631],[-0.21,-6.807],[-0.231,-6.863],[-0.224,-7.004],[-0.259,-7.123],[-0.259,-7.229],[-0.224,-7.271],[-0.231,-7.334],[-0.273,-7.362],[-0.406,-7.383],[-0.525,-7.461],[-0.666,-7.482],[-0.694,-7.51],[-0.799,-7.524],[-0.848,-7.552],[-0.974,-7.559],[-1.023,-7.538],[-1.212,-7.531],[-1.24,-7.538],[-1.261,-7.573],[-1.339,-7.552],[-1.43,-7.503],[-1.584,-7.341],[-1.626,-7.257],[-1.577,-7.25],[-1.472,-7.306],[-1.311,-7.306],[-1.269,-7.32],[-1.142,-7.32],[-1.023,-7.271],[-0.834,-7.271],[-0.764,-7.25],[-0.68,-7.165],[-0.602,-7.123],[-0.553,-7.074],[-0.532,-6.983],[-0.476,-6.891],[-0.455,-6.821],[-0.434,-6.807],[-0.406,-6.75],[-0.42,-6.554],[-0.392,-6.511],[-0.385,-6.427],[-0.343,-6.328],[-0.343,-6.167],[-0.322,-6.068],[-0.336,-5.956],[-0.287,-5.822],[-0.287,-5.731],[-0.259,-5.618],[-0.252,-5.47],[-0.238,-5.428],[-0.168,-5.344],[-0.168,-5.288],[-0.182,-5.273],[-0.175,-5.175],[-0.21,-5.084],[-0.238,-5.048],[-0.245,-4.894],[-0.301,-4.837],[-0.322,-4.795],[-0.322,-4.718],[-0.308,-4.718],[-0.266,-4.669],[-0.245,-4.669]]]]},"properties":{"abbr":"Gl","name":"glomerular layer of the olfactory bulb","plate":7,"ap_bregma_mm":5.7,"area_mm2":1.6505,"traced_fraction":[0.998,1.0],"n_labels":2,"no_drawn_outline":false}},{"type":"Feature","geometry":{"type":"MultiPolygon","coordinates":[[[[0.225,-4.542],[0.232,-4.563],[0.211,-4.591],[0.225,-4.612],[0.225,-4.619],[0.211,-4.683],[0.176,-4.746],[0.169,-4.865],[0.134,-5.006],[0.134,-5.055],[0.071,-5.161],[0.043,-5.266],[0.021,-5.295],[0.029,-5.534],[0.043,-5.583],[0.113,-5.667],[0.113,-5.745],[0.099,-5.773],[0.106,-5.913],[0.085,-5.942],[0.085,-5.984],[0.099,-6.068],[0.113,-6.082],[0.099,-6.174],[0.106,-6.244],[0.141,-6.321],[0.134,-6.462],[0.148,-6.483],[0.148,-6.546],[0.113,-6.652],[0.127,-6.729],[0.155,-6.771],[0.155,-6.877],[0.134,-6.961],[0.141,-7.046],[0.267,-7.186],[0.33,-7.334],[0.372,-7.376],[0.533,-7.426],[0.604,-7.468],[0.681,-7.482],[0.772,-7.559],[0.828,-7.566],[0.919,-7.552],[0.982,-7.587],[0.884,-7.644],[0.884,-7.658],[0.751,-7.728],[0.547,-7.721],[0.386,-7.735],[0.33,-7.714],[0.323,-7.7],[0.253,-7.672],[0.197,-7.623],[0.197,-7.609],[0.12,-7.552],[0.029,-7.376],[-0.007,-7.201],[-0.013,-7.018],[-0.013,-6.736],[-0.028,-6.722],[-0.049,-6.729],[-0.056,-6.828],[-0.056,-7.004],[-0.042,-7.018],[-0.056,-7.018],[-0.077,-7.151],[-0.07,-7.201],[-0.084,-7.215],[-0.112,-7.383],[-0.182,-7.538],[-0.203,-7.552],[-0.217,-7.587],[-0.329,-7.686],[-0.448,-7.749],[-0.56,-7.77],[-0.778,-7.756],[-0.967,-7.714],[-1.142,-7.615],[-1.156,-7.609],[-1.261,-7.573],[-1.24,-7.538],[-1.212,-7.531],[-1.023,-7.538],[-0.974,-7.559],[-0.848,-7.552],[-0.799,-7.524],[-0.694,-7.51],[-0.666,-7.482],[-0.525,-7.461],[-0.406,-7.383],[-0.273,-7.362],[-0.231,-7.334],[-0.224,-7.271],[-0.259,-7.229],[-0.259,-7.123],[-0.224,-7.004],[-0.231,-6.863],[-0.21,-6.807],[-0.21,-6.631],[-0.133,-6.504],[-0.133,-6.399],[-0.105,-6.307],[-0.098,-6.117],[-0.07,-6.04],[-0.07,-5.963],[-0.098,-5.892],[-0.098,-5.822],[-0.077,-5.766],[-0.084,-5.653],[-0.056,-5.541],[-0.013,-5.491],[0.008,-5.105],[0.029,-5.069],[0.036,-4.992],[0.099,-4.788],[0.225,-4.542]]]]},"properties":{"abbr":"ON","name":"olfactory nerve layer","plate":7,"ap_bregma_mm":5.7,"area_mm2":1.0164,"traced_fraction":[1.0],"n_labels":2,"no_drawn_outline":false}},{"type":"Feature","geometry":{"type":"MultiPolygon","coordinates":[[[[-0.743,-5.112],[-0.757,-5.112],[-0.785,-5.154],[-0.848,-5.323],[-0.946,-5.491],[-1.037,-5.583],[-1.1,-5.618],[-1.142,-5.632],[-1.255,-5.632],[-1.332,-5.597],[-1.437,-5.505],[-1.507,-5.372],[-1.556,-5.189],[-1.563,-4.929],[-1.577,-4.865],[-1.57,-4.809],[-1.493,-4.69],[-1.472,-4.683],[-1.465,-4.746],[-1.493,-4.858],[-1.493,-5.055],[-1.465,-5.196],[-1.367,-5.4],[-1.276,-5.491],[-1.212,-5.52],[-1.1,-5.505],[-1.016,-5.449],[-0.925,-5.33],[-0.925,-5.309],[-0.869,-5.21],[-0.834,-5.084],[-0.82,-4.851],[-0.841,-4.781],[-0.876,-4.725],[-0.932,-4.711],[-0.939,-4.648],[-0.904,-4.64],[-0.848,-4.697],[-0.792,-4.788],[-0.743,-5.006],[-0.743,-5.112]]]]},"properties":{"abbr":"MiA","name":"mitral cell layer of the accessory olfactory bulb","plate":7,"ap_bregma_mm":5.7,"area_mm2":0.179,"traced_fraction":[1.0],"n_labels":1,"no_drawn_outline":false}},{"type":"Feature","geometry":{"type":"MultiPolygon","coordinates":[[[[1.964,-5.569],[1.95,-5.569],[1.95,-5.583],[1.83,-5.688],[1.816,-5.724],[1.753,-5.787],[1.676,-5.709],[1.557,-5.695],[1.487,-5.618],[1.487,-5.597],[1.529,-5.555],[1.627,-5.4],[1.69,-5.252],[1.697,-5.076],[1.669,-5.027],[1.655,-5.027],[1.641,-4.95],[1.592,-4.873],[1.543,-4.823],[1.494,-4.802],[1.424,-4.725],[1.347,-4.669],[1.192,-4.605],[1.199,-4.45],[1.347,-4.486],[1.494,-4.549],[1.578,-4.605],[1.648,-4.676],[1.788,-4.774],[1.866,-4.858],[1.95,-4.985],[2.006,-5.133],[2.02,-5.33],[1.992,-5.491],[1.964,-5.569]]],[[[-1.928,-4.887],[-1.886,-4.887],[-1.886,-4.908],[-1.9,-4.915],[-1.9,-4.936],[-1.991,-5.105],[-2.005,-5.161],[-2.019,-5.168],[-2.068,-5.301],[-2.11,-5.484],[-2.11,-5.583],[-2.11,-5.78],[-2.068,-5.942],[-2.166,-5.949],[-2.194,-5.836],[-2.194,-5.674],[-2.152,-5.604],[-2.152,-5.484],[-2.131,-5.372],[-2.061,-5.161],[-2.047,-5.154],[-2.04,-5.112],[-2.019,-5.091],[-2.005,-5.034],[-1.991,-5.027],[-1.928,-4.887]]]]},"properties":{"abbr":"lo","name":"lateral olfactory tract","plate":7,"ap_bregma_mm":5.7,"area_mm2":0.474,"traced_fraction":[0.901,0.983],"n_labels":2,"no_drawn_outline":false}},{"type":"Feature","geometry":{"type":"MultiPolygon","coordinates":[[[[1.992,-5.611],[2.02,-5.618],[2.006,-5.752],[1.858,-5.991],[1.816,-6.033],[1.76,-6.153],[1.76,-6.307],[1.803,-6.49],[1.795,-6.589],[1.725,-6.589],[1.718,-6.575],[1.718,-6.483],[1.676,-6.293],[1.676,-6.103],[1.69,-6.047],[1.774,-5.906],[1.845,-5.843],[1.922,-5.745],[1.992,-5.611]]],[[[-2.068,-5.942],[-1.97,-6.146],[-1.949,-6.23],[-1.886,-6.343],[-1.822,-6.532],[-1.829,-6.568],[-1.858,-6.568],[-1.865,-6.546],[-1.942,-6.476],[-2.047,-6.314],[-2.089,-6.223],[-2.11,-6.131],[-2.124,-6.124],[-2.166,-5.949],[-2.068,-5.942]]]]},"properties":{"abbr":"AOE","name":"anterior olfactory nucleus, external part","plate":7,"ap_bregma_mm":5.7,"area_mm2":0.1645,"traced_fraction":[1.0,0.972],"n_labels":2,"no_drawn_outline":false}},{"type":"Feature","geometry":{"type":"MultiPolygon","coordinates":[[[[-1.984,-4.795],[-1.977,-4.851],[-1.928,-4.887],[-1.991,-5.027],[-2.005,-5.034],[-2.019,-5.091],[-2.04,-5.112],[-2.047,-5.154],[-2.061,-5.161],[-2.131,-5.372],[-2.152,-5.484],[-2.152,-5.604],[-2.194,-5.674],[-2.194,-5.836],[-2.166,-5.949],[-2.145,-6.054],[-2.075,-6.258],[-1.984,-6.42],[-1.858,-6.568],[-1.858,-6.617],[-1.829,-6.715],[-1.914,-6.722],[-1.977,-6.546],[-2.012,-6.504],[-2.082,-6.455],[-2.138,-6.378],[-2.138,-6.223],[-2.159,-6.167],[-2.201,-6.124],[-2.229,-6.124],[-2.236,-6.153],[-2.285,-5.843],[-2.285,-5.484],[-2.243,-5.231],[-2.201,-5.091],[-2.054,-4.837],[-2.04,-4.837],[-2.026,-4.809],[-2.012,-4.795],[-1.984,-4.795]]],[[[-2.236,-6.174],[-2.222,-6.174],[-2.229,-6.195],[-2.236,-6.174]]],[[[1.606,-6.434],[1.655,-6.532],[1.69,-6.568],[1.683,-6.582],[1.508,-6.582],[1.508,-6.434],[1.606,-6.434]]]]},"properties":{"abbr":"E","name":"ependyma and subependymal layer","plate":7,"ap_bregma_mm":5.7,"area_mm2":0.2452,"traced_fraction":[0.994,1.0,0.368],"n_labels":4,"no_drawn_outline":false}},{"type":"Feature","geometry":{"type":"Polygon","coordinates":[[[0.618,-4.183],[0.631,-4.19],[0.631,-4.246],[0.618,-4.246],[0.597,-4.289],[0.463,-4.408],[0.379,-4.556],[0.365,-4.556],[0.288,-4.64],[0.225,-4.612],[0.211,-4.605],[0.232,-4.563],[0.225,-4.542],[0.358,-4.352],[0.435,-4.275],[0.512,-4.225],[0.618,-4.183]]]},"properties":{"abbr":null,"name":"unnamed sealed face","plate":7,"ap_bregma_mm":5.7,"index":0}},{"type":"Feature","geometry":{"type":"Polygon","coordinates":[[[1.354,-4.19],[1.459,-4.197],[1.592,-4.233],[1.732,-4.31],[1.781,-4.366],[1.725,-4.394],[1.627,-4.394],[1.522,-4.366],[1.445,-4.324],[1.354,-4.24],[1.354,-4.19]]]},"properties":{"abbr":null,"name":"unnamed sealed face","plate":7,"ap_bregma_mm":5.7,"index":1}},{"type":"Feature","geometry":{"type":"Polygon","coordinates":[[[1.192,-4.605],[1.347,-4.669],[1.424,-4.725],[1.494,-4.802],[1.48,-5.091],[1.445,-5.217],[1.375,-5.358],[1.305,-5.414],[1.192,-5.442],[1.094,-5.442],[0.996,-5.386],[0.996,-5.372],[0.968,-5.358],[0.905,-5.273],[0.863,-5.203],[0.849,-5.147],[0.758,-5.168],[0.737,-5.091],[0.73,-4.964],[0.744,-4.851],[0.765,-4.802],[0.814,-4.767],[0.814,-4.746],[0.891,-4.669],[0.968,-4.619],[1.038,-4.598],[1.192,-4.605]]]},"properties":{"abbr":null,"name":"unnamed sealed face","plate":7,"ap_bregma_mm":5.7,"index":2}},{"type":"Feature","geometry":{"type":"Polygon","coordinates":[[[1.073,-4.683],[0.982,-4.711],[0.982,-4.725],[0.968,-4.725],[0.94,-4.76],[0.905,-4.858],[0.905,-4.957],[0.968,-5.161],[1.024,-5.252],[1.038,-5.252],[1.073,-5.301],[1.178,-5.33],[1.248,-5.309],[1.34,-5.224],[1.354,-5.147],[1.389,-5.076],[1.389,-4.929],[1.361,-4.83],[1.277,-4.739],[1.178,-4.697],[1.073,-4.683]]]},"properties":{"abbr":null,"name":"unnamed sealed face","plate":7,"ap_bregma_mm":5.7,"index":3}},{"type":"Feature","geometry":{"type":"Polygon","coordinates":[[[-0.932,-4.711],[-0.876,-4.725],[-0.841,-4.781],[-0.82,-4.851],[-0.834,-5.084],[-0.869,-5.21],[-0.925,-5.309],[-0.925,-5.33],[-1.016,-5.449],[-1.1,-5.505],[-1.212,-5.52],[-1.276,-5.491],[-1.367,-5.4],[-1.465,-5.196],[-1.493,-5.055],[-1.493,-4.858],[-1.465,-4.746],[-1.472,-4.683],[-1.416,-4.612],[-1.374,-4.605],[-1.36,-4.619],[-1.353,-4.669],[-1.402,-4.823],[-1.395,-5.013],[-1.332,-5.231],[-1.304,-5.28],[-1.227,-5.337],[-1.142,-5.337],[-1.051,-5.301],[-0.96,-5.217],[-0.904,-5.119],[-0.883,-5.041],[-0.883,-4.943],[-0.925,-4.788],[-0.932,-4.711]]]},"properties":{"abbr":null,"name":"unnamed sealed face","plate":7,"ap_bregma_mm":5.7,"index":4}},{"type":"Feature","geometry":{"type":"Polygon","coordinates":[[[0.512,-4.669],[0.561,-4.683],[0.505,-4.865],[0.491,-4.985],[0.512,-5.344],[0.61,-5.695],[0.653,-6.033],[0.667,-6.469],[0.688,-6.56],[0.695,-6.68],[0.73,-6.757],[0.821,-6.877],[0.968,-6.99],[1.01,-6.983],[1.052,-6.997],[1.08,-7.039],[1.214,-7.067],[1.235,-7.067],[1.248,-7.046],[1.375,-7.06],[1.48,-7.025],[1.508,-6.997],[1.536,-6.99],[1.578,-6.933],[1.592,-6.933],[1.634,-6.856],[1.564,-6.849],[1.564,-6.701],[1.697,-6.701],[1.704,-6.673],[1.69,-6.666],[1.69,-6.631],[1.725,-6.589],[1.795,-6.589],[1.746,-6.779],[1.655,-6.961],[1.627,-7.004],[1.585,-7.032],[1.585,-7.046],[1.459,-7.109],[1.192,-7.116],[1.094,-7.109],[0.968,-7.074],[0.863,-7.018],[0.793,-6.961],[0.702,-6.849],[0.639,-6.722],[0.604,-6.596],[0.604,-6.167],[0.576,-5.85],[0.547,-5.667],[0.435,-5.196],[0.442,-4.95],[0.477,-4.76],[0.512,-4.669]]]},"properties":{"abbr":null,"name":"unnamed sealed face","plate":7,"ap_bregma_mm":5.7,"index":5}},{"type":"Feature","geometry":{"type":"Polygon","coordinates":[[[2.279,-5.252],[2.363,-5.337],[2.413,-5.442],[2.426,-5.625],[2.413,-5.695],[2.363,-5.808],[2.37,-6.012],[2.328,-6.124],[2.349,-6.35],[2.293,-6.441],[2.174,-6.546],[2.174,-6.539],[2.139,-6.483],[2.118,-6.476],[2.083,-6.399],[2.083,-6.356],[2.118,-6.258],[2.111,-6.082],[2.125,-6.019],[2.181,-5.956],[2.195,-5.92],[2.251,-5.878],[2.286,-5.794],[2.3,-5.716],[2.328,-5.667],[2.335,-5.583],[2.356,-5.555],[2.342,-5.463],[2.293,-5.4],[2.251,-5.309],[2.244,-5.266],[2.251,-5.252],[2.279,-5.252]]]},"properties":{"abbr":null,"name":"unnamed sealed face","plate":7,"ap_bregma_mm":5.7,"index":6}},{"type":"Feature","geometry":{"type":"Polygon","coordinates":[[[-1.731,-5.33],[-1.703,-5.358],[-1.668,-5.463],[-1.598,-5.597],[-1.402,-5.801],[-1.283,-5.878],[-1.24,-5.892],[-1.135,-5.892],[-1.065,-5.864],[-0.981,-5.787],[-0.911,-5.667],[-0.897,-5.667],[-0.883,-5.639],[-0.862,-5.639],[-0.862,-5.674],[-0.904,-5.794],[-0.932,-5.85],[-0.953,-5.864],[-1.009,-5.991],[-1.044,-6.244],[-1.107,-6.455],[-1.17,-6.56],[-1.261,-6.603],[-1.304,-6.596],[-1.339,-6.532],[-1.346,-6.279],[-1.388,-6.139],[-1.493,-5.928],[-1.654,-5.66],[-1.738,-5.477],[-1.745,-5.344],[-1.731,-5.33]]]},"properties":{"abbr":null,"name":"unnamed sealed face","plate":7,"ap_bregma_mm":5.7,"index":7}},{"type":"Feature","geometry":{"type":"Polygon","coordinates":[[[-0.483,-5.344],[-0.455,-5.344],[-0.497,-5.632],[-0.623,-6.089],[-0.623,-6.42],[-0.651,-6.603],[-0.694,-6.743],[-0.743,-6.842],[-0.862,-6.983],[-0.988,-7.067],[-1.156,-7.13],[-1.367,-7.151],[-1.437,-7.123],[-1.507,-7.116],[-1.612,-7.06],[-1.612,-7.046],[-1.647,-7.032],[-1.696,-6.961],[-1.71,-6.961],[-1.794,-6.814],[-1.829,-6.715],[-1.858,-6.617],[-1.858,-6.568],[-1.829,-6.568],[-1.808,-6.61],[-1.787,-6.729],[-1.731,-6.87],[-1.661,-6.961],[-1.619,-6.975],[-1.472,-7.053],[-1.416,-7.067],[-1.388,-7.067],[-1.374,-7.053],[-1.283,-7.053],[-1.248,-7.074],[-1.233,-7.06],[-1.198,-7.06],[-1.156,-7.025],[-1.051,-6.983],[-1.037,-6.961],[-0.939,-6.912],[-0.897,-6.912],[-0.89,-6.891],[-0.806,-6.814],[-0.736,-6.68],[-0.687,-6.455],[-0.708,-6.427],[-0.701,-6.364],[-0.68,-6.364],[-0.68,-6.16],[-0.701,-6.124],[-0.701,-6.068],[-0.687,-6.033],[-0.666,-6.026],[-0.623,-5.794],[-0.532,-5.534],[-0.497,-5.407],[-0.497,-5.358],[-0.483,-5.344]]]},"properties":{"abbr":null,"name":"unnamed sealed face","plate":7,"ap_bregma_mm":5.7,"index":8}},{"type":"Feature","geometry":{"type":"Polygon","coordinates":[[[0.996,-5.703],[1.038,-5.709],[1.101,-5.745],[1.199,-5.752],[1.164,-5.942],[1.136,-6.019],[1.122,-6.16],[1.129,-6.3],[1.171,-6.427],[1.164,-6.497],[1.129,-6.483],[1.094,-6.399],[1.038,-6.054],[1.024,-5.864],[0.989,-5.752],[0.996,-5.703]]]},"properties":{"abbr":null,"name":"unnamed sealed face","plate":7,"ap_bregma_mm":5.7,"index":9}},{"type":"Feature","geometry":{"type":"Polygon","coordinates":[[[-1.914,-6.722],[-1.9,-6.863],[-1.822,-6.947],[-1.801,-6.99],[-1.808,-7.018],[-1.879,-6.99],[-1.97,-6.884],[-2.117,-6.582],[-2.229,-6.195],[-2.222,-6.174],[-2.236,-6.174],[-2.236,-6.153],[-2.229,-6.124],[-2.201,-6.124],[-2.159,-6.167],[-2.138,-6.223],[-2.138,-6.378],[-2.082,-6.455],[-2.012,-6.504],[-1.977,-6.546],[-1.914,-6.722]]]},"properties":{"abbr":null,"name":"unnamed sealed face","plate":7,"ap_bregma_mm":5.7,"index":10}},{"type":"Feature","geometry":{"type":"MultiPolygon","coordinates":[[[[-0.574,-7.763],[-0.764,-7.749],[-0.967,-7.707],[-1.177,-7.594],[-1.353,-7.538],[-1.437,-7.489],[-1.577,-7.341],[-1.745,-7.067],[-1.801,-7.018],[-1.879,-6.983],[-1.963,-6.884],[-2.11,-6.589],[-2.229,-6.209],[-2.278,-5.899],[-2.292,-5.667],[-2.285,-5.505],[-2.243,-5.238],[-2.201,-5.098],[-2.138,-4.971],[-2.054,-4.844],[-2.082,-4.753],[-2.068,-4.633],[-1.97,-4.472],[-1.766,-4.275],[-1.64,-4.197],[-1.423,-4.099],[-1.283,-4.057],[-1.121,-4.029],[-0.897,-4.021],[-0.771,-4.036],[-0.602,-4.078],[-0.294,-4.225],[-0.231,-4.275],[-0.217,-4.331],[-0.259,-4.38],[-0.343,-4.408],[-0.364,-4.521],[-0.287,-4.598],[-0.238,-4.697],[-0.133,-4.781],[-0.042,-4.985],[0.036,-4.992],[0.106,-4.774],[0.246,-4.5],[0.372,-4.338],[0.428,-4.282],[0.526,-4.218],[0.625,-4.176],[0.765,-4.141],[0.996,-4.134],[1.305,-4.19],[1.438,-4.197],[1.578,-4.233],[1.704,-4.296],[1.824,-4.401],[1.992,-4.661],[2.125,-4.83],[2.237,-5.062],[2.258,-5.231],[2.356,-5.337],[2.405,-5.449],[2.419,-5.583],[2.413,-5.66],[2.356,-5.815],[2.363,-5.998],[2.321,-6.131],[2.342,-6.343],[2.279,-6.441],[1.964,-6.743],[1.76,-7.046],[1.711,-7.088],[1.683,-7.137],[1.529,-7.278],[1.277,-7.454],[1.143,-7.496],[1.073,-7.573],[0.982,-7.58],[0.779,-7.707],[0.737,-7.721],[0.597,-7.714],[0.393,-7.728],[0.274,-7.679],[0.127,-7.552],[0.029,-7.369],[-0.007,-7.194],[-0.084,-7.194],[-0.119,-7.369],[-0.182,-7.517],[-0.231,-7.587],[-0.364,-7.7],[-0.462,-7.742],[-0.553,-7.756],[-0.574,-7.763]]]]},"properties":{"abbr":"brain_outline","name":"outline of the section","plate":7,"ap_bregma_mm":5.7}}]}
