{"type":"FeatureCollection","name":"GerbilAtlas plate 58","note":"Region extents cut from the atlas drawing (METHODS.md, Region extents). Coordinates are [ML, DV] in mm, ML positive to the right of the plate as printed, DV negative below the dorsal surface; AP is the plate bregma. traced_fraction is the share of each polygon boundary the atlas actually draws; below 0.5 the boundary is an estimate. no_drawn_outline marks a feature that lies only inside boundaries the atlas draws round more than one name and prints nothing within, so the whole of its outline is where the extraction cut it. Not a segmentation.","plate":58,"ap_bregma_mm":-12.15,"features":[{"type":"Feature","geometry":{"type":"MultiPolygon","coordinates":[[[[-0.373,-7.49],[-0.366,-7.624],[-0.422,-7.659],[-0.744,-7.779],[-0.899,-7.793],[-0.948,-7.751],[-0.955,-7.68],[-0.941,-7.652],[-0.892,-7.617],[-0.583,-7.54],[-0.569,-7.526],[-0.373,-7.49]]]]},"properties":{"abbr":"10N","name":"dorsal motor nucleus of vagus","plate":58,"ap_bregma_mm":-12.15,"area_mm2":0.102,"traced_fraction":[0.942],"n_labels":1,"no_drawn_outline":false}},{"type":"Feature","geometry":{"type":"MultiPolygon","coordinates":[[[[0.784,-6.71],[0.763,-6.759],[0.517,-6.759],[0.377,-6.759],[0.384,-6.745],[0.461,-6.745],[0.496,-6.717],[0.496,-6.675],[0.454,-6.604],[0.51,-6.548],[0.56,-6.534],[0.714,-6.639],[0.784,-6.71]]]]},"properties":{"abbr":"12GH","name":"hypoglossal nucleus, geniohyoid part","plate":58,"ap_bregma_mm":-12.15,"area_mm2":0.05,"traced_fraction":[0.684],"n_labels":1,"no_drawn_outline":true}},{"type":"Feature","geometry":{"type":"MultiPolygon","coordinates":[[[[0.363,-5.669],[0.321,-5.936],[0.307,-5.957],[0.321,-5.992],[0.279,-6.02],[0.251,-6.077],[0.321,-6.105],[0.454,-6.098],[0.483,-6.112],[0.483,-6.14],[0.447,-6.189],[0.419,-6.288],[0.377,-6.386],[0.377,-6.435],[0.363,-6.435],[0.356,-6.4],[0.363,-6.386],[0.3,-6.351],[0.202,-6.323],[0.139,-6.323],[0.041,-6.365],[-0.001,-6.407],[-0.05,-6.499],[-0.142,-6.435],[-0.142,-6.414],[-0.1,-6.351],[-0.191,-6.309],[-0.282,-6.309],[-0.331,-6.323],[-0.408,-6.365],[-0.422,-6.4],[-0.436,-6.4],[-0.464,-6.379],[-0.492,-6.309],[-0.555,-6.14],[-0.555,-6.112],[-0.534,-6.105],[-0.534,-6.091],[-0.338,-6.112],[-0.226,-6.119],[-0.085,-6.112],[-0.015,-6.084],[-0.022,-5.922],[-0.022,-5.831],[0.006,-5.795],[0.02,-5.76],[0.013,-5.746],[0.027,-5.746],[0.062,-5.704],[0.125,-5.676],[0.237,-5.655],[0.363,-5.669]]]]},"properties":{"abbr":"12N","name":"hypoglossal nucleus","plate":58,"ap_bregma_mm":-12.15,"area_mm2":0.3859,"traced_fraction":[0.991],"n_labels":2,"no_drawn_outline":false}},{"type":"Feature","geometry":{"type":"MultiPolygon","coordinates":[[[[-0.45,-6.421],[-0.443,-6.478],[-0.38,-6.639],[-0.324,-6.71],[-0.261,-6.731],[-0.057,-6.731],[-0.057,-6.745],[-0.064,-6.773],[-0.071,-6.773],[-0.106,-6.766],[-0.17,-6.801],[-0.24,-6.879],[-0.268,-6.935],[-0.289,-6.949],[-0.289,-6.97],[-0.436,-7.174],[-0.52,-7.258],[-0.534,-7.258],[-0.681,-7.111],[-0.681,-6.984],[-0.695,-6.935],[-0.878,-6.759],[-0.843,-6.71],[-0.723,-6.618],[-0.681,-6.569],[-0.499,-6.435],[-0.45,-6.421]]],[[[0.314,-6.71],[0.384,-6.745],[0.377,-6.759],[0.517,-6.759],[0.517,-6.773],[0.623,-6.871],[0.623,-7.083],[0.37,-7.09],[0.258,-6.914],[0.251,-6.879],[0.188,-6.815],[0.104,-6.766],[0.09,-6.738],[0.314,-6.71]]]]},"properties":{"abbr":"12n","name":"hypoglossal nerve","plate":58,"ap_bregma_mm":-12.15,"area_mm2":0.4208,"traced_fraction":[0.788,0.605],"n_labels":2,"no_drawn_outline":true}},{"type":"Feature","geometry":{"type":"MultiPolygon","coordinates":[[[[1.345,-3.524],[1.331,-3.524],[1.198,-3.285],[1.057,-3.137],[0.889,-3.01],[0.728,-2.926],[0.468,-2.834],[0.258,-2.792],[0.111,-2.778],[-0.303,-2.785],[-0.541,-2.827],[-0.625,-2.855],[-0.66,-2.849],[-0.71,-2.863],[-0.738,-2.891],[-0.92,-2.954],[-1.13,-3.074],[-1.221,-3.144],[-1.27,-3.2],[-1.284,-3.2],[-1.418,-3.348],[-1.474,-3.432],[-1.565,-3.636],[-1.572,-3.636],[-1.579,-3.636],[-1.607,-3.587],[-1.6,-3.481],[-1.544,-3.327],[-1.411,-3.081],[-1.312,-2.933],[-1.151,-2.75],[-1.151,-2.736],[-0.927,-2.518],[-0.899,-2.497],[-0.864,-2.469],[-0.787,-2.412],[-0.569,-2.286],[-0.373,-2.215],[-0.212,-2.187],[0.013,-2.187],[0.174,-2.215],[0.433,-2.328],[0.56,-2.412],[0.581,-2.441],[0.721,-2.525],[1.036,-2.827],[1.121,-2.954],[1.142,-2.961],[1.24,-3.095],[1.331,-3.278],[1.366,-3.39],[1.366,-3.481],[1.345,-3.524]]]]},"properties":{"abbr":"8Cb","name":"8th cerebellar lobule","plate":58,"ap_bregma_mm":-12.15,"area_mm2":1.2765,"traced_fraction":[1.0],"n_labels":1,"no_drawn_outline":false}},{"type":"Feature","geometry":{"type":"MultiPolygon","coordinates":[[[[1.331,-3.524],[1.338,-3.545],[1.38,-3.756],[1.38,-3.974],[1.338,-4.051],[1.268,-4.1],[1.127,-4.143],[1.078,-4.178],[0.658,-4.22],[0.118,-4.234],[-0.078,-4.22],[-0.373,-4.227],[-1.123,-4.192],[-1.439,-4.157],[-1.446,-4.15],[-1.46,-4.143],[-1.467,-4.136],[-1.495,-4.136],[-1.495,-4.114],[-1.558,-4.065],[-1.6,-3.974],[-1.6,-3.819],[-1.572,-3.693],[-1.579,-3.636],[-1.572,-3.636],[-1.565,-3.636],[-1.474,-3.432],[-1.418,-3.348],[-1.284,-3.2],[-1.27,-3.2],[-1.221,-3.144],[-1.13,-3.074],[-1.004,-2.996],[-0.801,-2.905],[-0.738,-2.891],[-0.71,-2.863],[-0.66,-2.849],[-0.625,-2.855],[-0.541,-2.827],[-0.303,-2.785],[0.111,-2.778],[0.258,-2.792],[0.468,-2.834],[0.728,-2.926],[0.889,-3.01],[1.057,-3.137],[1.198,-3.285],[1.331,-3.524]]]]},"properties":{"abbr":"9aCb","name":"9th cerebellar lobule, a","plate":58,"ap_bregma_mm":-12.15,"area_mm2":3.558,"traced_fraction":[1.0],"n_labels":2,"no_drawn_outline":false}},{"type":"Feature","geometry":{"type":"MultiPolygon","coordinates":[[[[-1.446,-4.157],[-1.439,-4.157],[-1.123,-4.192],[-0.373,-4.227],[-0.078,-4.22],[0.118,-4.234],[0.658,-4.22],[1.078,-4.178],[1.093,-4.192],[1.24,-4.185],[1.247,-4.213],[1.268,-4.22],[1.282,-4.311],[1.219,-4.438],[1.177,-4.494],[0.98,-4.677],[0.588,-4.902],[0.349,-4.987],[0.02,-5.057],[-0.261,-5.057],[-0.527,-5.015],[-0.878,-4.909],[-1.074,-4.811],[-1.228,-4.691],[-1.376,-4.522],[-1.481,-4.304],[-1.495,-4.192],[-1.446,-4.157]]]]},"properties":{"abbr":"9cCb","name":"9th cerebellar lobule, c","plate":58,"ap_bregma_mm":-12.15,"area_mm2":1.7824,"traced_fraction":[1.0],"n_labels":1,"no_drawn_outline":false}},{"type":"Feature","geometry":{"type":"MultiPolygon","coordinates":[[[[-0.436,-6.4],[-0.422,-6.4],[-0.289,-6.4],[-0.142,-6.435],[-0.05,-6.499],[-0.05,-6.513],[-0.008,-6.534],[-0.022,-6.724],[-0.043,-6.731],[-0.057,-6.731],[-0.261,-6.731],[-0.324,-6.71],[-0.38,-6.639],[-0.443,-6.478],[-0.45,-6.421],[-0.436,-6.4]]]]},"properties":{"abbr":"CeCv","name":"central cervical nucleus of the spinal cord","plate":58,"ap_bregma_mm":-12.15,"area_mm2":0.1138,"traced_fraction":[1.0],"n_labels":1,"no_drawn_outline":false}},{"type":"Feature","geometry":{"type":"MultiPolygon","coordinates":[[[[-0.436,-5.95],[-0.429,-5.978],[-0.436,-6.014],[-0.471,-6.028],[-0.639,-6.035],[-0.653,-6.049],[-0.794,-6.028],[-0.794,-6.014],[-0.836,-5.978],[-0.899,-5.95],[-0.997,-5.852],[-0.997,-5.838],[-0.955,-5.816],[-0.723,-5.824],[-0.59,-5.859],[-0.485,-5.936],[-0.436,-5.95]]],[[[0.917,-5.845],[0.903,-5.873],[0.798,-5.971],[0.784,-6.014],[0.658,-6.07],[0.637,-6.056],[0.461,-6.049],[0.321,-5.992],[0.307,-5.978],[0.321,-5.936],[0.349,-5.936],[0.461,-5.859],[0.595,-5.824],[0.854,-5.816],[0.917,-5.845]]]]},"properties":{"abbr":"Cu","name":"cuneate nucleus","plate":58,"ap_bregma_mm":-12.15,"area_mm2":0.1841,"traced_fraction":[1.0,1.0],"n_labels":2,"no_drawn_outline":false}},{"type":"Feature","geometry":{"type":"MultiPolygon","coordinates":[[[[-2.077,-6.147],[-1.894,-6.154],[-1.894,-6.175],[-1.761,-6.182],[-1.621,-6.253],[-1.586,-6.288],[-1.677,-6.407],[-1.719,-6.527],[-1.747,-6.829],[-1.747,-6.871],[-1.733,-6.886],[-1.768,-6.9],[-1.824,-6.956],[-1.908,-6.977],[-1.979,-6.977],[-2.021,-6.949],[-2.133,-6.822],[-2.175,-6.738],[-2.203,-6.611],[-2.196,-6.45],[-2.168,-6.33],[-2.147,-6.26],[-2.119,-6.224],[-2.098,-6.161],[-2.077,-6.147]]],[[[2.039,-6.189],[2.095,-6.281],[2.102,-6.372],[2.116,-6.393],[2.137,-6.527],[2.123,-6.696],[2.095,-6.787],[2.053,-6.865],[1.997,-6.935],[1.892,-7.026],[1.808,-7.012],[1.744,-6.977],[1.702,-6.942],[1.688,-6.907],[1.667,-6.485],[1.625,-6.379],[1.562,-6.288],[1.639,-6.239],[1.808,-6.239],[1.815,-6.21],[1.906,-6.21],[1.906,-6.189],[2.039,-6.189]]]]},"properties":{"abbr":"Ge5","name":"gelatinous layer of the caudal spinal trigeminal nucleus","plate":58,"ap_bregma_mm":-12.15,"area_mm2":0.6931,"traced_fraction":[0.793,0.786],"n_labels":2,"no_drawn_outline":false}},{"type":"Feature","geometry":{"type":"MultiPolygon","coordinates":[[[[-0.057,-5.767],[-0.05,-5.81],[-0.022,-5.831],[-0.022,-5.922],[-0.226,-5.922],[-0.226,-6.119],[-0.338,-6.112],[-0.394,-6.056],[-0.394,-5.978],[-0.429,-5.978],[-0.436,-5.95],[-0.436,-5.859],[-0.401,-5.725],[-0.296,-5.697],[-0.177,-5.697],[-0.113,-5.718],[-0.071,-5.767],[-0.057,-5.767]]]]},"properties":{"abbr":"Gr","name":"gracile nucleus","plate":58,"ap_bregma_mm":-12.15,"area_mm2":0.1137,"traced_fraction":[0.731],"n_labels":1,"no_drawn_outline":true}},{"type":"Feature","geometry":{"type":"MultiPolygon","coordinates":[[[[0.321,-5.992],[0.461,-6.049],[0.637,-6.056],[0.658,-6.07],[0.602,-6.098],[0.483,-6.112],[0.454,-6.098],[0.321,-6.105],[0.251,-6.077],[0.279,-6.02],[0.321,-5.992]]]]},"properties":{"abbr":"IB","name":"interstitial nucleus of the medulla","plate":58,"ap_bregma_mm":-12.15,"area_mm2":0.0251,"traced_fraction":[1.0],"n_labels":2,"no_drawn_outline":false}},{"type":"Feature","geometry":{"type":"MultiPolygon","coordinates":[[[[-0.071,-6.773],[-0.064,-6.773],[-0.043,-6.865],[-0.036,-6.998],[-0.078,-7.279],[-0.092,-7.294],[-0.121,-7.294],[-0.121,-7.308],[-0.071,-7.329],[-0.085,-7.448],[-0.289,-7.448],[-0.212,-7.272],[-0.191,-7.181],[-0.142,-7.146],[-0.128,-7.118],[-0.121,-6.97],[-0.106,-6.858],[-0.071,-6.773]]],[[[0.146,-7.223],[0.16,-7.35],[0.237,-7.462],[0.3,-7.49],[0.377,-7.498],[0.567,-7.554],[0.791,-7.589],[0.882,-7.645],[0.896,-7.687],[0.889,-7.723],[0.84,-7.765],[0.742,-7.786],[0.742,-7.884],[0.342,-7.891],[0.146,-7.856],[0.041,-7.814],[-0.015,-7.772],[-0.036,-7.772],[-0.043,-7.751],[-0.071,-7.744],[-0.078,-7.716],[-0.064,-7.666],[-0.022,-7.617],[-0.015,-7.469],[-0.036,-7.308],[0.041,-7.294],[0.055,-7.294],[0.104,-7.294],[0.104,-7.223],[0.146,-7.223]]]]},"properties":{"abbr":"IOBe","name":"inferior olive, beta subnucleus","plate":58,"ap_bregma_mm":-12.15,"area_mm2":0.4136,"traced_fraction":[0.912,0.947],"n_labels":2,"no_drawn_outline":false}},{"type":"Feature","geometry":{"type":"MultiPolygon","coordinates":[[[[-0.289,-7.448],[-0.085,-7.448],[-0.1,-7.49],[-0.1,-7.575],[-0.226,-7.568],[-0.275,-7.582],[-0.324,-7.617],[-0.366,-7.624],[-0.373,-7.49],[-0.324,-7.469],[-0.31,-7.448],[-0.289,-7.448]]]]},"properties":{"abbr":"IOC","name":"inferior olive, subnucleus C of medial nucleus","plate":58,"ap_bregma_mm":-12.15,"area_mm2":0.0358,"traced_fraction":[0.727],"n_labels":1,"no_drawn_outline":true}},{"type":"Feature","geometry":{"type":"MultiPolygon","coordinates":[[[[0.419,-6.288],[0.847,-6.492],[0.854,-6.506],[1.394,-6.787],[1.38,-6.97],[1.282,-6.928],[1.212,-6.928],[1.177,-6.949],[1.135,-7.012],[1.114,-7.012],[0.987,-6.879],[0.973,-6.879],[0.917,-6.815],[0.784,-6.71],[0.714,-6.639],[0.56,-6.534],[0.532,-6.534],[0.454,-6.604],[0.419,-6.583],[0.37,-6.583],[0.356,-6.639],[0.314,-6.71],[0.09,-6.738],[0.013,-6.738],[-0.022,-6.724],[-0.008,-6.534],[0.02,-6.492],[0.048,-6.485],[0.125,-6.421],[0.195,-6.4],[0.356,-6.4],[0.363,-6.435],[0.377,-6.435],[0.377,-6.386],[0.419,-6.288]]],[[[-0.492,-6.309],[-0.464,-6.379],[-0.436,-6.4],[-0.45,-6.421],[-0.499,-6.435],[-0.681,-6.569],[-0.723,-6.618],[-0.843,-6.71],[-0.878,-6.759],[-0.913,-6.773],[-1.032,-6.9],[-1.116,-6.963],[-1.144,-6.956],[-1.186,-6.9],[-1.249,-6.871],[-1.32,-6.879],[-1.383,-6.907],[-1.397,-6.731],[-1.39,-6.717],[-1.354,-6.71],[-1.095,-6.569],[-0.857,-6.464],[-0.716,-6.421],[-0.695,-6.4],[-0.492,-6.309]]]]},"properties":{"abbr":"IRt","name":"intermediate reticular nucleus","plate":58,"ap_bregma_mm":-12.15,"area_mm2":0.5887,"traced_fraction":[0.95,0.946],"n_labels":2,"no_drawn_outline":false}},{"type":"Feature","geometry":{"type":"MultiPolygon","coordinates":[[[[-1.383,-7.244],[-1.312,-7.427],[-1.299,-7.434],[-1.249,-7.589],[-1.207,-7.744],[-1.207,-7.807],[-1.284,-7.863],[-1.291,-7.863],[-1.312,-7.856],[-1.474,-7.807],[-1.474,-7.786],[-1.467,-7.744],[-1.572,-7.596],[-1.572,-7.575],[-1.649,-7.441],[-1.677,-7.343],[-1.649,-7.322],[-1.607,-7.237],[-1.551,-7.188],[-1.467,-7.188],[-1.383,-7.244]]],[[[1.436,-7.195],[1.541,-7.223],[1.583,-7.272],[1.604,-7.343],[1.583,-7.448],[1.52,-7.582],[1.499,-7.596],[1.485,-7.645],[1.394,-7.701],[1.345,-7.765],[1.345,-7.772],[1.345,-7.779],[1.191,-7.8],[1.121,-7.758],[1.085,-7.709],[1.085,-7.617],[1.121,-7.526],[1.219,-7.35],[1.31,-7.258],[1.324,-7.223],[1.359,-7.23],[1.436,-7.195]]],[[[-1.291,-7.863],[-1.284,-7.863],[-1.284,-7.87],[-1.291,-7.863]]]]},"properties":{"abbr":"LRt","name":"lateral reticular nucleus","plate":58,"ap_bregma_mm":-12.15,"area_mm2":0.3922,"traced_fraction":[1.0,1.0,1.0],"n_labels":3,"no_drawn_outline":false}},{"type":"Feature","geometry":{"type":"MultiPolygon","coordinates":[[[[0.784,-6.014],[0.868,-6.014],[1.064,-6.056],[1.135,-6.056],[1.415,-6.175],[1.562,-6.288],[1.625,-6.379],[1.667,-6.485],[1.688,-6.907],[1.632,-6.914],[1.394,-6.787],[0.854,-6.506],[0.847,-6.492],[0.419,-6.288],[0.447,-6.189],[0.483,-6.14],[0.483,-6.112],[0.602,-6.098],[0.658,-6.07],[0.784,-6.014]]],[[[-0.794,-6.028],[-0.653,-6.049],[-0.653,-6.063],[-0.618,-6.077],[-0.534,-6.091],[-0.534,-6.105],[-0.555,-6.112],[-0.555,-6.14],[-0.492,-6.309],[-0.513,-6.309],[-0.541,-6.337],[-0.681,-6.393],[-0.716,-6.421],[-0.857,-6.464],[-1.095,-6.569],[-1.305,-6.675],[-1.312,-6.689],[-1.39,-6.717],[-1.397,-6.731],[-1.425,-6.731],[-1.516,-6.787],[-1.733,-6.886],[-1.747,-6.871],[-1.747,-6.829],[-1.719,-6.527],[-1.677,-6.407],[-1.586,-6.288],[-1.46,-6.189],[-1.348,-6.133],[-1.172,-6.07],[-1.102,-6.077],[-1.011,-6.056],[-0.906,-6.056],[-0.794,-6.028]]]]},"properties":{"abbr":"MdD","name":"medullary reticular nucleus, dorsal part","plate":58,"ap_bregma_mm":-12.15,"area_mm2":1.166,"traced_fraction":[1.0,0.998],"n_labels":2,"no_drawn_outline":false}},{"type":"Feature","geometry":{"type":"MultiPolygon","coordinates":[[[[0.784,-6.71],[0.854,-6.759],[0.973,-6.879],[0.987,-6.879],[1.114,-7.012],[1.135,-7.012],[1.135,-7.026],[1.191,-7.069],[1.198,-7.097],[1.247,-7.132],[1.289,-7.188],[1.31,-7.188],[1.324,-7.223],[1.31,-7.258],[1.219,-7.35],[1.121,-7.526],[0.952,-7.519],[0.791,-7.476],[0.651,-7.42],[0.581,-7.371],[0.489,-7.279],[0.384,-7.132],[0.37,-7.09],[0.623,-7.083],[0.623,-6.871],[0.517,-6.773],[0.517,-6.759],[0.763,-6.759],[0.784,-6.71]]],[[[-0.878,-6.759],[-0.695,-6.935],[-0.681,-6.984],[-0.681,-7.111],[-0.534,-7.258],[-0.52,-7.258],[-0.59,-7.329],[-0.899,-7.519],[-1.018,-7.561],[-1.249,-7.589],[-1.299,-7.434],[-1.312,-7.427],[-1.383,-7.244],[-1.277,-7.139],[-1.263,-7.097],[-1.186,-7.04],[-1.116,-6.963],[-1.032,-6.9],[-0.913,-6.773],[-0.878,-6.759]]]]},"properties":{"abbr":"MdV","name":"medullary reticular nucleus, ventral part","plate":58,"ap_bregma_mm":-12.15,"area_mm2":0.8433,"traced_fraction":[0.696,0.785],"n_labels":2,"no_drawn_outline":true}},{"type":"Feature","geometry":{"type":"MultiPolygon","coordinates":[[[[1.198,-5.627],[1.184,-5.662],[1.106,-5.746],[1.078,-5.852],[1.093,-5.957],[1.135,-6.056],[1.064,-6.056],[0.868,-6.014],[0.784,-6.014],[0.798,-5.971],[0.903,-5.873],[0.917,-5.845],[0.98,-5.788],[1.078,-5.641],[1.093,-5.641],[1.198,-5.627]]],[[[-1.207,-5.683],[-0.997,-5.838],[-0.997,-5.852],[-0.899,-5.95],[-0.836,-5.978],[-0.794,-6.014],[-0.794,-6.028],[-0.906,-6.056],[-1.011,-6.056],[-1.102,-6.077],[-1.172,-6.07],[-1.151,-5.992],[-1.151,-5.887],[-1.2,-5.781],[-1.256,-5.718],[-1.256,-5.697],[-1.207,-5.683]]]]},"properties":{"abbr":"Mx","name":"matrix region of the medulla","plate":58,"ap_bregma_mm":-12.15,"area_mm2":0.1495,"traced_fraction":[1.0,1.0],"n_labels":2,"no_drawn_outline":false}},{"type":"Feature","geometry":{"type":"MultiPolygon","coordinates":[[[[-1.116,-6.963],[-1.186,-7.04],[-1.263,-7.097],[-1.404,-7.104],[-1.467,-7.061],[-1.474,-7.019],[-1.46,-6.984],[-1.383,-6.907],[-1.32,-6.879],[-1.249,-6.871],[-1.186,-6.9],[-1.144,-6.956],[-1.116,-6.963]]],[[[1.38,-6.97],[1.422,-7.083],[1.422,-7.139],[1.373,-7.167],[1.31,-7.167],[1.31,-7.188],[1.289,-7.188],[1.289,-7.174],[1.198,-7.097],[1.191,-7.069],[1.17,-7.061],[1.135,-7.012],[1.177,-6.949],[1.212,-6.928],[1.282,-6.928],[1.38,-6.97]]]]},"properties":{"abbr":"RAmb","name":"retroambiguus nucleus","plate":58,"ap_bregma_mm":-12.15,"area_mm2":0.1056,"traced_fraction":[1.0,0.891],"n_labels":2,"no_drawn_outline":false}},{"type":"Feature","geometry":{"type":"MultiPolygon","coordinates":[[[[-0.078,-7.279],[-0.036,-7.308],[-0.015,-7.469],[-0.022,-7.617],[-0.064,-7.666],[-0.085,-7.659],[-0.1,-7.575],[-0.1,-7.49],[-0.085,-7.448],[-0.071,-7.329],[-0.121,-7.308],[-0.121,-7.294],[-0.092,-7.294],[-0.078,-7.279]]]]},"properties":{"abbr":"RPa","name":"raphe pallidus nucleus","plate":58,"ap_bregma_mm":-12.15,"area_mm2":0.0242,"traced_fraction":[1.0],"n_labels":1,"no_drawn_outline":false}},{"type":"Feature","geometry":{"type":"MultiPolygon","coordinates":[[[[2.039,-6.189],[1.906,-6.189],[1.906,-6.21],[1.815,-6.21],[1.808,-6.239],[1.639,-6.239],[1.562,-6.288],[1.415,-6.175],[1.135,-6.056],[1.093,-5.957],[1.078,-5.852],[1.106,-5.746],[1.184,-5.662],[1.198,-5.627],[1.324,-5.62],[1.401,-5.634],[1.632,-5.739],[1.744,-5.816],[1.871,-5.929],[1.99,-6.084],[2.039,-6.189]]],[[[-1.256,-5.697],[-1.256,-5.718],[-1.2,-5.781],[-1.151,-5.887],[-1.151,-5.992],[-1.172,-6.07],[-1.348,-6.133],[-1.46,-6.189],[-1.586,-6.288],[-1.621,-6.253],[-1.761,-6.182],[-1.894,-6.175],[-1.894,-6.154],[-2.077,-6.147],[-2.028,-6.056],[-1.908,-5.922],[-1.642,-5.739],[-1.551,-5.697],[-1.432,-5.669],[-1.362,-5.669],[-1.256,-5.697]]]]},"properties":{"abbr":"Sp5C","name":"spinal trigeminal nucleus, caudal part","plate":58,"ap_bregma_mm":-12.15,"area_mm2":0.7292,"traced_fraction":[0.794,0.788],"n_labels":2,"no_drawn_outline":false}},{"type":"Feature","geometry":{"type":"MultiPolygon","coordinates":[[[[1.135,-5.514],[1.135,-5.521],[1.093,-5.641],[1.078,-5.641],[0.98,-5.788],[0.917,-5.845],[0.854,-5.816],[0.595,-5.824],[0.461,-5.859],[0.349,-5.936],[0.321,-5.936],[0.363,-5.669],[0.461,-5.662],[0.742,-5.584],[1.099,-5.521],[1.135,-5.514]]],[[[-1.284,-5.549],[-1.039,-5.57],[-0.639,-5.641],[-0.401,-5.725],[-0.436,-5.859],[-0.436,-5.95],[-0.485,-5.936],[-0.59,-5.859],[-0.689,-5.831],[-0.787,-5.816],[-0.955,-5.816],[-0.997,-5.838],[-1.207,-5.683],[-1.284,-5.591],[-1.284,-5.549]]]]},"properties":{"abbr":"cu","name":"cuneate fasciculus","plate":58,"ap_bregma_mm":-12.15,"area_mm2":0.3409,"traced_fraction":[1.0,1.0],"n_labels":2,"no_drawn_outline":false}},{"type":"Feature","geometry":{"type":"MultiPolygon","coordinates":[[[[-0.022,-5.922],[-0.015,-6.084],[-0.085,-6.112],[-0.226,-6.119],[-0.226,-5.922],[-0.022,-5.922]]]]},"properties":{"abbr":"gr","name":"gracile fasciculus","plate":58,"ap_bregma_mm":-12.15,"area_mm2":0.0389,"traced_fraction":[0.548],"n_labels":1,"no_drawn_outline":true}},{"type":"Feature","geometry":{"type":"MultiPolygon","coordinates":[[[[-0.022,-6.724],[0.013,-6.738],[0.09,-6.738],[0.104,-6.766],[0.188,-6.815],[0.251,-6.879],[0.258,-6.914],[0.37,-7.09],[0.384,-7.132],[0.489,-7.279],[0.581,-7.371],[0.651,-7.42],[0.791,-7.476],[0.952,-7.519],[1.121,-7.526],[1.085,-7.617],[1.085,-7.709],[1.121,-7.758],[1.191,-7.8],[1.085,-7.842],[0.742,-7.884],[0.742,-7.786],[0.805,-7.779],[0.861,-7.751],[0.889,-7.723],[0.896,-7.694],[0.882,-7.645],[0.791,-7.589],[0.567,-7.554],[0.377,-7.498],[0.3,-7.49],[0.237,-7.462],[0.16,-7.35],[0.146,-7.223],[0.139,-7.174],[0.118,-7.146],[0.076,-7.139],[0.048,-6.829],[0.013,-6.829],[-0.001,-6.998],[-0.036,-6.998],[-0.043,-6.865],[-0.064,-6.773],[-0.057,-6.745],[-0.043,-6.731],[-0.022,-6.724]]],[[[-0.071,-6.773],[-0.092,-6.801],[-0.121,-6.97],[-0.289,-6.97],[-0.289,-6.949],[-0.268,-6.935],[-0.24,-6.879],[-0.17,-6.801],[-0.106,-6.766],[-0.071,-6.773]]]]},"properties":{"abbr":"mlf","name":"medial longitudinal fasciculus","plate":58,"ap_bregma_mm":-12.15,"area_mm2":0.3849,"traced_fraction":[0.992,0.83],"n_labels":2,"no_drawn_outline":false}},{"type":"Feature","geometry":{"type":"MultiPolygon","coordinates":[[[[-0.899,-7.519],[-0.892,-7.617],[-0.92,-7.631],[-0.955,-7.68],[-0.955,-7.737],[-0.899,-7.793],[-0.744,-7.779],[-0.422,-7.659],[-0.366,-7.624],[-0.324,-7.617],[-0.303,-7.596],[-0.226,-7.568],[-0.1,-7.575],[-0.085,-7.659],[-0.064,-7.666],[-0.078,-7.716],[-0.071,-7.744],[-0.085,-7.744],[-0.085,-7.765],[-0.106,-7.765],[-0.219,-7.828],[-0.338,-7.863],[-0.562,-7.898],[-0.976,-7.905],[-1.249,-7.884],[-1.284,-7.87],[-1.284,-7.863],[-1.207,-7.807],[-1.207,-7.744],[-1.249,-7.589],[-1.053,-7.568],[-0.899,-7.519]]]]},"properties":{"abbr":"py","name":"pyramidal tract","plate":58,"ap_bregma_mm":-12.15,"area_mm2":0.2597,"traced_fraction":[0.985],"n_labels":1,"no_drawn_outline":false}},{"type":"Feature","geometry":{"type":"MultiPolygon","coordinates":[[[[0.146,-7.223],[0.104,-7.223],[0.104,-7.294],[0.055,-7.294],[0.062,-7.23],[0.041,-7.202],[0.02,-7.202],[0.027,-7.279],[0.041,-7.294],[-0.036,-7.308],[-0.078,-7.279],[-0.036,-6.998],[-0.001,-6.998],[0.013,-6.829],[0.048,-6.829],[0.069,-6.984],[0.069,-7.111],[0.076,-7.139],[0.118,-7.146],[0.139,-7.174],[0.146,-7.223]]]]},"properties":{"abbr":"pyx","name":"pyramidal decussation","plate":58,"ap_bregma_mm":-12.15,"area_mm2":0.0523,"traced_fraction":[0.924],"n_labels":1,"no_drawn_outline":false}},{"type":"Feature","geometry":{"type":"MultiPolygon","coordinates":[[[[-1.397,-6.731],[-1.383,-6.907],[-1.46,-6.984],[-1.474,-7.019],[-1.467,-7.061],[-1.404,-7.104],[-1.263,-7.097],[-1.277,-7.139],[-1.383,-7.244],[-1.467,-7.188],[-1.551,-7.188],[-1.607,-7.237],[-1.649,-7.322],[-1.677,-7.343],[-1.712,-7.322],[-1.796,-7.329],[-1.831,-7.371],[-1.831,-7.448],[-1.817,-7.469],[-1.88,-7.469],[-1.95,-7.49],[-2.014,-7.427],[-2.119,-7.251],[-2.119,-7.237],[-2.028,-7.237],[-2.028,-7.09],[-2.0,-7.054],[-1.979,-6.977],[-1.908,-6.977],[-1.824,-6.956],[-1.768,-6.9],[-1.733,-6.886],[-1.628,-6.843],[-1.425,-6.731],[-1.397,-6.731]]],[[[1.394,-6.787],[1.632,-6.914],[1.688,-6.907],[1.702,-6.942],[1.744,-6.977],[1.808,-7.012],[1.892,-7.026],[1.885,-7.118],[1.906,-7.139],[1.899,-7.301],[1.934,-7.315],[1.899,-7.357],[1.78,-7.357],[1.773,-7.322],[1.731,-7.294],[1.674,-7.301],[1.604,-7.343],[1.583,-7.272],[1.541,-7.223],[1.436,-7.195],[1.422,-7.139],[1.429,-7.111],[1.38,-6.97],[1.394,-6.787]]]]},"properties":{"abbr":"rs","name":"rubrospinal tract","plate":58,"ap_bregma_mm":-12.15,"area_mm2":0.4773,"traced_fraction":[0.871,0.809],"n_labels":2,"no_drawn_outline":false}},{"type":"Feature","geometry":{"type":"MultiPolygon","coordinates":[[[[2.004,-5.831],[2.116,-5.978],[2.207,-6.182],[2.242,-6.323],[2.249,-6.45],[2.249,-6.576],[2.2,-6.843],[2.102,-7.075],[2.06,-7.146],[2.046,-7.146],[1.906,-7.139],[1.885,-7.118],[1.892,-7.026],[1.941,-6.991],[2.053,-6.865],[2.095,-6.787],[2.123,-6.696],[2.137,-6.527],[2.116,-6.393],[2.102,-6.372],[2.095,-6.281],[2.039,-6.189],[1.99,-6.084],[1.934,-6.02],[1.92,-5.985],[1.85,-5.908],[1.836,-5.908],[1.78,-5.845],[1.695,-5.781],[1.583,-5.711],[1.401,-5.634],[1.324,-5.62],[1.198,-5.627],[1.093,-5.641],[1.135,-5.521],[1.135,-5.514],[1.24,-5.486],[1.387,-5.486],[1.562,-5.535],[1.801,-5.648],[1.934,-5.767],[1.948,-5.767],[2.004,-5.831]]],[[[-1.284,-5.549],[-1.284,-5.591],[-1.207,-5.683],[-1.256,-5.697],[-1.362,-5.669],[-1.432,-5.669],[-1.509,-5.683],[-1.642,-5.739],[-1.908,-5.922],[-2.028,-6.056],[-2.077,-6.147],[-2.098,-6.161],[-2.168,-6.33],[-2.196,-6.45],[-2.203,-6.611],[-2.182,-6.717],[-2.133,-6.822],[-2.091,-6.879],[-1.979,-6.977],[-2.0,-7.054],[-2.028,-7.09],[-2.063,-7.104],[-2.175,-7.097],[-2.189,-7.111],[-2.231,-7.033],[-2.287,-6.829],[-2.308,-6.696],[-2.315,-6.457],[-2.238,-6.175],[-2.154,-6.014],[-2.063,-5.915],[-2.063,-5.901],[-1.979,-5.838],[-1.965,-5.81],[-1.712,-5.634],[-1.586,-5.577],[-1.495,-5.556],[-1.284,-5.549]]]]},"properties":{"abbr":"sp5","name":"spinal trigeminal tract","plate":58,"ap_bregma_mm":-12.15,"area_mm2":0.6133,"traced_fraction":[1.0,1.0],"n_labels":2,"no_drawn_outline":false}},{"type":"Feature","geometry":{"type":"MultiPolygon","coordinates":[[[[-0.289,-6.97],[-0.121,-6.97],[-0.128,-7.118],[-0.142,-7.146],[-0.191,-7.181],[-0.212,-7.272],[-0.289,-7.448],[-0.31,-7.448],[-0.324,-7.469],[-0.373,-7.49],[-0.569,-7.526],[-0.583,-7.54],[-0.892,-7.617],[-0.899,-7.519],[-0.59,-7.329],[-0.52,-7.258],[-0.436,-7.174],[-0.289,-6.97]]]]},"properties":{"abbr":"ts","name":"tectospinal tract","plate":58,"ap_bregma_mm":-12.15,"area_mm2":0.1968,"traced_fraction":[0.925],"n_labels":1,"no_drawn_outline":false}},{"type":"Feature","geometry":{"type":"MultiPolygon","coordinates":[[[[1.78,-7.357],[1.899,-7.357],[1.85,-7.434],[1.639,-7.638],[1.478,-7.737],[1.345,-7.779],[1.345,-7.772],[1.345,-7.765],[1.394,-7.701],[1.485,-7.645],[1.534,-7.631],[1.646,-7.547],[1.737,-7.455],[1.737,-7.441],[1.752,-7.441],[1.773,-7.406],[1.78,-7.357]]],[[[-1.817,-7.469],[-1.775,-7.54],[-1.698,-7.617],[-1.684,-7.617],[-1.684,-7.631],[-1.474,-7.786],[-1.474,-7.807],[-1.579,-7.786],[-1.712,-7.709],[-1.789,-7.652],[-1.789,-7.638],[-1.859,-7.596],[-1.95,-7.49],[-1.88,-7.469],[-1.817,-7.469]]]]},"properties":{"abbr":"vsc","name":"ventral spinocerebellar tract","plate":58,"ap_bregma_mm":-12.15,"area_mm2":0.085,"traced_fraction":[0.969,0.945],"n_labels":2,"no_drawn_outline":false}},{"type":"Feature","geometry":{"type":"Polygon","coordinates":[[[-1.312,-2.933],[-1.411,-3.081],[-1.502,-3.024],[-1.481,-2.989],[-1.488,-2.968],[-1.586,-2.968],[-1.586,-2.87],[-1.572,-2.863],[-1.572,-2.75],[-1.586,-2.736],[-1.586,-2.694],[-1.572,-2.68],[-1.586,-2.666],[-1.586,-2.609],[-1.537,-2.595],[-1.537,-2.546],[-1.607,-2.525],[-1.607,-2.49],[-1.621,-2.476],[-1.614,-2.426],[-1.565,-2.426],[-1.544,-2.462],[-1.439,-2.518],[-1.425,-2.581],[-1.39,-2.609],[-1.39,-2.736],[-1.404,-2.75],[-1.39,-2.764],[-1.39,-2.863],[-1.312,-2.933]]]},"properties":{"abbr":null,"name":"unnamed sealed face","plate":58,"ap_bregma_mm":-12.15,"index":0}},{"type":"Feature","geometry":{"type":"Polygon","coordinates":[[[-0.429,-5.978],[-0.394,-5.978],[-0.394,-6.056],[-0.338,-6.112],[-0.534,-6.091],[-0.618,-6.077],[-0.653,-6.063],[-0.653,-6.049],[-0.639,-6.035],[-0.471,-6.028],[-0.436,-6.014],[-0.429,-5.978]]]},"properties":{"abbr":null,"name":"unnamed sealed face","plate":58,"ap_bregma_mm":-12.15,"index":1}},{"type":"Feature","geometry":{"type":"Polygon","coordinates":[[[-0.142,-6.435],[-0.233,-6.407],[-0.422,-6.4],[-0.408,-6.365],[-0.331,-6.323],[-0.282,-6.309],[-0.191,-6.309],[-0.1,-6.351],[-0.142,-6.414],[-0.142,-6.435]]]},"properties":{"abbr":null,"name":"unnamed sealed face","plate":58,"ap_bregma_mm":-12.15,"index":2}},{"type":"Feature","geometry":{"type":"Polygon","coordinates":[[[0.356,-6.4],[0.195,-6.4],[0.125,-6.421],[0.048,-6.485],[0.02,-6.492],[-0.008,-6.534],[-0.05,-6.513],[-0.05,-6.499],[-0.001,-6.407],[0.041,-6.365],[0.139,-6.323],[0.202,-6.323],[0.3,-6.351],[0.363,-6.386],[0.356,-6.4]]]},"properties":{"abbr":null,"name":"unnamed sealed face","plate":58,"ap_bregma_mm":-12.15,"index":3}},{"type":"Feature","geometry":{"type":"Polygon","coordinates":[[[0.454,-6.604],[0.496,-6.675],[0.496,-6.717],[0.461,-6.745],[0.384,-6.745],[0.314,-6.71],[0.356,-6.639],[0.37,-6.583],[0.419,-6.583],[0.454,-6.604]]]},"properties":{"abbr":null,"name":"unnamed sealed face","plate":58,"ap_bregma_mm":-12.15,"index":4}},{"type":"Feature","geometry":{"type":"Polygon","coordinates":[[[1.78,-7.357],[1.78,-7.385],[1.752,-7.441],[1.737,-7.441],[1.737,-7.455],[1.646,-7.547],[1.534,-7.631],[1.485,-7.645],[1.485,-7.624],[1.52,-7.582],[1.583,-7.448],[1.604,-7.343],[1.674,-7.301],[1.731,-7.294],[1.773,-7.322],[1.78,-7.357]]]},"properties":{"abbr":null,"name":"unnamed sealed face","plate":58,"ap_bregma_mm":-12.15,"index":5}},{"type":"Feature","geometry":{"type":"Polygon","coordinates":[[[-1.677,-7.343],[-1.649,-7.441],[-1.572,-7.575],[-1.572,-7.596],[-1.467,-7.744],[-1.474,-7.786],[-1.684,-7.631],[-1.684,-7.617],[-1.698,-7.617],[-1.775,-7.54],[-1.817,-7.469],[-1.831,-7.448],[-1.831,-7.371],[-1.796,-7.329],[-1.712,-7.322],[-1.677,-7.343]]]},"properties":{"abbr":null,"name":"unnamed sealed face","plate":58,"ap_bregma_mm":-12.15,"index":6}},{"type":"Feature","geometry":{"type":"MultiPolygon","coordinates":[[[[0.006,-5.05],[-0.24,-5.05],[-0.45,-5.022],[-0.667,-4.973],[-0.871,-4.902],[-1.06,-4.811],[-1.172,-4.733],[-1.284,-4.628],[-1.383,-4.501],[-1.481,-4.29],[-1.495,-4.241],[-1.495,-4.114],[-1.558,-4.058],[-1.6,-3.96],[-1.6,-3.84],[-1.572,-3.664],[-1.607,-3.573],[-1.6,-3.489],[-1.537,-3.313],[-1.411,-3.081],[-1.418,-3.095],[-1.411,-3.081],[-1.5,-3.014],[-1.482,-2.979],[-1.491,-2.952],[-1.509,-2.97],[-1.588,-2.961],[-1.588,-2.873],[-1.57,-2.855],[-1.57,-2.75],[-1.588,-2.732],[-1.588,-2.697],[-1.57,-2.679],[-1.588,-2.662],[-1.588,-2.609],[-1.535,-2.591],[-1.535,-2.539],[-1.605,-2.521],[-1.605,-2.486],[-1.623,-2.468],[-1.614,-2.424],[-1.579,-2.424],[-1.544,-2.459],[-1.474,-2.495],[-1.447,-2.521],[-1.43,-2.574],[-1.395,-2.609],[-1.395,-2.732],[-1.412,-2.75],[-1.395,-2.767],[-1.395,-2.855],[-1.312,-2.933],[-1.333,-2.961],[-1.137,-2.722],[-0.927,-2.518],[-0.974,-2.415],[-0.965,-2.407],[-0.899,-2.497],[-0.864,-2.469],[-0.921,-2.38],[-0.912,-2.354],[-0.895,-2.354],[-0.815,-2.434],[-0.868,-2.345],[-0.787,-2.412],[-0.583,-2.293],[-0.366,-2.215],[-0.191,-2.187],[-0.015,-2.187],[0.16,-2.215],[0.412,-2.321],[0.721,-2.532],[1.022,-2.82],[1.226,-3.088],[1.317,-3.263],[1.359,-3.397],[1.359,-3.467],[1.331,-3.552],[1.373,-3.77],[1.373,-3.96],[1.331,-4.044],[1.261,-4.093],[1.233,-4.192],[1.219,-4.185],[1.261,-4.22],[1.275,-4.297],[1.212,-4.431],[1.156,-4.501],[0.98,-4.663],[0.714,-4.825],[0.574,-4.895],[0.335,-4.98],[0.027,-5.043],[0.006,-5.05]]],[[[-0.927,-7.898],[-1.242,-7.877],[-1.446,-7.807],[-1.579,-7.779],[-1.719,-7.694],[-1.866,-7.582],[-2.007,-7.427],[-2.14,-7.223],[-2.231,-7.019],[-2.28,-6.85],[-2.308,-6.668],[-2.315,-6.464],[-2.231,-6.161],[-2.147,-6.006],[-2.049,-5.887],[-1.901,-5.76],[-1.698,-5.627],[-1.579,-5.577],[-1.481,-5.556],[-1.27,-5.549],[-1.06,-5.57],[-0.625,-5.648],[-0.401,-5.725],[-0.282,-5.697],[-0.191,-5.697],[-0.121,-5.718],[-0.071,-5.767],[0.02,-5.746],[0.062,-5.704],[0.132,-5.676],[0.258,-5.655],[0.377,-5.669],[0.44,-5.662],[0.756,-5.584],[1.254,-5.486],[1.373,-5.486],[1.485,-5.514],[1.646,-5.57],[1.801,-5.655],[1.955,-5.781],[2.018,-5.852],[2.116,-5.992],[2.2,-6.189],[2.235,-6.337],[2.242,-6.555],[2.193,-6.829],[2.109,-7.04],[1.983,-7.244],[1.829,-7.441],[1.639,-7.624],[1.485,-7.723],[1.38,-7.765],[1.191,-7.793],[1.106,-7.828],[0.735,-7.877],[0.363,-7.884],[0.153,-7.849],[0.069,-7.821],[-0.022,-7.765],[-0.106,-7.758],[-0.212,-7.814],[-0.38,-7.863],[-0.59,-7.891],[-0.92,-7.898],[-0.927,-7.898]]]]},"properties":{"abbr":"brain_outline","name":"outline of the section","plate":58,"ap_bregma_mm":-12.15}}]}
