{"type":"FeatureCollection","name":"GerbilAtlas plate 09","note":"Region extents cut from the atlas drawing (METHODS.md, Region extents). Coordinates are [ML, DV] in mm, ML positive to the right of the plate as printed, DV negative below the dorsal surface; AP is the plate bregma. traced_fraction is the share of each polygon boundary the atlas actually draws; below 0.5 the boundary is an estimate. no_drawn_outline marks a feature that lies only inside boundaries the atlas draws round more than one name and prints nothing within, so the whole of its outline is where the extraction cut it. Not a segmentation.","plate":9,"ap_bregma_mm":5.0,"features":[{"type":"Feature","geometry":{"type":"MultiPolygon","coordinates":[[[[-0.812,-3.305],[-0.588,-3.312],[-0.623,-3.319],[-0.588,-3.312],[-0.434,-3.319],[-0.56,-3.326],[-0.223,-3.417],[-0.02,-3.649],[-0.013,-3.67],[0.043,-3.769],[0.043,-3.804],[0.036,-3.804],[-1.135,-4.325],[-1.324,-4.444],[-2.334,-5.162],[-2.432,-5.183],[-2.509,-4.81],[-2.481,-4.451],[-2.278,-3.924],[-2.032,-3.628],[-1.528,-3.382],[-1.282,-3.354],[-1.282,-3.354],[-1.233,-3.347],[-1.233,-3.347],[-1.184,-3.34],[-1.184,-3.34],[-1.03,-3.319],[-1.03,-3.319],[-1.009,-3.312],[-0.812,-3.305],[-0.812,-3.305]]],[[[0.744,-3.445],[1.144,-3.452],[0.772,-3.459],[1.347,-3.488],[1.789,-3.572],[2.111,-3.713],[2.35,-3.931],[2.357,-3.945],[2.357,-3.945],[2.364,-3.959],[2.364,-3.959],[2.371,-3.973],[2.371,-3.973],[2.385,-4.001],[2.385,-4.001],[2.392,-4.015],[2.392,-4.015],[2.399,-4.029],[2.434,-4.177],[2.441,-4.107],[2.455,-4.43],[2.392,-4.69],[1.417,-4.36],[1.242,-4.282],[0.204,-3.797],[0.429,-3.516],[0.744,-3.445],[0.744,-3.445]]]]},"properties":{"abbr":"FrA","name":"frontal association cortex","plate":9,"ap_bregma_mm":5.0,"area_mm2":3.9352,"traced_fraction":[1.0,1.0],"n_labels":2,"no_drawn_outline":false}},{"type":"Feature","geometry":{"type":"MultiPolygon","coordinates":[[[[0.204,-3.797],[1.242,-4.282],[0.968,-4.367],[0.19,-4.514],[-0.995,-4.374],[-1.135,-4.325],[0.036,-3.804],[0.106,-4.029],[0.204,-3.797],[0.204,-3.797]]]]},"properties":{"abbr":"PrL","name":"prelimbic cortex","plate":9,"ap_bregma_mm":5.0,"area_mm2":0.9047,"traced_fraction":[1.0],"n_labels":2,"no_drawn_outline":false}},{"type":"Feature","geometry":{"type":"MultiPolygon","coordinates":[[[[0.968,-4.367],[0.905,-4.416],[0.576,-4.62],[0.274,-4.979],[0.246,-4.993],[0.092,-4.859],[-0.09,-5.148],[-0.167,-5.211],[-0.301,-5.232],[-0.63,-4.711],[-0.995,-4.374],[0.19,-4.514],[0.968,-4.367],[0.968,-4.367]]]]},"properties":{"abbr":"MO","name":"medial orbital cortex","plate":9,"ap_bregma_mm":5.0,"area_mm2":0.6922,"traced_fraction":[1.0],"n_labels":2,"no_drawn_outline":false}},{"type":"Feature","geometry":{"type":"MultiPolygon","coordinates":[[[[-1.135,-4.325],[-0.995,-4.374],[-0.63,-4.711],[-0.301,-5.232],[-0.343,-5.239],[-0.42,-5.246],[-0.602,-5.239],[-0.707,-5.218],[-0.735,-5.211],[-1.135,-5.126],[-1.387,-5.267],[-1.387,-4.951],[-1.542,-4.951],[-1.64,-4.859],[-1.324,-4.444],[-1.135,-4.325],[-1.135,-4.325]]],[[[0.905,-4.416],[0.912,-4.852],[0.611,-4.986],[0.506,-5.0],[0.443,-5.0],[0.274,-4.979],[0.513,-4.676],[0.905,-4.416],[0.905,-4.416]]]]},"properties":{"abbr":"VO","name":"ventral orbital cortex","plate":9,"ap_bregma_mm":5.0,"area_mm2":0.8916,"traced_fraction":[0.849,0.792],"n_labels":2,"no_drawn_outline":false}},{"type":"Feature","geometry":{"type":"MultiPolygon","coordinates":[[[[1.242,-4.282],[1.417,-4.36],[1.726,-4.711],[1.971,-5.176],[1.207,-4.824],[0.912,-4.852],[0.905,-4.416],[0.968,-4.367],[1.242,-4.282],[1.242,-4.282]]],[[[-1.64,-4.859],[-1.542,-4.951],[-1.387,-4.951],[-1.387,-5.267],[-1.401,-5.288],[-1.458,-5.337],[-1.542,-5.387],[-2.032,-5.534],[-1.892,-5.218],[-1.64,-4.859],[-1.64,-4.859]]]]},"properties":{"abbr":"LO","name":"lateral orbital cortex","plate":9,"ap_bregma_mm":5.0,"area_mm2":0.6812,"traced_fraction":[0.856,0.738],"n_labels":2,"no_drawn_outline":false}},{"type":"Feature","geometry":{"type":"MultiPolygon","coordinates":[[[[2.392,-4.69],[2.392,-4.761],[2.385,-4.789],[2.385,-4.789],[2.378,-4.81],[2.378,-4.81],[2.371,-4.831],[2.371,-4.831],[2.364,-4.852],[2.364,-4.852],[2.357,-4.873],[2.357,-4.873],[2.35,-4.901],[2.35,-4.901],[2.343,-4.922],[2.343,-4.922],[2.336,-4.944],[2.336,-4.944],[2.329,-4.965],[2.329,-4.965],[2.322,-4.986],[2.322,-4.986],[2.315,-5.014],[2.308,-5.035],[2.273,-5.162],[2.343,-5.183],[2.336,-5.239],[2.118,-5.239],[1.971,-5.176],[1.726,-4.711],[1.417,-4.36],[2.392,-4.69],[2.392,-4.69]]],[[[-1.324,-4.444],[-1.64,-4.859],[-1.892,-5.218],[-2.032,-5.534],[-2.271,-5.619],[-2.243,-5.548],[-2.39,-5.429],[-2.432,-5.183],[-2.334,-5.162],[-1.324,-4.444],[-1.324,-4.444]]]]},"properties":{"abbr":"DLO","name":"dorsolateral orbital cortex","plate":9,"ap_bregma_mm":5.0,"area_mm2":0.7131,"traced_fraction":[0.969,0.972],"n_labels":2,"no_drawn_outline":false}},{"type":"Feature","geometry":{"type":"MultiPolygon","coordinates":[[[[1.971,-5.176],[2.118,-5.239],[2.336,-5.239],[2.322,-5.344],[2.28,-5.295],[2.216,-5.337],[2.244,-5.422],[2.364,-5.358],[2.441,-5.408],[2.483,-5.373],[2.518,-5.485],[2.35,-5.52],[2.237,-5.464],[2.237,-5.626],[2.223,-5.562],[2.188,-5.738],[2.167,-5.682],[2.111,-5.408],[1.789,-5.232],[1.663,-5.162],[1.48,-5.07],[1.263,-5.239],[1.109,-5.253],[0.758,-5.119],[0.688,-5.105],[0.611,-4.986],[0.912,-4.852],[1.207,-4.824],[1.971,-5.176],[1.971,-5.176]]],[[[-0.735,-5.211],[-0.911,-5.351],[-1.156,-5.422],[-1.401,-5.288],[-1.387,-5.267],[-1.135,-5.126],[-0.735,-5.211],[-0.735,-5.211]]]]},"properties":{"abbr":"GlA","name":"glomerular layer of the accessory olfactory bulb","plate":9,"ap_bregma_mm":5.0,"area_mm2":0.5332,"traced_fraction":[0.975,1.0],"n_labels":2,"no_drawn_outline":false}},{"type":"Feature","geometry":{"type":"MultiPolygon","coordinates":[[[[1.663,-5.162],[1.193,-5.365],[0.983,-5.401],[0.842,-5.344],[0.758,-5.119],[1.109,-5.253],[1.263,-5.239],[1.48,-5.07],[1.663,-5.162],[1.663,-5.162]]],[[[-0.735,-5.211],[-0.707,-5.218],[-0.784,-5.401],[-0.946,-5.492],[-1.184,-5.485],[-1.458,-5.337],[-1.401,-5.288],[-1.156,-5.422],[-0.925,-5.358],[-0.735,-5.211],[-0.735,-5.211]]]]},"properties":{"abbr":"EPlA","name":"external plexiform layer of the accessory olfactory bulb","plate":9,"ap_bregma_mm":5.0,"area_mm2":0.1882,"traced_fraction":[1.0,1.0],"n_labels":2,"no_drawn_outline":false}},{"type":"Feature","geometry":{"type":"MultiPolygon","coordinates":[[[[0.688,-5.105],[0.758,-5.119],[0.842,-5.344],[0.983,-5.401],[1.193,-5.365],[1.663,-5.162],[1.789,-5.232],[1.445,-5.365],[1.011,-5.485],[0.667,-5.323],[0.688,-5.105],[0.688,-5.105]]],[[[-0.707,-5.218],[-0.602,-5.239],[-0.623,-5.316],[-0.854,-5.555],[-1.198,-5.577],[-1.38,-5.506],[-1.542,-5.387],[-1.458,-5.337],[-1.184,-5.485],[-0.946,-5.492],[-0.784,-5.401],[-0.707,-5.218],[-0.707,-5.218]]]]},"properties":{"abbr":"MiA","name":"mitral cell layer of the accessory olfactory bulb","plate":9,"ap_bregma_mm":5.0,"area_mm2":0.2056,"traced_fraction":[1.0,1.0],"n_labels":2,"no_drawn_outline":false}},{"type":"Feature","geometry":{"type":"MultiPolygon","coordinates":[[[[-0.623,-5.316],[-0.749,-5.865],[-1.03,-5.717],[-1.121,-5.668],[-1.128,-5.661],[-1.198,-5.577],[-0.854,-5.555],[-0.623,-5.316],[-0.623,-5.316]]],[[[0.667,-5.323],[1.011,-5.485],[1.445,-5.365],[1.459,-5.401],[1.368,-5.471],[1.144,-5.612],[1.081,-5.654],[0.737,-5.788],[0.667,-5.323],[0.667,-5.323]]]]},"properties":{"abbr":"GrA","name":"granule cell layer of the accessory olfactory bulb","plate":9,"ap_bregma_mm":5.0,"area_mm2":0.2708,"traced_fraction":[1.0,1.0],"n_labels":2,"no_drawn_outline":false}},{"type":"Feature","geometry":{"type":"MultiPolygon","coordinates":[[[[1.852,-5.928],[1.403,-5.928],[1.102,-5.928],[1.081,-5.654],[1.144,-5.612],[1.536,-5.534],[1.74,-5.562],[1.859,-5.703],[1.852,-5.928],[1.852,-5.928]]],[[[-1.394,-5.696],[-1.394,-5.999],[-1.528,-6.02],[-1.542,-6.104],[-1.878,-6.111],[-1.927,-5.9],[-1.871,-5.788],[-1.394,-5.696],[-1.394,-5.696]]]]},"properties":{"abbr":"AOD","name":"anterior olfactory nucleus, dorsal part","plate":9,"ap_bregma_mm":5.0,"area_mm2":0.4373,"traced_fraction":[0.647,0.7],"n_labels":2,"no_drawn_outline":true}},{"type":"Feature","geometry":{"type":"MultiPolygon","coordinates":[[[[1.081,-5.654],[1.102,-5.928],[0.807,-6.055],[0.73,-5.914],[0.737,-5.788],[1.081,-5.654],[1.081,-5.654]]],[[[-1.128,-5.71],[-1.03,-5.717],[-0.749,-5.865],[-0.854,-6.209],[-1.394,-5.999],[-1.394,-5.696],[-1.128,-5.71],[-1.128,-5.71]]]]},"properties":{"abbr":"AOM","name":"anterior olfactory nucleus, medial part","plate":9,"ap_bregma_mm":5.0,"area_mm2":0.3236,"traced_fraction":[0.827,0.809],"n_labels":2,"no_drawn_outline":false}},{"type":"Feature","geometry":{"type":"MultiPolygon","coordinates":[[[[1.403,-5.928],[1.852,-5.928],[1.691,-6.252],[1.417,-6.209],[1.487,-6.209],[1.487,-6.062],[1.424,-6.062],[1.403,-5.928],[1.403,-5.928]]],[[[-1.542,-6.104],[-1.373,-6.273],[-1.78,-6.28],[-1.878,-6.111],[-1.542,-6.104],[-1.542,-6.104]]]]},"properties":{"abbr":"AOL","name":"anterior olfactory nucleus, lateral part","plate":9,"ap_bregma_mm":5.0,"area_mm2":0.1626,"traced_fraction":[0.414,0.462],"n_labels":2,"no_drawn_outline":true}},{"type":"Feature","geometry":{"type":"MultiPolygon","coordinates":[[[[-1.542,-5.387],[-1.38,-5.506],[-1.549,-5.527],[-1.556,-5.605],[-1.128,-5.661],[-1.121,-5.668],[-1.128,-5.71],[-1.394,-5.696],[-1.871,-5.788],[-1.927,-5.9],[-1.878,-6.111],[-1.78,-6.28],[-1.752,-6.322],[-1.689,-6.442],[-1.773,-6.428],[-1.78,-6.484],[-1.612,-6.751],[-1.535,-6.843],[-1.401,-6.857],[-1.233,-7.138],[-1.226,-7.201],[-1.303,-7.272],[-1.71,-6.85],[-2.011,-6.42],[-2.173,-6.034],[-2.18,-5.788],[-2.236,-5.766],[-2.236,-5.837],[-2.292,-5.788],[-2.327,-5.837],[-2.509,-5.823],[-2.509,-5.675],[-2.446,-5.752],[-2.362,-5.654],[-2.327,-5.738],[-2.271,-5.619],[-2.032,-5.534],[-1.542,-5.387],[-1.542,-5.387]]],[[[2.167,-5.682],[2.188,-5.738],[2.167,-5.879],[2.16,-5.9],[2.16,-5.9],[2.153,-5.921],[2.153,-5.921],[2.146,-5.942],[2.146,-5.942],[2.139,-5.963],[2.139,-5.963],[2.132,-5.984],[1.873,-6.449],[1.866,-6.463],[1.859,-6.47],[1.838,-6.498],[1.838,-6.498],[1.775,-6.575],[1.768,-6.582],[1.754,-6.603],[1.733,-6.617],[1.684,-6.674],[1.473,-6.927],[1.452,-7.075],[1.452,-6.941],[1.354,-7.082],[1.256,-7.068],[1.256,-7.032],[1.361,-6.793],[1.831,-6.252],[1.999,-5.935],[2.048,-5.689],[2.167,-5.682],[2.167,-5.682]]]]},"properties":{"abbr":"lo","name":"lateral olfactory tract","plate":9,"ap_bregma_mm":5.0,"area_mm2":0.8622,"traced_fraction":[0.988,0.98],"n_labels":2,"no_drawn_outline":false}},{"type":"Feature","geometry":{"type":"MultiPolygon","coordinates":[[[[1.417,-6.209],[1.691,-6.252],[1.599,-6.378],[1.396,-6.554],[1.326,-6.547],[1.326,-6.336],[1.249,-6.266],[1.326,-6.195],[1.417,-6.209],[1.417,-6.209]]],[[[-1.373,-6.273],[-1.191,-6.568],[-1.324,-6.674],[-1.479,-6.66],[-1.64,-6.491],[-1.591,-6.47],[-1.591,-6.322],[-1.752,-6.322],[-1.78,-6.28],[-1.373,-6.273],[-1.373,-6.273]]]]},"properties":{"abbr":"AOV","name":"anterior olfactory nucleus, ventral part","plate":9,"ap_bregma_mm":5.0,"area_mm2":0.2121,"traced_fraction":[0.544,0.615],"n_labels":2,"no_drawn_outline":true}},{"type":"Feature","geometry":{"type":"MultiPolygon","coordinates":[[[[0.611,-4.986],[0.688,-5.105],[0.667,-5.323],[0.737,-5.788],[0.73,-5.914],[0.807,-6.055],[0.912,-6.308],[1.298,-6.723],[1.361,-6.793],[1.256,-7.032],[1.053,-7.018],[0.898,-6.941],[0.541,-6.385],[0.422,-5.569],[0.506,-5.0],[0.611,-4.986],[0.611,-4.986]]],[[[-0.602,-5.239],[-0.42,-5.246],[-0.413,-5.351],[-0.448,-5.478],[-0.413,-5.351],[-0.525,-6.357],[-0.546,-6.442],[-0.805,-6.885],[-1.002,-7.054],[-1.233,-7.138],[-1.401,-6.857],[-1.352,-6.821],[-1.016,-6.512],[-0.854,-6.209],[-0.749,-5.865],[-0.623,-5.316],[-0.602,-5.239],[-0.602,-5.239]]]]},"properties":{"abbr":"GrO","name":"granular cell layer of the olfactory bulb","plate":9,"ap_bregma_mm":5.0,"area_mm2":1.3368,"traced_fraction":[0.985,0.995],"n_labels":2,"no_drawn_outline":false}},{"type":"Feature","geometry":{"type":"MultiPolygon","coordinates":[[[[0.246,-5.0],[0.436,-5.028],[0.366,-5.33],[0.379,-6.005],[0.534,-6.653],[0.639,-6.821],[0.905,-7.046],[1.116,-7.11],[1.256,-7.068],[1.354,-7.082],[1.27,-7.208],[1.095,-7.321],[1.081,-7.328],[1.081,-7.314],[1.081,-7.314],[0.94,-7.349],[0.653,-7.173],[0.464,-7.194],[0.443,-7.117],[0.33,-7.11],[0.281,-7.025],[0.12,-5.33],[0.162,-5.183],[0.246,-5.105],[0.246,-5.0],[0.246,-5.0]]],[[[-0.167,-5.211],[-0.118,-5.274],[-0.118,-5.52],[-0.188,-5.591],[-0.195,-6.111],[-0.28,-6.28],[-0.301,-6.61],[-0.357,-6.66],[-0.308,-6.913],[-0.434,-7.138],[-0.567,-7.18],[-0.911,-7.447],[-0.946,-7.44],[-0.946,-7.44],[-1.009,-7.433],[-1.009,-7.433],[-1.072,-7.426],[-1.303,-7.272],[-1.226,-7.201],[-0.974,-7.117],[-0.784,-6.955],[-0.588,-6.66],[-0.546,-6.442],[-0.525,-6.357],[-0.441,-6.174],[-0.343,-5.239],[-0.301,-5.232],[-0.167,-5.211],[-0.167,-5.211]]]]},"properties":{"abbr":"EPl","name":"external plexiform layer of the olfactory bulb","plate":9,"ap_bregma_mm":5.0,"area_mm2":1.39,"traced_fraction":[0.982,0.997],"n_labels":2,"no_drawn_outline":false}},{"type":"Feature","geometry":{"type":"MultiPolygon","coordinates":[[[[0.246,-4.993],[0.246,-5.0],[0.246,-5.105],[0.162,-5.183],[0.12,-5.33],[0.281,-7.025],[0.33,-7.11],[0.443,-7.117],[0.464,-7.194],[0.653,-7.173],[0.94,-7.349],[0.562,-7.433],[0.267,-7.363],[0.071,-7.096],[-0.013,-6.329],[-0.104,-6.653],[-0.132,-6.85],[-0.132,-6.85],[-0.139,-6.934],[-0.146,-6.892],[-0.139,-6.934],[-0.146,-7.004],[-0.153,-6.941],[-0.195,-7.138],[-0.35,-7.349],[-0.756,-7.461],[-0.82,-7.454],[-0.82,-7.454],[-0.911,-7.447],[-0.567,-7.18],[-0.434,-7.138],[-0.315,-6.934],[-0.357,-6.66],[-0.301,-6.61],[-0.28,-6.28],[-0.195,-6.111],[-0.188,-5.591],[-0.118,-5.52],[-0.118,-5.274],[-0.167,-5.211],[-0.09,-5.148],[-0.02,-5.351],[0.015,-5.211],[0.169,-5.007],[0.246,-4.993],[0.246,-4.993]]]]},"properties":{"abbr":"Gl","name":"glomerular layer of the olfactory bulb","plate":9,"ap_bregma_mm":5.0,"area_mm2":1.0301,"traced_fraction":[0.994],"n_labels":2,"no_drawn_outline":false}},{"type":"Feature","geometry":{"type":"MultiPolygon","coordinates":[[[[0.506,-5.0],[0.422,-5.569],[0.541,-6.385],[0.632,-6.688],[0.898,-6.941],[1.053,-7.018],[1.256,-7.032],[1.256,-7.068],[1.116,-7.11],[0.905,-7.046],[0.639,-6.821],[0.534,-6.653],[0.379,-6.005],[0.366,-5.33],[0.436,-5.028],[0.443,-5.0],[0.506,-5.0],[0.506,-5.0]]]]},"properties":{"abbr":"Mi","name":"mitral cell layer of the olfactory bulb","plate":9,"ap_bregma_mm":5.0,"area_mm2":0.1965,"traced_fraction":[0.986],"n_labels":1,"no_drawn_outline":false}},{"type":"Feature","geometry":{"type":"MultiPolygon","coordinates":[[[[-0.546,-6.442],[-0.588,-6.66],[-0.784,-6.955],[-0.974,-7.117],[-1.226,-7.201],[-1.233,-7.138],[-1.002,-7.054],[-0.805,-6.885],[-0.546,-6.442],[-0.546,-6.442]]]]},"properties":{"abbr":"IPl","name":"internal plexiform layer of the olfactory bulb","plate":9,"ap_bregma_mm":5.0,"area_mm2":0.0627,"traced_fraction":[1.0],"n_labels":1,"no_drawn_outline":false}},{"type":"Feature","geometry":{"type":"MultiPolygon","coordinates":[[[[1.789,-5.232],[2.111,-5.408],[2.167,-5.682],[2.048,-5.689],[1.999,-5.527],[1.831,-5.394],[1.459,-5.401],[1.445,-5.365],[1.789,-5.232],[1.789,-5.232]]]]},"properties":{"abbr":"dlo","name":"dorsal lateral olfactory tract","plate":9,"ap_bregma_mm":5.0,"area_mm2":0.1057,"traced_fraction":[0.913],"n_labels":1,"no_drawn_outline":false}},{"type":"Feature","geometry":{"type":"MultiPolygon","coordinates":[[[[2.048,-5.689],[1.999,-5.935],[1.831,-6.252],[1.361,-6.793],[1.298,-6.723],[1.396,-6.554],[1.599,-6.378],[1.712,-6.315],[1.852,-6.069],[1.964,-5.661],[1.796,-5.492],[1.368,-5.471],[1.459,-5.401],[1.831,-5.394],[1.999,-5.527],[2.048,-5.689],[2.048,-5.689]]],[[[-1.38,-5.506],[-1.198,-5.577],[-1.128,-5.661],[-1.556,-5.605],[-1.549,-5.527],[-1.38,-5.506],[-1.38,-5.506]]],[[[-1.689,-6.442],[-1.64,-6.491],[-1.479,-6.66],[-1.352,-6.821],[-1.401,-6.857],[-1.507,-6.857],[-1.612,-6.751],[-1.78,-6.484],[-1.773,-6.428],[-1.689,-6.442],[-1.689,-6.442]]]]},"properties":{"abbr":"AOE","name":"anterior olfactory nucleus, external part","plate":9,"ap_bregma_mm":5.0,"area_mm2":0.2926,"traced_fraction":[0.976,1.0,1.0],"n_labels":3,"no_drawn_outline":false}},{"type":"Feature","geometry":{"type":"MultiPolygon","coordinates":[[[[1.249,-6.266],[1.326,-6.336],[1.326,-6.547],[1.207,-6.533],[1.165,-6.463],[1.165,-6.35],[1.249,-6.266],[1.249,-6.266]]],[[[1.733,-6.617],[1.74,-6.617],[2.062,-6.639],[2.069,-6.695],[2.111,-6.653],[2.118,-6.667],[2.097,-6.786],[2.034,-6.688],[2.006,-6.786],[1.908,-6.716],[1.866,-6.807],[1.789,-6.807],[1.789,-6.702],[1.684,-6.681],[1.684,-6.674],[1.733,-6.617],[1.733,-6.617]]]]},"properties":{"abbr":"E","name":"ependyma and subependymal layer","plate":9,"ap_bregma_mm":5.0,"area_mm2":0.0832,"traced_fraction":[0.657,1.0],"n_labels":3,"no_drawn_outline":false}},{"type":"Feature","geometry":{"type":"Polygon","coordinates":[[[0.744,-3.445],[0.429,-3.516],[0.204,-3.797],[0.106,-4.029],[0.036,-3.804],[0.043,-3.804],[0.113,-3.938],[0.211,-3.762],[0.19,-3.685],[0.422,-3.495],[0.422,-3.438],[0.744,-3.445],[0.744,-3.445]]]},"properties":{"abbr":null,"name":"unnamed sealed face","plate":9,"ap_bregma_mm":5.0,"index":0}},{"type":"Feature","geometry":{"type":"Polygon","coordinates":[[[1.144,-3.452],[1.452,-3.452],[1.957,-3.593],[2.287,-3.804],[2.35,-3.931],[2.111,-3.713],[1.789,-3.572],[1.347,-3.488],[0.772,-3.459],[1.144,-3.452],[1.144,-3.452]]]},"properties":{"abbr":null,"name":"unnamed sealed face","plate":9,"ap_bregma_mm":5.0,"index":1}},{"type":"Feature","geometry":{"type":"Polygon","coordinates":[[[0.246,-4.993],[0.169,-5.007],[0.015,-5.211],[-0.02,-5.351],[-0.09,-5.148],[0.092,-4.859],[0.246,-4.993],[0.246,-4.993]]]},"properties":{"abbr":null,"name":"unnamed sealed face","plate":9,"ap_bregma_mm":5.0,"index":2}},{"type":"Feature","geometry":{"type":"Polygon","coordinates":[[[-0.343,-5.239],[-0.441,-6.174],[-0.525,-6.357],[-0.413,-5.351],[-0.42,-5.246],[-0.343,-5.239],[-0.343,-5.239]]]},"properties":{"abbr":null,"name":"unnamed sealed face","plate":9,"ap_bregma_mm":5.0,"index":3}},{"type":"Feature","geometry":{"type":"Polygon","coordinates":[[[1.599,-6.378],[1.691,-6.252],[1.852,-5.928],[1.859,-5.703],[1.74,-5.562],[1.536,-5.534],[1.144,-5.612],[1.368,-5.471],[1.796,-5.492],[1.964,-5.661],[1.852,-6.069],[1.712,-6.315],[1.599,-6.378],[1.599,-6.378]]]},"properties":{"abbr":null,"name":"unnamed sealed face","plate":9,"ap_bregma_mm":5.0,"index":4}},{"type":"Feature","geometry":{"type":"Polygon","coordinates":[[[-2.18,-5.788],[-2.173,-6.034],[-2.011,-6.42],[-1.71,-6.85],[-1.303,-7.272],[-1.072,-7.426],[-1.142,-7.433],[-1.17,-7.546],[-1.205,-7.475],[-1.331,-7.546],[-1.331,-7.398],[-1.233,-7.384],[-1.282,-7.321],[-1.331,-7.3],[-1.345,-7.37],[-1.408,-7.321],[-1.458,-7.37],[-1.479,-7.321],[-1.507,-7.37],[-1.507,-7.201],[-1.45,-7.272],[-1.387,-7.187],[-1.605,-6.983],[-1.682,-7.018],[-1.647,-6.92],[-1.745,-6.821],[-1.808,-6.843],[-1.822,-6.709],[-2.018,-6.505],[-2.208,-6.048],[-2.194,-5.963],[-2.243,-5.963],[-2.18,-5.788],[-2.18,-5.788]]]},"properties":{"abbr":null,"name":"unnamed sealed face","plate":9,"ap_bregma_mm":5.0,"index":5}},{"type":"Feature","geometry":{"type":"Polygon","coordinates":[[[1.403,-5.928],[1.424,-6.062],[1.487,-6.062],[1.487,-6.209],[1.417,-6.209],[1.326,-6.195],[1.249,-6.266],[1.165,-6.35],[1.165,-6.463],[1.207,-6.533],[1.326,-6.547],[1.396,-6.554],[1.298,-6.723],[0.912,-6.308],[0.807,-6.055],[1.102,-5.928],[1.403,-5.928],[1.403,-5.928]]]},"properties":{"abbr":null,"name":"unnamed sealed face","plate":9,"ap_bregma_mm":5.0,"index":6}},{"type":"Feature","geometry":{"type":"Polygon","coordinates":[[[-1.394,-5.999],[-0.854,-6.209],[-1.016,-6.512],[-1.352,-6.821],[-1.479,-6.66],[-1.324,-6.674],[-1.191,-6.568],[-1.373,-6.273],[-1.542,-6.104],[-1.528,-6.02],[-1.394,-5.999],[-1.394,-5.999]]]},"properties":{"abbr":null,"name":"unnamed sealed face","plate":9,"ap_bregma_mm":5.0,"index":7}},{"type":"Feature","geometry":{"type":"Polygon","coordinates":[[[0.94,-7.349],[1.081,-7.314],[1.081,-7.328],[0.765,-7.454],[0.387,-7.44],[0.155,-7.335],[0.015,-7.054],[-0.034,-6.477],[-0.104,-6.653],[-0.013,-6.329],[0.071,-7.096],[0.267,-7.363],[0.562,-7.433],[0.94,-7.349],[0.94,-7.349]]]},"properties":{"abbr":null,"name":"unnamed sealed face","plate":9,"ap_bregma_mm":5.0,"index":8}},{"type":"Feature","geometry":{"type":"Polygon","coordinates":[[[1.452,-7.075],[1.417,-7.039],[1.361,-7.138],[1.396,-7.194],[1.438,-7.117],[1.515,-7.131],[1.501,-7.279],[1.438,-7.236],[1.333,-7.279],[1.319,-7.201],[1.2,-7.279],[1.214,-7.328],[1.305,-7.328],[1.305,-7.475],[1.263,-7.391],[1.207,-7.49],[1.151,-7.483],[1.095,-7.321],[1.27,-7.208],[1.354,-7.082],[1.452,-6.941],[1.452,-7.075],[1.452,-7.075]]]},"properties":{"abbr":null,"name":"unnamed sealed face","plate":9,"ap_bregma_mm":5.0,"index":9}},{"type":"Feature","geometry":{"type":"MultiPolygon","coordinates":[[[[-1.0,-3.296],[-0.439,-3.313],[-0.105,-3.454],[-0.018,-3.665],[0.053,-3.683],[0.035,-3.789],[0.105,-3.947],[0.211,-3.753],[0.193,-3.683],[0.421,-3.489],[0.421,-3.436],[1.439,-3.454],[1.947,-3.595],[2.281,-3.806],[2.439,-4.105],[2.456,-4.546],[2.263,-5.162],[2.333,-5.179],[2.316,-5.338],[2.263,-5.285],[2.21,-5.338],[2.246,-5.426],[2.368,-5.355],[2.439,-5.408],[2.474,-5.373],[2.509,-5.479],[2.368,-5.514],[2.281,-5.496],[2.298,-5.443],[2.228,-5.461],[2.228,-5.62],[2.281,-5.672],[2.228,-5.69],[2.053,-6.201],[1.982,-6.271],[2.07,-6.359],[1.947,-6.341],[1.719,-6.641],[2.053,-6.641],[2.07,-6.711],[2.123,-6.623],[2.088,-6.782],[2.035,-6.676],[2.0,-6.782],[1.947,-6.782],[1.912,-6.694],[1.86,-6.799],[1.789,-6.799],[1.789,-6.694],[1.684,-6.676],[1.456,-6.94],[1.456,-7.081],[1.421,-7.028],[1.351,-7.116],[1.386,-7.204],[1.439,-7.116],[1.509,-7.134],[1.491,-7.274],[1.421,-7.222],[1.403,-7.274],[1.333,-7.274],[1.316,-7.186],[1.193,-7.274],[1.21,-7.327],[1.298,-7.327],[1.298,-7.468],[1.263,-7.38],[1.193,-7.486],[1.14,-7.468],[1.088,-7.31],[1.053,-7.362],[0.737,-7.45],[0.386,-7.433],[0.158,-7.327],[0.018,-7.046],[-0.035,-6.447],[-0.123,-6.694],[-0.158,-7.098],[-0.316,-7.362],[-0.474,-7.45],[-0.667,-7.468],[-1.14,-7.415],[-1.175,-7.539],[-1.211,-7.468],[-1.333,-7.539],[-1.333,-7.398],[-1.228,-7.38],[-1.298,-7.31],[-1.333,-7.292],[-1.351,-7.362],[-1.421,-7.31],[-1.456,-7.362],[-1.474,-7.31],[-1.509,-7.362],[-1.509,-7.204],[-1.456,-7.274],[-1.386,-7.186],[-1.614,-6.975],[-1.684,-7.01],[-1.649,-6.922],[-1.754,-6.817],[-1.807,-6.834],[-1.825,-6.711],[-2.018,-6.5],[-2.211,-6.024],[-2.193,-5.954],[-2.246,-5.954],[-2.175,-5.76],[-2.246,-5.76],[-2.246,-5.831],[-2.298,-5.778],[-2.333,-5.831],[-2.509,-5.813],[-2.509,-5.672],[-2.456,-5.76],[-2.368,-5.655],[-2.333,-5.743],[-2.246,-5.549],[-2.386,-5.426],[-2.509,-4.792],[-2.474,-4.405],[-2.281,-3.929],[-2.035,-3.63],[-1.526,-3.384],[-1.018,-3.313],[-1.0,-3.296]]]]},"properties":{"abbr":"brain_outline","name":"outline of the section","plate":9,"ap_bregma_mm":5.0}}]}
