{"type":"FeatureCollection","name":"GerbilAtlas plate 40","note":"Region extents cut from the atlas drawing (METHODS.md, Region extents). Coordinates are [ML, DV] in mm, ML positive to the right of the plate as printed, DV negative below the dorsal surface; AP is the plate bregma. traced_fraction is the share of each polygon boundary the atlas actually draws; below 0.5 the boundary is an estimate. no_drawn_outline marks a feature that lies only inside boundaries the atlas draws round more than one name and prints nothing within, so the whole of its outline is where the extraction cut it. Not a segmentation.","plate":40,"ap_bregma_mm":-5.85,"features":[{"type":"Feature","geometry":{"type":"MultiPolygon","coordinates":[[[[2.392,-0.5],[2.203,-0.507],[2.806,-0.584],[2.813,-1.253],[3.079,-1.836],[2.182,-1.175],[1.979,-0.859],[1.887,-0.507],[1.81,-0.5],[2.392,-0.5],[2.392,-0.5]]],[[[-1.723,-0.521],[-1.695,-0.528],[-1.695,-0.528],[-1.548,-0.57],[-1.548,-0.584],[-1.864,-1.049],[-2.586,-1.548],[-2.537,-1.189],[-2.579,-0.542],[-1.723,-0.521],[-1.723,-0.521]]]]},"properties":{"abbr":"V2M","name":"secondary visual cortex, medial area","plate":40,"ap_bregma_mm":-5.85,"area_mm2":1.3307,"traced_fraction":[0.945,0.994],"n_labels":2,"no_drawn_outline":false}},{"type":"Feature","geometry":{"type":"MultiPolygon","coordinates":[[[[-0.181,-1.928],[-0.062,-2.132],[0.043,-1.984],[0.05,-1.97],[0.282,-1.78],[0.303,-1.773],[0.303,-1.773],[0.338,-1.752],[0.632,-1.604],[0.66,-1.597],[0.66,-1.597],[0.681,-1.59],[0.681,-1.59],[0.709,-1.583],[0.709,-1.583],[0.808,-1.555],[0.815,-1.499],[0.815,-1.555],[1.186,-1.534],[1.544,-1.654],[1.894,-1.914],[2.203,-2.251],[2.175,-2.42],[1.979,-2.568],[1.831,-2.575],[1.768,-2.519],[1.944,-2.469],[2.063,-2.42],[2.112,-2.336],[2.0,-2.104],[1.614,-1.794],[1.081,-1.633],[0.738,-1.682],[0.345,-1.879],[0.099,-2.139],[0.071,-2.343],[0.17,-2.455],[0.05,-2.484],[-0.055,-2.42],[-0.146,-2.498],[-0.244,-2.476],[-0.223,-2.364],[-0.174,-2.273],[-0.195,-2.132],[-0.384,-1.914],[-0.847,-1.703],[-1.226,-1.647],[-1.625,-1.773],[-1.92,-2.005],[-2.039,-2.216],[-1.955,-2.42],[-2.067,-2.385],[-2.116,-2.336],[-2.172,-2.23],[-1.885,-1.85],[-1.66,-1.696],[-1.387,-1.597],[-1.457,-1.59],[-1.107,-1.555],[-1.12,-1.499],[-0.756,-1.583],[-0.307,-1.78],[-0.181,-1.928],[-0.181,-1.928]]]]},"properties":{"abbr":"Zo","name":"zonal layer of the superior colliculus","plate":40,"ap_bregma_mm":-5.85,"area_mm2":0.7148,"traced_fraction":[0.994],"n_labels":2,"no_drawn_outline":false}},{"type":"Feature","geometry":{"type":"MultiPolygon","coordinates":[[[[-2.579,-0.542],[-2.537,-1.189],[-2.586,-1.548],[-3.014,-1.858],[-3.645,-2.322],[-3.946,-2.638],[-4.5,-2.997],[-4.885,-2.856],[-5.517,-2.069],[-4.598,-1.33],[-3.722,-0.866],[-3.701,-0.859],[-3.701,-0.859],[-3.687,-0.852],[-3.687,-0.852],[-3.666,-0.845],[-3.666,-0.845],[-3.631,-0.831],[-3.631,-0.831],[-3.609,-0.824],[-3.609,-0.824],[-3.588,-0.817],[-3.588,-0.817],[-3.574,-0.81],[-3.574,-0.81],[-3.553,-0.803],[-3.553,-0.803],[-3.532,-0.795],[-3.532,-0.795],[-3.518,-0.788],[-3.518,-0.788],[-3.497,-0.782],[-3.497,-0.782],[-3.476,-0.774],[-3.476,-0.774],[-3.462,-0.767],[-3.406,-0.746],[-3.399,-0.746],[-3.399,-0.746],[-3.385,-0.739],[-3.385,-0.739],[-3.364,-0.732],[-3.35,-0.725],[-3.329,-0.718],[-3.329,-0.718],[-3.308,-0.711],[-3.294,-0.704],[-3.273,-0.697],[-2.579,-0.542],[-2.579,-0.542]]],[[[2.806,-0.584],[4.138,-0.901],[4.159,-0.908],[4.159,-0.908],[4.299,-0.95],[4.391,-1.007],[4.685,-1.182],[4.685,-1.182],[4.706,-1.196],[4.706,-1.196],[4.72,-1.203],[4.72,-1.203],[4.748,-1.225],[4.748,-1.225],[4.762,-1.232],[4.762,-1.232],[4.776,-1.239],[4.776,-1.239],[4.79,-1.246],[4.874,-1.288],[4.888,-1.316],[5.393,-1.752],[5.786,-2.223],[4.65,-3.124],[4.587,-3.166],[4.383,-2.983],[4.159,-2.723],[3.682,-2.28],[3.339,-2.069],[3.079,-1.836],[2.813,-1.253],[2.806,-0.584],[2.806,-0.584]]]]},"properties":{"abbr":"V1","name":"primary visual cortex","plate":40,"ap_bregma_mm":-5.85,"area_mm2":7.7708,"traced_fraction":[0.995,0.967],"n_labels":2,"no_drawn_outline":false}},{"type":"Feature","geometry":{"type":"MultiPolygon","coordinates":[[[[1.944,-2.469],[1.866,-2.294],[1.733,-2.174],[1.397,-1.963],[1.081,-1.872],[0.829,-1.893],[0.464,-2.012],[0.071,-2.343],[0.099,-2.139],[0.345,-1.879],[0.696,-1.696],[1.081,-1.633],[1.614,-1.794],[2.0,-2.104],[2.112,-2.336],[2.063,-2.42],[1.944,-2.469],[1.944,-2.469]]],[[[-0.223,-2.364],[-0.679,-1.984],[-1.113,-1.879],[-1.583,-2.069],[-1.941,-2.42],[-1.955,-2.42],[-2.039,-2.216],[-1.92,-2.005],[-1.625,-1.773],[-1.226,-1.647],[-0.847,-1.703],[-0.384,-1.914],[-0.195,-2.132],[-0.174,-2.273],[-0.223,-2.364],[-0.223,-2.364]]]]},"properties":{"abbr":"SuG","name":"superficial gray layer of the superior colliculus","plate":40,"ap_bregma_mm":-5.85,"area_mm2":1.0062,"traced_fraction":[0.982,1.0],"n_labels":2,"no_drawn_outline":false}},{"type":"Feature","geometry":{"type":"MultiPolygon","coordinates":[[[[1.944,-2.469],[1.768,-2.519],[1.418,-2.265],[1.018,-2.146],[0.562,-2.202],[0.17,-2.455],[0.071,-2.343],[0.464,-2.012],[0.829,-1.893],[1.081,-1.872],[1.397,-1.963],[1.733,-2.174],[1.866,-2.294],[1.944,-2.469],[1.944,-2.469]]],[[[-0.223,-2.364],[-0.244,-2.476],[-0.819,-2.167],[-1.107,-2.139],[-1.45,-2.265],[-1.779,-2.54],[-1.941,-2.42],[-1.583,-2.069],[-1.113,-1.879],[-0.679,-1.984],[-0.223,-2.364],[-0.223,-2.364]]]]},"properties":{"abbr":"Op","name":"optic nerve layer of the superior colliculus","plate":40,"ap_bregma_mm":-5.85,"area_mm2":0.8665,"traced_fraction":[0.986,1.0],"n_labels":2,"no_drawn_outline":false}},{"type":"Feature","geometry":{"type":"MultiPolygon","coordinates":[[[[-2.172,-2.23],[-2.116,-2.336],[-2.586,-2.505],[-2.831,-2.913],[-2.936,-3.679],[-2.824,-4.249],[-2.957,-4.249],[-3.035,-3.749],[-2.95,-3.046],[-2.936,-2.99],[-2.936,-2.99],[-2.929,-2.955],[-2.929,-2.955],[-2.922,-2.913],[-2.845,-2.694],[-2.845,-2.68],[-2.663,-2.406],[-2.368,-2.265],[-2.298,-2.251],[-2.172,-2.23],[-2.172,-2.23]]],[[[2.203,-2.251],[2.462,-2.343],[2.603,-2.455],[2.869,-2.927],[2.869,-2.99],[2.869,-2.99],[2.995,-3.553],[2.904,-3.567],[2.778,-2.997],[2.652,-2.716],[2.504,-2.561],[2.175,-2.42],[2.203,-2.251],[2.203,-2.251]]]]},"properties":{"abbr":"bic","name":"brachium of the inferior colliculus","plate":40,"ap_bregma_mm":-5.85,"area_mm2":0.4521,"traced_fraction":[0.99,0.989],"n_labels":2,"no_drawn_outline":false}},{"type":"Feature","geometry":{"type":"MultiPolygon","coordinates":[[[[-3.014,-1.858],[-2.803,-2.181],[-2.866,-2.237],[-2.88,-2.251],[-3.119,-2.554],[-3.196,-2.737],[-3.385,-3.018],[-3.406,-3.131],[-3.469,-3.588],[-3.68,-3.391],[-3.932,-2.955],[-3.946,-2.638],[-3.645,-2.322],[-3.014,-1.858],[-3.014,-1.858]]],[[[3.339,-2.069],[3.682,-2.28],[4.159,-2.723],[4.082,-3.328],[3.689,-3.862],[3.682,-3.946],[3.668,-3.524],[3.675,-3.524],[3.682,-3.693],[3.675,-3.524],[3.514,-3.046],[3.507,-3.025],[3.507,-3.025],[3.5,-3.004],[3.5,-3.004],[3.493,-2.983],[3.493,-2.983],[3.486,-2.955],[3.486,-2.955],[3.472,-2.927],[3.472,-2.927],[3.465,-2.913],[3.311,-2.575],[3.297,-2.54],[3.248,-2.455],[3.241,-2.441],[3.234,-2.434],[3.227,-2.42],[3.065,-2.167],[3.339,-2.069],[3.339,-2.069]]]]},"properties":{"abbr":"Post","name":"postsubiculum","plate":40,"ap_bregma_mm":-5.85,"area_mm2":1.7118,"traced_fraction":[0.987,0.986],"n_labels":2,"no_drawn_outline":false}},{"type":"Feature","geometry":{"type":"MultiPolygon","coordinates":[[[[1.691,-2.898],[1.649,-3.131],[1.488,-3.454],[1.481,-3.454],[1.081,-3.081],[0.625,-2.877],[-0.146,-2.905],[-0.714,-2.821],[-1.205,-3.046],[-1.394,-3.299],[-1.52,-3.616],[-1.822,-3.405],[-1.871,-3.32],[-1.695,-3.053],[-1.681,-2.8],[-1.38,-2.638],[-0.966,-2.547],[-0.686,-2.554],[0.015,-2.758],[0.268,-2.709],[0.646,-2.519],[0.836,-2.512],[1.691,-2.898],[1.691,-2.898]]]]},"properties":{"abbr":"DpG","name":"deep gray layer of the superior colliculus","plate":40,"ap_bregma_mm":-5.85,"area_mm2":1.3634,"traced_fraction":[0.962],"n_labels":2,"no_drawn_outline":false}},{"type":"Feature","geometry":{"type":"MultiPolygon","coordinates":[[[[-5.517,-2.069],[-4.885,-2.856],[-4.5,-2.997],[-4.78,-3.229],[-5.075,-3.201],[-5.902,-3.454],[-6.239,-3.503],[-6.239,-3.011],[-6.232,-3.166],[-5.986,-2.596],[-5.517,-2.069],[-5.517,-2.069]]],[[[5.786,-2.223],[6.038,-2.61],[6.192,-2.983],[6.256,-2.997],[6.241,-3.053],[6.192,-3.004],[6.235,-3.102],[6.235,-3.131],[6.235,-3.131],[6.256,-3.215],[6.256,-3.215],[6.263,-3.236],[6.263,-3.236],[6.269,-3.264],[6.269,-3.264],[6.277,-3.292],[6.277,-3.292],[6.284,-3.32],[6.284,-3.32],[6.291,-3.349],[6.326,-3.651],[4.65,-3.124],[5.786,-2.223],[5.786,-2.223]]]]},"properties":{"abbr":"V2L","name":"secondary visual cortex, lateral area","plate":40,"ap_bregma_mm":-5.85,"area_mm2":2.4047,"traced_fraction":[0.993,0.978],"n_labels":2,"no_drawn_outline":false}},{"type":"Feature","geometry":{"type":"MultiPolygon","coordinates":[[[[-2.067,-2.385],[-1.955,-2.42],[-1.941,-2.42],[-1.779,-2.54],[-1.681,-2.8],[-1.695,-3.053],[-1.871,-3.32],[-2.018,-3.138],[-2.137,-3.081],[-1.997,-2.758],[-2.067,-2.385],[-2.067,-2.385]]],[[[1.979,-2.568],[1.957,-2.828],[2.07,-3.166],[1.908,-3.285],[1.761,-3.538],[1.488,-3.454],[1.649,-3.131],[1.691,-2.898],[1.817,-2.751],[1.831,-2.575],[1.979,-2.568],[1.979,-2.568]]]]},"properties":{"abbr":"DCIC","name":"dorsal cortex of the inferior colliculus","plate":40,"ap_bregma_mm":-5.85,"area_mm2":0.5201,"traced_fraction":[1.0,1.0],"n_labels":2,"no_drawn_outline":false}},{"type":"Feature","geometry":{"type":"MultiPolygon","coordinates":[[[[1.481,-3.454],[1.27,-3.771],[1.179,-3.841],[1.053,-3.292],[0.962,-3.152],[0.73,-2.99],[0.394,-2.927],[-0.153,-2.997],[-0.377,-2.92],[-0.56,-2.898],[-0.819,-2.983],[-1.134,-3.306],[-1.205,-3.496],[-1.205,-3.749],[-1.352,-3.728],[-1.52,-3.616],[-1.394,-3.299],[-1.205,-3.046],[-0.714,-2.821],[-0.146,-2.905],[0.625,-2.877],[1.081,-3.081],[1.481,-3.454],[1.481,-3.454]]]]},"properties":{"abbr":"DpWh","name":"deep white layer of the superior colliculus","plate":40,"ap_bregma_mm":-5.85,"area_mm2":0.5356,"traced_fraction":[0.962],"n_labels":2,"no_drawn_outline":false}},{"type":"Feature","geometry":{"type":"MultiPolygon","coordinates":[[[[-0.377,-2.92],[-0.349,-3.236],[-0.195,-3.475],[-0.433,-3.693],[-0.672,-3.63],[-1.134,-3.306],[-0.819,-2.983],[-0.56,-2.898],[-0.377,-2.92],[-0.377,-2.92]]],[[[1.053,-3.292],[0.857,-3.468],[0.373,-3.658],[0.191,-3.496],[0.352,-3.201],[0.394,-2.927],[0.73,-2.99],[0.962,-3.152],[1.053,-3.292],[1.053,-3.292]]]]},"properties":{"abbr":"DLPAG","name":"dorsolateral periaqueductal gray","plate":40,"ap_bregma_mm":-5.85,"area_mm2":0.8138,"traced_fraction":[0.988,1.0],"n_labels":2,"no_drawn_outline":false}},{"type":"Feature","geometry":{"type":"MultiPolygon","coordinates":[[[[-2.116,-2.336],[-2.067,-2.385],[-1.997,-2.758],[-2.137,-3.081],[-2.389,-3.109],[-2.537,-3.356],[-2.558,-3.841],[-2.446,-4.157],[-2.509,-4.256],[-2.824,-4.249],[-2.936,-3.679],[-2.831,-2.913],[-2.586,-2.505],[-2.116,-2.336],[-2.116,-2.336]]],[[[2.175,-2.42],[2.504,-2.561],[2.652,-2.716],[2.778,-2.997],[2.904,-3.567],[2.953,-4.066],[2.876,-4.354],[2.413,-4.411],[2.343,-4.284],[2.448,-4.157],[2.497,-3.968],[2.483,-3.433],[2.329,-3.187],[2.07,-3.166],[1.957,-2.828],[1.979,-2.568],[2.175,-2.42],[2.175,-2.42]]]]},"properties":{"abbr":"ECIC","name":"external cortex of the inferior colliculus","plate":40,"ap_bregma_mm":-5.85,"area_mm2":1.9205,"traced_fraction":[0.979,0.979],"n_labels":2,"no_drawn_outline":false}},{"type":"Feature","geometry":{"type":"MultiPolygon","coordinates":[[[[4.65,-3.124],[6.326,-3.651],[6.354,-4.129],[6.269,-4.375],[5.856,-3.953],[5.442,-3.63],[4.65,-3.222],[4.587,-3.166],[4.65,-3.124],[4.65,-3.124]]],[[[-4.78,-3.229],[-4.893,-3.328],[-5.04,-3.349],[-6.183,-3.918],[-6.225,-3.778],[-6.225,-3.925],[-6.239,-3.503],[-5.902,-3.454],[-5.075,-3.201],[-4.78,-3.229],[-4.78,-3.229]]]]},"properties":{"abbr":"Ect","name":"ectorhinal cortex","plate":40,"ap_bregma_mm":-5.85,"area_mm2":0.9365,"traced_fraction":[0.955,0.992],"n_labels":2,"no_drawn_outline":false}},{"type":"Feature","geometry":{"type":"MultiPolygon","coordinates":[[[[-2.137,-3.081],[-2.018,-3.138],[-1.871,-3.32],[-1.822,-3.405],[-1.709,-3.827],[-1.829,-4.087],[-2.13,-4.256],[-2.446,-4.157],[-2.558,-3.841],[-2.537,-3.356],[-2.389,-3.109],[-2.137,-3.081],[-2.137,-3.081]]],[[[2.343,-4.284],[2.014,-4.34],[1.74,-4.157],[1.656,-3.918],[1.761,-3.538],[1.908,-3.285],[2.07,-3.166],[2.329,-3.187],[2.483,-3.433],[2.497,-3.968],[2.448,-4.157],[2.343,-4.284],[2.343,-4.284]]]]},"properties":{"abbr":"CIC","name":"central nucleus of the inferior colliculus","plate":40,"ap_bregma_mm":-5.85,"area_mm2":1.5203,"traced_fraction":[0.966,0.959],"n_labels":2,"no_drawn_outline":false}},{"type":"Feature","geometry":{"type":"MultiPolygon","coordinates":[[[[1.053,-3.292],[1.179,-3.841],[1.179,-4.115],[1.13,-4.27],[0.703,-4.052],[0.303,-3.996],[0.408,-3.855],[0.373,-3.658],[0.857,-3.468],[1.053,-3.292],[1.053,-3.292]]],[[[-1.134,-3.306],[-0.672,-3.63],[-0.433,-3.693],[-0.447,-3.848],[-0.335,-3.996],[-0.735,-4.08],[-1.128,-4.284],[-1.17,-4.031],[-1.205,-3.749],[-1.205,-3.496],[-1.134,-3.306],[-1.134,-3.306]]]]},"properties":{"abbr":"LPAG","name":"lateral periaqueductal gray","plate":40,"ap_bregma_mm":-5.85,"area_mm2":0.9385,"traced_fraction":[0.961,0.998],"n_labels":2,"no_drawn_outline":false}},{"type":"Feature","geometry":{"type":"MultiPolygon","coordinates":[[[[4.65,-3.222],[5.442,-3.63],[5.856,-3.953],[6.269,-4.375],[6.178,-4.509],[5.968,-4.572],[5.912,-4.678],[5.547,-4.164],[4.65,-3.222],[4.65,-3.222]]],[[[-4.893,-3.328],[-5.313,-3.728],[-5.692,-4.319],[-5.797,-4.27],[-5.818,-4.263],[-5.818,-4.263],[-5.839,-4.256],[-5.839,-4.256],[-5.909,-4.235],[-5.909,-4.235],[-5.93,-4.228],[-5.93,-4.228],[-5.951,-4.221],[-6.148,-4.066],[-6.155,-4.052],[-6.183,-3.918],[-5.04,-3.349],[-4.893,-3.328],[-4.893,-3.328]]]]},"properties":{"abbr":"PRh","name":"perirhinal cortex","plate":40,"ap_bregma_mm":-5.85,"area_mm2":0.9641,"traced_fraction":[0.975,0.991],"n_labels":2,"no_drawn_outline":false}},{"type":"Feature","geometry":{"type":"MultiPolygon","coordinates":[[[[0.191,-3.496],[0.373,-3.658],[0.408,-3.855],[0.303,-3.996],[0.142,-4.129],[-0.006,-4.157],[-0.153,-4.136],[-0.335,-3.996],[-0.447,-3.848],[-0.433,-3.693],[-0.195,-3.475],[0.043,-3.447],[0.191,-3.496],[0.191,-3.496]]]]},"properties":{"abbr":"Aq","name":"aqueduct","plate":40,"ap_bregma_mm":-5.85,"area_mm2":0.4424,"traced_fraction":[1.0],"n_labels":1,"no_drawn_outline":false}},{"type":"Feature","geometry":{"type":"MultiPolygon","coordinates":[[[[4.159,-2.723],[4.383,-2.983],[4.257,-4.734],[3.984,-5.297],[3.71,-5.606],[3.661,-5.332],[3.654,-5.473],[3.654,-4.931],[3.661,-5.114],[3.696,-4.762],[3.703,-4.657],[3.689,-4.186],[3.682,-3.946],[3.689,-3.862],[4.082,-3.328],[4.159,-2.723],[4.159,-2.723]]],[[[-3.932,-2.955],[-3.68,-3.391],[-3.469,-3.588],[-3.504,-4.164],[-3.504,-4.164],[-3.497,-4.164],[-3.504,-4.804],[-3.504,-4.804],[-3.497,-4.854],[-3.497,-4.854],[-3.49,-4.91],[-3.497,-4.945],[-3.49,-4.91],[-3.483,-4.959],[-3.476,-5.008],[-3.469,-5.058],[-3.476,-5.093],[-3.469,-5.058],[-3.462,-5.107],[-3.469,-5.149],[-3.462,-5.107],[-3.455,-5.156],[-3.462,-5.205],[-3.455,-5.156],[-3.448,-5.212],[-3.455,-5.255],[-3.448,-5.212],[-3.441,-5.262],[-3.448,-5.304],[-3.441,-5.262],[-3.434,-5.311],[-3.441,-5.346],[-3.434,-5.311],[-3.427,-5.353],[-3.434,-5.395],[-3.427,-5.353],[-3.42,-5.402],[-3.427,-5.444],[-3.42,-5.402],[-3.413,-5.452],[-3.392,-5.775],[-3.553,-5.726],[-3.806,-5.416],[-4.079,-4.53],[-4.086,-3.187],[-4.051,-3.039],[-3.932,-2.955],[-3.932,-2.955]]]]},"properties":{"abbr":"PaS","name":"parasubiculum","plate":40,"ap_bregma_mm":-5.85,"area_mm2":2.464,"traced_fraction":[0.99,0.994],"n_labels":2,"no_drawn_outline":false}},{"type":"Feature","geometry":{"type":"MultiPolygon","coordinates":[[[[1.481,-3.454],[1.488,-3.454],[1.761,-3.538],[1.656,-3.918],[1.74,-4.157],[2.014,-4.34],[2.343,-4.284],[2.413,-4.411],[2.189,-4.446],[1.341,-4.115],[1.341,-3.841],[1.27,-3.771],[1.481,-3.454],[1.481,-3.454]]],[[[-1.829,-4.087],[-1.681,-4.101],[-1.674,-4.179],[-1.892,-4.312],[-2.193,-4.397],[-2.291,-4.305],[-2.509,-4.256],[-2.446,-4.157],[-2.13,-4.256],[-1.829,-4.087],[-1.829,-4.087]]]]},"properties":{"abbr":"Pta","name":"pericollicular tegmental area","plate":40,"ap_bregma_mm":-5.85,"area_mm2":0.4273,"traced_fraction":[0.904,0.882],"n_labels":2,"no_drawn_outline":false}},{"type":"Feature","geometry":{"type":"MultiPolygon","coordinates":[[[[-0.335,-3.996],[-0.195,-4.115],[-0.02,-4.157],[0.142,-4.129],[0.303,-3.996],[0.703,-4.052],[1.13,-4.27],[1.158,-4.565],[1.116,-4.671],[1.039,-4.699],[0.569,-4.383],[0.128,-4.284],[-0.041,-4.228],[-0.139,-4.291],[-0.616,-4.425],[-0.861,-4.565],[-1.015,-4.727],[-1.17,-4.586],[-1.128,-4.284],[-0.735,-4.08],[-0.335,-3.996],[-0.335,-3.996]]]]},"properties":{"abbr":"VLPAG","name":"ventrolateral periaqueductal gray","plate":40,"ap_bregma_mm":-5.85,"area_mm2":0.7818,"traced_fraction":[0.984],"n_labels":2,"no_drawn_outline":false}},{"type":"Feature","geometry":{"type":"MultiPolygon","coordinates":[[[[-1.822,-3.405],[-1.52,-3.616],[-1.352,-3.728],[-1.205,-3.749],[-1.17,-4.031],[-1.674,-4.179],[-1.681,-4.101],[-1.829,-4.087],[-1.709,-3.827],[-1.822,-3.405],[-1.822,-3.405]]],[[[1.27,-3.771],[1.341,-3.841],[1.341,-4.115],[1.179,-4.115],[1.179,-3.841],[1.27,-3.771],[1.27,-3.771]]]]},"properties":{"abbr":"Me5","name":"mesencephalic trigeminal nucleus","plate":40,"ap_bregma_mm":-5.85,"area_mm2":0.3247,"traced_fraction":[0.888,0.543],"n_labels":2,"no_drawn_outline":false}},{"type":"Feature","geometry":{"type":"MultiPolygon","coordinates":[[[[-2.509,-4.256],[-2.291,-4.305],[-2.193,-4.397],[-2.186,-4.509],[-2.291,-4.622],[-2.333,-4.804],[-2.186,-5.311],[-2.333,-5.402],[-2.368,-5.353],[-2.551,-4.692],[-2.6,-4.65],[-2.726,-4.685],[-2.922,-4.488],[-2.957,-4.249],[-2.824,-4.249],[-2.509,-4.256],[-2.509,-4.256]]],[[[2.876,-4.354],[2.876,-4.671],[2.722,-4.91],[2.624,-4.833],[2.525,-4.889],[2.406,-5.599],[2.371,-5.641],[2.154,-5.585],[2.322,-4.973],[2.301,-4.811],[2.161,-4.565],[2.189,-4.446],[2.413,-4.411],[2.876,-4.354],[2.876,-4.354]]]]},"properties":{"abbr":"PL","name":"paralemniscal nucleus","plate":40,"ap_bregma_mm":-5.85,"area_mm2":0.8625,"traced_fraction":[0.991,0.992],"n_labels":2,"no_drawn_outline":false}},{"type":"Feature","geometry":{"type":"MultiPolygon","coordinates":[[[[-1.17,-4.031],[-1.128,-4.284],[-1.17,-4.586],[-1.015,-4.727],[-0.931,-4.769],[-1.162,-4.847],[-1.534,-4.826],[-1.878,-4.699],[-2.186,-4.509],[-2.193,-4.397],[-1.892,-4.312],[-1.674,-4.179],[-1.17,-4.031],[-1.17,-4.031]]],[[[1.179,-4.115],[1.341,-4.115],[2.189,-4.446],[2.161,-4.565],[1.915,-4.776],[1.705,-4.854],[1.362,-4.847],[1.032,-4.734],[1.039,-4.699],[1.116,-4.671],[1.158,-4.565],[1.13,-4.27],[1.179,-4.115],[1.179,-4.115]]]]},"properties":{"abbr":"PrCnF","name":"precuneiform area","plate":40,"ap_bregma_mm":-5.85,"area_mm2":1.1482,"traced_fraction":[0.953,0.998],"n_labels":2,"no_drawn_outline":false}},{"type":"Feature","geometry":{"type":"MultiPolygon","coordinates":[[[[0.128,-4.284],[0.569,-4.383],[1.039,-4.699],[1.032,-4.734],[0.759,-4.896],[0.513,-4.903],[0.478,-4.826],[0.345,-4.65],[0.135,-4.734],[0.128,-4.284],[0.128,-4.284]]],[[[-0.139,-4.291],[-0.188,-4.572],[-0.412,-4.53],[-0.609,-4.593],[-0.616,-4.425],[-0.139,-4.291],[-0.139,-4.291]]]]},"properties":{"abbr":"DRL","name":"dorsal raphe nucleus, lateral part","plate":40,"ap_bregma_mm":-5.85,"area_mm2":0.4132,"traced_fraction":[0.989,0.898],"n_labels":2,"no_drawn_outline":false}},{"type":"Feature","geometry":{"type":"MultiPolygon","coordinates":[[[[-3.946,-2.638],[-3.932,-2.955],[-4.051,-3.039],[-4.086,-3.187],[-4.079,-4.53],[-3.806,-5.416],[-3.553,-5.726],[-3.392,-5.775],[-3.385,-5.655],[-3.385,-6.204],[-3.392,-5.993],[-3.427,-6.239],[-3.708,-6.429],[-3.743,-6.436],[-3.743,-6.436],[-3.771,-6.443],[-3.771,-6.443],[-3.953,-6.485],[-3.953,-6.485],[-3.988,-6.493],[-3.988,-6.493],[-4.016,-6.499],[-4.079,-6.528],[-4.43,-6.471],[-4.605,-6.303],[-4.528,-6.232],[-4.528,-5.923],[-4.885,-5.923],[-4.885,-6.12],[-5.299,-5.761],[-5.32,-5.74],[-5.334,-5.698],[-5.334,-5.691],[-5.51,-5.367],[-5.755,-5.142],[-5.853,-4.692],[-5.832,-4.622],[-5.832,-4.622],[-5.825,-4.6],[-5.825,-4.6],[-5.832,-4.551],[-5.832,-4.375],[-5.811,-4.551],[-5.692,-4.319],[-5.313,-3.728],[-4.893,-3.328],[-4.78,-3.229],[-4.5,-2.997],[-3.946,-2.638],[-3.946,-2.638]]],[[[5.863,-4.882],[5.849,-5.03],[5.477,-5.03],[5.477,-4.882],[5.863,-4.882],[5.863,-4.882]]]]},"properties":{"abbr":"LEnt","name":"lateral entorhinal cortex","plate":40,"ap_bregma_mm":-5.85,"area_mm2":5.0639,"traced_fraction":[0.91,0.201],"n_labels":2,"no_drawn_outline":false}},{"type":"Feature","geometry":{"type":"MultiPolygon","coordinates":[[[[-2.922,-4.488],[-2.726,-4.685],[-2.677,-4.896],[-2.733,-4.959],[-2.803,-4.959],[-2.915,-4.699],[-2.915,-4.643],[-2.922,-4.488],[-2.922,-4.488]]],[[[2.981,-4.671],[2.974,-4.776],[2.911,-5.037],[3.023,-5.037],[2.911,-5.065],[2.911,-5.065],[2.904,-5.1],[2.841,-5.234],[2.701,-5.226],[2.722,-4.91],[2.876,-4.671],[2.981,-4.671],[2.981,-4.671]]]]},"properties":{"abbr":"PBG","name":"parabigeminal nucleus","plate":40,"ap_bregma_mm":-5.85,"area_mm2":0.1649,"traced_fraction":[1.0,0.983],"n_labels":2,"no_drawn_outline":false}},{"type":"Feature","geometry":{"type":"MultiPolygon","coordinates":[[[[-2.186,-4.509],[-1.878,-4.699],[-1.534,-4.826],[-1.162,-4.847],[-0.931,-4.769],[-0.735,-4.875],[-0.812,-5.163],[-0.623,-5.43],[-0.763,-5.452],[-0.833,-5.613],[-1.331,-5.395],[-1.688,-5.325],[-1.857,-5.459],[-1.766,-5.663],[-1.85,-5.726],[-2.186,-5.311],[-2.333,-4.819],[-2.305,-4.65],[-2.186,-4.509],[-2.186,-4.509]]],[[[2.161,-4.565],[2.301,-4.811],[2.322,-4.973],[2.154,-5.585],[1.88,-5.761],[1.803,-5.754],[1.838,-5.557],[1.691,-5.438],[1.537,-5.452],[0.843,-5.74],[0.836,-5.747],[0.73,-5.74],[0.752,-5.55],[0.548,-5.459],[0.829,-5.205],[0.836,-5.065],[0.759,-4.896],[1.032,-4.734],[1.362,-4.847],[1.705,-4.854],[1.915,-4.776],[2.161,-4.565],[2.161,-4.565]]]]},"properties":{"abbr":"isRt","name":"isthmic reticular formation","plate":40,"ap_bregma_mm":-5.85,"area_mm2":2.3185,"traced_fraction":[0.976,0.969],"n_labels":2,"no_drawn_outline":false}},{"type":"Feature","geometry":{"type":"MultiPolygon","coordinates":[[[[0.078,-4.882],[0.12,-5.086],[0.043,-5.283],[0.135,-5.402],[0.149,-5.466],[0.022,-5.515],[-0.195,-5.48],[-0.195,-5.43],[-0.104,-5.311],[-0.132,-5.086],[-0.09,-4.889],[0.078,-4.882],[0.078,-4.882]]]]},"properties":{"abbr":"DRV","name":"dorsal raphe nucleus, ventral part","plate":40,"ap_bregma_mm":-5.85,"area_mm2":0.1391,"traced_fraction":[1.0],"n_labels":1,"no_drawn_outline":false}},{"type":"Feature","geometry":{"type":"MultiPolygon","coordinates":[[[[-0.539,-5.015],[-0.44,-5.121],[-0.132,-5.086],[-0.104,-5.311],[-0.195,-5.43],[-0.426,-5.409],[-0.573,-5.304],[-0.616,-5.107],[-0.567,-5.023],[-0.539,-5.015],[-0.539,-5.015]]],[[[0.492,-5.037],[0.576,-5.107],[0.597,-5.248],[0.408,-5.444],[0.233,-5.444],[0.135,-5.402],[0.043,-5.283],[0.12,-5.086],[0.408,-5.121],[0.492,-5.037],[0.492,-5.037]]]]},"properties":{"abbr":"mlf","name":"medial longitudinal fasciculus","plate":40,"ap_bregma_mm":-5.85,"area_mm2":0.3001,"traced_fraction":[1.0,1.0],"n_labels":2,"no_drawn_outline":false}},{"type":"Feature","geometry":{"type":"MultiPolygon","coordinates":[[[[-2.368,-5.353],[-2.53,-5.409],[-2.733,-4.959],[-2.677,-4.896],[-2.726,-4.685],[-2.6,-4.65],[-2.551,-4.692],[-2.368,-5.353],[-2.368,-5.353]]],[[[2.722,-4.91],[2.701,-5.226],[2.455,-5.634],[2.406,-5.599],[2.525,-4.889],[2.624,-4.833],[2.722,-4.91],[2.722,-4.91]]]]},"properties":{"abbr":"INLL","name":"intermediate nucleus of the lateral lemniscus","plate":40,"ap_bregma_mm":-5.85,"area_mm2":0.2813,"traced_fraction":[0.984,0.984],"n_labels":2,"no_drawn_outline":false}},{"type":"Feature","geometry":{"type":"MultiPolygon","coordinates":[[[[-0.833,-5.613],[-0.763,-5.705],[-0.833,-5.831],[-0.896,-5.831],[-0.966,-6.0],[-1.226,-5.81],[-1.766,-5.663],[-1.857,-5.459],[-1.688,-5.325],[-1.331,-5.395],[-0.833,-5.613],[-0.833,-5.613]]],[[[1.803,-5.754],[0.836,-6.211],[0.878,-6.014],[0.836,-5.747],[0.843,-5.74],[1.537,-5.452],[1.691,-5.438],[1.838,-5.557],[1.803,-5.754],[1.803,-5.754]]]]},"properties":{"abbr":"PTg","name":"pedunculopontine tegmental nucleus","plate":40,"ap_bregma_mm":-5.85,"area_mm2":0.7655,"traced_fraction":[0.901,0.977],"n_labels":2,"no_drawn_outline":false}},{"type":"Feature","geometry":{"type":"MultiPolygon","coordinates":[[[[-2.186,-5.311],[-1.85,-5.726],[-1.73,-5.93],[-1.906,-5.986],[-2.074,-5.859],[-2.333,-5.402],[-2.186,-5.311],[-2.186,-5.311]]],[[[2.371,-5.641],[2.147,-5.881],[1.754,-6.099],[1.733,-5.965],[1.88,-5.761],[2.154,-5.585],[2.371,-5.641],[2.371,-5.641]]]]},"properties":{"abbr":"RR","name":"retrorubral nucleus","plate":40,"ap_bregma_mm":-5.85,"area_mm2":0.2978,"traced_fraction":[0.987,1.0],"n_labels":2,"no_drawn_outline":false}},{"type":"Feature","geometry":{"type":"MultiPolygon","coordinates":[[[[4.383,-2.983],[4.587,-3.166],[4.65,-3.222],[5.547,-4.164],[5.912,-4.678],[5.863,-4.882],[5.477,-4.882],[5.477,-5.03],[5.849,-5.03],[5.737,-5.55],[5.512,-6.042],[4.923,-6.042],[4.923,-6.429],[5.078,-6.436],[4.86,-6.443],[4.341,-6.373],[4.313,-6.366],[3.984,-6.19],[3.71,-5.606],[3.984,-5.297],[4.257,-4.734],[4.383,-2.983],[4.383,-2.983]]]]},"properties":{"abbr":"CEnt","name":"caudomedial entothinal cortex","plate":40,"ap_bregma_mm":-5.85,"area_mm2":4.191,"traced_fraction":[0.811],"n_labels":1,"no_drawn_outline":false}},{"type":"Feature","geometry":{"type":"MultiPolygon","coordinates":[[[[-4.605,-6.303],[-4.682,-6.253],[-4.724,-6.225],[-4.724,-6.225],[-4.738,-6.218],[-4.885,-6.12],[-4.885,-5.923],[-4.528,-5.923],[-4.528,-6.232],[-4.605,-6.303],[-4.605,-6.303]]],[[[5.512,-6.042],[5.47,-6.253],[5.393,-6.338],[4.923,-6.429],[4.923,-6.042],[5.512,-6.042],[5.512,-6.042]]]]},"properties":{"abbr":"MEnt","name":"medial entorhinal cortex","plate":40,"ap_bregma_mm":-5.85,"area_mm2":0.2919,"traced_fraction":[0.301,0.462],"n_labels":2,"no_drawn_outline":true}},{"type":"Feature","geometry":{"type":"MultiPolygon","coordinates":[[[[-0.125,-6.014],[-0.16,-6.106],[-0.349,-6.141],[-0.475,-6.063],[-0.384,-5.789],[-0.237,-5.796],[-0.125,-6.014],[-0.125,-6.014]]],[[[0.401,-5.824],[0.499,-6.078],[0.317,-6.127],[0.086,-6.085],[0.065,-6.0],[0.24,-5.838],[0.401,-5.824],[0.401,-5.824]]]]},"properties":{"abbr":"ATg","name":"anterior tegmental nucleus","plate":40,"ap_bregma_mm":-5.85,"area_mm2":0.1763,"traced_fraction":[0.987,0.981],"n_labels":2,"no_drawn_outline":false}},{"type":"Feature","geometry":{"type":"MultiPolygon","coordinates":[[[[-0.763,-5.705],[-0.475,-5.782],[-0.581,-6.211],[-0.735,-6.183],[-0.833,-6.092],[-0.833,-6.049],[-0.847,-6.085],[-0.966,-6.0],[-0.896,-5.831],[-0.833,-5.831],[-0.763,-5.705],[-0.763,-5.705]]],[[[0.73,-5.74],[0.836,-5.747],[0.878,-5.881],[0.836,-6.211],[0.604,-6.303],[0.59,-6.267],[0.506,-5.803],[0.73,-5.74],[0.73,-5.74]]]]},"properties":{"abbr":"SPTg","name":"subpeduncular tegmental nucleus","plate":40,"ap_bregma_mm":-5.85,"area_mm2":0.3105,"traced_fraction":[0.863,0.955],"n_labels":2,"no_drawn_outline":false}},{"type":"Feature","geometry":{"type":"MultiPolygon","coordinates":[[[[-1.766,-5.663],[-1.226,-5.81],[-0.966,-6.0],[-0.847,-6.085],[-0.833,-6.092],[-0.735,-6.183],[-0.581,-6.211],[-0.56,-6.64],[-0.363,-6.978],[-1.198,-6.823],[-1.275,-6.865],[-1.366,-6.865],[-1.779,-6.303],[-1.457,-6.274],[-1.443,-6.19],[-1.555,-6.092],[-1.73,-5.93],[-1.85,-5.726],[-1.766,-5.663],[-1.766,-5.663]]],[[[1.803,-5.754],[1.88,-5.761],[1.733,-5.965],[1.754,-6.099],[1.593,-6.295],[1.123,-6.521],[0.948,-6.865],[0.408,-6.936],[0.408,-6.879],[0.471,-6.865],[0.597,-6.422],[0.604,-6.303],[0.836,-6.211],[1.803,-5.754],[1.803,-5.754]]]]},"properties":{"abbr":"PnO","name":"pontine reticular nucleus, oral part","plate":40,"ap_bregma_mm":-5.85,"area_mm2":1.6599,"traced_fraction":[0.991,0.939],"n_labels":2,"no_drawn_outline":false}},{"type":"Feature","geometry":{"type":"MultiPolygon","coordinates":[[[[-0.475,-6.063],[-0.349,-6.141],[-0.16,-6.106],[-0.16,-6.577],[-0.069,-7.013],[-0.132,-7.006],[-0.356,-6.809],[-0.468,-6.619],[-0.51,-6.436],[-0.475,-6.063],[-0.475,-6.063]]],[[[0.499,-6.078],[0.513,-6.267],[0.59,-6.267],[0.604,-6.303],[0.597,-6.422],[0.506,-6.429],[0.45,-6.654],[0.114,-7.006],[0.036,-7.013],[0.107,-6.598],[0.086,-6.085],[0.317,-6.127],[0.499,-6.078],[0.499,-6.078]]]]},"properties":{"abbr":"PMnR","name":"paramedian raphe nucleus","plate":40,"ap_bregma_mm":-5.85,"area_mm2":0.5617,"traced_fraction":[0.994,0.962],"n_labels":2,"no_drawn_outline":false}},{"type":"Feature","geometry":{"type":"MultiPolygon","coordinates":[[[[-0.475,-5.782],[-0.384,-5.789],[-0.475,-6.063],[-0.51,-6.436],[-0.468,-6.619],[-0.356,-6.809],[-0.132,-7.006],[-0.314,-7.013],[-0.363,-6.978],[-0.56,-6.64],[-0.581,-6.211],[-0.475,-5.782],[-0.475,-5.782]]],[[[0.597,-6.422],[0.471,-6.865],[0.408,-6.879],[0.366,-6.943],[0.24,-6.999],[0.114,-7.006],[0.45,-6.654],[0.506,-6.429],[0.597,-6.422],[0.597,-6.422]]]]},"properties":{"abbr":"ts","name":"tectospinal tract","plate":40,"ap_bregma_mm":-5.85,"area_mm2":0.1918,"traced_fraction":[1.0,0.914],"n_labels":2,"no_drawn_outline":false}},{"type":"Feature","geometry":{"type":"MultiPolygon","coordinates":[[[[-2.74,-6.352],[-2.495,-6.373],[-2.277,-6.493],[-2.256,-6.506],[-2.242,-6.521],[-2.228,-6.528],[-1.843,-6.823],[-1.822,-6.844],[-1.822,-6.851],[-1.485,-6.978],[-1.464,-7.076],[-1.611,-7.294],[-1.17,-7.794],[-0.917,-7.927],[-1.226,-7.92],[-1.625,-7.639],[-2.347,-6.858],[-2.376,-6.83],[-2.81,-6.408],[-2.74,-6.352],[-2.74,-6.352]]],[[[2.504,-6.788],[2.54,-6.844],[2.329,-7.083],[1.845,-7.435],[1.831,-7.442],[1.831,-7.442],[1.81,-7.456],[1.404,-7.688],[1.383,-7.695],[1.369,-7.702],[1.348,-7.709],[1.348,-7.709],[1.327,-7.716],[1.327,-7.716],[1.313,-7.723],[1.313,-7.723],[1.277,-7.737],[1.277,-7.737],[1.228,-7.765],[1.179,-7.773],[1.158,-7.78],[1.158,-7.78],[1.109,-7.794],[1.088,-7.78],[1.53,-7.442],[1.544,-7.35],[1.404,-7.315],[1.362,-7.245],[2.091,-6.893],[2.504,-6.788],[2.504,-6.788]]]]},"properties":{"abbr":"mcp","name":"middle cerebellar peduncle","plate":40,"ap_bregma_mm":-5.85,"area_mm2":1.0871,"traced_fraction":[0.989,1.0],"n_labels":2,"no_drawn_outline":false}},{"type":"Feature","geometry":{"type":"MultiPolygon","coordinates":[[[[1.439,-6.767],[1.369,-6.844],[0.997,-6.999],[0.212,-7.189],[0.24,-6.999],[0.366,-6.943],[0.408,-6.936],[0.948,-6.865],[1.277,-6.753],[1.439,-6.767],[1.439,-6.767]]],[[[-0.363,-6.978],[-0.314,-7.013],[-0.251,-7.125],[-0.265,-7.245],[-1.184,-6.929],[-1.275,-6.865],[-1.198,-6.823],[-0.363,-6.978],[-0.363,-6.978]]]]},"properties":{"abbr":"ml","name":"medial lemniscus","plate":40,"ap_bregma_mm":-5.85,"area_mm2":0.3538,"traced_fraction":[1.0,0.978],"n_labels":2,"no_drawn_outline":false}},{"type":"Feature","geometry":{"type":"MultiPolygon","coordinates":[[[[-0.132,-7.006],[-0.069,-7.013],[0.036,-7.013],[0.114,-7.006],[0.24,-6.999],[0.212,-7.189],[0.254,-7.287],[0.149,-7.491],[-0.16,-7.498],[-0.272,-7.301],[-0.265,-7.245],[-0.251,-7.125],[-0.314,-7.013],[-0.132,-7.006],[-0.132,-7.006]]]]},"properties":{"abbr":"IPC","name":"interpeduncular nucleus, caudal subnucleus","plate":40,"ap_bregma_mm":-5.85,"area_mm2":0.2262,"traced_fraction":[0.953],"n_labels":1,"no_drawn_outline":false}},{"type":"Feature","geometry":{"type":"MultiPolygon","coordinates":[[[[1.369,-6.844],[1.467,-6.999],[1.376,-7.168],[1.376,-7.175],[1.362,-7.245],[1.404,-7.315],[1.544,-7.35],[1.53,-7.442],[1.088,-7.78],[0.38,-7.92],[0.457,-7.899],[0.247,-7.758],[0.149,-7.491],[0.254,-7.287],[0.52,-7.35],[0.836,-7.344],[0.941,-7.245],[0.997,-6.999],[1.369,-6.844],[1.369,-6.844]]],[[[-1.366,-6.865],[-1.275,-6.865],[-1.184,-6.929],[-1.113,-7.154],[-0.973,-7.287],[-0.552,-7.372],[-0.272,-7.301],[-0.16,-7.498],[-0.237,-7.864],[-0.489,-7.955],[-0.917,-7.927],[-1.17,-7.794],[-1.611,-7.294],[-1.464,-7.076],[-1.485,-6.978],[-1.366,-6.865],[-1.366,-6.865]]]]},"properties":{"abbr":"Pn","name":"pontine nuclei","plate":40,"ap_bregma_mm":-5.85,"area_mm2":1.5934,"traced_fraction":[0.986,0.998],"n_labels":2,"no_drawn_outline":false}},{"type":"Feature","geometry":{"type":"MultiPolygon","coordinates":[[[[1.887,-0.507],[1.979,-0.859],[2.182,-1.175],[3.079,-1.836],[3.339,-2.069],[3.065,-2.167],[2.883,-2.012],[2.659,-1.97],[2.638,-1.963],[2.638,-1.963],[2.617,-1.956],[2.617,-1.956],[2.582,-1.942],[2.063,-1.654],[2.049,-1.654],[1.621,-1.302],[1.46,-0.992],[1.509,-0.746],[1.572,-0.655],[1.761,-0.535],[1.761,-0.535],[1.775,-0.528],[1.887,-0.507],[1.887,-0.507]]],[[[-1.548,-0.584],[-1.282,-0.782],[-1.275,-0.817],[-1.275,-0.817],[-1.261,-1.028],[-1.296,-1.112],[-1.303,-1.126],[-1.787,-1.597],[-1.8,-1.604],[-1.808,-1.611],[-1.822,-1.618],[-1.829,-1.625],[-1.85,-1.639],[-1.857,-1.647],[-1.878,-1.661],[-1.878,-1.661],[-1.899,-1.675],[-1.899,-1.675],[-2.144,-1.893],[-2.144,-1.836],[-2.193,-1.9],[-2.242,-1.914],[-2.291,-1.949],[-2.649,-2.125],[-2.649,-2.125],[-2.663,-2.132],[-2.803,-2.181],[-3.014,-1.858],[-2.586,-1.548],[-1.864,-1.049],[-1.548,-0.584],[-1.548,-0.584]]]]},"properties":{"abbr":"RSD","name":"retrosplenial dysgranular cortex","plate":40,"ap_bregma_mm":-5.85,"area_mm2":1.9051,"traced_fraction":[1.0,0.994],"n_labels":4,"no_drawn_outline":false}},{"type":"Feature","geometry":{"type":"MultiPolygon","coordinates":[[[[-0.244,-2.476],[-0.146,-2.498],[-0.055,-2.42],[0.05,-2.484],[0.17,-2.455],[0.562,-2.202],[1.018,-2.146],[1.418,-2.265],[1.768,-2.519],[1.831,-2.575],[1.817,-2.751],[1.691,-2.898],[0.836,-2.512],[0.646,-2.519],[0.268,-2.709],[0.015,-2.758],[-0.686,-2.554],[-0.966,-2.547],[-1.38,-2.638],[-1.681,-2.8],[-1.779,-2.54],[-1.45,-2.265],[-1.107,-2.139],[-0.819,-2.167],[-0.244,-2.476],[-0.244,-2.476]]]]},"properties":{"abbr":"InG","name":"intermediate gray layer of the superior colliculus","plate":40,"ap_bregma_mm":-5.85,"area_mm2":1.2865,"traced_fraction":[0.985],"n_labels":4,"no_drawn_outline":false}},{"type":"Feature","geometry":{"type":"MultiPolygon","coordinates":[[[[-0.377,-2.92],[-0.153,-2.997],[0.394,-2.927],[0.352,-3.201],[0.191,-3.496],[0.043,-3.447],[-0.195,-3.475],[-0.349,-3.236],[-0.377,-2.92],[-0.377,-2.92]]]]},"properties":{"abbr":"DMPAG","name":"dorsomedial periaqueductal gray","plate":40,"ap_bregma_mm":-5.85,"area_mm2":0.3256,"traced_fraction":[1.0],"n_labels":1,"no_drawn_outline":false}},{"type":"Feature","geometry":{"type":"MultiPolygon","coordinates":[[[[2.995,-3.553],[3.03,-3.714],[3.044,-3.953],[3.037,-4.024],[3.03,-3.989],[3.037,-4.024],[3.009,-4.326],[3.009,-4.326],[3.002,-4.397],[2.995,-4.333],[3.002,-4.397],[2.981,-4.671],[2.876,-4.671],[2.876,-4.354],[2.953,-4.066],[2.904,-3.567],[2.995,-3.553],[2.995,-3.553]]],[[[-2.803,-4.959],[-2.733,-4.959],[-2.53,-5.409],[-2.305,-5.768],[-1.779,-6.303],[-1.366,-6.865],[-1.485,-6.978],[-1.822,-6.851],[-1.822,-6.844],[-1.639,-6.893],[-2.439,-5.838],[-2.635,-5.501],[-2.754,-5.149],[-2.775,-5.093],[-2.782,-5.072],[-2.782,-5.072],[-2.789,-5.051],[-2.789,-5.051],[-2.796,-5.03],[-2.803,-4.959],[-2.803,-4.959]]],[[[2.701,-5.226],[2.841,-5.234],[2.701,-5.564],[2.315,-6.056],[2.301,-6.063],[2.301,-6.063],[2.273,-6.099],[2.273,-6.099],[2.259,-6.12],[2.259,-6.12],[2.245,-6.141],[1.831,-6.668],[1.467,-6.999],[1.369,-6.844],[1.439,-6.767],[1.74,-6.359],[1.944,-6.099],[2.238,-5.888],[2.455,-5.634],[2.701,-5.226],[2.701,-5.226]]]]},"properties":{"abbr":"ll","name":"lateral lemniscus","plate":40,"ap_bregma_mm":-5.85,"area_mm2":0.9911,"traced_fraction":[0.987,0.987,1.0],"n_labels":3,"no_drawn_outline":false}},{"type":"Feature","geometry":{"type":"MultiPolygon","coordinates":[[[[0.128,-4.284],[0.135,-4.734],[0.107,-4.826],[0.078,-4.882],[-0.09,-4.889],[-0.118,-4.826],[-0.146,-4.72],[-0.188,-4.572],[-0.139,-4.291],[-0.041,-4.228],[0.128,-4.284],[0.128,-4.284]]]]},"properties":{"abbr":"DRD","name":"dorsal raphe nucleus, dorsal part","plate":40,"ap_bregma_mm":-5.85,"area_mm2":0.1744,"traced_fraction":[1.0],"n_labels":1,"no_drawn_outline":false}},{"type":"Feature","geometry":{"type":"MultiPolygon","coordinates":[[[[-0.616,-4.425],[-0.609,-4.593],[-0.412,-4.53],[-0.188,-4.572],[-0.146,-4.72],[-0.412,-4.671],[-0.503,-4.797],[-0.524,-4.847],[-0.735,-4.875],[-0.931,-4.769],[-1.015,-4.727],[-0.861,-4.565],[-0.616,-4.425],[-0.616,-4.425]]]]},"properties":{"abbr":"PDR","name":"posterodorsal raphe nucleus","plate":40,"ap_bregma_mm":-5.85,"area_mm2":0.189,"traced_fraction":[0.951],"n_labels":1,"no_drawn_outline":false}},{"type":"Feature","geometry":{"type":"MultiPolygon","coordinates":[[[[-0.118,-4.826],[-0.09,-4.889],[-0.132,-5.086],[-0.44,-5.121],[-0.539,-5.015],[-0.539,-5.008],[-0.524,-4.847],[-0.503,-4.797],[-0.286,-4.741],[-0.118,-4.826],[-0.118,-4.826]]],[[[0.478,-4.826],[0.513,-4.903],[0.492,-5.037],[0.408,-5.121],[0.12,-5.086],[0.078,-4.882],[0.107,-4.826],[0.275,-4.741],[0.478,-4.826],[0.478,-4.826]]]]},"properties":{"abbr":"4N","name":"trochlear nucleus","plate":40,"ap_bregma_mm":-5.85,"area_mm2":0.2578,"traced_fraction":[1.0,1.0],"n_labels":2,"no_drawn_outline":false}},{"type":"Feature","geometry":{"type":"MultiPolygon","coordinates":[[[[-0.524,-4.847],[-0.539,-5.008],[-0.567,-5.023],[-0.616,-5.107],[-0.573,-5.304],[-0.447,-5.402],[-0.195,-5.43],[-0.195,-5.48],[-0.623,-5.43],[-0.812,-5.163],[-0.735,-4.875],[-0.524,-4.847],[-0.524,-4.847]]],[[[0.759,-4.896],[0.836,-5.065],[0.829,-5.205],[0.548,-5.459],[0.408,-5.444],[0.597,-5.248],[0.597,-5.149],[0.492,-5.037],[0.513,-4.903],[0.759,-4.896],[0.759,-4.896]]]]},"properties":{"abbr":"Pa4","name":"paratrochlear nucleus","plate":40,"ap_bregma_mm":-5.85,"area_mm2":0.2514,"traced_fraction":[0.99,0.987],"n_labels":2,"no_drawn_outline":false}},{"type":"Feature","geometry":{"type":"MultiPolygon","coordinates":[[[[-0.623,-5.43],[-0.195,-5.48],[0.022,-5.515],[0.149,-5.466],[0.233,-5.444],[0.408,-5.444],[0.548,-5.459],[0.752,-5.55],[0.73,-5.74],[0.506,-5.803],[0.401,-5.824],[0.24,-5.838],[0.065,-6.0],[-0.125,-6.014],[-0.237,-5.796],[-0.384,-5.789],[-0.475,-5.782],[-0.763,-5.705],[-0.833,-5.613],[-0.763,-5.452],[-0.623,-5.43],[-0.623,-5.43]]]]},"properties":{"abbr":"xscp","name":"decussation of the superior cerebellar peduncle","plate":40,"ap_bregma_mm":-5.85,"area_mm2":0.5621,"traced_fraction":[0.979],"n_labels":1,"no_drawn_outline":false}},{"type":"Feature","geometry":{"type":"MultiPolygon","coordinates":[[[[-2.368,-5.353],[-2.333,-5.402],[-2.074,-5.859],[-1.906,-5.986],[-1.555,-6.092],[-1.443,-6.19],[-1.457,-6.274],[-1.779,-6.303],[-2.305,-5.768],[-2.53,-5.409],[-2.368,-5.353],[-2.368,-5.353]]],[[[2.406,-5.599],[2.455,-5.634],[2.238,-5.888],[1.944,-6.099],[1.74,-6.359],[1.593,-6.295],[1.754,-6.099],[2.147,-5.881],[2.371,-5.641],[2.406,-5.599],[2.406,-5.599]]]]},"properties":{"abbr":"VNLL","name":"ventral nucleus of the lateral lemniscus","plate":40,"ap_bregma_mm":-5.85,"area_mm2":0.3223,"traced_fraction":[1.0,0.989],"n_labels":2,"no_drawn_outline":false}},{"type":"Feature","geometry":{"type":"MultiPolygon","coordinates":[[[[0.065,-6.0],[0.086,-6.085],[0.107,-6.598],[0.036,-7.013],[-0.069,-7.013],[-0.16,-6.577],[-0.16,-6.106],[-0.125,-6.014],[0.065,-6.0],[0.065,-6.0]]]]},"properties":{"abbr":"MnR","name":"median raphe nucleus","plate":40,"ap_bregma_mm":-5.85,"area_mm2":0.2239,"traced_fraction":[1.0],"n_labels":1,"no_drawn_outline":false}},{"type":"Feature","geometry":{"type":"MultiPolygon","coordinates":[[[[-1.184,-6.929],[-0.265,-7.245],[-0.272,-7.301],[-0.552,-7.372],[-0.973,-7.287],[-1.113,-7.154],[-1.184,-6.929],[-1.184,-6.929]]],[[[0.997,-6.999],[0.941,-7.245],[0.836,-7.344],[0.52,-7.35],[0.254,-7.287],[0.212,-7.189],[0.997,-6.999],[0.997,-6.999]]]]},"properties":{"abbr":"lfp","name":"longitudinal fasciculus of the pons","plate":40,"ap_bregma_mm":-5.85,"area_mm2":0.3575,"traced_fraction":[0.973,1.0],"n_labels":2,"no_drawn_outline":false}},{"type":"Feature","geometry":{"type":"Polygon","coordinates":[[[-1.723,-0.521],[-2.579,-0.542],[-3.273,-0.697],[-2.95,-0.563],[-2.368,-0.479],[-1.723,-0.521],[-1.723,-0.521]]]},"properties":{"abbr":null,"name":"unnamed sealed face","plate":40,"ap_bregma_mm":-5.85,"index":0}},{"type":"Feature","geometry":{"type":"Polygon","coordinates":[[[2.392,-0.5],[3.093,-0.599],[3.928,-0.795],[4.138,-0.901],[2.806,-0.584],[2.203,-0.507],[2.392,-0.5],[2.392,-0.5]]]},"properties":{"abbr":null,"name":"unnamed sealed face","plate":40,"ap_bregma_mm":-5.85,"index":1}},{"type":"Feature","geometry":{"type":"Polygon","coordinates":[[[-3.722,-0.866],[-4.598,-1.33],[-5.517,-2.069],[-5.986,-2.596],[-6.232,-3.166],[-6.239,-3.011],[-6.014,-2.547],[-5.713,-2.195],[-5.173,-1.738],[-5.194,-1.661],[-5.117,-1.703],[-4.661,-1.309],[-4.093,-0.999],[-3.722,-0.866],[-3.722,-0.866]]]},"properties":{"abbr":null,"name":"unnamed sealed face","plate":40,"ap_bregma_mm":-5.85,"index":2}},{"type":"Feature","geometry":{"type":"Polygon","coordinates":[[[4.888,-1.316],[5.246,-1.548],[5.716,-2.054],[6.01,-2.469],[6.15,-2.751],[6.192,-2.983],[6.038,-2.61],[5.786,-2.223],[5.393,-1.752],[4.888,-1.316],[4.888,-1.316]]]},"properties":{"abbr":null,"name":"unnamed sealed face","plate":40,"ap_bregma_mm":-5.85,"index":3}},{"type":"Feature","geometry":{"type":"Polygon","coordinates":[[[2.869,-2.927],[2.603,-2.455],[2.462,-2.343],[2.203,-2.251],[1.894,-1.914],[1.544,-1.654],[1.186,-1.534],[0.815,-1.555],[0.815,-1.499],[1.285,-1.52],[1.523,-1.597],[1.859,-1.829],[2.196,-2.223],[2.413,-2.273],[2.61,-2.42],[2.883,-2.849],[2.869,-2.927],[2.869,-2.927]]]},"properties":{"abbr":null,"name":"unnamed sealed face","plate":40,"ap_bregma_mm":-5.85,"index":4}},{"type":"Feature","geometry":{"type":"Polygon","coordinates":[[[-1.457,-1.59],[-1.387,-1.597],[-1.66,-1.696],[-1.885,-1.85],[-2.172,-2.23],[-2.298,-2.251],[-2.137,-2.174],[-2.053,-1.977],[-1.772,-1.71],[-1.457,-1.59],[-1.457,-1.59]]]},"properties":{"abbr":null,"name":"unnamed sealed face","plate":40,"ap_bregma_mm":-5.85,"index":5}},{"type":"Feature","geometry":{"type":"Polygon","coordinates":[[[-2.95,-3.046],[-3.035,-3.749],[-2.957,-4.249],[-2.922,-4.488],[-2.915,-4.643],[-3.07,-3.932],[-3.021,-3.102],[-2.993,-3.131],[-2.95,-3.046],[-2.95,-3.046]]]},"properties":{"abbr":null,"name":"unnamed sealed face","plate":40,"ap_bregma_mm":-5.85,"index":6}},{"type":"Feature","geometry":{"type":"Polygon","coordinates":[[[-3.406,-3.131],[-3.497,-4.164],[-3.504,-4.164],[-3.469,-3.588],[-3.406,-3.131],[-3.406,-3.131]]]},"properties":{"abbr":null,"name":"unnamed sealed face","plate":40,"ap_bregma_mm":-5.85,"index":7}},{"type":"Feature","geometry":{"type":"Polygon","coordinates":[[[6.291,-3.349],[6.396,-3.721],[6.375,-4.2],[6.312,-4.432],[6.115,-4.572],[6.003,-4.572],[5.933,-4.657],[5.814,-5.423],[5.449,-6.345],[5.078,-6.436],[4.923,-6.429],[5.393,-6.338],[5.47,-6.253],[5.512,-6.042],[5.716,-5.613],[5.849,-5.03],[5.863,-4.882],[5.912,-4.678],[5.968,-4.572],[6.178,-4.509],[6.269,-4.375],[6.354,-4.129],[6.326,-3.651],[6.291,-3.349],[6.291,-3.349]]]},"properties":{"abbr":null,"name":"unnamed sealed face","plate":40,"ap_bregma_mm":-5.85,"index":8}},{"type":"Feature","geometry":{"type":"Polygon","coordinates":[[[0.478,-4.826],[0.331,-4.741],[0.107,-4.826],[0.135,-4.734],[0.345,-4.65],[0.478,-4.826],[0.478,-4.826]]]},"properties":{"abbr":null,"name":"unnamed sealed face","plate":40,"ap_bregma_mm":-5.85,"index":9}},{"type":"Feature","geometry":{"type":"Polygon","coordinates":[[[-5.853,-4.692],[-5.755,-5.142],[-5.51,-5.367],[-5.334,-5.691],[-5.44,-5.592],[-5.489,-5.43],[-5.741,-5.234],[-5.804,-5.093],[-5.79,-4.91],[-5.874,-4.769],[-5.853,-4.692],[-5.853,-4.692]]]},"properties":{"abbr":null,"name":"unnamed sealed face","plate":40,"ap_bregma_mm":-5.85,"index":10}},{"type":"Feature","geometry":{"type":"Polygon","coordinates":[[[2.904,-5.1],[2.869,-5.311],[2.715,-5.62],[2.413,-5.944],[2.448,-5.979],[2.315,-6.056],[2.701,-5.564],[2.841,-5.234],[2.904,-5.1],[2.904,-5.1]]]},"properties":{"abbr":null,"name":"unnamed sealed face","plate":40,"ap_bregma_mm":-5.85,"index":11}},{"type":"Feature","geometry":{"type":"Polygon","coordinates":[[[3.71,-5.606],[3.984,-6.19],[4.313,-6.366],[4.089,-6.317],[3.928,-6.19],[3.703,-5.719],[3.654,-5.473],[3.661,-5.332],[3.71,-5.606],[3.71,-5.606]]]},"properties":{"abbr":null,"name":"unnamed sealed face","plate":40,"ap_bregma_mm":-5.85,"index":12}},{"type":"Feature","geometry":{"type":"Polygon","coordinates":[[[0.506,-5.803],[0.59,-6.267],[0.513,-6.267],[0.499,-6.078],[0.401,-5.824],[0.506,-5.803],[0.506,-5.803]]]},"properties":{"abbr":null,"name":"unnamed sealed face","plate":40,"ap_bregma_mm":-5.85,"index":13}},{"type":"Feature","geometry":{"type":"Polygon","coordinates":[[[2.245,-6.141],[2.098,-6.338],[2.112,-6.401],[1.376,-7.168],[1.467,-6.999],[1.831,-6.668],[2.245,-6.141],[2.245,-6.141]]]},"properties":{"abbr":null,"name":"unnamed sealed face","plate":40,"ap_bregma_mm":-5.85,"index":14}},{"type":"Feature","geometry":{"type":"Polygon","coordinates":[[[1.593,-6.295],[1.74,-6.359],[1.439,-6.767],[1.277,-6.753],[0.948,-6.865],[1.123,-6.521],[1.593,-6.295],[1.593,-6.295]]]},"properties":{"abbr":null,"name":"unnamed sealed face","plate":40,"ap_bregma_mm":-5.85,"index":15}},{"type":"Feature","geometry":{"type":"Polygon","coordinates":[[[2.504,-6.788],[2.091,-6.893],[1.362,-7.245],[1.376,-7.175],[1.446,-7.203],[1.544,-7.097],[1.621,-7.118],[2.28,-6.781],[2.504,-6.788],[2.504,-6.788]]]},"properties":{"abbr":null,"name":"unnamed sealed face","plate":40,"ap_bregma_mm":-5.85,"index":16}},{"type":"Feature","geometry":{"type":"Polygon","coordinates":[[[-2.347,-6.858],[-1.625,-7.639],[-1.226,-7.92],[-0.917,-7.927],[-0.489,-7.955],[-0.237,-7.864],[-0.16,-7.498],[0.149,-7.491],[0.247,-7.758],[0.457,-7.899],[0.38,-7.92],[1.088,-7.78],[1.109,-7.794],[0.688,-7.934],[0.366,-7.948],[0.099,-7.794],[-0.104,-7.773],[-0.293,-7.941],[-0.398,-7.948],[-0.398,-8.019],[-0.433,-7.969],[-1.247,-7.969],[-1.415,-7.773],[-1.737,-7.576],[-1.899,-7.344],[-2.333,-6.964],[-2.284,-6.936],[-2.383,-6.879],[-2.347,-6.858],[-2.347,-6.858]]]},"properties":{"abbr":null,"name":"unnamed sealed face","plate":40,"ap_bregma_mm":-5.85,"index":17}},{"type":"Feature","geometry":{"type":"MultiPolygon","coordinates":[[[[0.824,-1.482],[1.263,-1.517],[1.526,-1.605],[1.877,-1.852],[2.193,-2.222],[2.403,-2.275],[2.596,-2.415],[2.877,-2.855],[2.86,-2.961],[3.053,-3.824],[2.965,-4.757],[3.053,-4.986],[3.018,-5.039],[2.912,-5.039],[2.86,-5.303],[2.702,-5.62],[2.403,-5.954],[2.439,-5.972],[2.298,-6.06],[2.088,-6.341],[2.105,-6.394],[1.368,-7.169],[1.439,-7.204],[1.544,-7.098],[1.614,-7.116],[2.281,-6.782],[2.491,-6.764],[2.561,-6.887],[2.088,-7.31],[1.807,-7.45],[1.684,-7.574],[1.228,-7.75],[1.21,-7.82],[1.176,-7.767],[0.684,-7.926],[0.404,-7.943],[0.281,-7.926],[0.088,-7.785],[-0.105,-7.767],[-0.316,-7.943],[-0.403,-7.943],[-0.403,-8.014],[-0.439,-7.961],[-1.246,-7.961],[-1.421,-7.767],[-1.719,-7.591],[-1.912,-7.327],[-2.333,-6.958],[-2.281,-6.94],[-2.386,-6.87],[-2.351,-6.852],[-2.86,-6.394],[-2.825,-6.341],[-2.421,-6.377],[-1.93,-6.764],[-1.86,-6.764],[-1.842,-6.834],[-1.632,-6.905],[-2.404,-5.884],[-2.632,-5.496],[-2.877,-4.81],[-2.982,-4.88],[-2.982,-4.739],[-2.93,-4.739],[-2.912,-4.669],[-3.07,-3.912],[-3.018,-3.102],[-3.0,-3.137],[-2.947,-3.031],[-2.895,-2.732],[-2.842,-2.679],[-2.877,-2.644],[-2.719,-2.398],[-2.526,-2.275],[-2.316,-2.257],[-2.14,-2.169],[-2.053,-1.975],[-1.754,-1.694],[-1.474,-1.588],[-1.105,-1.553],[-1.123,-1.5],[-0.754,-1.588],[-0.316,-1.782],[-0.035,-2.081],[0.158,-1.817],[0.316,-1.764],[0.421,-1.658],[0.807,-1.553],[0.807,-1.5],[0.824,-1.482]]],[[[-2.368,-0.479],[-1.807,-0.496],[-1.421,-0.602],[-1.281,-0.778],[-1.263,-1.042],[-1.368,-1.236],[-1.579,-1.447],[-2.14,-1.834],[-2.14,-1.887],[-2.246,-1.905],[-2.263,-1.993],[-2.298,-1.94],[-2.877,-2.239],[-3.14,-2.574],[-3.211,-2.715],[-3.175,-2.767],[-3.404,-3.031],[-3.474,-4.088],[-3.526,-4.229],[-3.526,-4.669],[-3.386,-5.672],[-3.386,-6.201],[-3.474,-6.306],[-3.579,-6.394],[-4.035,-6.5],[-4.017,-6.57],[-4.07,-6.57],[-4.088,-6.5],[-4.474,-6.465],[-4.702,-6.236],[-5.035,-6.06],[-5.263,-5.796],[-5.316,-5.813],[-5.298,-5.743],[-5.368,-5.725],[-5.333,-5.69],[-5.439,-5.584],[-5.491,-5.426],[-5.737,-5.232],[-5.807,-5.074],[-5.789,-4.915],[-5.877,-4.757],[-5.825,-4.581],[-5.877,-4.422],[-5.947,-4.51],[-5.93,-4.405],[-5.825,-4.37],[-5.825,-4.563],[-5.719,-4.352],[-5.807,-4.264],[-6.088,-4.176],[-6.228,-3.929],[-6.246,-3.014],[-6.018,-2.556],[-5.719,-2.204],[-5.175,-1.729],[-5.193,-1.658],[-5.14,-1.711],[-4.684,-1.324],[-4.105,-1.007],[-3.456,-0.76],[-3.474,-0.725],[-3.404,-0.743],[-2.947,-0.567],[-2.386,-0.496],[-2.368,-0.479]]],[[[1.807,-0.496],[2.386,-0.496],[3.088,-0.602],[3.912,-0.796],[4.263,-0.954],[4.333,-0.936],[4.404,-1.024],[4.807,-1.253],[4.86,-1.236],[4.877,-1.306],[5.263,-1.57],[5.702,-2.046],[6.0,-2.468],[6.14,-2.75],[6.193,-2.996],[6.246,-2.996],[6.228,-3.12],[6.386,-3.718],[6.368,-4.176],[6.298,-4.44],[6.105,-4.563],[6.0,-4.563],[5.93,-4.651],[5.807,-5.408],[5.439,-6.341],[5.175,-6.429],[4.632,-6.447],[4.088,-6.306],[3.93,-6.183],[3.702,-5.708],[3.649,-5.461],[3.649,-4.933],[3.702,-4.722],[3.667,-3.524],[3.474,-2.926],[3.386,-2.82],[3.298,-2.539],[3.228,-2.503],[3.246,-2.451],[2.947,-2.063],[2.474,-1.905],[2.123,-1.729],[2.053,-1.641],[2.017,-1.676],[1.526,-1.236],[1.439,-1.077],[1.509,-0.743],[1.474,-0.708],[1.789,-0.514],[1.807,-0.496]]]]},"properties":{"abbr":"brain_outline","name":"outline of the section","plate":40,"ap_bregma_mm":-5.85}}]}
