{"type":"FeatureCollection","name":"GerbilAtlas plate 48","note":"Region extents cut from the atlas drawing (METHODS.md, Region extents). Coordinates are [ML, DV] in mm, ML positive to the right of the plate as printed, DV negative below the dorsal surface; AP is the plate bregma. traced_fraction is the share of each polygon boundary the atlas actually draws; below 0.5 the boundary is an estimate. no_drawn_outline marks a feature that lies only inside boundaries the atlas draws round more than one name and prints nothing within, so the whole of its outline is where the extraction cut it. Not a segmentation.","plate":48,"ap_bregma_mm":-8.65,"features":[{"type":"Feature","geometry":{"type":"MultiPolygon","coordinates":[[[[1.62,-1.152],[1.62,-1.173],[1.676,-1.223],[1.711,-1.363],[1.767,-1.617],[1.788,-1.638],[1.823,-1.743],[1.83,-1.828],[2.104,-2.622],[1.326,-2.622],[1.298,-2.531],[1.206,-2.348],[1.157,-2.25],[1.136,-2.236],[1.045,-2.088],[0.961,-1.996],[0.898,-1.954],[0.744,-1.905],[0.582,-1.877],[0.309,-1.863],[0.253,-1.842],[0.015,-1.842],[0.0,-1.856],[-0.364,-1.877],[-0.518,-1.919],[-0.589,-1.954],[-0.638,-1.989],[-0.792,-2.158],[-0.939,-2.376],[-0.974,-2.454],[-1.065,-2.601],[-1.156,-2.798],[-1.886,-2.784],[-1.97,-2.7],[-1.591,-1.842],[-1.556,-1.75],[-1.563,-1.722],[-1.521,-1.617],[-1.5,-1.603],[-1.465,-1.525],[-1.381,-1.258],[-1.339,-1.23],[-1.255,-1.181],[-1.156,-1.11],[-1.051,-0.998],[-0.862,-0.899],[-0.715,-0.85],[-0.532,-0.808],[0.0,-0.766],[0.533,-0.78],[1.08,-0.864],[1.235,-0.906],[1.431,-0.998],[1.564,-1.096],[1.606,-1.152],[1.62,-1.152]]]]},"properties":{"abbr":"6Cb","name":"6th cerebellar lobule","plate":48,"ap_bregma_mm":-8.65,"area_mm2":4.6181,"traced_fraction":[0.867],"n_labels":1,"no_drawn_outline":false}},{"type":"Feature","geometry":{"type":"MultiPolygon","coordinates":[[[[2.321,-1.054],[2.314,-1.363],[1.711,-1.363],[1.676,-1.223],[1.718,-1.195],[1.739,-1.152],[1.844,-1.068],[1.992,-1.026],[2.202,-1.026],[2.321,-1.054]]],[[[-2.026,-1.075],[-2.026,-1.427],[-2.292,-1.427],[-2.292,-1.166],[-2.026,-1.075]]]]},"properties":{"abbr":"Sim","name":"simple lobule","plate":48,"ap_bregma_mm":-8.65,"area_mm2":0.2713,"traced_fraction":[0.516,0.299],"n_labels":2,"no_drawn_outline":true}},{"type":"Feature","geometry":{"type":"MultiPolygon","coordinates":[[[[-1.381,-1.216],[-1.381,-1.258],[-1.465,-1.525],[-1.5,-1.603],[-1.514,-1.603],[-1.563,-1.722],[-1.556,-1.75],[-1.591,-1.842],[-1.97,-2.7],[-1.886,-2.784],[-1.156,-2.798],[-1.065,-2.601],[-0.974,-2.454],[-0.659,-2.763],[-0.645,-3.727],[-0.981,-4.057],[-0.981,-4.071],[-1.023,-4.078],[-1.086,-4.121],[-1.093,-4.092],[-1.072,-4.043],[-1.044,-3.917],[-1.044,-3.853],[-1.072,-3.769],[-1.107,-3.741],[-1.17,-3.755],[-1.206,-3.818],[-1.269,-3.867],[-1.451,-3.867],[-1.794,-3.86],[-2.019,-3.902],[-2.152,-3.895],[-2.173,-3.888],[-2.173,-3.79],[-2.222,-3.677],[-2.299,-3.614],[-2.432,-3.607],[-2.468,-3.621],[-2.524,-3.677],[-2.545,-3.741],[-2.65,-3.698],[-2.762,-3.706],[-2.846,-3.734],[-2.923,-3.804],[-2.972,-3.966],[-2.993,-3.98],[-3.043,-4.142],[-3.162,-4.423],[-3.176,-4.571],[-3.204,-4.571],[-3.33,-4.507],[-3.344,-4.486],[-3.393,-4.472],[-3.442,-4.43],[-3.582,-4.43],[-3.645,-4.282],[-3.842,-4.092],[-3.842,-3.312],[-3.996,-3.192],[-4.024,-3.192],[-4.024,-3.178],[-4.045,-3.129],[-4.066,-3.122],[-4.08,-3.087],[-4.143,-3.023],[-4.192,-2.946],[-4.234,-2.847],[-4.269,-2.707],[-4.269,-2.461],[-4.22,-2.207],[-4.157,-2.011],[-4.087,-1.877],[-3.947,-1.722],[-3.905,-1.708],[-3.87,-1.687],[-3.87,-1.673],[-3.779,-1.624],[-3.302,-1.462],[-2.986,-1.392],[-2.888,-1.384],[-2.769,-1.42],[-2.762,-1.434],[-2.734,-1.434],[-2.713,-1.406],[-2.72,-1.399],[-2.629,-1.314],[-2.369,-1.188],[-2.292,-1.166],[-2.292,-1.427],[-2.026,-1.427],[-2.026,-1.075],[-1.935,-1.04],[-1.717,-0.998],[-1.556,-1.005],[-1.493,-1.033],[-1.444,-1.082],[-1.381,-1.216]]],[[[2.321,-1.054],[2.356,-1.054],[2.679,-1.166],[2.77,-1.223],[2.854,-1.314],[2.875,-1.321],[2.868,-1.335],[2.882,-1.349],[2.896,-1.349],[2.903,-1.328],[2.938,-1.314],[3.051,-1.321],[3.485,-1.462],[3.71,-1.553],[3.843,-1.624],[3.871,-1.652],[3.941,-1.68],[4.123,-1.856],[4.179,-1.954],[4.193,-1.954],[4.341,-2.221],[4.397,-2.439],[4.397,-2.693],[4.341,-2.904],[4.284,-3.016],[4.242,-3.072],[4.137,-3.164],[4.095,-3.178],[4.102,-3.199],[4.081,-3.199],[3.983,-3.255],[3.976,-3.276],[3.892,-3.333],[3.892,-3.959],[3.717,-4.127],[3.695,-4.191],[3.653,-4.254],[3.653,-4.324],[3.548,-4.324],[3.499,-4.374],[3.401,-4.416],[3.296,-4.528],[3.226,-4.549],[3.205,-4.458],[3.079,-4.191],[3.015,-3.994],[2.994,-3.98],[2.945,-3.846],[2.861,-3.79],[2.749,-3.79],[2.693,-3.811],[2.63,-3.86],[2.609,-3.86],[2.595,-3.853],[2.595,-3.804],[2.567,-3.706],[2.518,-3.649],[2.496,-3.642],[2.496,-3.628],[2.462,-3.628],[2.419,-3.649],[2.356,-3.734],[2.265,-3.923],[1.648,-3.923],[1.599,-3.945],[1.529,-3.973],[1.466,-3.973],[1.438,-3.959],[1.361,-3.867],[1.284,-3.867],[1.214,-3.917],[1.214,-4.071],[1.199,-4.092],[1.164,-4.099],[1.129,-4.134],[1.08,-4.092],[1.08,-4.05],[0.87,-3.846],[0.835,-3.776],[0.835,-3.319],[0.73,-3.122],[0.73,-2.805],[1.185,-2.348],[1.206,-2.348],[1.298,-2.531],[1.326,-2.622],[2.104,-2.622],[1.83,-1.828],[1.823,-1.743],[1.788,-1.638],[1.767,-1.617],[1.711,-1.363],[2.314,-1.363],[2.321,-1.054]]]]},"properties":{"abbr":"Crus1","name":"crus 1 of the ansiform lobule","plate":48,"ap_bregma_mm":-8.65,"area_mm2":14.9701,"traced_fraction":[0.676,0.648],"n_labels":4,"no_drawn_outline":true}},{"type":"Feature","geometry":{"type":"MultiPolygon","coordinates":[[[[1.206,-2.348],[1.185,-2.348],[0.73,-2.805],[0.288,-2.805],[0.26,-2.784],[0.008,-2.784],[-0.021,-2.763],[-0.659,-2.763],[-0.974,-2.454],[-0.939,-2.376],[-0.792,-2.158],[-0.75,-2.123],[-0.708,-2.06],[-0.589,-1.954],[-0.518,-1.919],[-0.364,-1.877],[0.0,-1.856],[0.015,-1.842],[0.253,-1.842],[0.309,-1.863],[0.582,-1.877],[0.744,-1.905],[0.898,-1.954],[0.961,-1.996],[1.045,-2.088],[1.136,-2.236],[1.157,-2.25],[1.206,-2.348]]]]},"properties":{"abbr":"5Cb","name":"5th cerebellar lobule","plate":48,"ap_bregma_mm":-8.65,"area_mm2":1.6267,"traced_fraction":[0.544],"n_labels":1,"no_drawn_outline":true}},{"type":"Feature","geometry":{"type":"MultiPolygon","coordinates":[[[[-0.659,-2.763],[-0.021,-2.763],[0.008,-2.784],[0.26,-2.784],[0.288,-2.805],[0.73,-2.805],[0.73,-3.122],[0.835,-3.319],[0.835,-3.776],[0.87,-3.846],[1.08,-4.05],[1.08,-4.092],[1.031,-4.071],[0.919,-4.078],[0.772,-4.142],[0.716,-4.184],[0.702,-4.219],[0.638,-4.275],[0.617,-4.317],[0.604,-4.381],[0.61,-4.465],[0.491,-4.458],[0.449,-4.472],[0.4,-4.514],[0.344,-4.479],[0.246,-4.451],[0.246,-4.127],[-0.034,-4.127],[-0.034,-4.444],[-0.175,-4.486],[-0.189,-4.486],[-0.217,-4.451],[-0.273,-4.43],[-0.343,-4.437],[-0.357,-4.437],[-0.399,-4.338],[-0.469,-4.233],[-0.504,-4.205],[-0.504,-4.184],[-0.568,-4.134],[-0.708,-4.078],[-0.785,-4.078],[-0.904,-4.127],[-0.939,-4.085],[-0.981,-4.071],[-0.981,-4.057],[-0.645,-3.727],[-0.659,-2.763]]]]},"properties":{"abbr":"4Cb","name":"4th cerebellar lobule","plate":48,"ap_bregma_mm":-8.65,"area_mm2":2.3305,"traced_fraction":[0.329],"n_labels":1,"no_drawn_outline":true}},{"type":"Feature","geometry":{"type":"MultiPolygon","coordinates":[[[[-2.152,-3.895],[-2.152,-3.931],[-2.187,-3.931],[-2.201,-4.029],[-2.243,-4.106],[-2.313,-4.106],[-2.376,-4.078],[-2.454,-4.008],[-2.496,-3.931],[-2.531,-3.931],[-2.545,-3.741],[-2.524,-3.677],[-2.468,-3.621],[-2.432,-3.607],[-2.299,-3.614],[-2.222,-3.677],[-2.173,-3.79],[-2.173,-3.888],[-2.152,-3.895]]],[[[2.609,-3.86],[2.595,-3.895],[2.602,-3.987],[2.567,-4.015],[2.539,-4.134],[2.49,-4.226],[2.447,-4.254],[2.363,-4.254],[2.3,-4.205],[2.265,-4.121],[2.265,-3.923],[2.342,-3.755],[2.398,-3.691],[2.405,-3.663],[2.462,-3.628],[2.496,-3.628],[2.496,-3.642],[2.518,-3.649],[2.567,-3.706],[2.595,-3.804],[2.595,-3.853],[2.609,-3.86]]]]},"properties":{"abbr":"IntDL","name":"interposed cerebellar nucleus, dorsolateral hump","plate":48,"ap_bregma_mm":-8.65,"area_mm2":0.3012,"traced_fraction":[0.991,0.987],"n_labels":2,"no_drawn_outline":false}},{"type":"Feature","geometry":{"type":"MultiPolygon","coordinates":[[[[-1.072,-4.043],[-1.451,-4.036],[-1.451,-3.867],[-1.269,-3.867],[-1.206,-3.818],[-1.17,-3.755],[-1.107,-3.741],[-1.072,-3.769],[-1.044,-3.853],[-1.044,-3.917],[-1.072,-4.043]]],[[[1.599,-3.945],[1.599,-4.127],[1.298,-4.127],[1.269,-4.142],[1.235,-4.113],[1.214,-4.113],[1.199,-4.092],[1.214,-4.071],[1.214,-3.917],[1.284,-3.867],[1.361,-3.867],[1.396,-3.895],[1.41,-3.931],[1.466,-3.973],[1.529,-3.973],[1.599,-3.945]]]]},"properties":{"abbr":"IntDM","name":"interposed cerebellar nucleus, dorsomedial crest","plate":48,"ap_bregma_mm":-8.65,"area_mm2":0.1657,"traced_fraction":[0.584,0.632],"n_labels":2,"no_drawn_outline":true}},{"type":"Feature","geometry":{"type":"MultiPolygon","coordinates":[[[[-2.545,-3.741],[-2.531,-3.931],[-2.524,-4.247],[-2.496,-4.317],[-2.439,-4.381],[-2.608,-4.486],[-2.671,-4.5],[-2.804,-4.571],[-3.0,-4.627],[-3.056,-4.655],[-3.07,-4.683],[-3.113,-4.669],[-3.155,-4.627],[-3.176,-4.571],[-3.162,-4.423],[-3.043,-4.142],[-2.993,-3.98],[-2.972,-3.966],[-2.923,-3.804],[-2.846,-3.734],[-2.762,-3.706],[-2.65,-3.698],[-2.545,-3.741]]],[[[3.226,-4.549],[3.226,-4.606],[3.205,-4.655],[3.163,-4.697],[3.093,-4.725],[3.029,-4.676],[2.798,-4.571],[2.735,-4.521],[2.686,-4.514],[2.595,-4.472],[2.56,-4.437],[2.602,-4.338],[2.616,-4.261],[2.616,-4.064],[2.602,-3.987],[2.595,-3.895],[2.609,-3.86],[2.63,-3.86],[2.693,-3.811],[2.749,-3.79],[2.861,-3.79],[2.945,-3.846],[2.994,-3.98],[3.015,-3.994],[3.079,-4.191],[3.205,-4.458],[3.226,-4.549]]]]},"properties":{"abbr":"Lat","name":"lateral (dentate) cerebellar nucleus","plate":48,"ap_bregma_mm":-8.65,"area_mm2":0.8402,"traced_fraction":[1.0,0.989],"n_labels":2,"no_drawn_outline":false}},{"type":"Feature","geometry":{"type":"MultiPolygon","coordinates":[[[[-1.451,-3.867],[-1.451,-4.036],[-1.072,-4.043],[-1.093,-4.092],[-1.086,-4.121],[-1.227,-4.303],[-1.332,-4.36],[-1.395,-4.381],[-1.444,-4.381],[-1.521,-4.416],[-1.717,-4.444],[-2.033,-4.444],[-2.194,-4.416],[-2.278,-4.416],[-2.306,-4.43],[-2.376,-4.416],[-2.439,-4.381],[-2.496,-4.317],[-2.524,-4.247],[-2.531,-3.931],[-2.496,-3.931],[-2.454,-4.008],[-2.376,-4.078],[-2.313,-4.106],[-2.243,-4.106],[-2.201,-4.029],[-2.187,-3.931],[-2.152,-3.931],[-2.152,-3.895],[-2.019,-3.902],[-1.794,-3.86],[-1.451,-3.867]]],[[[2.265,-3.923],[2.265,-4.121],[2.3,-4.205],[2.363,-4.254],[2.447,-4.254],[2.49,-4.226],[2.539,-4.134],[2.567,-4.015],[2.602,-3.987],[2.616,-4.064],[2.616,-4.261],[2.602,-4.338],[2.56,-4.437],[2.441,-4.514],[2.153,-4.557],[2.104,-4.535],[1.922,-4.507],[1.823,-4.472],[1.76,-4.465],[1.452,-4.346],[1.382,-4.303],[1.333,-4.254],[1.269,-4.142],[1.298,-4.127],[1.599,-4.127],[1.599,-3.945],[1.648,-3.923],[2.265,-3.923]]]]},"properties":{"abbr":"IntA","name":"interposed cerebellar nucleus, anterior part","plate":48,"ap_bregma_mm":-8.65,"area_mm2":1.1702,"traced_fraction":[0.872,0.875],"n_labels":2,"no_drawn_outline":false}},{"type":"Feature","geometry":{"type":"MultiPolygon","coordinates":[[[[-4.094,-3.178],[-4.024,-3.178],[-4.024,-3.192],[-3.996,-3.192],[-3.842,-3.312],[-3.842,-4.092],[-3.645,-4.282],[-3.582,-4.43],[-4.108,-4.957],[-4.108,-5.189],[-4.192,-5.204],[-4.234,-5.232],[-4.326,-5.26],[-4.34,-5.281],[-4.361,-5.267],[-4.375,-5.232],[-4.564,-5.253],[-4.76,-5.168],[-4.872,-5.091],[-4.893,-5.056],[-4.943,-5.021],[-5.013,-4.873],[-4.999,-4.648],[-4.914,-4.423],[-4.851,-4.346],[-4.795,-4.31],[-4.711,-4.31],[-4.676,-4.331],[-4.641,-4.36],[-4.571,-4.458],[-4.515,-4.557],[-4.473,-4.669],[-4.452,-4.683],[-4.417,-4.669],[-4.41,-4.627],[-4.424,-4.578],[-4.529,-4.43],[-4.529,-4.409],[-4.613,-4.261],[-4.704,-4.134],[-4.774,-3.994],[-4.767,-3.881],[-4.718,-3.776],[-4.676,-3.713],[-4.655,-3.706],[-4.613,-3.628],[-4.312,-3.368],[-4.276,-3.34],[-4.269,-3.347],[-4.269,-3.333],[-4.094,-3.178]]],[[[4.102,-3.199],[4.116,-3.206],[4.221,-3.375],[4.235,-3.396],[4.249,-3.417],[4.263,-3.438],[4.32,-3.53],[4.369,-3.565],[4.362,-3.572],[4.376,-3.586],[4.383,-3.579],[4.397,-3.586],[4.39,-3.593],[4.404,-3.607],[4.411,-3.6],[4.425,-3.607],[4.418,-3.614],[4.432,-3.628],[4.439,-3.621],[4.551,-3.698],[4.628,-3.804],[4.649,-3.811],[4.649,-3.888],[4.684,-3.881],[4.719,-3.825],[4.768,-3.783],[4.817,-3.783],[4.901,-3.825],[5.021,-3.966],[5.063,-4.064],[5.077,-4.142],[5.077,-4.324],[5.056,-4.472],[5.0,-4.669],[4.958,-4.753],[4.887,-4.824],[4.887,-4.838],[4.775,-4.922],[4.502,-5.035],[4.467,-5.042],[4.46,-5.028],[4.425,-5.021],[4.2,-5.014],[4.2,-4.873],[3.653,-4.324],[3.653,-4.254],[3.695,-4.191],[3.717,-4.127],[3.892,-3.959],[3.892,-3.333],[3.976,-3.276],[3.983,-3.255],[4.081,-3.199],[4.102,-3.199]]]]},"properties":{"abbr":"PFl","name":"paraflocculus","plate":48,"ap_bregma_mm":-8.65,"area_mm2":3.327,"traced_fraction":[0.669,0.676],"n_labels":2,"no_drawn_outline":true}},{"type":"Feature","geometry":{"type":"MultiPolygon","coordinates":[[[[1.08,-4.092],[1.129,-4.134],[1.15,-4.191],[1.164,-4.317],[1.143,-4.388],[1.087,-4.479],[0.982,-4.578],[0.856,-4.641],[0.793,-4.648],[0.702,-4.62],[0.646,-4.557],[0.61,-4.465],[0.604,-4.381],[0.617,-4.317],[0.638,-4.275],[0.702,-4.219],[0.716,-4.184],[0.772,-4.142],[0.919,-4.078],[1.031,-4.071],[1.08,-4.092]]],[[[-0.343,-4.437],[-0.371,-4.528],[-0.441,-4.592],[-0.532,-4.613],[-0.757,-4.599],[-0.848,-4.557],[-0.918,-4.479],[-0.96,-4.367],[-0.96,-4.268],[-0.953,-4.226],[-0.925,-4.17],[-0.904,-4.156],[-0.904,-4.127],[-0.813,-4.085],[-0.708,-4.078],[-0.568,-4.134],[-0.504,-4.184],[-0.504,-4.205],[-0.469,-4.233],[-0.399,-4.338],[-0.357,-4.437],[-0.343,-4.437]]]]},"properties":{"abbr":"Med","name":"medial (fastigial) cerebellar nucleus","plate":48,"ap_bregma_mm":-8.65,"area_mm2":0.4829,"traced_fraction":[1.0,1.0],"n_labels":2,"no_drawn_outline":false}},{"type":"Feature","geometry":{"type":"MultiPolygon","coordinates":[[[[-2.439,-4.381],[-2.376,-4.416],[-2.306,-4.43],[-2.306,-4.451],[-2.271,-4.479],[-2.075,-4.535],[-2.145,-4.592],[-2.201,-4.599],[-2.306,-4.641],[-2.468,-4.662],[-2.503,-4.683],[-2.65,-4.711],[-2.671,-4.697],[-2.769,-4.704],[-2.797,-4.718],[-2.79,-4.739],[-2.923,-4.732],[-2.944,-4.753],[-3.0,-4.753],[-3.0,-4.718],[-3.07,-4.683],[-3.056,-4.655],[-3.0,-4.627],[-2.804,-4.571],[-2.671,-4.5],[-2.608,-4.486],[-2.439,-4.381]]],[[[2.56,-4.437],[2.595,-4.472],[2.686,-4.514],[2.735,-4.521],[2.798,-4.571],[3.029,-4.676],[3.093,-4.725],[3.093,-4.753],[3.036,-4.739],[2.763,-4.732],[2.742,-4.711],[2.553,-4.711],[2.475,-4.732],[2.441,-4.711],[2.111,-4.62],[2.097,-4.599],[2.118,-4.571],[2.153,-4.557],[2.441,-4.514],[2.56,-4.437]]]]},"properties":{"abbr":"LatPC","name":"lateral cerebellar nucleus, parvicellular part","plate":48,"ap_bregma_mm":-8.65,"area_mm2":0.3138,"traced_fraction":[1.0,0.987],"n_labels":2,"no_drawn_outline":false}},{"type":"Feature","geometry":{"type":"MultiPolygon","coordinates":[[[[-0.96,-4.268],[-0.967,-4.331],[-0.918,-4.479],[-0.848,-4.557],[-0.757,-4.599],[-0.532,-4.613],[-0.441,-4.592],[-0.371,-4.528],[-0.343,-4.437],[-0.273,-4.43],[-0.217,-4.451],[-0.189,-4.486],[-0.175,-4.486],[-0.287,-4.627],[-0.42,-4.725],[-0.469,-4.746],[-0.645,-4.774],[-0.792,-4.824],[-0.939,-4.908],[-1.009,-4.901],[-1.079,-4.929],[-1.178,-5.0],[-1.269,-5.098],[-1.283,-5.098],[-1.304,-5.056],[-1.367,-4.852],[-1.5,-4.535],[-1.255,-4.458],[-1.121,-4.381],[-0.988,-4.268],[-0.96,-4.268]]],[[[1.164,-4.317],[1.214,-4.338],[1.389,-4.472],[1.648,-4.585],[1.55,-4.81],[1.459,-5.098],[1.382,-5.0],[1.305,-4.95],[1.171,-4.894],[1.087,-4.901],[1.066,-4.901],[0.982,-4.838],[0.863,-4.789],[0.659,-4.761],[0.589,-4.732],[0.47,-4.634],[0.4,-4.514],[0.449,-4.472],[0.491,-4.458],[0.61,-4.465],[0.646,-4.557],[0.702,-4.62],[0.793,-4.648],[0.856,-4.641],[0.982,-4.578],[1.087,-4.479],[1.143,-4.388],[1.164,-4.317]]]]},"properties":{"abbr":"VeCb","name":"vestibulocerebellar nucleus","plate":48,"ap_bregma_mm":-8.65,"area_mm2":0.8156,"traced_fraction":[1.0,1.0],"n_labels":2,"no_drawn_outline":false}},{"type":"Feature","geometry":{"type":"MultiPolygon","coordinates":[[[[-2.79,-5.056],[-2.797,-5.098],[-2.867,-5.119],[-2.923,-5.161],[-2.979,-5.175],[-2.993,-5.197],[-3.134,-5.281],[-3.148,-5.204],[-3.204,-5.232],[-3.204,-5.246],[-3.246,-5.281],[-3.316,-5.422],[-3.316,-5.464],[-3.288,-5.485],[-3.288,-5.506],[-3.337,-5.59],[-3.351,-5.59],[-3.407,-5.52],[-3.421,-5.365],[-3.407,-5.365],[-3.379,-5.323],[-3.323,-5.175],[-3.26,-5.091],[-3.253,-5.063],[-3.232,-5.049],[-3.225,-5.021],[-3.134,-4.922],[-3.134,-4.908],[-3.12,-4.908],[-3.12,-4.894],[-3.007,-4.81],[-2.972,-4.796],[-2.867,-4.796],[-2.797,-4.81],[-2.741,-4.845],[-2.734,-4.901],[-2.79,-5.056]]],[[[3.184,-4.957],[3.24,-4.993],[3.24,-5.007],[3.254,-5.007],[3.31,-5.07],[3.303,-5.14],[3.289,-5.154],[3.205,-5.154],[3.205,-5.175],[3.142,-5.147],[3.093,-5.147],[3.051,-5.168],[3.036,-5.204],[2.896,-5.147],[2.847,-5.105],[2.847,-5.091],[2.847,-5.035],[2.833,-5.007],[2.847,-4.972],[3.163,-4.972],[3.184,-4.957]]]]},"properties":{"abbr":"chp","name":"choroid plexus","plate":48,"ap_bregma_mm":-8.65,"area_mm2":0.2877,"traced_fraction":[1.0,0.72],"n_labels":2,"no_drawn_outline":false}},{"type":"Feature","geometry":{"type":"MultiPolygon","coordinates":[[[[-1.5,-4.535],[-1.367,-4.852],[-1.304,-5.056],[-1.283,-5.098],[-1.269,-5.098],[-1.297,-5.211],[-1.318,-5.211],[-1.36,-5.267],[-1.472,-5.499],[-1.549,-5.604],[-1.577,-5.604],[-1.647,-5.64],[-1.724,-5.64],[-1.85,-5.59],[-1.949,-5.527],[-2.012,-5.513],[-2.124,-5.401],[-2.124,-5.274],[-2.012,-5.021],[-1.808,-4.704],[-1.724,-4.613],[-1.703,-4.557],[-1.5,-4.535]]],[[[1.648,-4.585],[1.76,-4.592],[1.88,-4.62],[1.88,-4.634],[1.943,-4.683],[1.943,-4.697],[1.985,-4.718],[1.985,-4.732],[2.048,-4.782],[2.104,-4.866],[2.153,-4.986],[2.181,-5.154],[2.202,-5.168],[2.174,-5.295],[2.09,-5.534],[2.069,-5.541],[1.985,-5.689],[1.907,-5.738],[1.732,-5.759],[1.522,-5.485],[1.48,-5.408],[1.473,-5.365],[1.438,-5.316],[1.459,-5.098],[1.55,-4.81],[1.648,-4.585]]]]},"properties":{"abbr":"LVe","name":"lateral vestibular nucleus","plate":48,"ap_bregma_mm":-8.65,"area_mm2":1.2478,"traced_fraction":[1.0,1.0],"n_labels":2,"no_drawn_outline":false}},{"type":"Feature","geometry":{"type":"MultiPolygon","coordinates":[[[[-0.084,-4.782],[0.169,-4.789],[0.358,-4.838],[0.463,-4.915],[0.498,-4.972],[0.498,-5.042],[0.47,-5.077],[0.4,-5.119],[0.225,-5.161],[0.099,-5.175],[-0.112,-5.161],[-0.301,-5.112],[-0.357,-5.084],[-0.413,-5.021],[-0.42,-4.936],[-0.399,-4.894],[-0.35,-4.852],[-0.287,-4.824],[-0.084,-4.782]]]]},"properties":{"abbr":"1Cb","name":"1st cerebellar lobule (lingula)","plate":48,"ap_bregma_mm":-8.65,"area_mm2":0.2869,"traced_fraction":[1.0],"n_labels":1,"no_drawn_outline":false}},{"type":"Feature","geometry":{"type":"MultiPolygon","coordinates":[[[[3.31,-5.07],[3.373,-5.119],[3.373,-5.133],[3.471,-5.232],[3.499,-5.232],[3.506,-5.379],[3.478,-5.436],[3.457,-5.436],[3.394,-5.344],[3.373,-5.337],[3.373,-5.323],[3.275,-5.225],[3.261,-5.225],[3.261,-5.211],[3.205,-5.175],[3.205,-5.154],[3.289,-5.154],[3.303,-5.14],[3.31,-5.07]]],[[[-2.72,-5.211],[-2.811,-5.239],[-2.818,-5.253],[-2.839,-5.253],[-2.839,-5.267],[-2.916,-5.302],[-2.874,-5.358],[-2.846,-5.365],[-2.923,-5.45],[-2.979,-5.485],[-3.035,-5.415],[-3.056,-5.415],[-3.134,-5.52],[-3.155,-5.569],[-3.148,-5.597],[-3.183,-5.633],[-3.253,-5.668],[-3.302,-5.654],[-3.337,-5.604],[-3.337,-5.59],[-3.288,-5.506],[-3.288,-5.485],[-3.253,-5.457],[-3.204,-5.372],[-3.176,-5.358],[-3.134,-5.281],[-2.993,-5.197],[-2.979,-5.175],[-2.923,-5.161],[-2.895,-5.133],[-2.797,-5.098],[-2.664,-5.091],[-2.643,-5.112],[-2.657,-5.168],[-2.72,-5.211]]]]},"properties":{"abbr":"DCFu","name":"dorsal cochlear nucleus, fusiform layer","plate":48,"ap_bregma_mm":-8.65,"area_mm2":0.1777,"traced_fraction":[0.867,0.937],"n_labels":2,"no_drawn_outline":false}},{"type":"Feature","geometry":{"type":"MultiPolygon","coordinates":[[[[3.653,-4.324],[4.2,-4.873],[4.2,-5.014],[4.425,-5.021],[4.46,-5.028],[4.467,-5.042],[4.46,-5.056],[4.481,-5.084],[4.495,-5.168],[4.481,-5.26],[4.362,-5.471],[4.333,-5.485],[4.327,-5.506],[4.27,-5.527],[4.144,-5.541],[3.955,-5.534],[3.913,-5.506],[3.885,-5.506],[3.871,-5.471],[3.794,-5.386],[3.506,-5.379],[3.499,-5.232],[3.499,-5.182],[3.471,-5.119],[3.359,-4.964],[3.345,-4.964],[3.338,-4.943],[3.324,-4.943],[3.324,-4.929],[3.226,-4.831],[3.093,-4.753],[3.093,-4.725],[3.163,-4.697],[3.205,-4.655],[3.226,-4.606],[3.226,-4.549],[3.296,-4.528],[3.401,-4.416],[3.499,-4.374],[3.548,-4.324],[3.653,-4.324]]],[[[-3.582,-4.43],[-3.442,-4.43],[-3.393,-4.472],[-3.344,-4.486],[-3.33,-4.507],[-3.204,-4.571],[-3.176,-4.571],[-3.155,-4.627],[-3.113,-4.669],[-3.07,-4.683],[-3.007,-4.711],[-3.0,-4.753],[-3.106,-4.774],[-3.26,-4.957],[-3.414,-5.225],[-3.428,-5.267],[-3.421,-5.365],[-3.407,-5.52],[-3.435,-5.619],[-3.435,-5.731],[-3.526,-5.858],[-3.617,-5.879],[-3.631,-5.865],[-3.751,-5.837],[-3.905,-5.752],[-3.954,-5.724],[-3.968,-5.717],[-3.982,-5.71],[-3.996,-5.703],[-4.01,-5.696],[-4.024,-5.689],[-4.227,-5.626],[-4.382,-5.612],[-4.466,-5.569],[-4.508,-5.527],[-4.508,-5.457],[-4.452,-5.401],[-4.319,-5.337],[-4.34,-5.281],[-4.326,-5.26],[-4.234,-5.232],[-4.192,-5.204],[-4.108,-5.189],[-4.108,-4.957],[-3.582,-4.43]]]]},"properties":{"abbr":"Fl","name":"flocculus","plate":48,"ap_bregma_mm":-8.65,"area_mm2":1.986,"traced_fraction":[0.649,0.688],"n_labels":2,"no_drawn_outline":true}},{"type":"Feature","geometry":{"type":"MultiPolygon","coordinates":[[[[1.459,-5.098],[1.438,-5.316],[1.403,-5.358],[1.319,-5.597],[1.248,-5.703],[1.164,-5.787],[1.052,-5.872],[0.982,-5.949],[0.849,-6.055],[0.814,-6.069],[0.772,-6.125],[0.617,-6.146],[0.646,-6.019],[0.631,-5.928],[0.568,-5.865],[0.428,-5.823],[0.463,-5.766],[0.477,-5.626],[0.498,-5.562],[0.582,-5.408],[0.744,-5.239],[1.08,-5.077],[1.115,-5.028],[1.115,-4.964],[1.087,-4.901],[1.171,-4.894],[1.305,-4.95],[1.382,-5.0],[1.459,-5.098]]],[[[-0.939,-4.908],[-0.96,-4.972],[-0.953,-5.0],[-0.911,-5.042],[-0.701,-5.133],[-0.617,-5.189],[-0.497,-5.316],[-0.427,-5.422],[-0.378,-5.527],[-0.35,-5.752],[-0.329,-5.808],[-0.455,-5.865],[-0.532,-5.949],[-0.568,-6.033],[-0.546,-6.153],[-0.631,-6.125],[-0.638,-6.097],[-0.848,-5.907],[-0.862,-5.907],[-1.114,-5.64],[-1.262,-5.401],[-1.297,-5.211],[-1.269,-5.098],[-1.178,-5.0],[-1.079,-4.929],[-1.009,-4.901],[-0.939,-4.908]]]]},"properties":{"abbr":"MVePC","name":"medial vestibular nucleus, parvicellular part","plate":48,"ap_bregma_mm":-8.65,"area_mm2":1.3455,"traced_fraction":[1.0,1.0],"n_labels":2,"no_drawn_outline":false}},{"type":"Feature","geometry":{"type":"MultiPolygon","coordinates":[[[[3.506,-5.379],[3.794,-5.386],[3.871,-5.471],[3.885,-5.506],[3.899,-5.569],[3.744,-5.766],[3.689,-5.794],[3.548,-5.766],[3.506,-5.731],[3.478,-5.675],[3.464,-5.59],[3.478,-5.436],[3.506,-5.379]]]]},"properties":{"abbr":"DCMo","name":"dorsal cochlear nucleus, molecular layer","plate":48,"ap_bregma_mm":-8.65,"area_mm2":0.1401,"traced_fraction":[0.812],"n_labels":2,"no_drawn_outline":false}},{"type":"Feature","geometry":{"type":"MultiPolygon","coordinates":[[[[2.504,-5.028],[2.56,-5.098],[2.693,-5.344],[2.777,-5.675],[2.819,-6.146],[2.812,-6.181],[2.798,-6.181],[2.735,-6.118],[2.721,-6.083],[2.658,-6.012],[2.553,-5.928],[2.363,-5.801],[2.342,-5.773],[2.286,-5.752],[2.258,-5.724],[2.195,-5.71],[2.174,-5.668],[2.125,-5.626],[2.09,-5.534],[2.174,-5.295],[2.202,-5.168],[2.258,-5.077],[2.328,-5.014],[2.441,-5.0],[2.504,-5.028]]],[[[-2.299,-5.021],[-2.243,-5.042],[-2.201,-5.084],[-2.166,-5.147],[-2.138,-5.274],[-2.124,-5.274],[-2.124,-5.401],[-2.138,-5.408],[-2.152,-5.457],[-2.159,-5.548],[-2.285,-5.71],[-2.362,-5.78],[-2.362,-5.794],[-2.573,-5.998],[-2.587,-5.998],[-2.594,-6.019],[-2.783,-6.209],[-2.797,-6.209],[-2.811,-6.209],[-2.811,-6.153],[-2.783,-6.083],[-2.762,-5.963],[-2.748,-5.661],[-2.685,-5.393],[-2.552,-5.175],[-2.46,-5.077],[-2.39,-5.035],[-2.299,-5.021]]]]},"properties":{"abbr":"icp","name":"inferior cerebellar peduncle (restiform body)","plate":48,"ap_bregma_mm":-8.65,"area_mm2":0.9042,"traced_fraction":[1.0,1.0],"n_labels":2,"no_drawn_outline":false}},{"type":"Feature","geometry":{"type":"MultiPolygon","coordinates":[[[[2.693,-5.344],[2.749,-5.344],[2.756,-5.365],[2.77,-5.365],[2.77,-5.379],[2.854,-5.457],[2.98,-5.541],[3.015,-5.548],[3.015,-5.583],[3.072,-5.64],[3.128,-5.675],[3.135,-5.696],[3.149,-5.696],[3.268,-5.816],[3.352,-5.879],[3.394,-5.935],[3.415,-5.998],[3.324,-5.97],[3.247,-5.963],[3.205,-5.956],[3.093,-5.977],[2.994,-6.019],[2.966,-6.055],[2.924,-6.076],[2.861,-6.146],[2.819,-6.146],[2.777,-5.675],[2.693,-5.344]]],[[[-2.685,-5.393],[-2.748,-5.661],[-2.762,-5.963],[-2.783,-6.083],[-2.811,-6.153],[-2.811,-6.209],[-2.797,-6.209],[-2.839,-6.259],[-2.874,-6.364],[-2.902,-6.378],[-2.93,-6.301],[-3.007,-6.167],[-3.043,-6.118],[-3.134,-6.055],[-3.253,-6.019],[-3.309,-6.005],[-3.435,-6.005],[-3.421,-5.956],[-3.379,-5.893],[-3.302,-5.816],[-3.0,-5.59],[-2.832,-5.485],[-2.776,-5.429],[-2.72,-5.393],[-2.685,-5.393]]]]},"properties":{"abbr":"Oca","name":"octopus cell area, ventral cochlear nucleus","plate":48,"ap_bregma_mm":-8.65,"area_mm2":0.5473,"traced_fraction":[1.0,1.0],"n_labels":2,"no_drawn_outline":false}},{"type":"Feature","geometry":{"type":"MultiPolygon","coordinates":[[[[-1.297,-5.211],[-1.262,-5.401],[-1.114,-5.64],[-0.862,-5.907],[-0.694,-6.041],[-0.638,-6.097],[-0.631,-6.125],[-0.694,-6.125],[-0.785,-6.16],[-0.862,-6.252],[-0.876,-6.357],[-0.911,-6.343],[-1.016,-6.237],[-1.114,-6.167],[-1.227,-6.111],[-1.346,-6.076],[-1.612,-6.076],[-1.682,-6.09],[-1.822,-6.146],[-1.837,-6.146],[-1.829,-6.09],[-1.626,-5.78],[-1.57,-5.682],[-1.549,-5.604],[-1.472,-5.499],[-1.36,-5.267],[-1.318,-5.211],[-1.297,-5.211]]],[[[1.438,-5.316],[1.459,-5.337],[1.522,-5.485],[1.732,-5.759],[1.858,-5.949],[1.999,-6.104],[2.027,-6.167],[1.95,-6.167],[1.929,-6.132],[1.873,-6.118],[1.837,-6.097],[1.704,-6.069],[1.494,-6.069],[1.431,-6.083],[1.199,-6.174],[1.038,-6.28],[0.968,-6.35],[0.905,-6.378],[0.905,-6.315],[0.863,-6.195],[0.772,-6.125],[0.814,-6.069],[0.849,-6.055],[0.982,-5.949],[1.052,-5.872],[1.066,-5.872],[1.248,-5.703],[1.319,-5.597],[1.403,-5.358],[1.438,-5.316]]]]},"properties":{"abbr":"MVeMC","name":"medial vestibular nucleus, magnocellular part","plate":48,"ap_bregma_mm":-8.65,"area_mm2":0.9819,"traced_fraction":[1.0,1.0],"n_labels":2,"no_drawn_outline":false}},{"type":"Feature","geometry":{"type":"MultiPolygon","coordinates":[[[[-0.329,-5.808],[-0.168,-5.956],[-0.126,-6.027],[-0.098,-6.132],[-0.056,-6.202],[-0.112,-6.252],[-0.196,-6.28],[-0.308,-6.273],[-0.469,-6.23],[-0.546,-6.153],[-0.568,-6.033],[-0.532,-5.949],[-0.455,-5.865],[-0.329,-5.808]]],[[[0.428,-5.823],[0.568,-5.865],[0.631,-5.928],[0.646,-6.019],[0.617,-6.146],[0.519,-6.244],[0.365,-6.273],[0.26,-6.273],[0.204,-6.252],[0.134,-6.195],[0.134,-6.174],[0.176,-6.125],[0.218,-6.033],[0.295,-5.921],[0.386,-5.837],[0.428,-5.823]]]]},"properties":{"abbr":"Pr","name":"prepositus nucleus","plate":48,"ap_bregma_mm":-8.65,"area_mm2":0.3212,"traced_fraction":[1.0,1.0],"n_labels":2,"no_drawn_outline":false}},{"type":"Feature","geometry":{"type":"MultiPolygon","coordinates":[[[[-0.876,-6.357],[-0.876,-6.371],[-0.918,-6.477],[-0.974,-6.723],[-1.009,-6.716],[-1.135,-6.638],[-1.283,-6.512],[-1.472,-6.385],[-1.619,-6.315],[-1.71,-6.209],[-1.808,-6.174],[-1.822,-6.146],[-1.745,-6.111],[-1.612,-6.076],[-1.346,-6.076],[-1.227,-6.111],[-1.114,-6.167],[-1.016,-6.237],[-0.911,-6.343],[-0.876,-6.357]]],[[[1.873,-6.118],[1.844,-6.188],[1.823,-6.202],[1.781,-6.202],[1.753,-6.237],[1.69,-6.237],[1.592,-6.28],[1.375,-6.434],[1.143,-6.638],[1.115,-6.645],[1.052,-6.709],[0.989,-6.744],[0.968,-6.709],[0.954,-6.575],[0.926,-6.434],[0.905,-6.392],[0.905,-6.378],[0.968,-6.35],[1.038,-6.28],[1.199,-6.174],[1.431,-6.083],[1.494,-6.069],[1.704,-6.069],[1.837,-6.097],[1.873,-6.118]]]]},"properties":{"abbr":"veme","name":"vestibulomesencephalic tract","plate":48,"ap_bregma_mm":-8.65,"area_mm2":0.5698,"traced_fraction":[0.991,0.971],"n_labels":2,"no_drawn_outline":false}},{"type":"Feature","geometry":{"type":"MultiPolygon","coordinates":[[[[-1.837,-6.146],[-1.822,-6.146],[-1.808,-6.174],[-1.71,-6.209],[-1.619,-6.315],[-1.626,-6.413],[-1.647,-6.477],[-1.717,-6.526],[-1.858,-6.554],[-1.871,-6.42],[-1.928,-6.315],[-2.033,-6.216],[-2.033,-6.202],[-1.984,-6.174],[-1.858,-6.16],[-1.837,-6.146]]],[[[1.95,-6.167],[2.027,-6.167],[2.202,-6.209],[2.216,-6.23],[2.167,-6.266],[2.111,-6.28],[2.013,-6.357],[1.978,-6.392],[1.929,-6.484],[1.852,-6.448],[1.774,-6.371],[1.753,-6.322],[1.753,-6.237],[1.781,-6.202],[1.823,-6.202],[1.844,-6.188],[1.95,-6.167]]]]},"properties":{"abbr":"5Sol","name":"trigeminal-solitary transition zone","plate":48,"ap_bregma_mm":-8.65,"area_mm2":0.1793,"traced_fraction":[0.929,0.959],"n_labels":2,"no_drawn_outline":false}},{"type":"Feature","geometry":{"type":"MultiPolygon","coordinates":[[[[3.247,-5.963],[3.324,-5.97],[3.415,-5.998],[3.436,-6.033],[3.45,-6.104],[3.471,-6.125],[3.408,-6.28],[3.163,-6.681],[3.149,-6.716],[3.149,-6.744],[3.163,-6.751],[3.072,-6.821],[3.022,-6.842],[2.98,-6.892],[2.973,-6.884],[2.924,-6.744],[2.924,-6.638],[2.966,-6.448],[2.833,-6.441],[2.833,-6.357],[2.861,-6.322],[2.882,-6.244],[2.812,-6.237],[2.812,-6.181],[2.819,-6.146],[2.861,-6.146],[2.924,-6.076],[2.966,-6.055],[3.247,-6.055],[3.247,-5.963]]],[[[-3.435,-6.005],[-3.309,-6.005],[-3.253,-6.019],[-3.253,-6.167],[-3.007,-6.167],[-2.972,-6.216],[-2.902,-6.378],[-2.888,-6.526],[-2.874,-6.575],[-2.853,-6.596],[-2.86,-6.667],[-2.93,-6.667],[-2.923,-6.744],[-2.902,-6.8],[-2.909,-6.892],[-3.049,-6.821],[-3.239,-6.765],[-3.253,-6.695],[-3.393,-6.406],[-3.435,-6.252],[-3.463,-6.195],[-3.463,-6.09],[-3.435,-6.005]]]]},"properties":{"abbr":"Gca","name":"globular cell area, ventral cochlear nucleus","plate":48,"ap_bregma_mm":-8.65,"area_mm2":0.6468,"traced_fraction":[0.851,0.863],"n_labels":2,"no_drawn_outline":false}},{"type":"Feature","geometry":{"type":"MultiPolygon","coordinates":[[[[2.49,-6.104],[2.532,-6.153],[2.56,-6.16],[2.658,-6.244],[2.728,-6.35],[2.791,-6.491],[2.819,-6.505],[2.819,-6.695],[2.791,-6.793],[2.602,-7.131],[2.581,-7.145],[2.496,-7.285],[2.433,-7.349],[2.342,-7.342],[2.314,-7.328],[2.279,-7.278],[2.328,-7.236],[2.405,-7.082],[2.483,-6.983],[2.553,-6.849],[2.574,-6.758],[2.56,-6.667],[2.49,-6.554],[2.475,-6.498],[2.377,-6.385],[2.377,-6.364],[2.286,-6.273],[2.216,-6.23],[2.202,-6.209],[2.188,-6.146],[2.195,-6.104],[2.265,-6.055],[2.37,-6.055],[2.49,-6.104]]],[[[-2.173,-6.244],[-2.313,-6.35],[-2.334,-6.371],[-2.334,-6.406],[-2.348,-6.413],[-2.369,-6.413],[-2.39,-6.434],[-2.39,-6.448],[-2.468,-6.526],[-2.482,-6.561],[-2.566,-6.667],[-2.573,-6.772],[-2.545,-6.863],[-2.517,-6.906],[-2.517,-6.934],[-2.503,-6.941],[-2.432,-7.103],[-2.348,-7.215],[-2.306,-7.299],[-2.327,-7.398],[-2.383,-7.44],[-2.46,-7.461],[-2.566,-7.299],[-2.643,-7.138],[-2.783,-6.976],[-2.832,-6.856],[-2.86,-6.667],[-2.853,-6.596],[-2.825,-6.568],[-2.804,-6.512],[-2.734,-6.406],[-2.664,-6.315],[-2.608,-6.266],[-2.608,-6.252],[-2.503,-6.153],[-2.362,-6.069],[-2.25,-6.062],[-2.208,-6.076],[-2.166,-6.125],[-2.173,-6.244]]]]},"properties":{"abbr":"sp5","name":"spinal trigeminal tract","plate":48,"ap_bregma_mm":-8.65,"area_mm2":0.7586,"traced_fraction":[1.0,1.0],"n_labels":2,"no_drawn_outline":false}},{"type":"Feature","geometry":{"type":"MultiPolygon","coordinates":[[[[-2.033,-6.202],[-2.033,-6.216],[-1.928,-6.315],[-1.9,-6.364],[-1.871,-6.42],[-1.858,-6.554],[-1.97,-6.582],[-2.026,-6.624],[-2.138,-6.561],[-2.482,-6.561],[-2.468,-6.526],[-2.39,-6.448],[-2.39,-6.434],[-2.369,-6.413],[-2.348,-6.413],[-2.32,-6.42],[-2.334,-6.406],[-2.334,-6.371],[-2.173,-6.244],[-2.033,-6.202]]],[[[2.216,-6.23],[2.286,-6.273],[2.377,-6.364],[2.377,-6.385],[2.349,-6.399],[2.321,-6.463],[2.265,-6.505],[2.244,-6.54],[2.062,-6.617],[1.999,-6.554],[1.985,-6.554],[1.929,-6.484],[1.964,-6.413],[2.013,-6.357],[2.111,-6.28],[2.167,-6.266],[2.216,-6.23]]]]},"properties":{"abbr":"DMSp5","name":"dorsomedial spinal trigeminal nucleus","plate":48,"ap_bregma_mm":-8.65,"area_mm2":0.2523,"traced_fraction":[0.789,1.0],"n_labels":2,"no_drawn_outline":false}},{"type":"Feature","geometry":{"type":"MultiPolygon","coordinates":[[[[-2.012,-5.513],[-1.949,-5.527],[-1.85,-5.59],[-1.858,-5.675],[-1.907,-5.738],[-2.11,-5.844],[-2.131,-5.872],[-2.166,-5.886],[-2.334,-6.019],[-2.362,-6.048],[-2.362,-6.069],[-2.503,-6.153],[-2.608,-6.252],[-2.608,-6.266],[-2.664,-6.315],[-2.734,-6.406],[-2.804,-6.512],[-2.825,-6.568],[-2.853,-6.596],[-2.867,-6.589],[-2.888,-6.526],[-2.902,-6.378],[-2.874,-6.364],[-2.839,-6.259],[-2.797,-6.209],[-2.783,-6.209],[-2.594,-6.019],[-2.587,-5.998],[-2.573,-5.998],[-2.362,-5.794],[-2.362,-5.78],[-2.285,-5.71],[-2.159,-5.548],[-2.082,-5.52],[-2.012,-5.513]]],[[[2.195,-5.71],[2.258,-5.724],[2.286,-5.752],[2.342,-5.773],[2.363,-5.801],[2.553,-5.928],[2.658,-6.012],[2.721,-6.083],[2.735,-6.118],[2.798,-6.181],[2.812,-6.181],[2.812,-6.237],[2.812,-6.35],[2.833,-6.357],[2.833,-6.441],[2.819,-6.505],[2.791,-6.491],[2.728,-6.35],[2.658,-6.244],[2.56,-6.16],[2.532,-6.153],[2.49,-6.104],[2.504,-6.076],[2.504,-5.977],[2.483,-5.942],[2.384,-5.879],[2.272,-5.844],[2.209,-5.787],[2.202,-5.752],[2.195,-5.71]]],[[[3.506,-6.09],[3.513,-6.111],[3.499,-6.111],[3.506,-6.09]]],[[[3.471,-6.125],[3.513,-6.125],[3.548,-6.273],[3.548,-6.378],[3.541,-6.477],[3.485,-6.617],[3.408,-6.688],[3.359,-6.702],[3.352,-6.716],[3.163,-6.751],[3.149,-6.744],[3.163,-6.681],[3.408,-6.28],[3.471,-6.125]]],[[[-3.463,-6.195],[-3.442,-6.23],[-3.393,-6.406],[-3.253,-6.695],[-3.239,-6.765],[-3.33,-6.744],[-3.428,-6.688],[-3.526,-6.568],[-3.568,-6.413],[-3.561,-6.223],[-3.505,-6.223],[-3.463,-6.195]]]]},"properties":{"abbr":"8n","name":"vestibulocochlear nerve","plate":48,"ap_bregma_mm":-8.65,"area_mm2":0.5805,"traced_fraction":[1.0,1.0,1.0,1.0,1.0],"n_labels":4,"no_drawn_outline":false}},{"type":"Feature","geometry":{"type":"MultiPolygon","coordinates":[[[[-0.876,-6.371],[-0.778,-6.477],[-0.722,-6.505],[-0.595,-6.505],[-0.525,-6.463],[-0.497,-6.463],[-0.553,-6.638],[-0.631,-6.737],[-0.736,-6.842],[-0.778,-6.863],[-0.904,-6.863],[-0.932,-6.849],[-0.981,-6.786],[-0.974,-6.723],[-0.918,-6.477],[-0.876,-6.371]]],[[[0.905,-6.392],[0.926,-6.434],[0.968,-6.709],[0.989,-6.744],[0.982,-6.821],[0.919,-6.884],[0.814,-6.892],[0.688,-6.779],[0.596,-6.659],[0.533,-6.498],[0.533,-6.456],[0.561,-6.456],[0.653,-6.505],[0.744,-6.505],[0.814,-6.477],[0.891,-6.392],[0.905,-6.392]]]]},"properties":{"abbr":"asc7","name":"ascending fibers of the facial nerve","plate":48,"ap_bregma_mm":-8.65,"area_mm2":0.2757,"traced_fraction":[1.0,1.0],"n_labels":2,"no_drawn_outline":false}},{"type":"Feature","geometry":{"type":"MultiPolygon","coordinates":[[[[-0.469,-6.23],[-0.308,-6.273],[-0.196,-6.28],[-0.175,-6.484],[-0.161,-6.498],[-0.147,-6.589],[-0.105,-6.695],[-0.21,-6.744],[-0.28,-6.751],[-0.406,-6.751],[-0.504,-6.702],[-0.553,-6.638],[-0.497,-6.463],[-0.462,-6.357],[-0.476,-6.266],[-0.469,-6.23]]],[[[0.519,-6.244],[0.505,-6.364],[0.533,-6.456],[0.533,-6.498],[0.596,-6.659],[0.526,-6.716],[0.449,-6.751],[0.323,-6.751],[0.218,-6.73],[0.134,-6.695],[0.197,-6.54],[0.239,-6.322],[0.26,-6.273],[0.365,-6.273],[0.519,-6.244]]]]},"properties":{"abbr":"DPGi","name":"dorsal paragigantocellular nucleus","plate":48,"ap_bregma_mm":-8.65,"area_mm2":0.325,"traced_fraction":[1.0,1.0],"n_labels":2,"no_drawn_outline":false}},{"type":"Feature","geometry":{"type":"MultiPolygon","coordinates":[[[[1.753,-6.237],[1.753,-6.322],[1.774,-6.371],[1.852,-6.448],[1.929,-6.484],[1.929,-6.498],[2.062,-6.617],[2.104,-6.723],[2.104,-6.863],[2.139,-7.103],[2.167,-7.173],[2.209,-7.222],[2.006,-7.243],[1.915,-7.194],[1.816,-7.173],[1.641,-7.173],[1.543,-7.18],[1.536,-7.145],[1.403,-7.011],[1.347,-6.92],[1.263,-6.828],[1.263,-6.765],[1.242,-6.765],[1.185,-6.709],[1.143,-6.638],[1.375,-6.434],[1.592,-6.28],[1.69,-6.237],[1.753,-6.237]]],[[[-1.619,-6.315],[-1.472,-6.385],[-1.283,-6.512],[-1.135,-6.638],[-1.255,-6.779],[-1.276,-6.821],[-1.318,-6.856],[-1.339,-6.899],[-1.521,-7.088],[-1.577,-7.166],[-1.647,-7.159],[-1.801,-7.145],[-1.914,-7.166],[-2.012,-7.208],[-2.082,-7.271],[-2.18,-7.264],[-2.131,-7.117],[-2.103,-6.793],[-2.075,-6.709],[-2.026,-6.624],[-1.97,-6.582],[-1.858,-6.554],[-1.759,-6.54],[-1.675,-6.505],[-1.633,-6.448],[-1.619,-6.315]]]]},"properties":{"abbr":"PCRt","name":"parvicellular reticular nucleus","plate":48,"ap_bregma_mm":-8.65,"area_mm2":1.1634,"traced_fraction":[0.904,0.979],"n_labels":2,"no_drawn_outline":false}},{"type":"Feature","geometry":{"type":"MultiPolygon","coordinates":[[[[2.377,-6.385],[2.475,-6.498],[2.49,-6.554],[2.56,-6.667],[2.574,-6.758],[2.553,-6.849],[2.483,-6.983],[2.405,-7.082],[2.328,-7.236],[2.279,-7.278],[2.209,-7.222],[2.167,-7.173],[2.139,-7.103],[2.104,-6.863],[2.104,-6.723],[2.062,-6.617],[2.244,-6.54],[2.265,-6.505],[2.321,-6.463],[2.349,-6.399],[2.377,-6.385]]],[[[-2.482,-6.561],[-2.138,-6.561],[-2.026,-6.624],[-2.075,-6.709],[-2.103,-6.793],[-2.131,-7.117],[-2.18,-7.264],[-2.222,-7.292],[-2.306,-7.299],[-2.348,-7.215],[-2.432,-7.103],[-2.496,-6.955],[-2.517,-6.934],[-2.517,-6.906],[-2.545,-6.863],[-2.573,-6.772],[-2.566,-6.667],[-2.482,-6.561]]]]},"properties":{"abbr":"Sp5O","name":"spinal trigeminal nucleus, oral part","plate":48,"ap_bregma_mm":-8.65,"area_mm2":0.5431,"traced_fraction":[1.0,0.865],"n_labels":2,"no_drawn_outline":false}},{"type":"Feature","geometry":{"type":"MultiPolygon","coordinates":[[[[-1.135,-6.638],[-1.009,-6.716],[-0.974,-6.723],[-0.981,-6.786],[-1.023,-6.807],[-1.037,-6.849],[-1.191,-7.082],[-1.353,-7.264],[-1.416,-7.25],[-1.577,-7.166],[-1.521,-7.088],[-1.339,-6.899],[-1.318,-6.856],[-1.276,-6.821],[-1.255,-6.779],[-1.135,-6.638]]],[[[1.143,-6.638],[1.185,-6.709],[1.242,-6.765],[1.263,-6.765],[1.263,-6.828],[1.347,-6.92],[1.403,-7.011],[1.536,-7.145],[1.543,-7.18],[1.522,-7.194],[1.382,-7.236],[1.326,-7.271],[1.298,-7.257],[1.263,-7.18],[1.136,-7.004],[1.087,-6.913],[1.066,-6.899],[1.059,-6.87],[0.982,-6.821],[0.989,-6.744],[1.052,-6.709],[1.115,-6.645],[1.143,-6.638]]]]},"properties":{"abbr":"IRt","name":"intermediate reticular nucleus","plate":48,"ap_bregma_mm":-8.65,"area_mm2":0.2945,"traced_fraction":[0.982,0.878],"n_labels":2,"no_drawn_outline":false}},{"type":"Feature","geometry":{"type":"MultiPolygon","coordinates":[[[[-0.406,-6.751],[-0.28,-6.751],[-0.28,-7.082],[-0.406,-7.082],[-0.406,-6.751]]],[[[0.323,-6.751],[0.449,-6.751],[0.449,-7.088],[0.323,-7.088],[0.323,-6.751]]]]},"properties":{"abbr":"ts","name":"tectospinal tract","plate":48,"ap_bregma_mm":-8.65,"area_mm2":0.0843,"traced_fraction":[0.209,0.206],"n_labels":2,"no_drawn_outline":true}},{"type":"Feature","geometry":{"type":"MultiPolygon","coordinates":[[[[-1.647,-7.159],[-1.647,-7.384],[-2.131,-7.384],[-2.124,-7.342],[-2.082,-7.271],[-2.012,-7.208],[-1.914,-7.166],[-1.801,-7.145],[-1.647,-7.159]]],[[[2.006,-7.243],[2.006,-7.257],[2.048,-7.292],[2.076,-7.377],[1.641,-7.377],[1.641,-7.173],[1.816,-7.173],[1.915,-7.194],[2.006,-7.243]]]]},"properties":{"abbr":"7DL","name":"facial nucleus, dorsolateral subnucleus","plate":48,"ap_bregma_mm":-8.65,"area_mm2":0.1689,"traced_fraction":[0.497,0.503],"n_labels":2,"no_drawn_outline":true}},{"type":"Feature","geometry":{"type":"MultiPolygon","coordinates":[[[[-1.647,-7.159],[-1.577,-7.166],[-1.416,-7.25],[-1.353,-7.264],[-1.353,-7.278],[-1.233,-7.398],[-1.17,-7.482],[-1.1,-7.637],[-1.451,-7.637],[-1.458,-7.904],[-1.542,-7.996],[-1.577,-7.982],[-1.577,-7.968],[-1.577,-7.707],[-1.766,-7.707],[-1.773,-7.722],[-1.78,-7.546],[-2.117,-7.546],[-2.138,-7.51],[-2.131,-7.384],[-1.647,-7.384],[-1.647,-7.159]]],[[[0.786,-8.643],[0.905,-8.727],[0.954,-8.777],[0.982,-8.84],[1.003,-8.847],[0.856,-8.889],[0.695,-8.973],[0.449,-9.023],[0.267,-9.023],[0.211,-9.009],[0.099,-8.952],[0.057,-8.896],[0.015,-8.868],[0.015,-8.861],[0.015,-8.854],[0.021,-8.636],[0.295,-8.594],[0.477,-8.587],[0.625,-8.608],[0.716,-8.643],[0.786,-8.643]]],[[[-0.077,-8.643],[-0.077,-8.854],[-0.154,-8.91],[-0.35,-9.002],[-0.518,-9.037],[-0.715,-9.037],[-1.023,-8.875],[-1.016,-8.847],[-0.946,-8.784],[-0.876,-8.692],[-0.701,-8.629],[-0.539,-8.601],[-0.301,-8.594],[-0.161,-8.622],[-0.119,-8.643],[-0.077,-8.643]]]]},"properties":{"abbr":"py","name":"pyramidal tract","plate":48,"ap_bregma_mm":-8.65,"area_mm2":0.9611,"traced_fraction":[0.339,1.0,1.0],"n_labels":3,"no_drawn_outline":false}},{"type":"Feature","geometry":{"type":"MultiPolygon","coordinates":[[[[0.099,-7.722],[0.008,-7.672],[-0.077,-7.672],[-0.14,-7.7],[-0.14,-7.398],[0.099,-7.398],[0.099,-7.722]]]]},"properties":{"abbr":"RIP","name":"raphe interpositus nucleus","plate":48,"ap_bregma_mm":-8.65,"area_mm2":0.0685,"traced_fraction":[0.294],"n_labels":1,"no_drawn_outline":true}},{"type":"Feature","geometry":{"type":"MultiPolygon","coordinates":[[[[2.209,-7.222],[2.279,-7.278],[2.279,-7.292],[2.342,-7.342],[2.433,-7.349],[2.321,-7.546],[2.223,-7.651],[2.097,-7.651],[2.013,-7.609],[2.076,-7.489],[2.076,-7.377],[2.048,-7.292],[2.006,-7.257],[2.006,-7.243],[2.209,-7.222]]],[[[-2.18,-7.264],[-2.082,-7.271],[-2.124,-7.342],[-2.131,-7.384],[-2.138,-7.51],[-2.117,-7.546],[-2.075,-7.623],[-2.096,-7.644],[-2.341,-7.658],[-2.397,-7.588],[-2.46,-7.461],[-2.383,-7.44],[-2.327,-7.398],[-2.306,-7.299],[-2.222,-7.292],[-2.18,-7.264]]]]},"properties":{"abbr":"rs","name":"rubrospinal tract","plate":48,"ap_bregma_mm":-8.65,"area_mm2":0.2096,"traced_fraction":[0.808,0.816],"n_labels":2,"no_drawn_outline":false}},{"type":"Feature","geometry":{"type":"MultiPolygon","coordinates":[[[[2.833,-6.441],[2.966,-6.448],[2.931,-6.589],[2.924,-6.744],[2.973,-6.884],[2.98,-6.892],[2.819,-7.06],[2.791,-7.117],[2.784,-7.131],[2.672,-7.328],[2.651,-7.335],[2.595,-7.426],[2.447,-7.581],[2.244,-7.862],[1.88,-8.249],[1.704,-8.39],[1.606,-8.488],[1.487,-8.565],[1.459,-8.601],[1.375,-8.65],[1.361,-8.671],[1.059,-8.84],[1.003,-8.847],[0.982,-8.84],[0.954,-8.777],[0.905,-8.727],[0.786,-8.643],[0.716,-8.544],[0.73,-8.53],[0.814,-8.53],[0.898,-8.509],[1.024,-8.439],[1.115,-8.333],[1.157,-8.249],[1.157,-8.221],[1.22,-8.214],[1.291,-8.172],[1.438,-7.982],[1.487,-7.925],[1.571,-7.855],[1.613,-7.848],[1.627,-7.855],[1.627,-7.883],[1.557,-7.954],[1.494,-8.094],[1.417,-8.179],[1.277,-8.27],[1.136,-8.404],[1.031,-8.573],[1.031,-8.622],[1.094,-8.629],[1.136,-8.615],[1.361,-8.467],[1.501,-8.404],[1.564,-8.362],[1.571,-8.34],[1.606,-8.326],[1.641,-8.277],[1.711,-8.221],[1.739,-8.207],[1.907,-8.031],[1.907,-8.017],[2.055,-7.862],[2.076,-7.82],[2.118,-7.785],[2.153,-7.729],[2.181,-7.714],[2.223,-7.651],[2.321,-7.546],[2.433,-7.349],[2.496,-7.285],[2.581,-7.145],[2.602,-7.131],[2.791,-6.793],[2.819,-6.695],[2.819,-6.505],[2.833,-6.441]]],[[[-2.86,-6.667],[-2.832,-6.856],[-2.783,-6.976],[-2.643,-7.138],[-2.566,-7.299],[-2.46,-7.461],[-2.397,-7.588],[-2.341,-7.658],[-2.25,-7.806],[-2.124,-7.947],[-2.124,-7.961],[-2.11,-7.961],[-2.047,-8.024],[-2.012,-8.031],[-2.012,-8.045],[-1.963,-8.08],[-1.914,-8.094],[-1.871,-8.115],[-1.858,-8.136],[-1.745,-8.186],[-1.591,-8.305],[-1.507,-8.34],[-1.584,-8.439],[-1.689,-8.333],[-1.794,-8.263],[-2.138,-8.101],[-2.166,-8.066],[-2.222,-8.038],[-2.327,-7.925],[-2.559,-7.567],[-2.636,-7.405],[-2.65,-7.405],[-2.755,-7.201],[-2.818,-7.018],[-2.874,-6.934],[-2.909,-6.892],[-2.902,-6.8],[-2.923,-6.744],[-2.93,-6.667],[-2.86,-6.667]]]]},"properties":{"abbr":"tz","name":"trapezoid body","plate":48,"ap_bregma_mm":-8.65,"area_mm2":0.8353,"traced_fraction":[0.99,0.984],"n_labels":2,"no_drawn_outline":false}},{"type":"Feature","geometry":{"type":"MultiPolygon","coordinates":[[[[-2.117,-7.546],[-1.78,-7.546],[-1.773,-7.722],[-1.773,-7.736],[-1.837,-7.799],[-1.858,-7.799],[-1.949,-7.743],[-2.075,-7.623],[-2.117,-7.546]]],[[[1.929,-7.658],[1.894,-7.693],[1.746,-7.764],[1.697,-7.778],[1.69,-7.553],[1.915,-7.553],[1.915,-7.63],[1.929,-7.658]]]]},"properties":{"abbr":"7VI","name":"facial nucleus, ventral intermediate subnucleus","plate":48,"ap_bregma_mm":-8.65,"area_mm2":0.0986,"traced_fraction":[0.423,0.387],"n_labels":2,"no_drawn_outline":true}},{"type":"Feature","geometry":{"type":"MultiPolygon","coordinates":[[[[2.013,-7.609],[2.097,-7.651],[2.223,-7.651],[2.181,-7.714],[2.153,-7.729],[2.118,-7.785],[2.076,-7.82],[2.055,-7.862],[1.907,-8.017],[1.907,-8.031],[1.739,-8.207],[1.711,-8.221],[1.697,-8.221],[1.683,-8.193],[1.767,-8.024],[1.858,-7.925],[1.985,-7.841],[2.006,-7.813],[2.006,-7.792],[1.985,-7.771],[1.88,-7.764],[1.76,-7.792],[1.746,-7.764],[1.894,-7.693],[1.929,-7.658],[2.013,-7.609]]],[[[-2.075,-7.623],[-1.949,-7.743],[-1.871,-7.792],[-1.837,-7.799],[-1.837,-7.834],[-1.942,-7.827],[-1.977,-7.848],[-1.977,-7.869],[-1.998,-7.876],[-1.998,-7.904],[-1.984,-7.904],[-1.984,-7.939],[-2.012,-7.982],[-2.012,-8.031],[-2.047,-8.024],[-2.11,-7.961],[-2.124,-7.961],[-2.124,-7.947],[-2.25,-7.806],[-2.341,-7.658],[-2.096,-7.644],[-2.075,-7.623]]]]},"properties":{"abbr":"vsc","name":"ventral spinocerebellar tract","plate":48,"ap_bregma_mm":-8.65,"area_mm2":0.1843,"traced_fraction":[0.93,0.816],"n_labels":2,"no_drawn_outline":false}},{"type":"Feature","geometry":{"type":"MultiPolygon","coordinates":[[[[-1.458,-7.904],[-1.058,-7.904],[-1.058,-7.982],[-1.079,-8.08],[-1.086,-8.115],[-1.156,-8.165],[-1.255,-8.2],[-1.325,-8.2],[-1.339,-8.207],[-1.444,-8.129],[-1.507,-8.066],[-1.514,-8.031],[-1.535,-8.017],[-1.542,-7.996],[-1.458,-7.904]]],[[[0.947,-7.933],[1.382,-7.933],[1.424,-7.982],[1.438,-7.982],[1.291,-8.172],[1.22,-8.214],[1.157,-8.221],[1.045,-8.193],[0.975,-8.129],[0.968,-8.108],[0.94,-7.975],[0.947,-7.933]]]]},"properties":{"abbr":"7VM","name":"facial nucleus, ventromedial subnucleus","plate":48,"ap_bregma_mm":-8.65,"area_mm2":0.2198,"traced_fraction":[0.654,0.648],"n_labels":2,"no_drawn_outline":true}},{"type":"Feature","geometry":{"type":"MultiPolygon","coordinates":[[[[0.968,-8.108],[0.975,-8.129],[0.905,-8.179],[0.716,-8.263],[0.414,-8.319],[0.4,-8.319],[0.372,-8.277],[0.274,-8.031],[0.211,-7.911],[0.211,-7.883],[0.239,-7.869],[0.442,-7.869],[0.519,-7.883],[0.604,-7.911],[0.807,-8.024],[0.87,-8.073],[0.968,-8.108]]],[[[-0.315,-7.89],[-0.35,-7.982],[-0.364,-7.989],[-0.511,-8.277],[-0.82,-8.249],[-0.939,-8.207],[-1.086,-8.115],[-1.079,-8.08],[-1.009,-8.059],[-0.841,-7.968],[-0.631,-7.904],[-0.427,-7.883],[-0.315,-7.89]]]]},"properties":{"abbr":"LPGiA","name":"lateral paragigantocellular nucleus, alpha part","plate":48,"ap_bregma_mm":-8.65,"area_mm2":0.3977,"traced_fraction":[1.0,1.0],"n_labels":2,"no_drawn_outline":false}},{"type":"Feature","geometry":{"type":"MultiPolygon","coordinates":[[[[0.183,-8.39],[0.092,-8.474],[0.029,-8.565],[-0.021,-8.509],[-0.056,-8.523],[-0.07,-8.565],[-0.105,-8.551],[-0.133,-8.495],[-0.196,-8.432],[-0.294,-8.376],[-0.259,-8.277],[-0.168,-8.122],[-0.084,-8.052],[-0.021,-8.052],[0.05,-8.108],[0.106,-8.207],[0.127,-8.221],[0.183,-8.39]]]]},"properties":{"abbr":"RMg","name":"raphe magnus nucleus","plate":48,"ap_bregma_mm":-8.65,"area_mm2":0.151,"traced_fraction":[1.0],"n_labels":1,"no_drawn_outline":false}},{"type":"Feature","geometry":{"type":"MultiPolygon","coordinates":[[[[-1.086,-8.115],[-1.023,-8.165],[-0.82,-8.249],[-0.511,-8.277],[-0.532,-8.369],[-0.743,-8.474],[-0.932,-8.467],[-1.107,-8.411],[-1.149,-8.362],[-1.22,-8.312],[-1.22,-8.27],[-1.233,-8.263],[-1.255,-8.2],[-1.184,-8.179],[-1.086,-8.115]]],[[[0.975,-8.129],[1.045,-8.193],[1.157,-8.221],[1.157,-8.249],[1.115,-8.333],[1.024,-8.439],[0.898,-8.509],[0.814,-8.53],[0.73,-8.53],[0.716,-8.544],[0.533,-8.411],[0.4,-8.347],[0.414,-8.319],[0.716,-8.263],[0.905,-8.179],[0.975,-8.129]]]]},"properties":{"abbr":"LPGiE","name":"lateral paragigantocellular nucleus, external part","plate":48,"ap_bregma_mm":-8.65,"area_mm2":0.3113,"traced_fraction":[1.0,1.0],"n_labels":2,"no_drawn_outline":false}},{"type":"Feature","geometry":{"type":"MultiPolygon","coordinates":[[[[1.746,-7.764],[1.76,-7.792],[1.88,-7.764],[1.985,-7.771],[2.006,-7.792],[2.006,-7.813],[1.985,-7.841],[1.858,-7.925],[1.767,-8.024],[1.683,-8.193],[1.683,-8.207],[1.711,-8.221],[1.697,-8.242],[1.669,-8.249],[1.606,-8.326],[1.571,-8.34],[1.564,-8.362],[1.501,-8.404],[1.361,-8.467],[1.136,-8.615],[1.094,-8.629],[1.031,-8.622],[1.031,-8.573],[1.136,-8.404],[1.242,-8.298],[1.417,-8.179],[1.494,-8.094],[1.557,-7.954],[1.627,-7.883],[1.627,-7.855],[1.613,-7.848],[1.62,-7.82],[1.655,-7.799],[1.697,-7.778],[1.746,-7.764]]],[[[-1.837,-7.834],[-1.682,-7.904],[-1.619,-7.961],[-1.626,-7.975],[-1.57,-8.031],[-1.535,-8.017],[-1.514,-8.031],[-1.507,-8.066],[-1.444,-8.129],[-1.339,-8.207],[-1.339,-8.221],[-1.318,-8.228],[-1.325,-8.2],[-1.255,-8.2],[-1.248,-8.235],[-1.22,-8.27],[-1.22,-8.312],[-1.149,-8.362],[-1.107,-8.411],[-0.932,-8.467],[-0.743,-8.474],[-0.764,-8.53],[-0.848,-8.615],[-0.876,-8.664],[-0.876,-8.692],[-0.946,-8.784],[-1.016,-8.847],[-1.023,-8.875],[-1.227,-8.798],[-1.346,-8.727],[-1.451,-8.622],[-1.521,-8.523],[-1.535,-8.502],[-1.549,-8.488],[-1.584,-8.439],[-1.507,-8.34],[-1.591,-8.305],[-1.745,-8.186],[-1.858,-8.136],[-1.871,-8.115],[-1.858,-8.087],[-1.879,-8.066],[-1.907,-8.066],[-1.914,-8.094],[-1.963,-8.08],[-2.005,-8.052],[-2.012,-8.031],[-2.012,-7.982],[-1.984,-7.939],[-1.984,-7.904],[-1.977,-7.869],[-1.977,-7.848],[-1.942,-7.827],[-1.837,-7.834]]]]},"properties":{"abbr":"CPO","name":"caudal periolivary nucleus","plate":48,"ap_bregma_mm":-8.65,"area_mm2":0.6963,"traced_fraction":[1.0,0.975],"n_labels":2,"no_drawn_outline":false}},{"type":"Feature","geometry":{"type":"MultiPolygon","coordinates":[[[[0.029,-8.565],[0.021,-8.636],[0.015,-8.854],[-0.007,-8.861],[-0.056,-8.854],[-0.077,-8.854],[-0.077,-8.643],[-0.07,-8.565],[-0.042,-8.509],[-0.021,-8.509],[0.029,-8.565]]],[[[-0.007,-8.861],[0.015,-8.861],[0.015,-8.868],[-0.007,-8.861]]]]},"properties":{"abbr":"RPa","name":"raphe pallidus nucleus","plate":48,"ap_bregma_mm":-8.65,"area_mm2":0.0312,"traced_fraction":[1.0,1.0],"n_labels":1,"no_drawn_outline":false}},{"type":"Feature","geometry":{"type":"MultiPolygon","coordinates":[[[[0.246,-4.451],[0.183,-4.437],[-0.034,-4.444],[-0.034,-4.127],[0.246,-4.127],[0.246,-4.451]]]]},"properties":{"abbr":"3Cb","name":"3rd cerebellar lobule","plate":48,"ap_bregma_mm":-8.65,"area_mm2":0.088,"traced_fraction":[0.29],"n_labels":1,"no_drawn_outline":true}},{"type":"Feature","geometry":{"type":"MultiPolygon","coordinates":[[[[-0.981,-4.071],[-0.939,-4.085],[-0.904,-4.127],[-0.904,-4.156],[-0.925,-4.17],[-0.96,-4.268],[-0.988,-4.268],[-1.121,-4.381],[-1.255,-4.458],[-1.5,-4.535],[-1.703,-4.557],[-1.879,-4.557],[-2.075,-4.535],[-2.271,-4.479],[-2.306,-4.451],[-2.306,-4.43],[-2.278,-4.416],[-2.194,-4.416],[-2.033,-4.444],[-1.717,-4.444],[-1.521,-4.416],[-1.444,-4.381],[-1.395,-4.381],[-1.332,-4.36],[-1.227,-4.303],[-1.086,-4.121],[-1.023,-4.078],[-0.981,-4.071]]],[[[1.199,-4.092],[1.214,-4.113],[1.235,-4.113],[1.269,-4.142],[1.333,-4.254],[1.382,-4.303],[1.452,-4.346],[1.76,-4.465],[1.823,-4.472],[1.922,-4.507],[2.104,-4.535],[2.153,-4.557],[2.118,-4.571],[2.097,-4.599],[2.013,-4.592],[1.88,-4.62],[1.76,-4.592],[1.648,-4.585],[1.389,-4.472],[1.214,-4.338],[1.164,-4.317],[1.15,-4.191],[1.129,-4.134],[1.164,-4.099],[1.199,-4.092]]]]},"properties":{"abbr":"scp","name":"superior cerebellar peduncle","plate":48,"ap_bregma_mm":-8.65,"area_mm2":0.3198,"traced_fraction":[1.0,0.994],"n_labels":2,"no_drawn_outline":false}},{"type":"Feature","geometry":{"type":"MultiPolygon","coordinates":[[[[-2.503,-4.683],[-2.496,-4.697],[-2.432,-4.704],[-2.39,-4.725],[-2.32,-4.796],[-2.285,-4.88],[-2.299,-5.021],[-2.39,-5.035],[-2.46,-5.077],[-2.552,-5.175],[-2.685,-5.393],[-2.72,-5.393],[-2.776,-5.429],[-2.832,-5.485],[-3.0,-5.59],[-3.302,-5.816],[-3.379,-5.893],[-3.421,-5.956],[-3.435,-6.005],[-3.463,-6.09],[-3.463,-6.195],[-3.505,-6.223],[-3.561,-6.223],[-3.554,-5.963],[-3.526,-5.9],[-3.526,-5.858],[-3.435,-5.731],[-3.407,-5.717],[-3.372,-5.633],[-3.337,-5.604],[-3.302,-5.654],[-3.253,-5.668],[-3.204,-5.647],[-3.148,-5.597],[-3.049,-5.548],[-2.979,-5.485],[-2.923,-5.45],[-2.846,-5.365],[-2.832,-5.365],[-2.832,-5.351],[-2.811,-5.344],[-2.811,-5.33],[-2.748,-5.274],[-2.72,-5.211],[-2.657,-5.168],[-2.643,-5.112],[-2.664,-5.091],[-2.797,-5.098],[-2.79,-5.056],[-2.734,-5.028],[-2.671,-4.957],[-2.629,-4.838],[-2.629,-4.782],[-2.657,-4.746],[-2.65,-4.711],[-2.503,-4.683]]],[[[2.763,-4.732],[2.742,-4.761],[2.679,-4.796],[2.665,-4.873],[2.686,-4.929],[2.742,-5.007],[2.77,-5.021],[2.805,-5.084],[2.847,-5.091],[2.847,-5.105],[2.896,-5.147],[3.036,-5.204],[3.114,-5.253],[3.212,-5.358],[3.261,-5.457],[3.289,-5.59],[3.38,-5.738],[3.443,-5.879],[3.499,-6.033],[3.436,-6.033],[3.415,-5.998],[3.394,-5.935],[3.352,-5.879],[3.268,-5.816],[3.149,-5.696],[3.135,-5.696],[3.128,-5.675],[3.072,-5.64],[3.015,-5.583],[3.015,-5.548],[3.191,-5.604],[3.184,-5.534],[3.135,-5.436],[3.079,-5.372],[2.952,-5.281],[2.819,-5.225],[2.7,-5.197],[2.7,-5.225],[2.749,-5.344],[2.693,-5.344],[2.581,-5.133],[2.504,-5.028],[2.525,-4.993],[2.518,-4.964],[2.454,-4.894],[2.426,-4.838],[2.433,-4.774],[2.475,-4.732],[2.553,-4.711],[2.742,-4.711],[2.763,-4.732]]]]},"properties":{"abbr":"GrC","name":"granule cell layer of cochlear nuclei","plate":48,"ap_bregma_mm":-8.65,"area_mm2":0.5668,"traced_fraction":[1.0,1.0],"n_labels":3,"no_drawn_outline":false}},{"type":"Feature","geometry":{"type":"MultiPolygon","coordinates":[[[[3.184,-4.957],[3.163,-4.972],[2.847,-4.972],[2.861,-4.936],[2.994,-4.873],[3.051,-4.873],[3.106,-4.894],[3.184,-4.957]]]]},"properties":{"abbr":"LR4V","name":"lateral recess of the 4th ventricle","plate":48,"ap_bregma_mm":-8.65,"area_mm2":0.023,"traced_fraction":[0.642],"n_labels":1,"no_drawn_outline":true}},{"type":"Feature","geometry":{"type":"MultiPolygon","coordinates":[[[[0.246,-4.451],[0.344,-4.479],[0.4,-4.514],[0.47,-4.634],[0.589,-4.732],[0.659,-4.761],[0.863,-4.789],[0.968,-4.831],[1.052,-4.88],[1.066,-4.901],[1.087,-4.901],[1.115,-4.964],[1.115,-5.028],[1.087,-5.07],[0.982,-5.133],[0.877,-5.168],[0.744,-5.239],[0.582,-5.408],[0.498,-5.562],[0.477,-5.626],[0.463,-5.766],[0.428,-5.823],[0.386,-5.837],[0.295,-5.921],[0.218,-6.033],[0.176,-6.125],[0.134,-6.174],[0.134,-6.195],[0.078,-6.237],[0.0,-6.237],[-0.056,-6.202],[-0.098,-6.132],[-0.126,-6.027],[-0.168,-5.956],[-0.329,-5.808],[-0.35,-5.752],[-0.378,-5.527],[-0.427,-5.422],[-0.497,-5.316],[-0.617,-5.189],[-0.701,-5.133],[-0.911,-5.042],[-0.953,-5.0],[-0.96,-4.972],[-0.939,-4.908],[-0.792,-4.824],[-0.645,-4.774],[-0.469,-4.746],[-0.42,-4.725],[-0.287,-4.627],[-0.175,-4.486],[-0.034,-4.444],[0.183,-4.437],[0.246,-4.451]]],[[[-0.084,-4.782],[-0.287,-4.824],[-0.35,-4.852],[-0.399,-4.894],[-0.42,-4.936],[-0.413,-5.021],[-0.357,-5.084],[-0.301,-5.112],[-0.112,-5.161],[0.099,-5.175],[0.225,-5.161],[0.4,-5.119],[0.47,-5.077],[0.498,-5.042],[0.498,-4.972],[0.463,-4.915],[0.358,-4.838],[0.169,-4.789],[-0.084,-4.782]]]]},"properties":{"abbr":"4V","name":"4th ventricle","plate":48,"ap_bregma_mm":-8.65,"area_mm2":1.5169,"traced_fraction":[1.0,1.0],"n_labels":1,"no_drawn_outline":false}},{"type":"Feature","geometry":{"type":"MultiPolygon","coordinates":[[[[2.09,-5.534],[2.125,-5.626],[2.174,-5.668],[2.195,-5.71],[2.202,-5.752],[2.041,-5.752],[1.985,-5.689],[2.069,-5.541],[2.09,-5.534]]]]},"properties":{"abbr":"X","name":"nucleus X","plate":48,"ap_bregma_mm":-8.65,"area_mm2":0.027,"traced_fraction":[0.729],"n_labels":1,"no_drawn_outline":true}},{"type":"Feature","geometry":{"type":"MultiPolygon","coordinates":[[[[-1.85,-5.59],[-1.724,-5.64],[-1.647,-5.64],[-1.577,-5.604],[-1.549,-5.604],[-1.57,-5.682],[-1.626,-5.78],[-1.829,-6.09],[-1.837,-6.146],[-1.858,-6.16],[-1.984,-6.174],[-2.033,-6.202],[-2.173,-6.244],[-2.166,-6.125],[-2.208,-6.076],[-2.25,-6.062],[-2.362,-6.069],[-2.362,-6.048],[-2.334,-6.019],[-2.166,-5.886],[-2.131,-5.872],[-2.11,-5.844],[-1.907,-5.738],[-1.858,-5.675],[-1.85,-5.59]]],[[[1.985,-5.689],[2.041,-5.752],[2.202,-5.752],[2.209,-5.787],[2.272,-5.844],[2.384,-5.879],[2.483,-5.942],[2.504,-5.977],[2.504,-6.076],[2.49,-6.104],[2.37,-6.055],[2.265,-6.055],[2.195,-6.104],[2.188,-6.146],[2.202,-6.209],[2.027,-6.167],[1.999,-6.104],[1.858,-5.949],[1.732,-5.759],[1.907,-5.738],[1.985,-5.689]]]]},"properties":{"abbr":"SpVe","name":"spinal vestibular nucleus","plate":48,"ap_bregma_mm":-8.65,"area_mm2":0.4335,"traced_fraction":[1.0,0.912],"n_labels":2,"no_drawn_outline":false}},{"type":"Feature","geometry":{"type":"MultiPolygon","coordinates":[[[[3.247,-5.963],[3.247,-6.055],[2.966,-6.055],[2.994,-6.019],[3.093,-5.977],[3.205,-5.956],[3.247,-5.963]]],[[[-3.253,-6.019],[-3.134,-6.055],[-3.043,-6.118],[-3.007,-6.167],[-3.253,-6.167],[-3.253,-6.019]]]]},"properties":{"abbr":"VCP","name":"ventral cochlear nucleus, posterior part","plate":48,"ap_bregma_mm":-8.65,"area_mm2":0.0436,"traced_fraction":[0.56,0.52],"n_labels":2,"no_drawn_outline":true}},{"type":"Feature","geometry":{"type":"MultiPolygon","coordinates":[[[[-0.631,-6.125],[-0.546,-6.153],[-0.469,-6.23],[-0.476,-6.266],[-0.462,-6.357],[-0.497,-6.463],[-0.525,-6.463],[-0.595,-6.505],[-0.722,-6.505],[-0.778,-6.477],[-0.876,-6.371],[-0.876,-6.357],[-0.862,-6.252],[-0.785,-6.16],[-0.694,-6.125],[-0.631,-6.125]]],[[[0.772,-6.125],[0.863,-6.195],[0.905,-6.315],[0.905,-6.378],[0.905,-6.392],[0.891,-6.392],[0.814,-6.477],[0.744,-6.505],[0.653,-6.505],[0.561,-6.456],[0.533,-6.456],[0.505,-6.364],[0.519,-6.244],[0.617,-6.146],[0.772,-6.125]]]]},"properties":{"abbr":"g7","name":"genu of the facial nerve","plate":48,"ap_bregma_mm":-8.65,"area_mm2":0.2417,"traced_fraction":[1.0,1.0],"n_labels":2,"no_drawn_outline":false}},{"type":"Feature","geometry":{"type":"MultiPolygon","coordinates":[[[[0.134,-6.195],[0.204,-6.252],[0.26,-6.273],[0.239,-6.322],[0.197,-6.54],[0.134,-6.695],[0.043,-6.758],[-0.028,-6.758],[-0.105,-6.695],[-0.147,-6.589],[-0.161,-6.498],[-0.175,-6.484],[-0.196,-6.28],[-0.112,-6.252],[-0.056,-6.202],[0.0,-6.237],[0.078,-6.237],[0.134,-6.195]]]]},"properties":{"abbr":"mlf","name":"medial longitudinal fasciculus","plate":48,"ap_bregma_mm":-8.65,"area_mm2":0.18,"traced_fraction":[1.0],"n_labels":1,"no_drawn_outline":false}},{"type":"Feature","geometry":{"type":"MultiPolygon","coordinates":[[[[-0.553,-6.638],[-0.504,-6.702],[-0.406,-6.751],[-0.406,-7.082],[-0.28,-7.082],[-0.28,-6.751],[-0.21,-6.744],[-0.105,-6.695],[-0.028,-6.758],[0.064,-6.751],[0.134,-6.695],[0.218,-6.73],[0.323,-6.751],[0.323,-7.088],[0.449,-7.088],[0.449,-6.751],[0.526,-6.716],[0.596,-6.659],[0.688,-6.779],[0.814,-6.892],[0.919,-6.884],[0.982,-6.821],[1.059,-6.87],[1.066,-6.899],[1.087,-6.913],[1.136,-7.004],[1.263,-7.18],[1.298,-7.257],[1.326,-7.271],[1.319,-7.285],[1.298,-7.285],[1.242,-7.349],[1.227,-7.349],[1.171,-7.426],[1.157,-7.426],[1.115,-7.475],[1.017,-7.637],[0.961,-7.799],[0.947,-7.933],[0.94,-7.975],[0.968,-8.108],[0.898,-8.087],[0.702,-7.961],[0.519,-7.883],[0.442,-7.869],[0.239,-7.869],[0.211,-7.883],[0.19,-7.869],[0.169,-7.813],[0.099,-7.722],[0.099,-7.398],[-0.14,-7.398],[-0.14,-7.7],[-0.252,-7.806],[-0.315,-7.89],[-0.427,-7.883],[-0.631,-7.904],[-0.841,-7.968],[-1.009,-8.059],[-1.079,-8.08],[-1.058,-7.982],[-1.058,-7.904],[-1.072,-7.757],[-1.1,-7.637],[-1.17,-7.482],[-1.233,-7.398],[-1.353,-7.278],[-1.353,-7.264],[-1.191,-7.082],[-1.037,-6.849],[-1.023,-6.807],[-0.981,-6.786],[-0.967,-6.814],[-0.904,-6.863],[-0.778,-6.863],[-0.736,-6.842],[-0.553,-6.638]]]]},"properties":{"abbr":"Gi","name":"gigantocellular reticular nucleus","plate":48,"ap_bregma_mm":-8.65,"area_mm2":2.3954,"traced_fraction":[0.749],"n_labels":2,"no_drawn_outline":true}},{"type":"Feature","geometry":{"type":"MultiPolygon","coordinates":[[[[1.522,-7.194],[1.522,-7.391],[1.333,-7.391],[1.319,-7.37],[1.319,-7.285],[1.326,-7.271],[1.382,-7.236],[1.522,-7.194]]],[[[1.655,-7.799],[1.62,-7.82],[1.613,-7.848],[1.571,-7.855],[1.487,-7.925],[1.473,-7.925],[1.466,-7.904],[1.466,-7.7],[1.648,-7.7],[1.655,-7.799]]],[[[-1.577,-7.968],[-1.619,-7.961],[-1.682,-7.904],[-1.837,-7.834],[-1.837,-7.799],[-1.773,-7.736],[-1.773,-7.722],[-1.766,-7.707],[-1.577,-7.707],[-1.577,-7.968]]]]},"properties":{"abbr":"P7","name":"perifacial zone","plate":48,"ap_bregma_mm":-8.65,"area_mm2":0.1105,"traced_fraction":[0.393,0.4,0.43],"n_labels":3,"no_drawn_outline":true}},{"type":"Feature","geometry":{"type":"MultiPolygon","coordinates":[[[[1.641,-7.173],[1.641,-7.377],[2.076,-7.377],[2.076,-7.489],[2.013,-7.609],[1.929,-7.658],[1.915,-7.63],[1.915,-7.553],[1.69,-7.553],[1.697,-7.778],[1.655,-7.799],[1.648,-7.7],[1.466,-7.7],[1.466,-7.904],[1.452,-7.904],[1.389,-7.841],[1.382,-7.63],[1.354,-7.616],[1.171,-7.426],[1.227,-7.349],[1.242,-7.349],[1.298,-7.285],[1.319,-7.285],[1.319,-7.37],[1.333,-7.391],[1.522,-7.391],[1.522,-7.194],[1.543,-7.18],[1.641,-7.173]]]]},"properties":{"abbr":"7DI","name":"facial nucleus, dorsal intermediate subnucleus","plate":48,"ap_bregma_mm":-8.65,"area_mm2":0.253,"traced_fraction":[0.281],"n_labels":1,"no_drawn_outline":true}},{"type":"Feature","geometry":{"type":"MultiPolygon","coordinates":[[[[1.171,-7.426],[1.354,-7.616],[1.382,-7.63],[1.389,-7.841],[1.452,-7.904],[1.466,-7.904],[1.466,-7.918],[1.487,-7.925],[1.438,-7.982],[1.424,-7.982],[1.382,-7.933],[0.947,-7.933],[0.961,-7.799],[1.017,-7.637],[1.115,-7.475],[1.157,-7.426],[1.171,-7.426]]],[[[-1.1,-7.637],[-1.072,-7.757],[-1.058,-7.904],[-1.458,-7.904],[-1.451,-7.637],[-1.1,-7.637]]]]},"properties":{"abbr":"7DM","name":"facial nucleus, dorsomedial subnucleus","plate":48,"ap_bregma_mm":-8.65,"area_mm2":0.271,"traced_fraction":[0.447,0.266],"n_labels":2,"no_drawn_outline":true}},{"type":"Feature","geometry":{"type":"MultiPolygon","coordinates":[[[[0.099,-7.722],[0.169,-7.813],[0.19,-7.869],[0.211,-7.883],[0.211,-7.911],[0.274,-8.031],[0.372,-8.277],[0.386,-8.305],[0.414,-8.319],[0.4,-8.347],[0.295,-8.354],[0.183,-8.39],[0.127,-8.221],[0.106,-8.207],[0.05,-8.108],[-0.021,-8.052],[-0.084,-8.052],[-0.168,-8.122],[-0.231,-8.221],[-0.294,-8.376],[-0.392,-8.347],[-0.532,-8.369],[-0.511,-8.277],[-0.364,-7.989],[-0.35,-7.982],[-0.315,-7.89],[-0.252,-7.806],[-0.14,-7.7],[-0.077,-7.672],[0.008,-7.672],[0.099,-7.722]]]]},"properties":{"abbr":"GiA","name":"gigantocellular reticular nucleus, alpha part","plate":48,"ap_bregma_mm":-8.65,"area_mm2":0.3299,"traced_fraction":[1.0],"n_labels":1,"no_drawn_outline":false}},{"type":"Feature","geometry":{"type":"MultiPolygon","coordinates":[[[[-0.294,-8.376],[-0.196,-8.432],[-0.133,-8.495],[-0.105,-8.551],[-0.07,-8.565],[-0.077,-8.643],[-0.119,-8.643],[-0.161,-8.622],[-0.301,-8.594],[-0.539,-8.601],[-0.701,-8.629],[-0.876,-8.692],[-0.876,-8.664],[-0.848,-8.615],[-0.764,-8.53],[-0.743,-8.474],[-0.532,-8.369],[-0.392,-8.347],[-0.294,-8.376]]],[[[0.4,-8.347],[0.533,-8.411],[0.716,-8.544],[0.786,-8.643],[0.716,-8.643],[0.625,-8.608],[0.477,-8.587],[0.295,-8.594],[0.021,-8.636],[0.029,-8.565],[0.092,-8.474],[0.183,-8.39],[0.295,-8.354],[0.4,-8.347]]]]},"properties":{"abbr":"ml","name":"medial lemniscus","plate":48,"ap_bregma_mm":-8.65,"area_mm2":0.2777,"traced_fraction":[1.0,1.0],"n_labels":2,"no_drawn_outline":false}},{"type":"Feature","geometry":{"type":"Polygon","coordinates":[[[-4.613,-4.261],[-4.599,-4.268],[-4.529,-4.43],[-4.424,-4.578],[-4.41,-4.627],[-4.417,-4.669],[-4.438,-4.683],[-4.473,-4.669],[-4.515,-4.557],[-4.571,-4.458],[-4.599,-4.43],[-4.606,-4.402],[-4.676,-4.331],[-4.613,-4.261]]]},"properties":{"abbr":null,"name":"unnamed sealed face","plate":48,"ap_bregma_mm":-8.65,"index":0}},{"type":"Feature","geometry":{"type":"Polygon","coordinates":[[[-2.075,-4.535],[-1.879,-4.557],[-1.703,-4.557],[-1.724,-4.613],[-1.808,-4.704],[-1.893,-4.845],[-1.942,-4.901],[-1.963,-4.957],[-1.991,-4.986],[-2.054,-5.119],[-2.068,-5.126],[-2.124,-5.274],[-2.138,-5.274],[-2.152,-5.189],[-2.201,-5.084],[-2.243,-5.042],[-2.299,-5.021],[-2.285,-4.88],[-2.32,-4.796],[-2.39,-4.725],[-2.432,-4.704],[-2.496,-4.697],[-2.503,-4.683],[-2.468,-4.662],[-2.306,-4.641],[-2.201,-4.599],[-2.145,-4.592],[-2.075,-4.535]]]},"properties":{"abbr":null,"name":"unnamed sealed face","plate":48,"ap_bregma_mm":-8.65,"index":1}},{"type":"Feature","geometry":{"type":"Polygon","coordinates":[[[2.097,-4.599],[2.111,-4.62],[2.349,-4.683],[2.475,-4.732],[2.433,-4.774],[2.426,-4.838],[2.454,-4.894],[2.518,-4.964],[2.525,-4.993],[2.504,-5.028],[2.441,-5.0],[2.328,-5.014],[2.258,-5.077],[2.202,-5.168],[2.181,-5.154],[2.153,-4.986],[2.104,-4.866],[2.048,-4.782],[1.985,-4.732],[1.985,-4.718],[1.943,-4.697],[1.943,-4.683],[1.929,-4.683],[1.88,-4.62],[2.013,-4.592],[2.097,-4.599]]]},"properties":{"abbr":null,"name":"unnamed sealed face","plate":48,"ap_bregma_mm":-8.65,"index":2}},{"type":"Feature","geometry":{"type":"Polygon","coordinates":[[[-2.79,-4.739],[-2.657,-4.746],[-2.629,-4.782],[-2.629,-4.838],[-2.671,-4.957],[-2.734,-5.028],[-2.79,-5.056],[-2.734,-4.901],[-2.741,-4.845],[-2.797,-4.81],[-2.867,-4.796],[-2.972,-4.796],[-3.007,-4.81],[-3.12,-4.894],[-3.12,-4.908],[-3.134,-4.908],[-3.134,-4.922],[-3.225,-5.021],[-3.232,-5.049],[-3.253,-5.063],[-3.26,-5.091],[-3.323,-5.175],[-3.379,-5.323],[-3.407,-5.365],[-3.421,-5.365],[-3.428,-5.267],[-3.414,-5.225],[-3.26,-4.957],[-3.106,-4.774],[-3.0,-4.753],[-2.944,-4.753],[-2.923,-4.732],[-2.79,-4.739]]]},"properties":{"abbr":null,"name":"unnamed sealed face","plate":48,"ap_bregma_mm":-8.65,"index":3}},{"type":"Feature","geometry":{"type":"Polygon","coordinates":[[[2.763,-4.732],[3.036,-4.739],[3.093,-4.753],[3.226,-4.831],[3.324,-4.929],[3.324,-4.943],[3.359,-4.964],[3.471,-5.119],[3.499,-5.182],[3.499,-5.232],[3.471,-5.232],[3.436,-5.189],[3.422,-5.189],[3.373,-5.119],[3.31,-5.07],[3.254,-5.007],[3.24,-5.007],[3.24,-4.993],[3.184,-4.957],[3.106,-4.894],[3.051,-4.873],[2.994,-4.873],[2.882,-4.922],[2.854,-4.943],[2.847,-4.972],[2.833,-4.993],[2.847,-5.091],[2.805,-5.084],[2.77,-5.021],[2.742,-5.007],[2.686,-4.929],[2.665,-4.873],[2.679,-4.796],[2.742,-4.761],[2.763,-4.732]]]},"properties":{"abbr":null,"name":"unnamed sealed face","plate":48,"ap_bregma_mm":-8.65,"index":4}},{"type":"Feature","geometry":{"type":"Polygon","coordinates":[[[3.205,-5.175],[3.261,-5.211],[3.261,-5.225],[3.275,-5.225],[3.373,-5.323],[3.373,-5.337],[3.394,-5.344],[3.457,-5.436],[3.478,-5.436],[3.478,-5.499],[3.464,-5.534],[3.478,-5.675],[3.506,-5.731],[3.548,-5.766],[3.443,-5.879],[3.38,-5.738],[3.289,-5.59],[3.275,-5.499],[3.212,-5.358],[3.114,-5.253],[3.036,-5.204],[3.036,-5.182],[3.093,-5.147],[3.142,-5.147],[3.205,-5.175]]]},"properties":{"abbr":null,"name":"unnamed sealed face","plate":48,"ap_bregma_mm":-8.65,"index":5}},{"type":"Feature","geometry":{"type":"Polygon","coordinates":[[[3.191,-5.604],[3.015,-5.548],[2.98,-5.541],[2.854,-5.457],[2.77,-5.379],[2.77,-5.365],[2.756,-5.365],[2.749,-5.344],[2.714,-5.267],[2.7,-5.197],[2.735,-5.197],[2.952,-5.281],[3.079,-5.372],[3.135,-5.436],[3.177,-5.513],[3.191,-5.604]]]},"properties":{"abbr":null,"name":"unnamed sealed face","plate":48,"ap_bregma_mm":-8.65,"index":6}},{"type":"Feature","geometry":{"type":"Polygon","coordinates":[[[-3.134,-5.281],[-3.176,-5.358],[-3.204,-5.372],[-3.253,-5.457],[-3.288,-5.485],[-3.316,-5.464],[-3.316,-5.422],[-3.246,-5.281],[-3.162,-5.204],[-3.141,-5.211],[-3.134,-5.281]]]},"properties":{"abbr":null,"name":"unnamed sealed face","plate":48,"ap_bregma_mm":-8.65,"index":7}},{"type":"Feature","geometry":{"type":"MultiPolygon","coordinates":[[[[0.421,-9.016],[0.281,-9.016],[0.211,-9.002],[0.092,-8.938],[0.021,-8.861],[-0.084,-8.847],[-0.175,-8.91],[-0.364,-8.994],[-0.539,-9.03],[-0.715,-9.03],[-1.002,-8.875],[-1.241,-8.784],[-1.353,-8.713],[-1.437,-8.629],[-1.619,-8.397],[-1.717,-8.312],[-1.85,-8.228],[-2.082,-8.129],[-2.229,-8.024],[-2.32,-7.925],[-2.552,-7.567],[-2.741,-7.222],[-2.832,-6.99],[-2.902,-6.892],[-3.064,-6.814],[-3.344,-6.73],[-3.435,-6.674],[-3.484,-6.624],[-3.533,-6.547],[-3.568,-6.392],[-3.554,-5.963],[-3.624,-5.865],[-3.765,-5.823],[-4.073,-5.661],[-4.248,-5.619],[-4.375,-5.604],[-4.466,-5.562],[-4.508,-5.52],[-4.508,-5.457],[-4.459,-5.408],[-4.319,-5.33],[-4.375,-5.225],[-4.543,-5.246],[-4.592,-5.239],[-4.711,-5.189],[-4.844,-5.105],[-4.943,-5.014],[-5.013,-4.859],[-4.999,-4.655],[-4.922,-4.437],[-4.872,-4.367],[-4.823,-4.324],[-4.795,-4.31],[-4.725,-4.31],[-4.683,-4.331],[-4.613,-4.254],[-4.711,-4.113],[-4.774,-3.98],[-4.767,-3.888],[-4.725,-3.79],[-4.606,-3.621],[-4.101,-3.185],[-4.066,-3.108],[-4.178,-2.967],[-4.234,-2.833],[-4.269,-2.686],[-4.269,-2.475],[-4.213,-2.186],[-4.157,-2.017],[-4.087,-1.877],[-3.954,-1.729],[-3.793,-1.631],[-3.295,-1.462],[-2.937,-1.384],[-2.853,-1.392],[-2.783,-1.42],[-2.713,-1.392],[-2.629,-1.314],[-2.362,-1.188],[-1.928,-1.04],[-1.703,-0.998],[-1.57,-1.005],[-1.5,-1.033],[-1.451,-1.082],[-1.395,-1.209],[-1.332,-1.23],[-1.206,-1.145],[-1.058,-1.005],[-0.876,-0.906],[-0.708,-0.85],[-0.518,-0.808],[0.043,-0.766],[0.505,-0.78],[1.066,-0.864],[1.22,-0.906],[1.424,-0.998],[1.564,-1.103],[1.606,-1.152],[1.739,-1.152],[1.844,-1.068],[1.999,-1.026],[2.174,-1.026],[2.342,-1.054],[2.686,-1.173],[2.77,-1.23],[2.854,-1.314],[2.91,-1.328],[2.945,-1.314],[3.036,-1.321],[3.471,-1.462],[3.731,-1.567],[3.941,-1.687],[4.109,-1.849],[4.249,-2.053],[4.333,-2.228],[4.39,-2.454],[4.39,-2.672],[4.333,-2.89],[4.278,-3.009],[4.221,-3.079],[4.137,-3.15],[4.109,-3.206],[4.32,-3.53],[4.551,-3.706],[4.635,-3.811],[4.719,-3.825],[4.768,-3.783],[4.81,-3.783],[4.901,-3.832],[5.014,-3.966],[5.056,-4.071],[5.07,-4.163],[5.07,-4.289],[5.049,-4.458],[4.986,-4.676],[4.95,-4.746],[4.866,-4.845],[4.754,-4.922],[4.495,-5.028],[4.474,-5.091],[4.488,-5.189],[4.467,-5.267],[4.348,-5.471],[4.305,-5.506],[4.249,-5.52],[4.102,-5.534],[3.955,-5.527],[3.885,-5.569],[3.738,-5.759],[3.674,-5.787],[3.548,-5.759],[3.436,-5.879],[3.492,-6.033],[3.541,-6.287],[3.534,-6.463],[3.478,-6.61],[3.401,-6.681],[3.303,-6.723],[3.163,-6.744],[3.015,-6.842],[2.819,-7.053],[2.7,-7.264],[2.609,-7.391],[2.454,-7.567],[2.223,-7.869],[1.894,-8.221],[1.571,-8.502],[1.34,-8.671],[1.066,-8.826],[0.863,-8.882],[0.681,-8.966],[0.428,-9.016],[0.421,-9.016]]]]},"properties":{"abbr":"brain_outline","name":"outline of the section","plate":48,"ap_bregma_mm":-8.65}}]}
