{"type":"FeatureCollection","name":"GerbilAtlas plate 05","note":"Region extents cut from the atlas drawing (METHODS.md, Region extents). Coordinates are [ML, DV] in mm, ML positive to the right of the plate as printed, DV negative below the dorsal surface; AP is the plate bregma. traced_fraction is the share of each polygon boundary the atlas actually draws; below 0.5 the boundary is an estimate. no_drawn_outline marks a feature that lies only inside boundaries the atlas draws round more than one name and prints nothing within, so the whole of its outline is where the extraction cut it. Not a segmentation.","plate":5,"ap_bregma_mm":6.4,"features":[{"type":"Feature","geometry":{"type":"MultiPolygon","coordinates":[[[[-1.066,-4.353],[-0.996,-4.353],[-0.919,-4.388],[-0.828,-4.486],[-0.814,-4.522],[-0.779,-4.543],[-0.772,-4.796],[-0.814,-5.014],[-0.877,-5.14],[-0.975,-5.232],[-1.059,-5.267],[-1.108,-5.267],[-1.192,-5.218],[-1.262,-5.084],[-1.29,-4.972],[-1.298,-4.782],[-1.277,-4.704],[-1.277,-4.634],[-1.234,-4.514],[-1.136,-4.388],[-1.066,-4.353]]],[[[-1.045,-4.451],[-1.094,-4.472],[-1.164,-4.529],[-1.192,-4.578],[-1.234,-4.725],[-1.234,-4.908],[-1.206,-5.007],[-1.157,-5.091],[-1.08,-5.126],[-1.01,-5.119],[-0.905,-5.042],[-0.849,-4.937],[-0.821,-4.782],[-0.821,-4.648],[-0.856,-4.564],[-0.933,-4.486],[-1.045,-4.451]]],[[[1.037,-4.683],[1.128,-4.711],[1.192,-4.789],[1.192,-4.873],[1.149,-4.922],[1.093,-4.929],[1.023,-4.915],[0.939,-4.838],[0.946,-4.761],[1.002,-4.697],[1.037,-4.683]]]]},"properties":{"abbr":"MiA","name":"mitral cell layer of the accessory olfactory bulb","plate":5,"ap_bregma_mm":6.4,"area_mm2":0.2021,"traced_fraction":[1.0,1.0,1.0],"n_labels":2,"no_drawn_outline":false}},{"type":"Feature","geometry":{"type":"MultiPolygon","coordinates":[[[[1.234,-4.444],[1.241,-4.479],[1.297,-4.536],[1.304,-4.564],[1.346,-4.725],[1.353,-4.873],[1.318,-5.007],[1.255,-5.105],[1.192,-5.169],[1.143,-5.197],[1.051,-5.197],[0.995,-5.169],[0.911,-5.063],[0.834,-4.852],[0.806,-4.676],[0.764,-4.62],[0.764,-4.522],[0.841,-4.43],[0.918,-4.395],[1.121,-4.402],[1.234,-4.444]]],[[[1.037,-4.683],[1.002,-4.697],[0.946,-4.761],[0.939,-4.838],[1.023,-4.915],[1.093,-4.929],[1.149,-4.922],[1.192,-4.873],[1.192,-4.789],[1.128,-4.711],[1.037,-4.683]]]]},"properties":{"abbr":"dlo","name":"dorsal lateral olfactory tract","plate":5,"ap_bregma_mm":6.4,"area_mm2":0.3094,"traced_fraction":[1.0,1.0],"n_labels":2,"no_drawn_outline":false}},{"type":"Feature","geometry":{"type":"MultiPolygon","coordinates":[[[[1.206,-3.889],[1.227,-3.938],[1.367,-3.987],[1.486,-4.107],[1.577,-4.114],[1.64,-4.078],[1.745,-4.163],[1.886,-4.325],[1.97,-4.451],[2.026,-4.606],[1.991,-4.62],[1.984,-4.711],[2.075,-4.922],[2.082,-5.035],[2.11,-5.133],[2.103,-5.281],[2.082,-5.344],[2.082,-5.443],[2.019,-5.541],[2.012,-5.633],[1.97,-5.724],[1.935,-5.766],[1.935,-5.9],[1.844,-5.999],[1.816,-6.048],[1.837,-6.125],[1.556,-6.132],[1.493,-5.963],[1.493,-5.921],[1.647,-5.921],[1.647,-5.773],[1.528,-5.766],[1.535,-5.724],[1.563,-5.696],[1.57,-5.661],[1.598,-5.633],[1.598,-5.612],[1.647,-5.548],[1.802,-5.267],[1.83,-5.183],[1.865,-4.958],[1.858,-4.852],[1.816,-4.669],[1.774,-4.543],[1.682,-4.381],[1.556,-4.275],[1.535,-4.275],[1.458,-4.226],[1.325,-4.177],[1.192,-4.107],[1.009,-4.057],[0.862,-4.057],[0.701,-4.114],[0.652,-4.149],[0.539,-4.261],[0.539,-4.275],[0.526,-4.275],[0.49,-4.346],[0.462,-4.557],[0.462,-5.007],[0.497,-5.274],[0.575,-5.562],[0.589,-6.062],[0.575,-6.428],[0.603,-6.533],[0.687,-6.66],[0.701,-6.66],[0.729,-6.709],[0.792,-6.751],[0.792,-6.765],[0.869,-6.814],[1.03,-6.885],[1.156,-6.913],[1.262,-6.913],[1.367,-6.885],[1.486,-6.807],[1.535,-6.85],[1.563,-6.85],[1.479,-7.004],[1.402,-7.06],[1.283,-7.068],[1.177,-7.103],[1.079,-7.075],[1.016,-7.075],[0.974,-7.103],[0.904,-7.103],[0.848,-7.075],[0.785,-7.075],[0.729,-7.046],[0.666,-7.046],[0.631,-7.032],[0.483,-6.878],[0.406,-6.758],[0.385,-6.695],[0.385,-6.589],[0.35,-6.392],[0.35,-6.125],[0.336,-6.041],[0.294,-5.956],[0.294,-5.879],[0.273,-5.788],[0.273,-5.408],[0.231,-5.281],[0.238,-5.176],[0.224,-5.098],[0.238,-5.063],[0.238,-4.922],[0.266,-4.873],[0.301,-4.754],[0.266,-4.479],[0.266,-4.353],[0.308,-4.261],[0.371,-4.198],[0.399,-4.085],[0.518,-3.994],[0.532,-3.924],[0.61,-3.889],[0.764,-3.86],[1.03,-3.86],[1.128,-3.889],[1.206,-3.889]]],[[[1.255,-3.889],[1.276,-3.895],[1.255,-3.903],[1.255,-3.889]]],[[[-0.982,-3.938],[-0.989,-3.952],[-1.017,-3.945],[-0.982,-3.938]]],[[[-0.863,-3.938],[-0.779,-3.938],[-0.694,-3.959],[-0.709,-3.966],[-0.709,-3.987],[-0.688,-4.015],[-0.61,-4.064],[-0.435,-4.121],[-0.295,-4.261],[-0.267,-4.275],[-0.176,-4.275],[-0.162,-4.254],[-0.113,-4.303],[-0.084,-4.374],[-0.113,-4.374],[-0.148,-4.409],[-0.176,-4.493],[-0.19,-4.655],[-0.218,-4.697],[-0.218,-4.768],[-0.197,-4.824],[-0.211,-4.965],[-0.169,-5.098],[-0.169,-5.197],[-0.19,-5.274],[-0.267,-5.394],[-0.267,-5.471],[-0.239,-5.541],[-0.239,-5.619],[-0.274,-5.71],[-0.288,-5.907],[-0.344,-5.999],[-0.379,-6.132],[-0.358,-6.259],[-0.358,-6.371],[-0.393,-6.449],[-0.407,-6.54],[-0.491,-6.624],[-0.477,-6.737],[-0.498,-6.779],[-0.554,-6.85],[-0.617,-6.864],[-0.638,-6.885],[-0.673,-6.962],[-0.701,-6.99],[-0.751,-7.004],[-0.807,-7.053],[-0.947,-7.046],[-0.982,-7.075],[-1.136,-7.082],[-1.22,-7.124],[-1.269,-7.117],[-1.347,-7.032],[-1.508,-7.018],[-1.529,-6.976],[-1.578,-6.948],[-1.641,-6.864],[-1.704,-6.864],[-1.795,-6.737],[-1.809,-6.723],[-1.823,-6.702],[-1.816,-6.695],[-1.83,-6.695],[-1.908,-6.582],[-1.887,-6.561],[-1.887,-6.498],[-1.915,-6.442],[-1.929,-6.343],[-1.985,-6.259],[-2.013,-6.245],[-2.048,-6.252],[-2.104,-5.802],[-2.16,-5.541],[-2.139,-5.091],[-2.111,-4.922],[-2.055,-4.725],[-1.992,-4.592],[-1.929,-4.514],[-1.893,-4.444],[-1.725,-4.261],[-1.522,-4.128],[-1.29,-4.008],[-1.206,-3.98],[-1.206,-4.001],[-1.171,-4.029],[-0.975,-4.114],[-0.891,-4.036],[-0.863,-3.938]]],[[[-1.669,-4.529],[-1.697,-4.529],[-1.774,-4.627],[-1.908,-4.901],[-1.936,-5.035],[-1.936,-5.281],[-1.921,-5.387],[-1.866,-5.52],[-1.823,-5.577],[-1.767,-5.731],[-1.767,-5.752],[-1.788,-5.752],[-1.788,-5.9],[-1.739,-5.9],[-1.725,-5.963],[-1.767,-6.209],[-1.76,-6.484],[-1.746,-6.533],[-1.662,-6.681],[-1.564,-6.772],[-1.459,-6.828],[-1.361,-6.857],[-1.143,-6.857],[-0.989,-6.807],[-0.849,-6.73],[-0.744,-6.632],[-0.688,-6.547],[-0.624,-6.392],[-0.603,-6.146],[-0.603,-5.802],[-0.561,-5.626],[-0.442,-5.302],[-0.386,-4.965],[-0.393,-4.62],[-0.428,-4.465],[-0.47,-4.381],[-0.631,-4.247],[-0.758,-4.177],[-0.912,-4.135],[-0.94,-4.135],[-0.947,-4.17],[-1.101,-4.128],[-1.227,-4.142],[-1.319,-4.17],[-1.417,-4.226],[-1.417,-4.24],[-1.452,-4.254],[-1.522,-4.318],[-1.536,-4.346],[-1.529,-4.374],[-1.557,-4.381],[-1.613,-4.451],[-1.655,-4.472],[-1.669,-4.529]]]]},"properties":{"abbr":"EPl","name":"external plexiform layer of the olfactory bulb","plate":5,"ap_bregma_mm":6.4,"area_mm2":3.3703,"traced_fraction":[0.959,1.0,1.0,1.0,0.981],"n_labels":2,"no_drawn_outline":false}},{"type":"Feature","geometry":{"type":"MultiPolygon","coordinates":[[[[-1.866,-5.162],[-1.837,-5.211],[-1.809,-5.351],[-1.669,-5.626],[-1.592,-5.851],[-1.578,-6.034],[-1.634,-6.181],[-1.669,-6.385],[-1.655,-6.533],[-1.69,-6.505],[-1.711,-6.428],[-1.704,-6.224],[-1.655,-6.027],[-1.662,-5.865],[-1.711,-5.682],[-1.844,-5.401],[-1.879,-5.239],[-1.879,-5.169],[-1.866,-5.162]]],[[[1.668,-5.351],[1.64,-5.429],[1.465,-5.682],[1.416,-5.816],[1.423,-5.963],[1.458,-6.055],[1.472,-6.146],[1.535,-6.294],[1.57,-6.42],[1.556,-6.582],[1.521,-6.646],[1.493,-6.667],[1.479,-6.653],[1.479,-6.624],[1.514,-6.561],[1.514,-6.42],[1.472,-6.28],[1.367,-6.027],[1.353,-5.956],[1.353,-5.78],[1.381,-5.696],[1.458,-5.562],[1.521,-5.499],[1.528,-5.471],[1.591,-5.408],[1.591,-5.394],[1.64,-5.351],[1.668,-5.351]]]]},"properties":{"abbr":"IPl","name":"internal plexiform layer of the olfactory bulb","plate":5,"ap_bregma_mm":6.4,"area_mm2":0.165,"traced_fraction":[1.0,1.0],"n_labels":2,"no_drawn_outline":false}},{"type":"Feature","geometry":{"type":"MultiPolygon","coordinates":[[[[1.837,-6.125],[1.865,-6.181],[1.942,-6.273],[1.935,-6.35],[1.907,-6.413],[1.83,-6.491],[1.795,-6.561],[1.774,-6.646],[1.717,-6.695],[1.654,-6.723],[1.598,-6.821],[1.563,-6.85],[1.535,-6.85],[1.486,-6.807],[1.584,-6.624],[1.633,-6.463],[1.633,-6.406],[1.612,-6.364],[1.556,-6.132],[1.837,-6.125]]],[[[-1.669,-6.385],[-1.522,-6.385],[-1.522,-6.554],[-1.592,-6.589],[-1.641,-6.568],[-1.655,-6.533],[-1.669,-6.385]]]]},"properties":{"abbr":"lo","name":"lateral olfactory tract","plate":5,"ap_bregma_mm":6.4,"area_mm2":0.1914,"traced_fraction":[0.877,0.479],"n_labels":2,"no_drawn_outline":false}},{"type":"Feature","geometry":{"type":"MultiPolygon","coordinates":[[[[0.532,-3.924],[0.518,-3.994],[0.399,-4.085],[0.385,-4.17],[0.294,-4.282],[0.266,-4.353],[0.266,-4.479],[0.301,-4.754],[0.266,-4.873],[0.238,-4.922],[0.238,-5.063],[0.224,-5.098],[0.238,-5.176],[0.231,-5.281],[0.273,-5.408],[0.273,-5.788],[0.294,-5.879],[0.294,-5.956],[0.322,-5.999],[0.35,-6.125],[0.35,-6.392],[0.385,-6.589],[0.385,-6.695],[0.406,-6.758],[0.483,-6.878],[0.631,-7.032],[0.666,-7.046],[0.729,-7.046],[0.785,-7.075],[0.848,-7.075],[0.904,-7.103],[0.974,-7.103],[1.016,-7.075],[1.079,-7.075],[1.177,-7.103],[1.283,-7.068],[1.402,-7.06],[1.479,-7.004],[1.563,-6.85],[1.598,-6.821],[1.654,-6.723],[1.717,-6.695],[1.774,-6.646],[1.795,-6.561],[1.83,-6.491],[1.907,-6.413],[1.935,-6.35],[1.942,-6.273],[1.865,-6.181],[1.837,-6.125],[1.816,-6.048],[1.844,-5.999],[1.935,-5.9],[1.935,-5.766],[1.998,-5.668],[2.019,-5.598],[2.019,-5.541],[2.082,-5.443],[2.082,-5.344],[2.103,-5.281],[2.11,-5.133],[2.082,-5.035],[2.075,-4.922],[1.984,-4.711],[1.991,-4.62],[2.026,-4.606],[2.082,-4.768],[2.25,-5.098],[2.257,-5.394],[2.236,-5.837],[2.201,-6.083],[2.173,-6.188],[2.054,-6.413],[1.921,-6.519],[1.865,-6.603],[1.851,-6.624],[1.774,-6.758],[1.584,-6.962],[1.584,-6.976],[1.416,-7.138],[1.241,-7.257],[1.234,-7.25],[1.234,-7.264],[1.22,-7.272],[1.213,-7.264],[1.192,-7.286],[1.143,-7.279],[1.079,-7.3],[0.995,-7.279],[0.897,-7.279],[0.827,-7.243],[0.687,-7.229],[0.554,-7.11],[0.518,-7.096],[0.448,-7.011],[0.364,-6.969],[0.287,-6.885],[0.266,-6.828],[0.21,-6.765],[0.168,-6.589],[0.182,-6.498],[0.182,-6.343],[0.168,-6.28],[0.119,-6.174],[0.119,-6.104],[0.154,-6.055],[0.154,-6.005],[0.126,-5.977],[0.119,-5.773],[0.105,-5.738],[0.105,-5.626],[0.119,-5.612],[0.112,-5.478],[0.133,-5.429],[0.133,-5.351],[0.063,-5.26],[0.035,-5.183],[-0.0,-5.154],[-0.014,-5.19],[-0.014,-5.513],[-0.021,-5.541],[-0.063,-5.577],[-0.099,-5.71],[-0.106,-5.999],[-0.134,-6.076],[-0.134,-6.153],[-0.169,-6.231],[-0.204,-6.378],[-0.253,-6.491],[-0.246,-6.66],[-0.267,-6.758],[-0.323,-6.828],[-0.323,-6.885],[-0.344,-6.948],[-0.344,-7.053],[-0.421,-7.096],[-0.449,-7.145],[-0.554,-7.173],[-0.603,-7.257],[-0.645,-7.3],[-0.779,-7.307],[-0.8,-7.293],[-0.891,-7.293],[-1.01,-7.335],[-1.143,-7.328],[-1.192,-7.349],[-1.206,-7.377],[-1.269,-7.349],[-1.431,-7.236],[-1.557,-7.124],[-1.613,-7.053],[-1.704,-6.864],[-1.641,-6.864],[-1.599,-6.927],[-1.529,-6.976],[-1.508,-7.018],[-1.347,-7.032],[-1.269,-7.117],[-1.22,-7.124],[-1.136,-7.082],[-0.982,-7.075],[-0.947,-7.046],[-0.807,-7.053],[-0.751,-7.004],[-0.701,-6.99],[-0.673,-6.962],[-0.638,-6.885],[-0.617,-6.864],[-0.554,-6.85],[-0.498,-6.779],[-0.477,-6.737],[-0.491,-6.624],[-0.407,-6.54],[-0.393,-6.449],[-0.358,-6.371],[-0.358,-6.259],[-0.379,-6.132],[-0.344,-5.999],[-0.288,-5.907],[-0.274,-5.71],[-0.239,-5.619],[-0.239,-5.541],[-0.267,-5.471],[-0.267,-5.394],[-0.19,-5.274],[-0.169,-5.197],[-0.169,-5.098],[-0.211,-4.965],[-0.197,-4.824],[-0.218,-4.768],[-0.218,-4.697],[-0.19,-4.655],[-0.176,-4.493],[-0.148,-4.409],[-0.113,-4.374],[-0.084,-4.374],[-0.063,-4.416],[-0.084,-4.416],[-0.092,-4.43],[-0.071,-4.536],[-0.084,-4.578],[-0.084,-4.761],[-0.106,-4.817],[-0.071,-4.887],[-0.071,-4.944],[-0.05,-4.972],[-0.05,-5.035],[-0.029,-5.07],[-0.007,-5.07],[-0.0,-5.105],[0.028,-5.098],[0.112,-4.922],[0.126,-4.845],[0.119,-4.803],[0.077,-4.725],[0.077,-4.648],[0.091,-4.606],[0.084,-4.479],[0.126,-4.332],[0.126,-4.297],[0.112,-4.289],[0.175,-4.198],[0.301,-4.099],[0.315,-4.071],[0.329,-4.071],[0.427,-3.98],[0.532,-3.924]]]]},"properties":{"abbr":"Gl","name":"glomerular layer of the olfactory bulb","plate":5,"ap_bregma_mm":6.4,"area_mm2":1.8841,"traced_fraction":[1.0],"n_labels":4,"no_drawn_outline":false}},{"type":"Feature","geometry":{"type":"MultiPolygon","coordinates":[[[[1.192,-7.286],[1.206,-7.286],[1.086,-7.377],[0.862,-7.49],[0.603,-7.574],[0.406,-7.588],[0.357,-7.574],[0.266,-7.518],[0.154,-7.363],[0.042,-7.053],[-0.007,-6.681],[-0.007,-6.385],[-0.007,-5.858],[-0.035,-5.865],[-0.071,-5.977],[-0.084,-6.181],[-0.078,-6.378],[-0.092,-6.463],[-0.106,-6.906],[-0.148,-7.152],[-0.19,-7.286],[-0.253,-7.405],[-0.351,-7.511],[-0.512,-7.581],[-0.631,-7.588],[-0.744,-7.574],[-0.989,-7.497],[-1.206,-7.377],[-1.192,-7.349],[-1.143,-7.328],[-1.01,-7.335],[-0.891,-7.293],[-0.8,-7.293],[-0.779,-7.307],[-0.645,-7.3],[-0.603,-7.257],[-0.554,-7.173],[-0.449,-7.145],[-0.421,-7.096],[-0.344,-7.053],[-0.344,-6.948],[-0.323,-6.885],[-0.323,-6.828],[-0.267,-6.758],[-0.246,-6.66],[-0.253,-6.491],[-0.204,-6.378],[-0.169,-6.231],[-0.134,-6.153],[-0.134,-6.076],[-0.106,-5.999],[-0.099,-5.71],[-0.063,-5.577],[-0.021,-5.541],[-0.014,-5.513],[-0.014,-5.19],[-0.0,-5.154],[0.035,-5.183],[0.063,-5.26],[0.133,-5.351],[0.133,-5.429],[0.112,-5.478],[0.119,-5.612],[0.105,-5.626],[0.105,-5.738],[0.119,-5.773],[0.126,-5.977],[0.154,-6.005],[0.154,-6.055],[0.119,-6.104],[0.119,-6.174],[0.168,-6.28],[0.182,-6.343],[0.182,-6.498],[0.168,-6.589],[0.21,-6.765],[0.266,-6.828],[0.287,-6.885],[0.364,-6.969],[0.448,-7.011],[0.518,-7.096],[0.554,-7.11],[0.687,-7.229],[0.827,-7.243],[0.897,-7.279],[0.995,-7.279],[1.079,-7.3],[1.143,-7.279],[1.192,-7.286]]]]},"properties":{"abbr":"ON","name":"olfactory nerve layer","plate":5,"ap_bregma_mm":6.4,"area_mm2":1.1398,"traced_fraction":[1.0],"n_labels":2,"no_drawn_outline":false}},{"type":"Feature","geometry":{"type":"MultiPolygon","coordinates":[[[[-1.045,-4.451],[-0.933,-4.486],[-0.856,-4.564],[-0.821,-4.648],[-0.821,-4.782],[-0.849,-4.937],[-0.905,-5.042],[-1.01,-5.119],[-1.08,-5.126],[-1.157,-5.091],[-1.206,-5.007],[-1.234,-4.908],[-1.234,-4.725],[-1.192,-4.578],[-1.164,-4.529],[-1.094,-4.472],[-1.045,-4.451]]]]},"properties":{"abbr":"EPlA","name":"external plexiform layer of the accessory olfactory bulb","plate":5,"ap_bregma_mm":6.4,"area_mm2":0.2208,"traced_fraction":[1.0],"n_labels":1,"no_drawn_outline":false}},{"type":"Feature","geometry":{"type":"MultiPolygon","coordinates":[[[[1.781,-4.845],[1.5,-4.845],[1.486,-4.725],[1.444,-4.606],[1.346,-4.486],[1.29,-4.451],[1.234,-4.444],[1.121,-4.402],[0.918,-4.395],[0.841,-4.43],[0.764,-4.522],[0.764,-4.62],[0.799,-4.655],[0.834,-4.852],[0.911,-5.063],[0.995,-5.169],[1.051,-5.197],[1.143,-5.197],[1.192,-5.169],[1.255,-5.105],[1.318,-5.007],[1.353,-4.873],[1.346,-4.725],[1.304,-4.564],[1.325,-4.564],[1.36,-4.592],[1.416,-4.711],[1.43,-4.782],[1.416,-4.944],[1.381,-5.042],[1.318,-5.148],[1.143,-5.302],[1.065,-5.316],[0.995,-5.288],[0.911,-5.218],[0.841,-5.126],[0.785,-4.958],[0.75,-4.669],[0.736,-4.669],[0.729,-4.697],[0.729,-4.852],[0.532,-4.852],[0.526,-4.5],[0.554,-4.381],[0.603,-4.31],[0.61,-4.275],[0.659,-4.268],[0.687,-4.233],[0.68,-4.198],[0.736,-4.177],[0.743,-4.163],[0.792,-4.17],[0.876,-4.142],[1.009,-4.135],[1.016,-4.121],[1.121,-4.142],[1.206,-4.177],[1.577,-4.367],[1.647,-4.451],[1.71,-4.578],[1.759,-4.711],[1.781,-4.845]]],[[[-1.382,-4.55],[-1.382,-4.578],[-1.41,-4.669],[-1.396,-4.915],[-1.347,-5.098],[-1.269,-5.253],[-1.136,-5.394],[-1.101,-5.408],[-1.031,-5.408],[-0.933,-5.358],[-0.842,-5.26],[-0.793,-5.169],[-0.744,-5.133],[-0.765,-5.239],[-0.835,-5.394],[-0.87,-5.408],[-0.961,-5.492],[-1.045,-5.52],[-1.129,-5.513],[-1.206,-5.478],[-1.305,-5.38],[-1.389,-5.246],[-1.445,-5.098],[-1.459,-5.091],[-1.48,-4.965],[-1.501,-4.915],[-1.501,-4.873],[-1.48,-4.725],[-1.452,-4.62],[-1.417,-4.571],[-1.382,-4.55]]]]},"properties":{"abbr":"GrA","name":"granule cell layer of the accessory olfactory bulb","plate":5,"ap_bregma_mm":6.4,"area_mm2":0.6903,"traced_fraction":[0.949,1.0],"n_labels":2,"no_drawn_outline":false}},{"type":"Feature","geometry":{"type":"MultiPolygon","coordinates":[[[[-1.501,-4.915],[-1.48,-4.965],[-1.459,-5.091],[-1.445,-5.098],[-1.389,-5.246],[-1.305,-5.38],[-1.206,-5.478],[-1.129,-5.513],[-1.045,-5.52],[-0.961,-5.492],[-0.87,-5.408],[-0.835,-5.394],[-0.842,-5.457],[-0.933,-5.64],[-0.961,-5.738],[-1.01,-6.224],[-1.038,-6.28],[-1.108,-6.35],[-1.206,-6.385],[-1.283,-6.385],[-1.305,-6.364],[-1.305,-6.308],[-1.262,-6.224],[-1.241,-6.139],[-1.241,-6.076],[-1.213,-5.942],[-1.213,-5.83],[-1.262,-5.661],[-1.319,-5.527],[-1.375,-5.415],[-1.466,-5.302],[-1.508,-5.197],[-1.522,-5.112],[-1.522,-4.922],[-1.501,-4.915]]],[[[-1.164,-5.555],[-1.164,-5.612],[-1.136,-5.696],[-1.136,-5.949],[-1.15,-6.048],[-1.164,-6.062],[-1.171,-6.188],[-1.15,-6.209],[-1.115,-6.209],[-1.094,-6.195],[-1.059,-6.104],[-1.031,-5.795],[-0.982,-5.605],[-1.045,-5.598],[-1.136,-5.555],[-1.164,-5.555]]]]},"properties":{"abbr":"aci","name":"anterior commissure, intrabulbar part","plate":5,"ap_bregma_mm":6.4,"area_mm2":0.2269,"traced_fraction":[1.0,1.0],"n_labels":1,"no_drawn_outline":false}},{"type":"Feature","geometry":{"type":"MultiPolygon","coordinates":[[[[-0.751,-4.275],[-0.751,-4.289],[-0.709,-4.303],[-0.694,-4.325],[-0.659,-4.339],[-0.659,-4.353],[-0.624,-4.367],[-0.624,-4.381],[-0.575,-4.416],[-0.554,-4.458],[-0.526,-4.479],[-0.477,-4.585],[-0.463,-4.641],[-0.463,-4.768],[-0.442,-4.789],[-0.442,-4.845],[-0.456,-4.845],[-0.463,-4.866],[-0.463,-4.908],[-0.442,-4.922],[-0.47,-5.098],[-0.491,-5.112],[-0.554,-5.373],[-0.667,-5.654],[-0.709,-5.893],[-0.694,-6.062],[-0.709,-6.336],[-0.722,-6.399],[-0.814,-6.547],[-0.982,-6.681],[-1.052,-6.716],[-1.199,-6.758],[-1.34,-6.758],[-1.417,-6.737],[-1.508,-6.688],[-1.515,-6.667],[-1.578,-6.624],[-1.592,-6.589],[-1.522,-6.554],[-1.522,-6.385],[-1.669,-6.385],[-1.634,-6.181],[-1.578,-6.034],[-1.592,-5.851],[-1.669,-5.626],[-1.809,-5.351],[-1.837,-5.211],[-1.866,-5.162],[-1.866,-5.063],[-1.837,-5.014],[-1.795,-4.838],[-1.781,-4.831],[-1.781,-4.81],[-1.683,-4.634],[-1.655,-4.613],[-1.557,-4.472],[-1.473,-4.395],[-1.473,-4.381],[-1.361,-4.303],[-1.361,-4.289],[-1.332,-4.282],[-1.332,-4.268],[-1.199,-4.212],[-1.129,-4.198],[-1.003,-4.198],[-0.87,-4.226],[-0.751,-4.275]]],[[[-1.066,-4.353],[-1.136,-4.388],[-1.234,-4.514],[-1.277,-4.634],[-1.277,-4.704],[-1.298,-4.782],[-1.29,-4.972],[-1.262,-5.084],[-1.192,-5.218],[-1.108,-5.267],[-1.059,-5.267],[-0.975,-5.232],[-0.877,-5.14],[-0.814,-5.014],[-0.772,-4.796],[-0.779,-4.543],[-0.814,-4.522],[-0.828,-4.486],[-0.919,-4.388],[-0.996,-4.353],[-1.066,-4.353]]],[[[-1.382,-4.55],[-1.396,-4.55],[-1.452,-4.62],[-1.48,-4.725],[-1.592,-4.725],[-1.592,-4.873],[-1.501,-4.873],[-1.501,-4.915],[-1.522,-4.922],[-1.522,-5.112],[-1.508,-5.197],[-1.466,-5.302],[-1.375,-5.415],[-1.319,-5.527],[-1.262,-5.661],[-1.213,-5.83],[-1.213,-5.942],[-1.241,-6.076],[-1.241,-6.139],[-1.262,-6.224],[-1.305,-6.308],[-1.305,-6.364],[-1.283,-6.385],[-1.206,-6.385],[-1.108,-6.35],[-1.038,-6.28],[-1.01,-6.224],[-0.961,-5.738],[-0.933,-5.64],[-0.842,-5.457],[-0.835,-5.394],[-0.765,-5.239],[-0.744,-5.133],[-0.793,-5.169],[-0.842,-5.26],[-0.933,-5.358],[-1.031,-5.408],[-1.101,-5.408],[-1.136,-5.394],[-1.269,-5.253],[-1.347,-5.098],[-1.396,-4.915],[-1.41,-4.669],[-1.382,-4.578],[-1.311,-4.585],[-1.34,-4.529],[-1.368,-4.529],[-1.382,-4.55]]],[[[1.5,-4.845],[1.781,-4.845],[1.795,-4.986],[1.774,-5.154],[1.753,-5.154],[1.724,-5.19],[1.703,-5.253],[1.717,-5.274],[1.675,-5.316],[1.668,-5.351],[1.64,-5.351],[1.612,-5.373],[1.528,-5.471],[1.521,-5.499],[1.458,-5.562],[1.381,-5.696],[1.353,-5.78],[1.353,-5.956],[1.367,-6.027],[1.409,-6.146],[1.43,-6.167],[1.514,-6.42],[1.514,-6.561],[1.479,-6.624],[1.479,-6.653],[1.493,-6.667],[1.395,-6.779],[1.311,-6.828],[1.128,-6.814],[1.03,-6.786],[1.023,-6.772],[1.002,-6.772],[0.904,-6.716],[0.904,-6.702],[0.869,-6.688],[0.771,-6.589],[0.722,-6.519],[0.673,-6.399],[0.666,-6.259],[0.652,-6.252],[0.652,-6.231],[0.673,-6.209],[0.659,-6.132],[0.673,-6.132],[0.68,-6.111],[0.687,-5.956],[0.673,-5.492],[0.617,-5.344],[0.61,-5.288],[0.575,-5.253],[0.539,-5.049],[0.532,-4.852],[0.729,-4.852],[0.729,-4.95],[0.764,-5.119],[0.806,-5.232],[0.869,-5.33],[0.918,-5.499],[0.946,-6.195],[0.988,-6.308],[1.051,-6.399],[1.093,-6.428],[1.135,-6.435],[1.17,-6.413],[1.177,-6.329],[1.107,-6.027],[1.1,-5.809],[1.115,-5.689],[1.156,-5.541],[1.22,-5.408],[1.29,-5.302],[1.304,-5.302],[1.339,-5.246],[1.374,-5.225],[1.451,-5.098],[1.493,-4.958],[1.5,-4.845]]]]},"properties":{"abbr":"GrO","name":"granular cell layer of the olfactory bulb","plate":5,"ap_bregma_mm":6.4,"area_mm2":2.8829,"traced_fraction":[0.95,1.0,0.939,0.958],"n_labels":2,"no_drawn_outline":false}},{"type":"Feature","geometry":{"type":"MultiPolygon","coordinates":[[[[-1.669,-4.529],[-1.858,-4.901],[-1.879,-4.986],[-1.879,-5.049],[-1.866,-5.063],[-1.866,-5.162],[-1.879,-5.169],[-1.879,-5.239],[-1.844,-5.401],[-1.711,-5.682],[-1.662,-5.865],[-1.655,-6.027],[-1.704,-6.224],[-1.711,-6.428],[-1.69,-6.505],[-1.655,-6.533],[-1.641,-6.568],[-1.627,-6.624],[-1.613,-6.624],[-1.613,-6.639],[-1.543,-6.709],[-1.466,-6.758],[-1.326,-6.8],[-1.171,-6.8],[-1.017,-6.758],[-0.891,-6.688],[-0.779,-6.575],[-0.716,-6.47],[-0.667,-6.315],[-0.652,-5.788],[-0.61,-5.598],[-0.533,-5.429],[-0.491,-5.295],[-0.463,-5.169],[-0.47,-5.098],[-0.442,-4.922],[-0.442,-4.845],[-0.442,-4.789],[-0.435,-4.641],[-0.463,-4.529],[-0.533,-4.402],[-0.561,-4.395],[-0.575,-4.416],[-0.589,-4.416],[-0.624,-4.367],[-0.603,-4.339],[-0.631,-4.332],[-0.68,-4.289],[-0.701,-4.289],[-0.709,-4.303],[-0.73,-4.303],[-0.751,-4.275],[-0.73,-4.261],[-0.751,-4.24],[-0.947,-4.17],[-0.94,-4.135],[-0.912,-4.135],[-0.758,-4.177],[-0.631,-4.247],[-0.47,-4.381],[-0.428,-4.465],[-0.393,-4.62],[-0.386,-4.965],[-0.442,-5.302],[-0.561,-5.626],[-0.603,-5.802],[-0.603,-6.146],[-0.624,-6.392],[-0.652,-6.477],[-0.744,-6.632],[-0.849,-6.73],[-0.989,-6.807],[-1.143,-6.857],[-1.361,-6.857],[-1.459,-6.828],[-1.564,-6.772],[-1.662,-6.681],[-1.746,-6.533],[-1.76,-6.484],[-1.767,-6.209],[-1.725,-5.963],[-1.739,-5.9],[-1.788,-5.9],[-1.788,-5.752],[-1.767,-5.752],[-1.767,-5.731],[-1.823,-5.577],[-1.866,-5.52],[-1.921,-5.387],[-1.936,-5.281],[-1.936,-5.035],[-1.908,-4.901],[-1.774,-4.627],[-1.697,-4.529],[-1.669,-4.529]]],[[[1.528,-5.766],[1.647,-5.773],[1.647,-5.921],[1.493,-5.921],[1.486,-5.837],[1.514,-5.766],[1.528,-5.766]]]]},"properties":{"abbr":"Mi","name":"mitral cell layer of the olfactory bulb","plate":5,"ap_bregma_mm":6.4,"area_mm2":0.3801,"traced_fraction":[0.989,0.4],"n_labels":2,"no_drawn_outline":false}},{"type":"Feature","geometry":{"type":"MultiPolygon","coordinates":[[[[0.953,-5.351],[1.044,-5.38],[1.121,-5.387],[1.121,-5.436],[1.1,-5.464],[1.051,-5.661],[1.037,-5.9],[1.044,-6.083],[1.086,-6.195],[1.086,-6.245],[1.051,-6.245],[1.023,-6.217],[0.981,-6.069],[0.974,-5.914],[0.988,-5.773],[0.974,-5.598],[0.932,-5.394],[0.932,-5.373],[0.953,-5.351]]],[[[-1.164,-5.555],[-1.136,-5.555],[-1.045,-5.598],[-0.982,-5.605],[-1.031,-5.795],[-1.059,-6.104],[-1.094,-6.195],[-1.115,-6.209],[-1.15,-6.209],[-1.171,-6.188],[-1.164,-6.062],[-1.15,-6.048],[-1.136,-5.949],[-1.136,-5.696],[-1.164,-5.612],[-1.164,-5.555]]]]},"properties":{"abbr":"E","name":"ependyma and subependymal layer","plate":5,"ap_bregma_mm":6.4,"area_mm2":0.1442,"traced_fraction":[1.0,1.0],"n_labels":4,"no_drawn_outline":false}},{"type":"Feature","geometry":{"type":"Polygon","coordinates":[[[1.206,-3.889],[1.255,-3.889],[1.255,-3.903],[1.276,-3.895],[1.423,-3.924],[1.542,-3.987],[1.64,-4.078],[1.577,-4.114],[1.486,-4.107],[1.367,-3.987],[1.227,-3.938],[1.206,-3.889]]]},"properties":{"abbr":null,"name":"unnamed sealed face","plate":5,"ap_bregma_mm":6.4,"index":0}},{"type":"Feature","geometry":{"type":"Polygon","coordinates":[[[-0.982,-3.938],[-0.863,-3.938],[-0.891,-4.036],[-0.975,-4.114],[-1.171,-4.029],[-1.206,-4.001],[-1.206,-3.98],[-1.157,-3.959],[-1.017,-3.945],[-0.989,-3.952],[-0.982,-3.938]]]},"properties":{"abbr":null,"name":"unnamed sealed face","plate":5,"ap_bregma_mm":6.4,"index":1}},{"type":"Feature","geometry":{"type":"Polygon","coordinates":[[[-0.694,-3.959],[-0.533,-3.994],[-0.365,-4.064],[-0.302,-4.121],[-0.267,-4.135],[-0.162,-4.254],[-0.176,-4.275],[-0.267,-4.275],[-0.295,-4.261],[-0.435,-4.121],[-0.61,-4.064],[-0.688,-4.015],[-0.709,-3.987],[-0.709,-3.966],[-0.694,-3.959]]]},"properties":{"abbr":null,"name":"unnamed sealed face","plate":5,"ap_bregma_mm":6.4,"index":2}},{"type":"Feature","geometry":{"type":"Polygon","coordinates":[[[1.528,-5.766],[1.514,-5.766],[1.486,-5.837],[1.493,-5.921],[1.493,-5.963],[1.556,-6.132],[1.612,-6.364],[1.633,-6.406],[1.633,-6.463],[1.584,-6.624],[1.486,-6.807],[1.367,-6.885],[1.262,-6.913],[1.156,-6.913],[1.03,-6.885],[0.953,-6.857],[0.792,-6.765],[0.792,-6.751],[0.743,-6.723],[0.701,-6.66],[0.687,-6.66],[0.603,-6.533],[0.575,-6.428],[0.575,-6.245],[0.589,-6.195],[0.575,-5.562],[0.497,-5.274],[0.462,-5.007],[0.462,-4.557],[0.49,-4.346],[0.526,-4.275],[0.539,-4.275],[0.539,-4.261],[0.701,-4.114],[0.862,-4.057],[1.009,-4.057],[1.192,-4.107],[1.325,-4.177],[1.458,-4.226],[1.535,-4.275],[1.556,-4.275],[1.682,-4.381],[1.774,-4.543],[1.816,-4.669],[1.858,-4.852],[1.865,-4.958],[1.83,-5.183],[1.802,-5.267],[1.647,-5.548],[1.598,-5.612],[1.598,-5.633],[1.57,-5.661],[1.563,-5.696],[1.535,-5.724],[1.528,-5.766]]]},"properties":{"abbr":null,"name":"unnamed sealed face","plate":5,"ap_bregma_mm":6.4,"index":3}},{"type":"Feature","geometry":{"type":"Polygon","coordinates":[[[0.532,-4.852],[0.539,-5.049],[0.575,-5.253],[0.61,-5.288],[0.617,-5.344],[0.673,-5.492],[0.687,-5.956],[0.68,-6.111],[0.673,-6.132],[0.659,-6.132],[0.673,-6.209],[0.652,-6.231],[0.652,-6.252],[0.666,-6.259],[0.673,-6.399],[0.722,-6.519],[0.771,-6.589],[0.869,-6.688],[0.904,-6.702],[0.904,-6.716],[1.002,-6.772],[1.023,-6.772],[1.03,-6.786],[1.128,-6.814],[1.311,-6.828],[1.395,-6.779],[1.493,-6.667],[1.521,-6.646],[1.556,-6.582],[1.57,-6.42],[1.535,-6.294],[1.472,-6.146],[1.458,-6.055],[1.423,-5.963],[1.416,-5.816],[1.465,-5.682],[1.64,-5.429],[1.668,-5.351],[1.675,-5.316],[1.717,-5.274],[1.703,-5.253],[1.724,-5.19],[1.753,-5.154],[1.774,-5.154],[1.795,-4.986],[1.781,-4.845],[1.759,-4.711],[1.71,-4.578],[1.647,-4.451],[1.577,-4.367],[1.206,-4.177],[1.121,-4.142],[1.016,-4.121],[1.009,-4.135],[0.876,-4.142],[0.792,-4.17],[0.743,-4.163],[0.736,-4.177],[0.68,-4.198],[0.687,-4.233],[0.659,-4.268],[0.61,-4.275],[0.603,-4.31],[0.554,-4.381],[0.526,-4.5],[0.532,-4.852]]]},"properties":{"abbr":null,"name":"unnamed sealed face","plate":5,"ap_bregma_mm":6.4,"index":4}},{"type":"Feature","geometry":{"type":"Polygon","coordinates":[[[-0.947,-4.17],[-0.751,-4.24],[-0.73,-4.254],[-0.751,-4.275],[-0.87,-4.226],[-1.003,-4.198],[-1.129,-4.198],[-1.199,-4.212],[-1.332,-4.268],[-1.332,-4.282],[-1.361,-4.289],[-1.361,-4.303],[-1.473,-4.381],[-1.473,-4.395],[-1.557,-4.472],[-1.655,-4.613],[-1.683,-4.634],[-1.739,-4.725],[-1.781,-4.831],[-1.795,-4.838],[-1.837,-5.014],[-1.866,-5.063],[-1.879,-5.049],[-1.879,-4.986],[-1.858,-4.901],[-1.669,-4.529],[-1.655,-4.472],[-1.613,-4.451],[-1.557,-4.381],[-1.529,-4.374],[-1.536,-4.346],[-1.522,-4.318],[-1.452,-4.254],[-1.417,-4.24],[-1.417,-4.226],[-1.319,-4.17],[-1.143,-4.128],[-1.101,-4.128],[-0.947,-4.17]]]},"properties":{"abbr":null,"name":"unnamed sealed face","plate":5,"ap_bregma_mm":6.4,"index":5}},{"type":"Feature","geometry":{"type":"Polygon","coordinates":[[[0.112,-4.289],[0.126,-4.297],[0.126,-4.332],[0.084,-4.479],[0.091,-4.606],[0.077,-4.648],[0.077,-4.725],[0.119,-4.803],[0.126,-4.845],[0.112,-4.922],[0.028,-5.098],[-0.0,-5.105],[-0.007,-5.07],[-0.029,-5.07],[-0.05,-5.035],[-0.05,-4.972],[-0.071,-4.944],[-0.071,-4.887],[-0.106,-4.817],[-0.084,-4.761],[-0.084,-4.578],[-0.071,-4.536],[-0.092,-4.43],[-0.084,-4.416],[-0.063,-4.416],[-0.042,-4.444],[0.028,-4.43],[0.063,-4.339],[0.112,-4.289]]]},"properties":{"abbr":null,"name":"unnamed sealed face","plate":5,"ap_bregma_mm":6.4,"index":6}},{"type":"Feature","geometry":{"type":"Polygon","coordinates":[[[1.234,-4.444],[1.304,-4.458],[1.416,-4.564],[1.472,-4.669],[1.5,-4.845],[1.493,-4.958],[1.451,-5.098],[1.374,-5.225],[1.339,-5.246],[1.304,-5.302],[1.29,-5.302],[1.22,-5.408],[1.156,-5.541],[1.115,-5.689],[1.1,-5.809],[1.107,-6.027],[1.177,-6.329],[1.17,-6.413],[1.135,-6.435],[1.093,-6.428],[1.051,-6.399],[0.988,-6.308],[0.946,-6.195],[0.918,-5.499],[0.869,-5.33],[0.827,-5.274],[0.764,-5.119],[0.729,-4.95],[0.729,-4.852],[0.729,-4.697],[0.736,-4.669],[0.75,-4.669],[0.778,-4.922],[0.841,-5.126],[0.911,-5.218],[0.995,-5.288],[1.065,-5.316],[1.128,-5.309],[1.185,-5.274],[1.318,-5.148],[1.381,-5.042],[1.416,-4.944],[1.43,-4.866],[1.416,-4.711],[1.36,-4.592],[1.325,-4.564],[1.304,-4.564],[1.297,-4.536],[1.241,-4.479],[1.234,-4.444]]]},"properties":{"abbr":null,"name":"unnamed sealed face","plate":5,"ap_bregma_mm":6.4,"index":7}},{"type":"Feature","geometry":{"type":"Polygon","coordinates":[[[0.953,-5.351],[0.939,-5.358],[0.932,-5.394],[0.974,-5.598],[0.988,-5.773],[0.974,-5.914],[0.981,-6.069],[1.023,-6.217],[1.051,-6.245],[1.086,-6.245],[1.086,-6.195],[1.044,-6.083],[1.037,-5.9],[1.051,-5.661],[1.1,-5.464],[1.121,-5.436],[1.121,-5.387],[1.044,-5.38],[0.953,-5.351]]]},"properties":{"abbr":null,"name":"unnamed sealed face","plate":5,"ap_bregma_mm":6.4,"index":8}},{"type":"Feature","geometry":{"type":"Polygon","coordinates":[[[-0.47,-5.098],[-0.463,-5.169],[-0.491,-5.295],[-0.533,-5.429],[-0.61,-5.598],[-0.652,-5.788],[-0.667,-6.315],[-0.716,-6.47],[-0.779,-6.575],[-0.891,-6.688],[-1.017,-6.758],[-1.171,-6.8],[-1.326,-6.8],[-1.466,-6.758],[-1.543,-6.709],[-1.613,-6.639],[-1.613,-6.624],[-1.627,-6.624],[-1.641,-6.568],[-1.592,-6.589],[-1.578,-6.624],[-1.515,-6.667],[-1.508,-6.688],[-1.417,-6.737],[-1.34,-6.758],[-1.199,-6.758],[-1.052,-6.716],[-0.982,-6.681],[-0.814,-6.547],[-0.758,-6.47],[-0.709,-6.336],[-0.694,-6.181],[-0.709,-5.893],[-0.667,-5.654],[-0.554,-5.373],[-0.491,-5.112],[-0.47,-5.098]]]},"properties":{"abbr":null,"name":"unnamed sealed face","plate":5,"ap_bregma_mm":6.4,"index":9}},{"type":"Feature","geometry":{"type":"Polygon","coordinates":[[[-0.007,-6.385],[-0.078,-6.378],[-0.084,-6.181],[-0.071,-5.977],[-0.035,-5.865],[-0.007,-5.858],[-0.007,-6.385]]]},"properties":{"abbr":null,"name":"unnamed sealed face","plate":5,"ap_bregma_mm":6.4,"index":10}},{"type":"Feature","geometry":{"type":"Polygon","coordinates":[[[-1.908,-6.582],[-2.006,-6.42],[-2.048,-6.252],[-2.013,-6.245],[-1.985,-6.259],[-1.929,-6.343],[-1.915,-6.442],[-1.887,-6.498],[-1.887,-6.561],[-1.908,-6.582]]]},"properties":{"abbr":null,"name":"unnamed sealed face","plate":5,"ap_bregma_mm":6.4,"index":11}},{"type":"Feature","geometry":{"type":"MultiPolygon","coordinates":[[[[0.617,-7.56],[0.505,-7.581],[0.413,-7.581],[0.343,-7.56],[0.259,-7.504],[0.168,-7.384],[0.056,-7.096],[0.021,-6.934],[-0.007,-6.639],[-0.007,-6.378],[-0.092,-6.371],[-0.113,-6.885],[-0.155,-7.138],[-0.204,-7.293],[-0.267,-7.405],[-0.351,-7.497],[-0.435,-7.546],[-0.526,-7.574],[-0.603,-7.581],[-0.779,-7.56],[-1.003,-7.483],[-1.277,-7.335],[-1.438,-7.222],[-1.55,-7.124],[-1.606,-7.053],[-1.718,-6.843],[-1.9,-6.596],[-1.999,-6.428],[-2.062,-6.181],[-2.104,-5.816],[-2.16,-5.52],[-2.139,-5.105],[-2.104,-4.901],[-2.055,-4.733],[-1.999,-4.606],[-1.887,-4.437],[-1.732,-4.268],[-1.508,-4.121],[-1.283,-4.008],[-1.15,-3.959],[-0.989,-3.938],[-0.807,-3.938],[-0.638,-3.966],[-0.463,-4.022],[-0.365,-4.071],[-0.267,-4.142],[-0.12,-4.303],[-0.092,-4.374],[-0.042,-4.444],[0.028,-4.43],[0.063,-4.339],[0.189,-4.184],[0.42,-3.987],[0.497,-3.938],[0.617,-3.889],[0.785,-3.86],[1.009,-3.86],[1.143,-3.889],[1.248,-3.889],[1.409,-3.924],[1.535,-3.987],[1.759,-4.184],[1.872,-4.318],[1.97,-4.465],[2.075,-4.754],[2.243,-5.105],[2.25,-5.309],[2.229,-5.809],[2.187,-6.104],[2.159,-6.195],[2.04,-6.413],[1.9,-6.533],[1.759,-6.758],[1.549,-6.997],[1.416,-7.124],[1.065,-7.377],[0.848,-7.483],[0.645,-7.553],[0.617,-7.56]]]]},"properties":{"abbr":"brain_outline","name":"outline of the section","plate":5,"ap_bregma_mm":6.4}}]}
