{"type":"FeatureCollection","name":"GerbilAtlas plate 45","note":"Region extents cut from the atlas drawing (METHODS.md, Region extents). Coordinates are [ML, DV] in mm, ML positive to the right of the plate as printed, DV negative below the dorsal surface; AP is the plate bregma. traced_fraction is the share of each polygon boundary the atlas actually draws; below 0.5 the boundary is an estimate. no_drawn_outline marks a feature that lies only inside boundaries the atlas draws round more than one name and prints nothing within, so the whole of its outline is where the extraction cut it. Not a segmentation.","plate":45,"ap_bregma_mm":-7.6,"features":[{"type":"Feature","geometry":{"type":"MultiPolygon","coordinates":[[[[0.265,-0.64],[0.497,-0.598],[0.721,-0.598],[0.875,-0.64],[0.987,-0.703],[1.022,-0.739],[1.022,-0.753],[1.107,-0.837],[1.205,-1.027],[1.219,-1.027],[1.219,-1.055],[1.261,-1.14],[1.289,-1.154],[1.275,-1.182],[1.31,-1.217],[1.345,-1.336],[-1.256,-1.329],[-1.214,-1.027],[-1.193,-1.02],[-1.165,-0.978],[-0.934,-0.746],[-0.85,-0.689],[-0.667,-0.612],[-0.38,-0.598],[-0.127,-0.647],[0.055,-0.661],[0.265,-0.64]]]]},"properties":{"abbr":"5Cb","name":"5th cerebellar lobule","plate":45,"ap_bregma_mm":-7.6,"area_mm2":1.6076,"traced_fraction":[0.572],"n_labels":1,"no_drawn_outline":true}},{"type":"Feature","geometry":{"type":"MultiPolygon","coordinates":[[[[2.27,-1.344],[2.264,-1.365],[2.313,-1.491],[2.32,-1.554],[2.369,-1.632],[2.453,-1.716],[2.481,-1.765],[2.495,-1.765],[2.502,-1.787],[2.523,-1.794],[2.523,-1.808],[2.586,-1.864],[2.586,-1.878],[2.6,-1.878],[2.607,-1.899],[2.733,-2.012],[2.74,-2.033],[2.754,-2.033],[2.824,-2.103],[2.845,-2.103],[2.845,-2.124],[2.874,-2.159],[2.887,-2.23],[2.908,-2.441],[2.944,-2.595],[2.965,-2.842],[2.649,-2.842],[2.207,-3.292],[2.179,-3.292],[2.004,-2.82],[1.969,-2.771],[1.948,-2.694],[1.85,-2.483],[1.731,-2.195],[1.696,-2.138],[1.696,-2.11],[1.605,-1.927],[1.597,-1.885],[1.345,-1.336],[1.31,-1.217],[1.275,-1.182],[1.289,-1.154],[1.303,-1.14],[1.31,-1.02],[1.331,-0.964],[1.38,-0.907],[1.52,-0.844],[1.654,-0.837],[1.731,-0.858],[2.06,-1.083],[2.214,-1.252],[2.256,-1.344],[2.27,-1.344]]],[[[-1.228,-0.95],[-1.235,-0.964],[-1.214,-1.027],[-1.256,-1.329],[-1.368,-1.667],[-1.544,-2.026],[-1.544,-2.047],[-1.579,-2.096],[-1.628,-2.223],[-1.656,-2.258],[-1.81,-2.616],[-1.915,-2.842],[-1.943,-2.877],[-1.957,-2.933],[-1.971,-2.933],[-2.084,-3.193],[-2.154,-3.32],[-2.175,-3.32],[-2.883,-2.602],[-2.897,-2.602],[-2.869,-2.539],[-2.876,-2.518],[-2.813,-2.391],[-2.63,-2.173],[-2.371,-1.765],[-2.217,-1.435],[-2.175,-1.252],[-2.147,-1.238],[-2.126,-1.196],[-2.098,-1.182],[-2.02,-1.083],[-1.887,-0.985],[-1.747,-0.914],[-1.635,-0.879],[-1.537,-0.858],[-1.361,-0.865],[-1.277,-0.9],[-1.228,-0.95]]]]},"properties":{"abbr":"Sim","name":"simple lobule","plate":45,"ap_bregma_mm":-7.6,"area_mm2":4.0406,"traced_fraction":[0.877,0.877],"n_labels":2,"no_drawn_outline":false}},{"type":"Feature","geometry":{"type":"MultiPolygon","coordinates":[[[[1.85,-2.483],[1.948,-2.694],[1.969,-2.771],[2.004,-2.82],[2.179,-3.292],[2.207,-3.292],[2.649,-2.842],[2.965,-2.842],[2.972,-2.926],[2.951,-2.926],[2.951,-3.636],[3.238,-3.925],[3.336,-3.974],[3.371,-3.974],[3.315,-4.065],[3.217,-4.058],[3.105,-4.115],[2.993,-4.22],[2.993,-4.234],[2.796,-4.445],[2.677,-4.628],[2.614,-4.769],[2.572,-4.923],[2.551,-5.127],[2.537,-5.141],[2.495,-5.155],[2.439,-5.205],[2.39,-5.205],[2.348,-5.163],[2.298,-5.155],[2.256,-5.149],[2.243,-5.127],[2.214,-5.12],[1.976,-4.951],[1.597,-4.719],[1.555,-4.705],[1.506,-4.663],[1.401,-4.607],[1.324,-4.586],[1.226,-4.431],[1.121,-4.333],[0.973,-4.248],[0.847,-4.213],[0.679,-4.213],[0.602,-4.227],[0.335,-4.333],[0.104,-4.368],[-0.261,-4.354],[-0.296,-4.347],[-0.317,-4.326],[-0.485,-4.29],[-0.548,-4.304],[-0.744,-4.304],[-0.906,-4.354],[-1.046,-4.417],[-1.116,-4.466],[-1.2,-4.558],[-1.277,-4.586],[-1.34,-4.635],[-1.453,-4.684],[-1.481,-4.712],[-1.537,-4.734],[-1.712,-4.846],[-2.231,-5.113],[-2.371,-5.092],[-2.385,-4.888],[-2.539,-4.642],[-2.603,-4.572],[-2.603,-4.551],[-2.603,-4.143],[-2.518,-4.058],[-2.448,-4.051],[-2.364,-3.833],[-2.336,-3.798],[-2.245,-3.524],[-2.154,-3.32],[-2.084,-3.193],[-1.971,-2.933],[-1.957,-2.933],[-1.425,-2.933],[-1.095,-3.271],[-1.074,-3.271],[-0.913,-2.94],[-0.8,-2.757],[-0.702,-2.624],[-0.513,-2.441],[-0.352,-2.342],[-0.31,-2.342],[-0.282,-2.321],[-0.141,-2.279],[-0.036,-2.265],[-0.029,-2.251],[0.244,-2.258],[0.511,-2.307],[0.581,-2.342],[0.644,-2.413],[0.658,-2.413],[0.784,-2.546],[0.903,-2.708],[1.044,-2.968],[1.086,-3.088],[1.114,-3.095],[1.717,-2.483],[1.85,-2.483]]]]},"properties":{"abbr":"3Cb","name":"3rd cerebellar lobule","plate":45,"ap_bregma_mm":-7.6,"area_mm2":9.9612,"traced_fraction":[0.761],"n_labels":1,"no_drawn_outline":false}},{"type":"Feature","geometry":{"type":"MultiPolygon","coordinates":[[[[-3.956,-3.207],[-3.949,-3.228],[-3.857,-3.292],[-3.703,-3.453],[-3.682,-3.496],[-3.556,-3.643],[-3.346,-3.96],[-3.353,-4.108],[-3.437,-4.283],[-3.766,-4.607],[-3.766,-4.712],[-3.808,-4.726],[-3.872,-4.776],[-3.998,-4.902],[-3.998,-4.916],[-4.026,-4.888],[-4.11,-4.959],[-4.39,-5.071],[-4.566,-5.205],[-4.636,-5.226],[-4.643,-5.24],[-4.734,-5.261],[-4.79,-5.261],[-4.888,-5.226],[-4.979,-5.141],[-5.035,-5.05],[-5.084,-4.895],[-5.084,-4.677],[-5.056,-4.558],[-5.007,-4.438],[-4.937,-4.311],[-4.804,-4.164],[-4.58,-4.016],[-4.517,-3.953],[-4.467,-3.833],[-4.383,-3.601],[-4.222,-3.341],[-4.117,-3.249],[-4.054,-3.221],[-3.97,-3.221],[-3.956,-3.207]]],[[[4.851,-3.798],[4.865,-3.819],[4.858,-3.826],[4.872,-3.84],[4.879,-3.833],[4.893,-3.854],[4.886,-3.861],[4.9,-3.861],[4.907,-3.875],[4.921,-3.89],[4.935,-3.911],[4.928,-3.918],[4.942,-3.932],[4.949,-3.925],[4.97,-3.953],[4.998,-3.988],[5.117,-4.136],[5.328,-4.487],[5.356,-4.593],[5.349,-4.748],[5.328,-4.832],[5.257,-4.959],[5.061,-5.163],[4.949,-5.219],[4.788,-5.205],[4.739,-5.191],[4.675,-5.155],[4.493,-4.987],[4.409,-4.93],[4.339,-4.86],[4.304,-4.846],[4.283,-4.804],[4.065,-4.642],[3.974,-4.593],[3.96,-4.572],[3.792,-4.487],[3.666,-4.48],[3.666,-4.459],[3.491,-4.115],[3.491,-3.833],[3.476,-3.833],[3.561,-3.7],[3.757,-3.482],[3.904,-3.369],[4.016,-3.32],[4.086,-3.32],[4.311,-3.313],[4.423,-3.341],[4.493,-3.376],[4.598,-3.468],[4.64,-3.538],[4.851,-3.798]]]]},"properties":{"abbr":"PFl","name":"paraflocculus","plate":45,"ap_bregma_mm":-7.6,"area_mm2":4.241,"traced_fraction":[0.869,0.884],"n_labels":2,"no_drawn_outline":false}},{"type":"Feature","geometry":{"type":"MultiPolygon","coordinates":[[[[3.315,-4.065],[3.315,-4.206],[3.21,-4.396],[3.133,-4.719],[3.07,-4.839],[2.993,-4.945],[2.993,-4.966],[2.916,-5.008],[2.831,-5.099],[2.782,-5.233],[2.761,-5.388],[2.6,-5.359],[2.558,-5.317],[2.544,-5.247],[2.551,-5.149],[2.537,-5.141],[2.551,-5.127],[2.572,-4.923],[2.614,-4.769],[2.677,-4.628],[2.796,-4.445],[2.993,-4.234],[2.993,-4.22],[3.105,-4.115],[3.217,-4.058],[3.315,-4.065]]],[[[-2.603,-4.551],[-2.603,-4.572],[-2.539,-4.642],[-2.385,-4.888],[-2.371,-5.092],[-2.392,-5.106],[-2.392,-5.254],[-2.413,-5.345],[-2.462,-5.388],[-2.546,-5.388],[-2.581,-5.345],[-2.63,-5.212],[-2.743,-5.085],[-2.764,-5.085],[-2.764,-5.064],[-2.813,-4.994],[-2.89,-4.818],[-2.946,-4.734],[-2.946,-4.712],[-2.981,-4.67],[-3.135,-4.389],[-3.156,-4.297],[-3.156,-4.199],[-3.086,-4.15],[-3.009,-4.15],[-2.946,-4.178],[-2.658,-4.487],[-2.63,-4.537],[-2.603,-4.551]]]]},"properties":{"abbr":"mcp","name":"middle cerebellar peduncle","plate":45,"ap_bregma_mm":-7.6,"area_mm2":0.9073,"traced_fraction":[1.0,1.0],"n_labels":2,"no_drawn_outline":false}},{"type":"Feature","geometry":{"type":"MultiPolygon","coordinates":[[[[1.324,-4.586],[1.331,-4.628],[1.289,-4.797],[1.247,-4.825],[1.247,-4.839],[1.177,-4.902],[1.17,-4.923],[1.149,-4.93],[1.149,-4.945],[1.114,-4.951],[1.065,-4.994],[1.065,-5.008],[1.037,-5.008],[1.029,-5.022],[0.959,-5.043],[0.91,-5.078],[0.616,-5.17],[0.188,-5.268],[-0.078,-5.275],[-0.436,-5.212],[-0.906,-5.057],[-0.927,-5.057],[-0.927,-5.043],[-1.018,-5.001],[-1.025,-4.973],[-1.102,-4.902],[-1.123,-4.86],[-1.151,-4.846],[-1.179,-4.804],[-1.207,-4.712],[-1.214,-4.635],[-1.2,-4.558],[-1.116,-4.466],[-1.046,-4.417],[-0.906,-4.354],[-0.744,-4.304],[-0.548,-4.304],[-0.485,-4.29],[-0.317,-4.326],[-0.296,-4.347],[-0.261,-4.354],[0.104,-4.368],[0.335,-4.333],[0.602,-4.227],[0.679,-4.213],[0.847,-4.213],[0.973,-4.248],[1.121,-4.333],[1.226,-4.431],[1.324,-4.586]]]]},"properties":{"abbr":"2Cb","name":"2nd cerebellar lobule","plate":45,"ap_bregma_mm":-7.6,"area_mm2":2.0012,"traced_fraction":[1.0],"n_labels":1,"no_drawn_outline":false}},{"type":"Feature","geometry":{"type":"MultiPolygon","coordinates":[[[[3.476,-3.833],[3.491,-3.833],[3.491,-4.115],[3.666,-4.459],[3.666,-4.48],[3.792,-4.487],[3.96,-4.572],[3.974,-4.593],[4.065,-4.642],[4.283,-4.804],[4.304,-4.846],[4.339,-4.86],[4.409,-4.93],[4.493,-4.987],[4.675,-5.155],[4.739,-5.191],[4.753,-5.233],[4.76,-5.331],[4.745,-5.352],[4.626,-5.444],[4.416,-5.669],[4.346,-5.704],[4.213,-5.739],[4.101,-5.739],[4.065,-5.718],[4.037,-5.718],[4.023,-5.69],[4.002,-5.69],[4.002,-5.725],[3.932,-5.76],[3.659,-5.725],[3.413,-5.599],[3.371,-5.563],[3.343,-5.535],[3.329,-5.493],[3.343,-5.423],[3.364,-5.388],[3.364,-5.352],[3.35,-5.254],[3.308,-5.198],[3.294,-5.141],[3.168,-5.05],[3.168,-5.029],[3.119,-4.987],[2.993,-4.966],[2.993,-4.945],[3.07,-4.839],[3.133,-4.719],[3.21,-4.396],[3.315,-4.206],[3.315,-4.065],[3.371,-3.974],[3.448,-3.854],[3.476,-3.833]]],[[[-3.346,-3.96],[-3.318,-3.981],[-3.191,-4.178],[-3.156,-4.199],[-3.156,-4.297],[-3.135,-4.389],[-2.981,-4.67],[-2.946,-4.712],[-2.946,-4.734],[-2.89,-4.818],[-2.89,-4.839],[-2.869,-4.86],[-2.813,-4.994],[-2.785,-5.022],[-2.764,-5.085],[-2.806,-5.092],[-2.806,-5.106],[-2.946,-5.106],[-3.03,-5.134],[-3.135,-5.198],[-3.163,-5.247],[-3.163,-5.303],[-3.128,-5.366],[-3.1,-5.381],[-3.1,-5.479],[-3.107,-5.57],[-3.191,-5.676],[-3.318,-5.746],[-3.423,-5.781],[-3.521,-5.774],[-3.577,-5.613],[-3.619,-5.585],[-3.626,-5.831],[-3.654,-5.88],[-3.724,-5.943],[-3.851,-5.985],[-4.068,-5.985],[-4.208,-5.95],[-4.341,-5.887],[-4.46,-5.81],[-4.566,-5.704],[-4.615,-5.613],[-4.629,-5.521],[-4.601,-5.43],[-4.573,-5.388],[-4.397,-5.233],[-4.103,-5.092],[-4.089,-5.071],[-4.054,-5.057],[-3.97,-4.959],[-3.998,-4.916],[-3.998,-4.902],[-3.872,-4.776],[-3.808,-4.726],[-3.766,-4.712],[-3.766,-4.607],[-3.437,-4.283],[-3.353,-4.108],[-3.346,-3.96]]]]},"properties":{"abbr":"Fl","name":"flocculus","plate":45,"ap_bregma_mm":-7.6,"area_mm2":3.3866,"traced_fraction":[0.889,0.889],"n_labels":2,"no_drawn_outline":false}},{"type":"Feature","geometry":{"type":"MultiPolygon","coordinates":[[[[-1.151,-4.846],[-1.137,-4.846],[-1.102,-4.902],[-1.025,-4.973],[-1.018,-5.001],[-1.039,-5.001],[-1.046,-5.078],[-1.067,-5.106],[-1.207,-5.198],[-1.249,-5.212],[-1.368,-5.303],[-1.453,-5.402],[-1.474,-5.479],[-1.523,-5.5],[-1.586,-5.563],[-1.663,-5.613],[-1.768,-5.62],[-1.817,-5.599],[-1.859,-5.556],[-1.894,-5.535],[-1.922,-5.535],[-1.915,-5.514],[-1.943,-5.479],[-1.943,-5.458],[-1.866,-5.444],[-1.628,-5.331],[-1.607,-5.303],[-1.53,-5.254],[-1.459,-5.17],[-1.298,-5.106],[-1.214,-5.057],[-1.193,-5.029],[-1.2,-4.973],[-1.305,-4.994],[-1.53,-5.113],[-1.719,-5.17],[-1.782,-5.212],[-1.859,-5.24],[-2.048,-5.381],[-2.042,-5.437],[-2.196,-5.472],[-2.203,-5.458],[-2.266,-5.437],[-2.301,-5.402],[-2.308,-5.317],[-2.273,-5.254],[-2.189,-5.184],[-2.168,-5.205],[-2.091,-5.205],[-1.866,-5.149],[-1.621,-5.043],[-1.551,-4.987],[-1.431,-4.923],[-1.277,-4.881],[-1.193,-4.881],[-1.151,-4.86],[-1.151,-4.846]]],[[[1.731,-5.022],[2.095,-5.219],[2.285,-5.282],[2.355,-5.282],[2.425,-5.31],[2.46,-5.366],[2.46,-5.43],[2.425,-5.465],[2.369,-5.486],[2.249,-5.493],[2.186,-5.479],[2.193,-5.423],[2.165,-5.366],[1.983,-5.226],[1.829,-5.149],[1.605,-5.085],[1.359,-4.98],[1.359,-4.966],[1.394,-4.945],[1.45,-4.937],[1.626,-4.987],[1.696,-5.022],[1.731,-5.022]]]]},"properties":{"abbr":"LPB","name":"lateral parabrachial nucleus","plate":45,"ap_bregma_mm":-7.6,"area_mm2":0.467,"traced_fraction":[1.0,1.0],"n_labels":2,"no_drawn_outline":false}},{"type":"Feature","geometry":{"type":"MultiPolygon","coordinates":[[[[-0.906,-5.057],[-0.436,-5.212],[-0.443,-5.43],[-0.52,-5.409],[-0.59,-5.416],[-0.758,-5.402],[-0.8,-5.388],[-0.878,-5.317],[-0.955,-5.184],[-0.962,-5.134],[-0.906,-5.078],[-0.906,-5.057]]]]},"properties":{"abbr":"SMV","name":"superior medullary velum","plate":45,"ap_bregma_mm":-7.6,"area_mm2":0.1274,"traced_fraction":[0.889],"n_labels":1,"no_drawn_outline":false}},{"type":"Feature","geometry":{"type":"MultiPolygon","coordinates":[[[[1.149,-4.945],[1.163,-4.973],[1.254,-5.001],[1.254,-5.022],[1.359,-5.12],[1.492,-5.191],[1.597,-5.261],[1.618,-5.289],[1.66,-5.303],[1.78,-5.388],[1.801,-5.388],[1.878,-5.451],[1.976,-5.493],[2.13,-5.5],[2.116,-5.556],[2.123,-5.577],[2.053,-5.634],[2.004,-5.648],[1.836,-5.662],[1.66,-5.613],[1.59,-5.556],[1.485,-5.514],[1.464,-5.486],[1.45,-5.423],[1.408,-5.359],[1.296,-5.254],[1.163,-5.17],[1.079,-5.092],[1.065,-5.008],[1.065,-4.994],[1.114,-4.951],[1.149,-4.945]]]]},"properties":{"abbr":"MPB","name":"medial parabrachial nucleus","plate":45,"ap_bregma_mm":-7.6,"area_mm2":0.2344,"traced_fraction":[1.0],"n_labels":1,"no_drawn_outline":false}},{"type":"Feature","geometry":{"type":"MultiPolygon","coordinates":[[[[2.993,-4.966],[3.119,-4.987],[3.168,-5.029],[3.168,-5.05],[3.077,-5.057],[2.937,-5.113],[2.902,-5.149],[2.874,-5.212],[2.874,-5.331],[2.902,-5.43],[2.937,-5.479],[3.189,-5.62],[3.252,-5.627],[3.273,-5.662],[3.322,-5.676],[3.336,-5.697],[3.378,-5.704],[3.525,-5.789],[3.546,-5.789],[3.876,-5.95],[3.932,-6.028],[3.932,-6.077],[3.904,-6.126],[3.869,-6.154],[3.834,-6.126],[3.771,-5.992],[3.701,-5.929],[3.68,-5.929],[3.666,-5.908],[3.245,-5.704],[3.049,-5.613],[2.866,-5.563],[2.775,-5.585],[2.754,-5.641],[2.635,-5.577],[2.586,-5.585],[2.495,-5.563],[2.446,-5.535],[2.383,-5.528],[2.369,-5.486],[2.425,-5.465],[2.46,-5.43],[2.46,-5.366],[2.425,-5.31],[2.355,-5.282],[2.341,-5.24],[2.298,-5.191],[2.298,-5.155],[2.348,-5.163],[2.39,-5.205],[2.439,-5.205],[2.495,-5.155],[2.537,-5.141],[2.551,-5.149],[2.544,-5.247],[2.558,-5.317],[2.6,-5.359],[2.761,-5.388],[2.782,-5.233],[2.831,-5.099],[2.916,-5.008],[2.993,-4.966]]],[[[-2.764,-5.085],[-2.743,-5.085],[-2.63,-5.212],[-2.581,-5.345],[-2.546,-5.388],[-2.462,-5.388],[-2.413,-5.345],[-2.392,-5.254],[-2.392,-5.106],[-2.371,-5.092],[-2.231,-5.113],[-2.231,-5.134],[-2.189,-5.184],[-2.273,-5.254],[-2.308,-5.317],[-2.301,-5.402],[-2.266,-5.437],[-2.217,-5.451],[-2.196,-5.472],[-2.238,-5.5],[-2.294,-5.514],[-2.301,-5.535],[-2.329,-5.535],[-2.406,-5.577],[-2.56,-5.613],[-2.645,-5.662],[-2.981,-5.697],[-3.065,-5.725],[-3.1,-5.746],[-3.107,-5.767],[-3.156,-5.789],[-3.205,-5.789],[-3.212,-5.789],[-3.177,-5.732],[-3.093,-5.669],[-2.911,-5.648],[-2.778,-5.585],[-2.722,-5.535],[-2.687,-5.479],[-2.666,-5.402],[-2.68,-5.261],[-2.715,-5.198],[-2.75,-5.177],[-2.806,-5.106],[-2.806,-5.092],[-2.764,-5.085]]]]},"properties":{"abbr":"GrC","name":"granule cell layer of cochlear nuclei","plate":45,"ap_bregma_mm":-7.6,"area_mm2":0.4636,"traced_fraction":[1.0,1.0],"n_labels":2,"no_drawn_outline":false}},{"type":"Feature","geometry":{"type":"MultiPolygon","coordinates":[[[[3.308,-5.198],[3.35,-5.254],[3.364,-5.352],[3.175,-5.359],[3.14,-5.381],[3.14,-5.423],[3.175,-5.458],[3.217,-5.458],[3.252,-5.395],[3.343,-5.423],[3.329,-5.493],[3.343,-5.535],[3.371,-5.563],[3.336,-5.613],[3.322,-5.676],[3.273,-5.662],[3.252,-5.627],[3.273,-5.606],[3.259,-5.57],[3.119,-5.507],[3.119,-5.493],[3.077,-5.465],[3.056,-5.43],[3.049,-5.352],[3.063,-5.331],[3.119,-5.31],[3.154,-5.268],[3.161,-5.233],[3.175,-5.233],[3.203,-5.198],[3.308,-5.198]]]]},"properties":{"abbr":"LR4V","name":"lateral recess of the 4th ventricle","plate":45,"ap_bregma_mm":-7.6,"area_mm2":0.0779,"traced_fraction":[0.944],"n_labels":1,"no_drawn_outline":false}},{"type":"Feature","geometry":{"type":"MultiPolygon","coordinates":[[[[-3.1,-5.479],[-3.1,-5.381],[-3.03,-5.282],[-2.953,-5.275],[-2.82,-5.366],[-2.799,-5.395],[-2.799,-5.437],[-2.855,-5.535],[-2.89,-5.528],[-2.911,-5.5],[-2.967,-5.514],[-2.988,-5.493],[-2.988,-5.472],[-3.1,-5.479]]]]},"properties":{"abbr":"chp","name":"choroid plexus","plate":45,"ap_bregma_mm":-7.6,"area_mm2":0.0537,"traced_fraction":[0.91],"n_labels":1,"no_drawn_outline":false}},{"type":"Feature","geometry":{"type":"MultiPolygon","coordinates":[[[[0.91,-5.233],[0.91,-5.289],[0.98,-5.486],[0.987,-5.711],[0.966,-5.753],[0.882,-5.838],[0.882,-5.859],[0.868,-5.859],[0.798,-5.95],[0.742,-5.992],[0.728,-5.978],[0.728,-5.88],[0.672,-5.81],[0.623,-5.789],[0.532,-5.789],[0.455,-5.81],[0.469,-5.627],[0.44,-5.563],[0.412,-5.542],[0.335,-5.521],[0.23,-5.542],[0.195,-5.535],[0.195,-5.521],[0.265,-5.465],[0.384,-5.416],[0.714,-5.374],[0.805,-5.324],[0.875,-5.268],[0.896,-5.233],[0.91,-5.233]]],[[[-0.878,-5.317],[-0.8,-5.388],[-0.758,-5.402],[-0.59,-5.416],[-0.52,-5.409],[-0.443,-5.43],[-0.282,-5.486],[-0.232,-5.514],[-0.232,-5.528],[-0.366,-5.535],[-0.415,-5.556],[-0.457,-5.599],[-0.478,-5.641],[-0.464,-5.789],[-0.562,-5.753],[-0.639,-5.753],[-0.674,-5.767],[-0.744,-5.859],[-0.751,-5.943],[-0.779,-5.936],[-0.857,-5.859],[-0.948,-5.725],[-0.934,-5.718],[-0.934,-5.634],[-0.955,-5.528],[-0.948,-5.359],[-0.878,-5.317]]]]},"properties":{"abbr":"CGPn","name":"central gray of the pons","plate":45,"ap_bregma_mm":-7.6,"area_mm2":0.4941,"traced_fraction":[1.0,0.991],"n_labels":2,"no_drawn_outline":false}},{"type":"Feature","geometry":{"type":"MultiPolygon","coordinates":[[[[0.455,-5.81],[0.398,-5.873],[0.314,-5.915],[0.3,-5.936],[0.09,-5.95],[0.055,-5.936],[0.02,-5.88],[0.013,-5.817],[0.027,-5.718],[0.055,-5.655],[0.083,-5.634],[0.09,-5.592],[0.153,-5.563],[0.174,-5.535],[0.195,-5.535],[0.23,-5.542],[0.335,-5.521],[0.412,-5.542],[0.44,-5.563],[0.469,-5.627],[0.455,-5.81]]],[[[-0.232,-5.528],[-0.148,-5.556],[-0.148,-5.585],[-0.071,-5.641],[-0.015,-5.774],[-0.008,-5.866],[-0.029,-5.929],[-0.057,-5.957],[-0.099,-5.964],[-0.198,-5.957],[-0.345,-5.908],[-0.464,-5.789],[-0.478,-5.641],[-0.457,-5.599],[-0.415,-5.556],[-0.366,-5.535],[-0.232,-5.528]]]]},"properties":{"abbr":"PDTg","name":"posterodorsal tegmental nucleus","plate":45,"ap_bregma_mm":-7.6,"area_mm2":0.3103,"traced_fraction":[1.0,1.0],"n_labels":2,"no_drawn_outline":false}},{"type":"Feature","geometry":{"type":"MultiPolygon","coordinates":[[[[3.245,-5.704],[3.245,-5.866],[2.958,-5.873],[2.944,-5.873],[2.916,-5.831],[2.881,-5.824],[2.845,-5.76],[2.761,-5.676],[2.754,-5.641],[2.775,-5.585],[2.866,-5.563],[3.049,-5.613],[3.245,-5.704]]],[[[-2.645,-5.662],[-2.658,-5.711],[-2.736,-5.81],[-2.75,-5.852],[-2.778,-5.852],[-2.876,-5.964],[-2.974,-5.964],[-3.051,-5.915],[-3.1,-5.915],[-3.107,-5.767],[-3.107,-5.753],[-3.065,-5.725],[-2.981,-5.697],[-2.645,-5.662]]]]},"properties":{"abbr":"Sca","name":"spherical cell area, ventral cochlear nucleus","plate":45,"ap_bregma_mm":-7.6,"area_mm2":0.1975,"traced_fraction":[0.705,0.751],"n_labels":2,"no_drawn_outline":true}},{"type":"Feature","geometry":{"type":"MultiPolygon","coordinates":[[[[2.383,-5.528],[2.446,-5.535],[2.495,-5.563],[2.495,-5.76],[2.453,-6.028],[2.432,-6.063],[2.355,-6.33],[2.292,-6.443],[2.264,-6.386],[2.214,-6.091],[2.165,-5.971],[2.158,-5.817],[2.172,-5.718],[2.2,-5.648],[2.235,-5.606],[2.243,-5.556],[2.383,-5.528]]],[[[-2.364,-5.88],[-2.035,-5.88],[-2.063,-5.971],[-2.084,-5.985],[-2.147,-6.119],[-2.21,-6.471],[-2.238,-6.457],[-2.273,-6.372],[-2.336,-6.035],[-2.35,-6.021],[-2.364,-5.88]]]]},"properties":{"abbr":"Pr5DM","name":"principal sensory trigeminal nucleus, dorsomedial part","plate":45,"ap_bregma_mm":-7.6,"area_mm2":0.3032,"traced_fraction":[0.987,0.833],"n_labels":1,"no_drawn_outline":false}},{"type":"Feature","geometry":{"type":"MultiPolygon","coordinates":[[[[3.245,-5.704],[3.666,-5.908],[3.68,-5.929],[3.701,-5.929],[3.771,-5.992],[3.834,-6.126],[3.869,-6.154],[3.806,-6.204],[3.441,-6.26],[3.364,-6.288],[3.35,-6.295],[3.343,-6.295],[3.322,-6.295],[3.322,-6.309],[3.308,-6.316],[3.266,-6.337],[3.189,-6.436],[3.182,-6.429],[3.168,-6.429],[3.14,-6.316],[3.14,-6.161],[3.098,-6.091],[3.035,-6.035],[3.028,-6.0],[2.958,-5.873],[3.245,-5.866],[3.245,-5.704]]],[[[-3.107,-5.767],[-3.1,-5.915],[-3.051,-5.915],[-2.974,-5.964],[-2.876,-5.964],[-3.121,-6.246],[-3.191,-6.295],[-3.318,-6.344],[-3.325,-6.351],[-3.339,-6.344],[-3.493,-6.274],[-3.57,-6.225],[-3.591,-6.196],[-3.661,-6.161],[-3.703,-6.098],[-3.689,-6.07],[-3.619,-6.042],[-3.5,-5.908],[-3.437,-5.88],[-3.311,-5.852],[-3.262,-5.824],[-3.254,-5.796],[-3.212,-5.796],[-3.205,-5.789],[-3.156,-5.789],[-3.107,-5.767]]],[[[3.343,-6.295],[3.35,-6.295],[3.343,-6.302],[3.343,-6.295]]]]},"properties":{"abbr":"VCA","name":"ventral cochlear nucleus, anterior part","plate":45,"ap_bregma_mm":-7.6,"area_mm2":0.5746,"traced_fraction":[0.723,0.848,1.0],"n_labels":2,"no_drawn_outline":false}},{"type":"Feature","geometry":{"type":"MultiPolygon","coordinates":[[[[1.485,-5.514],[1.59,-5.556],[1.66,-5.613],[1.499,-5.634],[1.422,-5.662],[1.394,-5.69],[1.38,-5.718],[1.38,-5.789],[1.443,-5.866],[1.394,-5.915],[1.38,-5.957],[1.38,-6.063],[1.394,-6.077],[1.408,-6.267],[1.443,-6.421],[1.443,-6.485],[1.422,-6.506],[1.366,-6.379],[1.338,-6.351],[1.282,-6.351],[1.254,-6.386],[1.247,-6.492],[1.296,-6.597],[1.142,-6.604],[1.114,-6.569],[1.071,-6.443],[0.994,-6.232],[0.98,-6.225],[0.973,-6.161],[0.938,-6.091],[0.903,-5.887],[0.882,-5.859],[0.882,-5.838],[0.966,-5.753],[0.987,-5.711],[1.044,-5.718],[1.05,-5.774],[1.079,-5.81],[1.149,-5.81],[1.219,-5.767],[1.24,-5.767],[1.303,-5.725],[1.387,-5.634],[1.408,-5.577],[1.443,-5.556],[1.471,-5.514],[1.485,-5.514]]],[[[-0.99,-5.697],[-0.948,-5.725],[-0.857,-5.859],[-0.885,-5.908],[-0.948,-6.154],[-1.046,-6.351],[-1.095,-6.485],[-1.123,-6.513],[-1.284,-6.858],[-1.459,-6.851],[-1.425,-6.738],[-1.438,-6.675],[-1.438,-6.492],[-1.375,-6.225],[-1.305,-6.056],[-1.305,-5.957],[-1.361,-5.831],[-1.305,-5.789],[-1.291,-5.718],[-1.277,-5.704],[-1.179,-5.774],[-1.158,-5.774],[-1.123,-5.803],[-1.053,-5.81],[-1.025,-5.767],[-1.018,-5.725],[-0.99,-5.697]]]]},"properties":{"abbr":"SubCD","name":"subcoeruleus nucleus, dorsal part","plate":45,"ap_bregma_mm":-7.6,"area_mm2":0.7244,"traced_fraction":[0.96,0.954],"n_labels":2,"no_drawn_outline":false}},{"type":"Feature","geometry":{"type":"MultiPolygon","coordinates":[[[[-0.345,-5.908],[-0.198,-5.957],[-0.099,-5.964],[-0.127,-6.063],[-0.127,-6.189],[-0.155,-6.21],[-0.19,-6.154],[-0.232,-6.126],[-0.296,-6.126],[-0.373,-6.147],[-0.408,-6.14],[-0.429,-6.084],[-0.429,-6.014],[-0.401,-5.957],[-0.345,-5.908]]],[[[0.3,-5.936],[0.363,-6.021],[0.335,-6.147],[0.202,-6.147],[0.153,-6.168],[0.139,-6.189],[0.097,-6.189],[0.104,-6.049],[0.09,-5.95],[0.3,-5.936]]]]},"properties":{"abbr":"CGA","name":"central gray, alpha part","plate":45,"ap_bregma_mm":-7.6,"area_mm2":0.1148,"traced_fraction":[0.994,1.0],"n_labels":2,"no_drawn_outline":false}},{"type":"Feature","geometry":{"type":"MultiPolygon","coordinates":[[[[2.004,-5.648],[2.011,-5.704],[1.99,-5.732],[1.99,-5.803],[2.032,-5.88],[2.088,-5.936],[2.165,-5.971],[2.214,-6.091],[2.264,-6.386],[2.292,-6.443],[2.264,-6.541],[2.249,-6.548],[2.214,-6.632],[2.172,-6.858],[2.179,-6.914],[2.081,-6.942],[1.997,-6.921],[1.948,-6.893],[1.941,-6.872],[1.997,-6.555],[2.032,-6.471],[2.025,-6.295],[1.997,-6.232],[1.997,-6.182],[1.955,-6.063],[1.857,-5.915],[1.913,-5.873],[1.92,-5.796],[1.899,-5.739],[1.836,-5.676],[1.836,-5.662],[2.004,-5.648]]],[[[-1.845,-5.838],[-1.81,-5.936],[-1.88,-6.077],[-1.915,-6.182],[-1.929,-6.253],[-1.922,-6.302],[-1.943,-6.379],[-1.936,-6.506],[-1.95,-6.52],[-1.936,-6.724],[-1.908,-6.836],[-1.866,-6.907],[-1.887,-6.921],[-1.901,-6.977],[-1.95,-7.047],[-1.957,-7.104],[-2.035,-7.118],[-2.161,-7.181],[-2.203,-7.146],[-2.189,-7.055],[-2.133,-6.991],[-2.119,-6.858],[-2.154,-6.661],[-2.217,-6.492],[-2.21,-6.471],[-2.147,-6.119],[-2.112,-6.035],[-2.063,-5.971],[-1.957,-5.929],[-1.859,-5.838],[-1.845,-5.838]]]]},"properties":{"abbr":"m5","name":"motor root of the trigeminal nerve","plate":45,"ap_bregma_mm":-7.6,"area_mm2":0.5671,"traced_fraction":[0.971,0.998],"n_labels":2,"no_drawn_outline":false}},{"type":"Feature","geometry":{"type":"MultiPolygon","coordinates":[[[[-1.361,-5.831],[-1.305,-5.957],[-1.305,-6.056],[-1.375,-6.225],[-1.438,-6.492],[-1.438,-6.675],[-1.425,-6.738],[-1.459,-6.851],[-1.474,-6.851],[-1.523,-6.907],[-1.572,-6.921],[-1.796,-6.71],[-1.936,-6.506],[-1.943,-6.379],[-1.922,-6.302],[-1.88,-6.274],[-1.838,-6.182],[-1.754,-6.063],[-1.621,-5.943],[-1.621,-5.929],[-1.551,-5.866],[-1.551,-5.845],[-1.361,-5.831]]],[[[1.555,-5.852],[1.569,-5.88],[1.668,-5.936],[1.85,-6.077],[1.913,-6.14],[1.934,-6.182],[1.997,-6.232],[2.025,-6.295],[2.032,-6.351],[2.032,-6.471],[1.997,-6.555],[1.934,-6.569],[1.878,-6.625],[1.864,-6.731],[1.787,-6.801],[1.689,-6.836],[1.611,-6.844],[1.597,-6.844],[1.541,-6.752],[1.471,-6.555],[1.457,-6.541],[1.429,-6.541],[1.422,-6.506],[1.443,-6.485],[1.443,-6.421],[1.408,-6.267],[1.394,-6.077],[1.38,-6.063],[1.38,-5.957],[1.394,-5.915],[1.443,-5.866],[1.478,-5.852],[1.555,-5.852]]]]},"properties":{"abbr":"5N","name":"motor trigeminal nucleus","plate":45,"ap_bregma_mm":-7.6,"area_mm2":0.8599,"traced_fraction":[1.0,0.979],"n_labels":2,"no_drawn_outline":false}},{"type":"Feature","geometry":{"type":"MultiPolygon","coordinates":[[[[2.495,-5.563],[2.586,-5.585],[2.586,-5.599],[2.761,-5.676],[2.845,-5.76],[2.881,-5.824],[2.895,-5.894],[2.881,-5.992],[2.845,-6.063],[2.705,-6.239],[2.67,-6.33],[2.684,-6.654],[2.67,-6.724],[2.642,-6.78],[2.565,-6.865],[2.432,-6.963],[2.327,-7.012],[2.228,-7.012],[2.2,-6.977],[2.179,-6.914],[2.172,-6.858],[2.214,-6.632],[2.249,-6.548],[2.264,-6.541],[2.292,-6.443],[2.355,-6.33],[2.432,-6.063],[2.453,-6.028],[2.495,-5.76],[2.495,-5.563]]],[[[-2.406,-5.577],[-2.364,-5.88],[-2.35,-6.021],[-2.336,-6.035],[-2.273,-6.372],[-2.238,-6.457],[-2.21,-6.471],[-2.217,-6.492],[-2.154,-6.661],[-2.119,-6.858],[-2.133,-6.991],[-2.189,-7.055],[-2.371,-6.977],[-2.462,-6.914],[-2.603,-6.787],[-2.673,-6.689],[-2.694,-6.611],[-2.687,-6.576],[-2.616,-6.45],[-2.609,-6.274],[-2.652,-6.14],[-2.743,-5.992],[-2.785,-5.95],[-2.75,-5.852],[-2.736,-5.81],[-2.658,-5.711],[-2.645,-5.662],[-2.56,-5.613],[-2.406,-5.577]]]]},"properties":{"abbr":"Pr5VL","name":"principal sensory trigeminal nucleus, ventrolateral part","plate":45,"ap_bregma_mm":-7.6,"area_mm2":1.0541,"traced_fraction":[0.982,1.0],"n_labels":2,"no_drawn_outline":false}},{"type":"Feature","geometry":{"type":"MultiPolygon","coordinates":[[[[-0.148,-5.556],[-0.113,-5.556],[-0.015,-5.613],[0.09,-5.592],[0.09,-5.62],[0.055,-5.655],[0.027,-5.718],[0.013,-5.817],[0.02,-5.88],[0.055,-5.936],[0.013,-6.0],[0.013,-6.112],[0.034,-6.175],[0.055,-6.189],[0.097,-6.189],[0.139,-6.189],[0.083,-6.386],[0.083,-6.52],[0.104,-6.541],[0.146,-6.541],[0.279,-6.4],[0.293,-6.358],[0.356,-6.274],[0.363,-6.225],[0.342,-6.154],[0.44,-6.154],[0.574,-6.119],[0.665,-6.07],[0.742,-5.992],[0.756,-5.992],[0.84,-5.887],[0.882,-5.859],[0.903,-5.887],[0.938,-6.091],[0.973,-6.161],[0.98,-6.225],[0.994,-6.232],[1.071,-6.443],[0.931,-6.52],[0.644,-6.625],[0.293,-6.71],[0.272,-6.661],[0.223,-6.618],[0.181,-6.604],[0.139,-6.611],[0.062,-6.661],[0.041,-6.703],[0.034,-6.794],[-0.043,-6.794],[-0.043,-6.738],[-0.092,-6.675],[-0.169,-6.675],[-0.24,-6.731],[-0.674,-6.632],[-0.962,-6.527],[-0.99,-6.492],[-1.095,-6.485],[-1.046,-6.351],[-0.948,-6.154],[-0.885,-5.908],[-0.857,-5.859],[-0.779,-5.936],[-0.751,-5.943],[-0.737,-5.992],[-0.583,-6.119],[-0.52,-6.14],[-0.408,-6.14],[-0.373,-6.147],[-0.38,-6.26],[-0.366,-6.295],[-0.275,-6.443],[-0.205,-6.52],[-0.177,-6.534],[-0.134,-6.534],[-0.113,-6.513],[-0.127,-6.358],[-0.162,-6.253],[-0.155,-6.21],[-0.127,-6.189],[-0.064,-6.189],[-0.043,-6.133],[-0.029,-5.985],[-0.057,-5.957],[-0.029,-5.929],[-0.008,-5.866],[-0.015,-5.774],[-0.071,-5.641],[-0.148,-5.585],[-0.148,-5.556]]]]},"properties":{"abbr":"DMTg","name":"dorsomedial tegmental area","plate":45,"ap_bregma_mm":-7.6,"area_mm2":1.0014,"traced_fraction":[0.979],"n_labels":2,"no_drawn_outline":false}},{"type":"Feature","geometry":{"type":"MultiPolygon","coordinates":[[[[1.422,-6.506],[1.429,-6.541],[1.436,-6.64],[1.408,-6.682],[1.352,-6.668],[1.296,-6.597],[1.247,-6.492],[1.254,-6.386],[1.282,-6.351],[1.317,-6.344],[1.366,-6.379],[1.422,-6.506]]]]},"properties":{"abbr":"5ADi","name":"motor trigeminal nucleus, anterior digastric part","plate":45,"ap_bregma_mm":-7.6,"area_mm2":0.0426,"traced_fraction":[1.0],"n_labels":1,"no_drawn_outline":false}},{"type":"Feature","geometry":{"type":"MultiPolygon","coordinates":[[[[-1.551,-5.845],[-1.551,-5.866],[-1.621,-5.929],[-1.621,-5.943],[-1.754,-6.063],[-1.817,-6.147],[-1.88,-6.274],[-1.922,-6.302],[-1.929,-6.253],[-1.915,-6.182],[-1.88,-6.077],[-1.81,-5.936],[-1.782,-5.936],[-1.747,-5.901],[-1.67,-5.866],[-1.551,-5.845]]],[[[1.857,-5.915],[1.955,-6.063],[1.99,-6.154],[1.997,-6.232],[1.934,-6.182],[1.913,-6.14],[1.85,-6.077],[1.668,-5.936],[1.569,-5.88],[1.555,-5.852],[1.71,-5.852],[1.857,-5.915]]],[[[-1.936,-6.506],[-1.796,-6.71],[-1.572,-6.921],[-1.649,-6.963],[-1.747,-6.97],[-1.824,-6.949],[-1.866,-6.907],[-1.908,-6.836],[-1.936,-6.724],[-1.95,-6.618],[-1.95,-6.52],[-1.936,-6.506]]],[[[1.997,-6.555],[1.941,-6.872],[1.948,-6.893],[1.934,-6.893],[1.899,-6.942],[1.836,-6.97],[1.71,-6.956],[1.611,-6.872],[1.611,-6.844],[1.689,-6.836],[1.787,-6.801],[1.864,-6.731],[1.878,-6.625],[1.934,-6.569],[1.997,-6.555]]]]},"properties":{"abbr":"P5","name":"peritrigeminal zone","plate":45,"ap_bregma_mm":-7.6,"area_mm2":0.24,"traced_fraction":[1.0,1.0,1.0,1.0],"n_labels":4,"no_drawn_outline":false}},{"type":"Feature","geometry":{"type":"MultiPolygon","coordinates":[[[[0.293,-6.71],[0.293,-6.844],[0.265,-6.914],[0.209,-6.935],[0.153,-6.935],[0.083,-6.914],[0.048,-6.879],[0.034,-6.794],[0.041,-6.703],[0.062,-6.661],[0.139,-6.611],[0.181,-6.604],[0.223,-6.618],[0.272,-6.661],[0.293,-6.71]]],[[[-0.043,-6.794],[-0.043,-6.886],[-0.071,-6.921],[-0.127,-6.942],[-0.169,-6.942],[-0.211,-6.921],[-0.24,-6.872],[-0.24,-6.731],[-0.169,-6.675],[-0.092,-6.675],[-0.043,-6.738],[-0.043,-6.794]]]]},"properties":{"abbr":"RtTg","name":"reticulotegmental nucleus of the pons","plate":45,"ap_bregma_mm":-7.6,"area_mm2":0.1167,"traced_fraction":[1.0,1.0],"n_labels":2,"no_drawn_outline":false}},{"type":"Feature","geometry":{"type":"MultiPolygon","coordinates":[[[[1.429,-6.541],[1.457,-6.541],[1.471,-6.555],[1.541,-6.752],[1.597,-6.844],[1.611,-6.844],[1.611,-6.872],[1.71,-6.956],[1.836,-6.97],[1.843,-7.047],[1.843,-7.132],[1.78,-7.132],[1.766,-7.146],[1.759,-7.244],[1.71,-7.251],[1.668,-7.287],[1.66,-7.343],[1.682,-7.399],[1.682,-7.448],[1.626,-7.484],[1.576,-7.547],[1.52,-7.512],[1.45,-7.265],[1.387,-7.139],[1.366,-7.125],[1.366,-7.104],[1.24,-6.865],[1.142,-6.604],[1.296,-6.597],[1.352,-6.668],[1.408,-6.682],[1.436,-6.64],[1.429,-6.541]]],[[[-1.459,-6.851],[-1.284,-6.858],[-1.368,-7.047],[-1.368,-7.076],[-1.382,-7.083],[-1.389,-7.125],[-1.404,-7.132],[-1.446,-7.23],[-1.537,-7.54],[-1.572,-7.568],[-1.656,-7.505],[-1.733,-7.448],[-1.74,-7.427],[-1.67,-7.364],[-1.684,-7.272],[-1.712,-7.244],[-1.754,-7.23],[-1.845,-7.251],[-1.88,-7.153],[-1.929,-7.111],[-1.957,-7.104],[-1.95,-7.047],[-1.908,-6.991],[-1.887,-6.921],[-1.866,-6.907],[-1.824,-6.949],[-1.747,-6.97],[-1.649,-6.963],[-1.572,-6.921],[-1.523,-6.907],[-1.474,-6.851],[-1.459,-6.851]]]]},"properties":{"abbr":"SubCV","name":"subcoeruleus nucleus, ventral part","plate":45,"ap_bregma_mm":-7.6,"area_mm2":0.5349,"traced_fraction":[0.918,0.948],"n_labels":2,"no_drawn_outline":false}},{"type":"Feature","geometry":{"type":"MultiPolygon","coordinates":[[[[0.644,-6.625],[0.644,-7.167],[0.37,-7.167],[0.37,-7.055],[0.349,-7.026],[0.349,-6.998],[0.265,-6.914],[0.293,-6.844],[0.293,-6.71],[0.644,-6.625]]],[[[-0.674,-6.632],[-0.24,-6.731],[-0.24,-6.872],[-0.211,-6.921],[-0.401,-7.104],[-0.401,-7.167],[-0.674,-7.167],[-0.674,-6.632]]]]},"properties":{"abbr":"PnC","name":"pontine reticular nucleus, caudal part","plate":45,"ap_bregma_mm":-7.6,"area_mm2":0.352,"traced_fraction":[0.371,0.405],"n_labels":2,"no_drawn_outline":true}},{"type":"Feature","geometry":{"type":"MultiPolygon","coordinates":[[[[1.071,-6.443],[1.114,-6.569],[1.142,-6.604],[1.24,-6.865],[1.366,-7.104],[1.366,-7.125],[1.387,-7.139],[1.45,-7.265],[1.52,-7.512],[1.576,-7.547],[1.548,-7.596],[1.548,-7.645],[1.548,-7.652],[1.352,-7.652],[1.324,-7.624],[1.261,-7.624],[1.086,-7.702],[0.931,-7.814],[0.819,-7.927],[0.742,-8.039],[0.644,-8.06],[0.609,-8.088],[0.532,-8.11],[0.237,-8.145],[0.223,-8.145],[0.174,-7.912],[0.083,-7.765],[0.16,-7.687],[0.16,-7.54],[-0.113,-7.54],[-0.113,-7.695],[-0.057,-7.751],[-0.092,-7.786],[-0.148,-7.884],[-0.19,-8.004],[-0.211,-8.138],[-0.261,-8.131],[-0.611,-8.102],[-0.709,-8.067],[-0.766,-8.067],[-0.787,-8.011],[-0.878,-7.92],[-0.892,-7.92],[-1.025,-7.8],[-1.172,-7.716],[-1.277,-7.695],[-1.382,-7.695],[-1.425,-7.723],[-1.425,-7.744],[-1.558,-7.737],[-1.558,-7.624],[-1.572,-7.568],[-1.537,-7.54],[-1.446,-7.23],[-1.404,-7.132],[-1.389,-7.125],[-1.382,-7.083],[-1.368,-7.076],[-1.368,-7.047],[-1.284,-6.858],[-1.123,-6.513],[-1.095,-6.485],[-0.99,-6.492],[-0.962,-6.527],[-0.674,-6.632],[-0.674,-7.167],[-0.401,-7.167],[-0.401,-7.104],[-0.211,-6.921],[-0.169,-6.942],[-0.127,-6.942],[-0.071,-6.921],[-0.043,-6.886],[-0.043,-6.794],[0.034,-6.794],[0.048,-6.879],[0.083,-6.914],[0.153,-6.935],[0.209,-6.935],[0.265,-6.914],[0.349,-6.998],[0.349,-7.026],[0.37,-7.055],[0.37,-7.167],[0.644,-7.167],[0.644,-6.625],[0.931,-6.52],[1.071,-6.443]]]]},"properties":{"abbr":"ts","name":"tectospinal tract","plate":45,"ap_bregma_mm":-7.6,"area_mm2":3.0726,"traced_fraction":[0.711],"n_labels":2,"no_drawn_outline":true}},{"type":"Feature","geometry":{"type":"MultiPolygon","coordinates":[[[[-1.74,-7.427],[-1.852,-7.371],[-1.922,-7.364],[-1.887,-7.294],[-1.845,-7.251],[-1.754,-7.23],[-1.712,-7.244],[-1.684,-7.272],[-1.67,-7.364],[-1.74,-7.427]]],[[[1.759,-7.244],[1.822,-7.272],[1.878,-7.336],[1.913,-7.392],[1.913,-7.448],[1.871,-7.434],[1.731,-7.434],[1.682,-7.448],[1.682,-7.399],[1.66,-7.343],[1.668,-7.287],[1.71,-7.251],[1.759,-7.244]]]]},"properties":{"abbr":"A5","name":"A5 noradrenaline cells","plate":45,"ap_bregma_mm":-7.6,"area_mm2":0.0687,"traced_fraction":[1.0,1.0],"n_labels":1,"no_drawn_outline":false}},{"type":"Feature","geometry":{"type":"MultiPolygon","coordinates":[[[[-2.701,-6.844],[-2.673,-6.851],[-2.603,-6.935],[-2.539,-6.977],[-2.497,-7.04],[-2.406,-7.125],[-2.329,-7.16],[-2.231,-7.16],[-2.203,-7.146],[-2.161,-7.181],[-2.266,-7.308],[-2.273,-7.378],[-2.245,-7.413],[-2.273,-7.434],[-2.308,-7.434],[-2.315,-7.448],[-2.392,-7.448],[-2.413,-7.434],[-2.483,-7.315],[-2.483,-7.294],[-2.504,-7.272],[-2.504,-7.251],[-2.694,-6.893],[-2.701,-6.844]]],[[[1.948,-6.893],[1.997,-6.921],[2.081,-6.942],[2.179,-6.914],[2.2,-6.977],[2.228,-7.012],[2.165,-7.055],[2.151,-7.097],[2.158,-7.16],[2.207,-7.209],[2.277,-7.209],[2.313,-7.195],[2.46,-7.083],[2.684,-7.083],[2.39,-7.519],[2.193,-7.519],[2.144,-7.484],[2.165,-7.434],[2.165,-7.322],[2.109,-7.174],[2.067,-7.125],[1.969,-7.061],[1.906,-7.04],[1.843,-7.047],[1.836,-6.97],[1.899,-6.942],[1.934,-6.893],[1.948,-6.893]]]]},"properties":{"abbr":"7n","name":"facial nerve","plate":45,"ap_bregma_mm":-7.6,"area_mm2":0.3039,"traced_fraction":[0.915,0.88],"n_labels":2,"no_drawn_outline":false}},{"type":"Feature","geometry":{"type":"MultiPolygon","coordinates":[[[[2.214,-5.12],[2.243,-5.127],[2.256,-5.149],[2.298,-5.155],[2.298,-5.191],[2.341,-5.24],[2.355,-5.282],[2.285,-5.282],[2.095,-5.219],[1.731,-5.022],[1.703,-4.98],[1.639,-4.937],[1.345,-4.797],[1.338,-4.748],[1.387,-4.705],[1.464,-4.705],[1.534,-4.726],[1.654,-4.797],[1.759,-4.895],[1.941,-5.015],[2.053,-5.064],[2.151,-5.127],[2.214,-5.134],[2.214,-5.12]]],[[[-2.245,-7.413],[-2.217,-7.441],[-2.119,-7.476],[-2.14,-7.526],[-2.14,-7.638],[-2.035,-7.786],[-1.929,-7.87],[-1.943,-7.899],[-1.943,-7.969],[-1.964,-7.969],[-2.006,-7.906],[-2.02,-7.906],[-2.133,-7.8],[-2.28,-7.603],[-2.343,-7.54],[-2.392,-7.448],[-2.315,-7.448],[-2.308,-7.434],[-2.273,-7.434],[-2.245,-7.413]]],[[[2.144,-7.484],[2.193,-7.519],[2.39,-7.519],[2.081,-7.969],[1.969,-7.969],[1.948,-7.948],[1.892,-7.948],[1.871,-7.912],[1.955,-7.849],[2.011,-7.744],[2.025,-7.695],[2.018,-7.526],[2.032,-7.512],[2.081,-7.512],[2.144,-7.484]]]]},"properties":{"abbr":"vsc","name":"ventral spinocerebellar tract","plate":45,"ap_bregma_mm":-7.6,"area_mm2":0.3171,"traced_fraction":[1.0,0.873,0.869],"n_labels":3,"no_drawn_outline":false}},{"type":"Feature","geometry":{"type":"MultiPolygon","coordinates":[[[[-1.922,-7.364],[-1.852,-7.371],[-1.74,-7.427],[-1.733,-7.448],[-1.656,-7.505],[-1.67,-7.505],[-1.677,-7.533],[-1.698,-7.54],[-1.74,-7.596],[-1.796,-7.61],[-1.88,-7.575],[-1.957,-7.491],[-2.042,-7.427],[-2.014,-7.392],[-1.922,-7.364]]],[[[1.913,-7.448],[1.92,-7.462],[1.864,-7.512],[1.836,-7.582],[1.801,-7.61],[1.801,-7.624],[1.759,-7.652],[1.675,-7.652],[1.647,-7.638],[1.548,-7.645],[1.548,-7.596],[1.576,-7.547],[1.626,-7.484],[1.682,-7.448],[1.731,-7.434],[1.871,-7.434],[1.913,-7.448]]]]},"properties":{"abbr":"DLPO","name":"dorsolateral periolivary nucleus","plate":45,"ap_bregma_mm":-7.6,"area_mm2":0.1076,"traced_fraction":[1.0,1.0],"n_labels":2,"no_drawn_outline":false}},{"type":"Feature","geometry":{"type":"MultiPolygon","coordinates":[[[[0.083,-7.765],[0.02,-7.73],[-0.015,-7.73],[-0.057,-7.751],[-0.113,-7.695],[-0.113,-7.54],[0.16,-7.54],[0.16,-7.687],[0.083,-7.765]]]]},"properties":{"abbr":"PnV","name":"pontine reticular nucleus, ventral part","plate":45,"ap_bregma_mm":-7.6,"area_mm2":0.0528,"traced_fraction":[0.233],"n_labels":1,"no_drawn_outline":true}},{"type":"Feature","geometry":{"type":"MultiPolygon","coordinates":[[[[-2.042,-7.427],[-1.957,-7.491],[-1.88,-7.575],[-1.796,-7.61],[-1.74,-7.596],[-1.698,-7.54],[-1.677,-7.533],[-1.67,-7.505],[-1.656,-7.505],[-1.572,-7.568],[-1.558,-7.624],[-1.558,-7.737],[-1.586,-7.877],[-1.663,-7.948],[-1.747,-7.955],[-1.803,-7.941],[-1.929,-7.87],[-2.035,-7.786],[-2.14,-7.638],[-2.14,-7.526],[-2.119,-7.476],[-2.063,-7.427],[-2.042,-7.427]]],[[[1.92,-7.462],[2.018,-7.526],[2.025,-7.695],[2.011,-7.744],[1.955,-7.849],[1.871,-7.912],[1.745,-7.955],[1.639,-7.948],[1.583,-7.92],[1.527,-7.863],[1.506,-7.821],[1.506,-7.751],[1.548,-7.652],[1.548,-7.645],[1.647,-7.638],[1.675,-7.652],[1.759,-7.652],[1.801,-7.624],[1.801,-7.61],[1.836,-7.582],[1.864,-7.512],[1.92,-7.462]]]]},"properties":{"abbr":"LSO","name":"lateral superior olive","plate":45,"ap_bregma_mm":-7.6,"area_mm2":0.353,"traced_fraction":[0.992,1.0],"n_labels":1,"no_drawn_outline":false}},{"type":"Feature","geometry":{"type":"MultiPolygon","coordinates":[[[[1.352,-7.652],[1.352,-7.765],[1.282,-7.87],[1.044,-8.039],[0.959,-8.081],[0.84,-8.11],[0.763,-8.102],[0.742,-8.081],[0.742,-8.039],[0.819,-7.927],[0.931,-7.814],[1.086,-7.702],[1.261,-7.624],[1.324,-7.624],[1.352,-7.652]]],[[[-0.766,-8.067],[-0.772,-8.124],[-0.815,-8.166],[-0.885,-8.194],[-0.969,-8.194],[-1.067,-8.159],[-1.172,-8.053],[-1.221,-8.018],[-1.242,-8.018],[-1.242,-7.997],[-1.347,-7.899],[-1.425,-7.793],[-1.425,-7.744],[-1.425,-7.723],[-1.382,-7.695],[-1.277,-7.695],[-1.172,-7.716],[-1.025,-7.8],[-0.892,-7.92],[-0.878,-7.92],[-0.787,-8.011],[-0.766,-8.067]]]]},"properties":{"abbr":"SPN","name":"superior periolivary nucleus","plate":45,"ap_bregma_mm":-7.6,"area_mm2":0.3312,"traced_fraction":[1.0,0.996],"n_labels":2,"no_drawn_outline":false}},{"type":"Feature","geometry":{"type":"MultiPolygon","coordinates":[[[[0.083,-7.765],[0.174,-7.912],[0.223,-8.145],[0.16,-8.152],[0.034,-8.173],[0.013,-8.095],[-0.022,-8.102],[-0.036,-8.173],[-0.127,-8.152],[-0.211,-8.138],[-0.198,-8.032],[-0.162,-7.92],[-0.12,-7.828],[-0.057,-7.751],[-0.015,-7.73],[0.02,-7.73],[0.083,-7.765]]]]},"properties":{"abbr":"RMg","name":"raphe magnus nucleus","plate":45,"ap_bregma_mm":-7.6,"area_mm2":0.1329,"traced_fraction":[1.0],"n_labels":1,"no_drawn_outline":false}},{"type":"Feature","geometry":{"type":"MultiPolygon","coordinates":[[[[1.45,-8.377],[1.38,-8.524],[1.324,-8.595],[1.324,-8.616],[1.261,-8.651],[1.177,-8.651],[1.156,-8.63],[1.142,-8.581],[1.17,-8.229],[1.198,-8.131],[1.303,-7.976],[1.373,-7.927],[1.422,-7.927],[1.485,-7.983],[1.499,-8.039],[1.499,-8.159],[1.45,-8.377]]],[[[-1.102,-8.623],[-1.151,-8.658],[-1.263,-8.658],[-1.291,-8.623],[-1.347,-8.623],[-1.396,-8.588],[-1.382,-8.546],[-1.368,-8.546],[-1.361,-8.496],[-1.467,-8.271],[-1.488,-8.18],[-1.488,-8.102],[-1.474,-8.053],[-1.446,-8.018],[-1.375,-8.004],[-1.284,-8.06],[-1.165,-8.25],[-1.109,-8.44],[-1.095,-8.531],[-1.102,-8.623]]]]},"properties":{"abbr":"MSO","name":"medial superior olive","plate":45,"ap_bregma_mm":-7.6,"area_mm2":0.3479,"traced_fraction":[0.964,0.964],"n_labels":2,"no_drawn_outline":false}},{"type":"Feature","geometry":{"type":"MultiPolygon","coordinates":[[[[-0.766,-8.067],[-0.709,-8.067],[-0.611,-8.102],[-0.261,-8.131],[-0.261,-8.25],[-0.359,-8.25],[-0.359,-8.264],[-0.457,-8.271],[-0.52,-8.187],[-0.604,-8.124],[-0.653,-8.124],[-0.73,-8.166],[-0.772,-8.124],[-0.766,-8.067]]],[[[0.532,-8.11],[0.483,-8.18],[0.448,-8.278],[0.391,-8.278],[0.391,-8.264],[0.237,-8.264],[0.237,-8.145],[0.532,-8.11]]]]},"properties":{"abbr":"tth","name":"trigeminothalamic tract","plate":45,"ap_bregma_mm":-7.6,"area_mm2":0.0821,"traced_fraction":[0.777,0.639],"n_labels":2,"no_drawn_outline":true}},{"type":"Feature","geometry":{"type":"MultiPolygon","coordinates":[[[[1.282,-7.87],[1.282,-7.92],[1.296,-7.927],[1.303,-7.976],[1.198,-8.131],[1.17,-8.229],[1.142,-8.581],[1.156,-8.63],[1.177,-8.651],[1.114,-8.707],[1.065,-8.728],[0.868,-8.742],[0.868,-8.735],[0.868,-8.714],[0.91,-8.651],[0.938,-8.546],[0.938,-8.433],[0.917,-8.356],[0.889,-8.292],[0.861,-8.264],[0.749,-8.208],[0.693,-8.145],[0.658,-8.116],[0.623,-8.11],[0.609,-8.088],[0.644,-8.06],[0.742,-8.039],[0.742,-8.081],[0.763,-8.102],[0.84,-8.11],[0.959,-8.081],[1.044,-8.039],[1.282,-7.87]]]]},"properties":{"abbr":"MVPO","name":"medioventral periolivary nucleus","plate":45,"ap_bregma_mm":-7.6,"area_mm2":0.2267,"traced_fraction":[0.952],"n_labels":2,"no_drawn_outline":false}},{"type":"Feature","geometry":{"type":"MultiPolygon","coordinates":[[[[0.518,-8.728],[0.518,-8.742],[0.532,-8.742],[0.63,-8.841],[0.679,-8.925],[0.679,-8.954],[0.49,-8.939],[0.377,-8.883],[0.174,-8.742],[0.09,-8.714],[0.048,-8.714],[-0.05,-8.75],[-0.24,-8.862],[-0.401,-8.904],[-0.555,-8.918],[-0.548,-8.827],[-0.478,-8.728],[-0.38,-8.658],[-0.211,-8.595],[-0.043,-8.595],[0.034,-8.665],[0.055,-8.665],[0.097,-8.616],[0.153,-8.588],[0.258,-8.588],[0.412,-8.651],[0.433,-8.679],[0.518,-8.728]]]]},"properties":{"abbr":"py","name":"pyramidal tract","plate":45,"ap_bregma_mm":-7.6,"area_mm2":0.2259,"traced_fraction":[1.0],"n_labels":2,"no_drawn_outline":false}},{"type":"Feature","geometry":{"type":"MultiPolygon","coordinates":[[[[-2.75,-5.852],[-2.785,-5.95],[-2.841,-5.992],[-2.939,-6.126],[-2.974,-6.21],[-2.981,-6.274],[-2.939,-6.414],[-2.799,-6.668],[-2.778,-6.682],[-2.701,-6.844],[-2.694,-6.893],[-2.595,-7.09],[-2.581,-7.097],[-2.483,-7.315],[-2.413,-7.434],[-2.392,-7.448],[-2.343,-7.54],[-2.28,-7.603],[-2.133,-7.8],[-2.063,-7.87],[-2.006,-7.906],[-1.964,-7.969],[-1.943,-7.969],[-1.943,-7.99],[-1.908,-8.018],[-1.873,-8.081],[-1.712,-8.257],[-1.691,-8.292],[-1.691,-8.384],[-1.747,-8.327],[-1.845,-8.278],[-1.985,-8.131],[-1.985,-8.116],[-2.168,-7.941],[-2.168,-7.927],[-2.231,-7.87],[-2.252,-7.828],[-2.308,-7.772],[-2.511,-7.462],[-2.736,-6.991],[-2.75,-6.963],[-2.827,-6.829],[-2.855,-6.794],[-2.869,-6.794],[-2.939,-6.682],[-3.044,-6.583],[-3.044,-6.569],[-3.198,-6.421],[-3.325,-6.351],[-3.318,-6.344],[-3.283,-6.323],[-3.233,-6.316],[-3.121,-6.246],[-2.876,-5.964],[-2.778,-5.852],[-2.75,-5.852]]],[[[0.532,-8.553],[0.672,-8.637],[0.77,-8.721],[0.868,-8.735],[0.868,-8.742],[0.833,-8.834],[0.833,-8.876],[0.868,-8.918],[0.819,-8.946],[0.679,-8.954],[0.679,-8.925],[0.63,-8.841],[0.532,-8.742],[0.518,-8.742],[0.518,-8.728],[0.532,-8.553]]]]},"properties":{"abbr":"tz","name":"trapezoid body","plate":45,"ap_bregma_mm":-7.6,"area_mm2":0.4241,"traced_fraction":[0.924,0.914],"n_labels":2,"no_drawn_outline":false}},{"type":"Feature","geometry":{"type":"MultiPolygon","coordinates":[[[[1.892,-7.948],[1.948,-7.948],[1.969,-7.969],[2.081,-7.969],[1.997,-8.102],[1.962,-8.131],[1.906,-8.215],[1.871,-8.236],[1.78,-8.363],[1.436,-8.672],[1.163,-8.841],[1.016,-8.897],[0.868,-8.918],[0.833,-8.876],[0.833,-8.834],[0.868,-8.742],[1.065,-8.728],[1.114,-8.707],[1.177,-8.651],[1.261,-8.651],[1.303,-8.637],[1.408,-8.475],[1.45,-8.377],[1.471,-8.377],[1.534,-8.306],[1.548,-8.306],[1.605,-8.229],[1.892,-7.948]]],[[[-1.102,-8.623],[-0.934,-8.735],[-0.723,-8.82],[-0.702,-8.841],[-0.702,-8.869],[-0.73,-8.897],[-0.73,-8.932],[-0.878,-8.932],[-1.025,-8.89],[-1.123,-8.841],[-1.256,-8.735],[-1.263,-8.658],[-1.151,-8.658],[-1.102,-8.623]]]]},"properties":{"abbr":"VNTB","name":"ventral nucleus of the trapezoid body","plate":45,"ap_bregma_mm":-7.6,"area_mm2":0.3449,"traced_fraction":[0.968,1.0],"n_labels":2,"no_drawn_outline":false}},{"type":"Feature","geometry":{"type":"MultiPolygon","coordinates":[[[[-2.189,-1.189],[-2.196,-1.238],[-2.175,-1.252],[-2.217,-1.435],[-2.371,-1.765],[-2.63,-2.173],[-2.813,-2.391],[-2.876,-2.518],[-2.869,-2.539],[-2.897,-2.602],[-2.883,-2.602],[-2.175,-3.32],[-2.154,-3.32],[-2.245,-3.524],[-2.336,-3.798],[-2.364,-3.833],[-2.448,-4.051],[-2.518,-4.058],[-2.603,-4.143],[-2.603,-4.551],[-2.63,-4.537],[-2.658,-4.487],[-2.946,-4.178],[-3.009,-4.15],[-3.086,-4.15],[-3.156,-4.199],[-3.191,-4.178],[-3.318,-3.981],[-3.346,-3.96],[-3.556,-3.643],[-3.682,-3.496],[-3.703,-3.453],[-3.857,-3.292],[-3.949,-3.228],[-3.942,-3.207],[-3.956,-3.207],[-3.935,-3.179],[-3.906,-3.031],[-3.9,-2.996],[-3.893,-2.954],[-3.885,-2.919],[-3.815,-2.546],[-3.794,-2.335],[-3.794,-2.04],[-3.773,-1.955],[-3.696,-1.794],[-3.619,-1.688],[-3.577,-1.653],[-3.514,-1.554],[-3.296,-1.365],[-3.247,-1.344],[-3.135,-1.259],[-3.023,-1.21],[-3.023,-1.196],[-2.939,-1.154],[-2.687,-1.062],[-2.546,-1.034],[-2.385,-1.034],[-2.266,-1.083],[-2.189,-1.189]]],[[[4.051,-3.271],[4.037,-3.271],[4.016,-3.32],[3.904,-3.369],[3.757,-3.482],[3.589,-3.664],[3.476,-3.833],[3.448,-3.854],[3.371,-3.974],[3.336,-3.974],[3.238,-3.925],[2.951,-3.636],[2.951,-2.926],[2.972,-2.926],[2.965,-2.842],[2.944,-2.595],[2.908,-2.441],[2.887,-2.23],[2.874,-2.159],[2.845,-2.124],[2.845,-2.103],[2.838,-2.061],[2.789,-1.991],[2.775,-1.991],[2.733,-1.934],[2.663,-1.885],[2.663,-1.871],[2.649,-1.871],[2.558,-1.78],[2.558,-1.765],[2.537,-1.758],[2.467,-1.653],[2.39,-1.463],[2.355,-1.308],[2.355,-1.154],[2.383,-1.111],[2.432,-1.083],[2.558,-1.083],[3.266,-1.259],[3.42,-1.315],[3.617,-1.421],[3.666,-1.435],[3.848,-1.59],[3.918,-1.695],[3.932,-1.695],[3.967,-1.744],[4.037,-1.878],[4.129,-2.188],[4.164,-2.434],[4.178,-2.982],[4.15,-3.102],[4.051,-3.271]]]]},"properties":{"abbr":"Crus1","name":"crus 1 of the ansiform lobule","plate":45,"ap_bregma_mm":-7.6,"area_mm2":6.7804,"traced_fraction":[0.856,0.853],"n_labels":2,"no_drawn_outline":false}},{"type":"Feature","geometry":{"type":"MultiPolygon","coordinates":[[[[-1.256,-1.329],[1.345,-1.336],[1.597,-1.885],[1.605,-1.927],[1.696,-2.11],[1.696,-2.138],[1.731,-2.195],[1.85,-2.483],[1.717,-2.483],[1.114,-3.095],[1.086,-3.088],[1.044,-2.968],[0.903,-2.708],[0.784,-2.546],[0.658,-2.413],[0.644,-2.413],[0.581,-2.342],[0.511,-2.307],[0.244,-2.258],[-0.029,-2.251],[-0.036,-2.265],[-0.141,-2.279],[-0.282,-2.321],[-0.31,-2.342],[-0.352,-2.342],[-0.513,-2.441],[-0.702,-2.624],[-0.8,-2.757],[-0.913,-2.94],[-1.074,-3.271],[-1.095,-3.271],[-1.425,-2.933],[-1.957,-2.933],[-1.943,-2.877],[-1.915,-2.842],[-1.81,-2.616],[-1.656,-2.258],[-1.628,-2.223],[-1.579,-2.096],[-1.544,-2.047],[-1.544,-2.026],[-1.368,-1.667],[-1.256,-1.329]]]]},"properties":{"abbr":"4Cb","name":"4th cerebellar lobule","plate":45,"ap_bregma_mm":-7.6,"area_mm2":4.2234,"traced_fraction":[0.587],"n_labels":1,"no_drawn_outline":true}},{"type":"Feature","geometry":{"type":"MultiPolygon","coordinates":[[[[-1.943,-5.458],[-1.985,-5.437],[-2.042,-5.437],[-2.048,-5.381],[-1.859,-5.24],[-1.782,-5.212],[-1.719,-5.17],[-1.53,-5.113],[-1.305,-4.994],[-1.2,-4.973],[-1.193,-5.029],[-1.214,-5.057],[-1.298,-5.106],[-1.459,-5.17],[-1.53,-5.254],[-1.607,-5.303],[-1.628,-5.331],[-1.796,-5.416],[-1.943,-5.458]]],[[[1.359,-4.98],[1.605,-5.085],[1.829,-5.149],[1.983,-5.226],[2.165,-5.366],[2.193,-5.423],[2.186,-5.479],[2.13,-5.5],[1.976,-5.493],[1.878,-5.451],[1.801,-5.388],[1.78,-5.388],[1.66,-5.303],[1.618,-5.289],[1.597,-5.261],[1.492,-5.191],[1.359,-5.12],[1.254,-5.022],[1.254,-5.001],[1.282,-4.973],[1.359,-4.98]]]]},"properties":{"abbr":"scp","name":"superior cerebellar peduncle","plate":45,"ap_bregma_mm":-7.6,"area_mm2":0.3007,"traced_fraction":[1.0,1.0],"n_labels":1,"no_drawn_outline":false}},{"type":"Feature","geometry":{"type":"MultiPolygon","coordinates":[[[[-0.955,-5.184],[-0.878,-5.317],[-0.948,-5.359],[-0.955,-5.528],[-0.934,-5.634],[-0.934,-5.718],[-0.948,-5.725],[-0.99,-5.697],[-1.011,-5.676],[-1.053,-5.542],[-1.06,-5.345],[-1.018,-5.24],[-0.969,-5.184],[-0.955,-5.184]]],[[[0.931,-5.198],[0.994,-5.198],[1.05,-5.296],[1.079,-5.395],[1.086,-5.613],[1.044,-5.718],[0.987,-5.711],[0.98,-5.486],[0.91,-5.289],[0.91,-5.233],[0.91,-5.226],[0.917,-5.219],[0.931,-5.198]]]]},"properties":{"abbr":"LC","name":"locus coeruleus","plate":45,"ap_bregma_mm":-7.6,"area_mm2":0.1087,"traced_fraction":[0.983,0.955],"n_labels":1,"no_drawn_outline":false}},{"type":"Feature","geometry":{"type":"MultiPolygon","coordinates":[[[[0.91,-5.078],[0.938,-5.141],[0.931,-5.198],[0.917,-5.219],[0.91,-5.226],[0.91,-5.233],[0.896,-5.233],[0.896,-5.247],[0.805,-5.324],[0.714,-5.374],[0.384,-5.416],[0.265,-5.465],[0.223,-5.493],[0.195,-5.535],[0.174,-5.535],[0.153,-5.563],[0.09,-5.592],[-0.015,-5.613],[-0.113,-5.556],[-0.148,-5.556],[-0.232,-5.528],[-0.232,-5.514],[-0.282,-5.486],[-0.443,-5.43],[-0.436,-5.212],[-0.078,-5.275],[0.188,-5.268],[0.616,-5.17],[0.91,-5.078]]]]},"properties":{"abbr":"4V","name":"4th ventricle","plate":45,"ap_bregma_mm":-7.6,"area_mm2":0.3326,"traced_fraction":[0.951],"n_labels":1,"no_drawn_outline":false}},{"type":"Feature","geometry":{"type":"MultiPolygon","coordinates":[[[[-1.046,-5.078],[-1.004,-5.085],[-0.962,-5.134],[-0.955,-5.184],[-0.969,-5.184],[-1.018,-5.24],[-1.06,-5.345],[-1.053,-5.542],[-1.011,-5.676],[-0.99,-5.697],[-1.018,-5.725],[-1.025,-5.767],[-1.053,-5.81],[-1.102,-5.81],[-1.158,-5.774],[-1.2,-5.641],[-1.2,-5.535],[-1.214,-5.521],[-1.396,-5.535],[-1.431,-5.521],[-1.474,-5.479],[-1.453,-5.402],[-1.368,-5.303],[-1.249,-5.212],[-1.207,-5.198],[-1.067,-5.106],[-1.046,-5.078]]],[[[1.079,-5.092],[1.163,-5.17],[1.296,-5.254],[1.408,-5.359],[1.45,-5.423],[1.464,-5.486],[1.485,-5.514],[1.471,-5.514],[1.471,-5.528],[1.408,-5.577],[1.331,-5.556],[1.254,-5.563],[1.219,-5.676],[1.219,-5.767],[1.149,-5.81],[1.079,-5.81],[1.05,-5.774],[1.044,-5.718],[1.086,-5.613],[1.079,-5.395],[1.05,-5.296],[0.994,-5.198],[1.008,-5.113],[1.029,-5.092],[1.079,-5.092]]]]},"properties":{"abbr":"Me5","name":"mesencephalic trigeminal nucleus","plate":45,"ap_bregma_mm":-7.6,"area_mm2":0.3494,"traced_fraction":[1.0,0.972],"n_labels":1,"no_drawn_outline":false}},{"type":"Feature","geometry":{"type":"MultiPolygon","coordinates":[[[[-1.474,-5.479],[-1.431,-5.521],[-1.396,-5.535],[-1.214,-5.521],[-1.2,-5.535],[-1.2,-5.641],[-1.158,-5.774],[-1.179,-5.774],[-1.277,-5.704],[-1.34,-5.634],[-1.417,-5.613],[-1.551,-5.606],[-1.663,-5.634],[-1.726,-5.669],[-1.768,-5.711],[-1.81,-5.718],[-1.824,-5.641],[-1.817,-5.599],[-1.768,-5.62],[-1.663,-5.613],[-1.642,-5.592],[-1.621,-5.592],[-1.523,-5.5],[-1.474,-5.479]]],[[[1.408,-5.577],[1.366,-5.662],[1.275,-5.746],[1.219,-5.767],[1.219,-5.676],[1.247,-5.57],[1.268,-5.556],[1.331,-5.556],[1.408,-5.577]]]]},"properties":{"abbr":"me5","name":"mesencephalic trigeminal tract","plate":45,"ap_bregma_mm":-7.6,"area_mm2":0.0893,"traced_fraction":[1.0,1.0],"n_labels":1,"no_drawn_outline":false}},{"type":"Feature","geometry":{"type":"MultiPolygon","coordinates":[[[[-1.277,-5.704],[-1.291,-5.718],[-1.305,-5.789],[-1.361,-5.831],[-1.551,-5.845],[-1.67,-5.866],[-1.747,-5.901],[-1.768,-5.929],[-1.81,-5.936],[-1.845,-5.838],[-1.81,-5.767],[-1.81,-5.718],[-1.768,-5.711],[-1.726,-5.669],[-1.663,-5.634],[-1.551,-5.606],[-1.417,-5.613],[-1.34,-5.634],[-1.277,-5.704]]],[[[1.66,-5.613],[1.836,-5.662],[1.836,-5.676],[1.899,-5.739],[1.92,-5.796],[1.913,-5.873],[1.857,-5.915],[1.71,-5.852],[1.555,-5.852],[1.478,-5.852],[1.443,-5.866],[1.38,-5.789],[1.38,-5.718],[1.394,-5.69],[1.422,-5.662],[1.499,-5.634],[1.66,-5.613]]]]},"properties":{"abbr":"Su5","name":"supratrigeminal nucleus","plate":45,"ap_bregma_mm":-7.6,"area_mm2":0.2286,"traced_fraction":[1.0,1.0],"n_labels":2,"no_drawn_outline":false}},{"type":"Feature","geometry":{"type":"MultiPolygon","coordinates":[[[[-2.301,-5.535],[-2.105,-5.535],[-2.056,-5.549],[-1.992,-5.662],[-1.992,-5.76],[-2.035,-5.88],[-2.364,-5.88],[-2.406,-5.577],[-2.329,-5.535],[-2.301,-5.535]]],[[[2.243,-5.556],[2.235,-5.606],[2.2,-5.648],[2.172,-5.718],[2.158,-5.817],[2.165,-5.971],[2.088,-5.936],[2.018,-5.859],[1.99,-5.803],[1.99,-5.732],[2.011,-5.704],[2.004,-5.648],[2.053,-5.634],[2.123,-5.577],[2.243,-5.556]]]]},"properties":{"abbr":"5Tr","name":"trigeminal transition zone","plate":45,"ap_bregma_mm":-7.6,"area_mm2":0.1849,"traced_fraction":[0.806,1.0],"n_labels":1,"no_drawn_outline":false}},{"type":"Feature","geometry":{"type":"MultiPolygon","coordinates":[[[[-0.464,-5.789],[-0.345,-5.908],[-0.401,-5.957],[-0.429,-6.014],[-0.429,-6.084],[-0.408,-6.14],[-0.52,-6.14],[-0.583,-6.119],[-0.737,-5.992],[-0.751,-5.943],[-0.744,-5.859],[-0.674,-5.767],[-0.639,-5.753],[-0.562,-5.753],[-0.464,-5.789]]],[[[0.742,-5.992],[0.693,-6.049],[0.574,-6.119],[0.44,-6.154],[0.342,-6.154],[0.335,-6.147],[0.363,-6.021],[0.3,-5.936],[0.314,-5.915],[0.398,-5.873],[0.455,-5.81],[0.532,-5.789],[0.623,-5.789],[0.672,-5.81],[0.728,-5.88],[0.728,-5.978],[0.742,-5.992]]]]},"properties":{"abbr":"CGB","name":"central gray, beta part","plate":45,"ap_bregma_mm":-7.6,"area_mm2":0.2214,"traced_fraction":[1.0,1.0],"n_labels":2,"no_drawn_outline":false}},{"type":"Feature","geometry":{"type":"MultiPolygon","coordinates":[[[[2.881,-5.824],[2.916,-5.831],[2.944,-5.873],[2.958,-5.873],[3.028,-6.0],[3.035,-6.035],[3.063,-6.049],[3.14,-6.161],[3.14,-6.316],[3.168,-6.429],[3.182,-6.429],[3.189,-6.436],[3.077,-6.583],[3.042,-6.604],[2.986,-6.689],[2.951,-6.717],[2.895,-6.801],[2.859,-6.829],[2.719,-7.047],[2.684,-7.083],[2.46,-7.083],[2.313,-7.195],[2.277,-7.209],[2.207,-7.209],[2.165,-7.174],[2.151,-7.097],[2.165,-7.055],[2.228,-7.012],[2.327,-7.012],[2.432,-6.963],[2.565,-6.865],[2.642,-6.78],[2.67,-6.724],[2.684,-6.654],[2.67,-6.33],[2.705,-6.239],[2.845,-6.063],[2.881,-5.992],[2.895,-5.929],[2.881,-5.824]]],[[[-2.785,-5.95],[-2.743,-5.992],[-2.652,-6.14],[-2.609,-6.274],[-2.616,-6.45],[-2.687,-6.576],[-2.694,-6.611],[-2.673,-6.689],[-2.603,-6.787],[-2.462,-6.914],[-2.371,-6.977],[-2.189,-7.055],[-2.203,-7.146],[-2.231,-7.16],[-2.329,-7.16],[-2.406,-7.125],[-2.497,-7.04],[-2.539,-6.977],[-2.603,-6.935],[-2.673,-6.851],[-2.701,-6.844],[-2.778,-6.682],[-2.799,-6.668],[-2.939,-6.414],[-2.981,-6.274],[-2.974,-6.21],[-2.939,-6.126],[-2.841,-5.992],[-2.785,-5.95]]]]},"properties":{"abbr":"s5","name":"sensory root of the trigeminal nerve","plate":45,"ap_bregma_mm":-7.6,"area_mm2":0.7065,"traced_fraction":[0.879,1.0],"n_labels":2,"no_drawn_outline":false}},{"type":"Feature","geometry":{"type":"MultiPolygon","coordinates":[[[[-0.155,-6.21],[-0.162,-6.253],[-0.127,-6.358],[-0.113,-6.513],[-0.134,-6.534],[-0.177,-6.534],[-0.205,-6.52],[-0.275,-6.443],[-0.366,-6.295],[-0.38,-6.26],[-0.373,-6.147],[-0.296,-6.126],[-0.232,-6.126],[-0.19,-6.154],[-0.155,-6.21]]]]},"properties":{"abbr":"mlf","name":"medial longitudinal fasciculus","plate":45,"ap_bregma_mm":-7.6,"area_mm2":0.0721,"traced_fraction":[0.975],"n_labels":1,"no_drawn_outline":false}},{"type":"Feature","geometry":{"type":"MultiPolygon","coordinates":[[[[0.335,-6.147],[0.342,-6.154],[0.363,-6.225],[0.356,-6.274],[0.293,-6.358],[0.279,-6.4],[0.146,-6.541],[0.104,-6.541],[0.083,-6.52],[0.083,-6.386],[0.139,-6.189],[0.153,-6.168],[0.202,-6.147],[0.335,-6.147]]]]},"properties":{"abbr":"CGO","name":"central gray, nucleus O","plate":45,"ap_bregma_mm":-7.6,"area_mm2":0.0726,"traced_fraction":[1.0],"n_labels":1,"no_drawn_outline":false}},{"type":"Feature","geometry":{"type":"MultiPolygon","coordinates":[[[[2.144,-7.484],[2.081,-7.512],[2.032,-7.512],[2.018,-7.526],[1.92,-7.462],[1.913,-7.448],[1.913,-7.392],[1.878,-7.336],[1.822,-7.272],[1.759,-7.244],[1.766,-7.146],[1.78,-7.132],[1.843,-7.132],[1.843,-7.047],[1.906,-7.04],[1.969,-7.061],[2.067,-7.125],[2.109,-7.174],[2.165,-7.322],[2.165,-7.434],[2.144,-7.484]]],[[[-1.957,-7.104],[-1.929,-7.111],[-1.88,-7.153],[-1.845,-7.251],[-1.887,-7.294],[-1.922,-7.364],[-2.014,-7.392],[-2.042,-7.427],[-2.063,-7.427],[-2.119,-7.476],[-2.203,-7.448],[-2.245,-7.413],[-2.273,-7.378],[-2.266,-7.308],[-2.161,-7.181],[-2.035,-7.118],[-1.957,-7.104]]]]},"properties":{"abbr":"rs","name":"rubrospinal tract","plate":45,"ap_bregma_mm":-7.6,"area_mm2":0.2236,"traced_fraction":[0.918,0.994],"n_labels":2,"no_drawn_outline":false}},{"type":"Feature","geometry":{"type":"MultiPolygon","coordinates":[[[[1.352,-7.652],[1.548,-7.652],[1.506,-7.751],[1.506,-7.821],[1.527,-7.863],[1.583,-7.92],[1.639,-7.948],[1.745,-7.955],[1.871,-7.912],[1.892,-7.948],[1.605,-8.229],[1.548,-8.306],[1.534,-8.306],[1.471,-8.377],[1.45,-8.377],[1.499,-8.159],[1.499,-8.039],[1.485,-7.983],[1.422,-7.927],[1.373,-7.927],[1.303,-7.976],[1.296,-7.927],[1.282,-7.92],[1.282,-7.87],[1.352,-7.765],[1.352,-7.652]]]]},"properties":{"abbr":"DPO","name":"dorsal periolivary nucleus","plate":45,"ap_bregma_mm":-7.6,"area_mm2":0.1465,"traced_fraction":[0.922],"n_labels":1,"no_drawn_outline":false}},{"type":"Feature","geometry":{"type":"MultiPolygon","coordinates":[[[[-1.558,-7.737],[-1.425,-7.744],[-1.425,-7.793],[-1.347,-7.899],[-1.242,-7.997],[-1.242,-8.018],[-1.221,-8.018],[-1.172,-8.053],[-1.067,-8.159],[-0.969,-8.194],[-0.885,-8.194],[-0.815,-8.166],[-0.772,-8.124],[-0.73,-8.166],[-0.73,-8.18],[-0.779,-8.215],[-0.892,-8.229],[-0.92,-8.257],[-0.934,-8.299],[-0.941,-8.419],[-0.969,-8.489],[-0.962,-8.56],[-0.934,-8.616],[-0.892,-8.658],[-0.836,-8.686],[-0.709,-8.686],[-0.646,-8.651],[-0.597,-8.602],[-0.443,-8.574],[-0.401,-8.546],[-0.387,-8.517],[-0.387,-8.426],[-0.457,-8.271],[-0.359,-8.264],[-0.359,-8.25],[-0.261,-8.25],[-0.261,-8.131],[-0.211,-8.138],[-0.127,-8.152],[-0.127,-8.278],[-0.022,-8.278],[-0.015,-8.306],[0.013,-8.306],[0.02,-8.278],[0.16,-8.278],[0.16,-8.152],[0.223,-8.145],[0.237,-8.145],[0.237,-8.264],[0.391,-8.264],[0.391,-8.278],[0.448,-8.278],[0.433,-8.419],[0.469,-8.482],[0.532,-8.553],[0.518,-8.728],[0.433,-8.679],[0.412,-8.651],[0.258,-8.588],[0.153,-8.588],[0.097,-8.616],[0.055,-8.665],[0.034,-8.665],[-0.043,-8.595],[-0.211,-8.595],[-0.324,-8.63],[-0.478,-8.728],[-0.548,-8.827],[-0.555,-8.918],[-0.618,-8.932],[-0.73,-8.932],[-0.73,-8.897],[-0.702,-8.869],[-0.702,-8.841],[-0.723,-8.82],[-0.934,-8.735],[-1.102,-8.623],[-1.095,-8.531],[-1.109,-8.44],[-1.165,-8.25],[-1.284,-8.06],[-1.375,-8.004],[-1.446,-8.018],[-1.474,-8.053],[-1.488,-8.102],[-1.488,-8.18],[-1.467,-8.271],[-1.361,-8.496],[-1.368,-8.546],[-1.382,-8.546],[-1.396,-8.588],[-1.467,-8.553],[-1.481,-8.553],[-1.481,-8.574],[-1.495,-8.574],[-1.516,-8.531],[-1.635,-8.447],[-1.691,-8.384],[-1.691,-8.292],[-1.712,-8.257],[-1.873,-8.081],[-1.908,-8.018],[-1.943,-7.99],[-1.943,-7.969],[-1.943,-7.899],[-1.929,-7.87],[-1.803,-7.941],[-1.747,-7.955],[-1.663,-7.948],[-1.586,-7.877],[-1.558,-7.737]]]]},"properties":{"abbr":"ml","name":"medial lemniscus","plate":45,"ap_bregma_mm":-7.6,"area_mm2":0.8054,"traced_fraction":[0.826],"n_labels":2,"no_drawn_outline":false}},{"type":"Feature","geometry":{"type":"MultiPolygon","coordinates":[[[[0.609,-8.088],[0.623,-8.11],[0.658,-8.116],[0.693,-8.145],[0.749,-8.208],[0.861,-8.264],[0.889,-8.292],[0.917,-8.356],[0.938,-8.433],[0.938,-8.546],[0.91,-8.651],[0.889,-8.672],[0.868,-8.735],[0.77,-8.721],[0.672,-8.637],[0.532,-8.553],[0.469,-8.482],[0.433,-8.419],[0.448,-8.278],[0.476,-8.194],[0.532,-8.11],[0.609,-8.088]]],[[[-0.457,-8.271],[-0.387,-8.426],[-0.387,-8.517],[-0.401,-8.546],[-0.443,-8.574],[-0.597,-8.602],[-0.646,-8.651],[-0.709,-8.686],[-0.836,-8.686],[-0.892,-8.658],[-0.934,-8.616],[-0.962,-8.56],[-0.969,-8.489],[-0.941,-8.419],[-0.934,-8.299],[-0.92,-8.257],[-0.892,-8.229],[-0.779,-8.215],[-0.744,-8.194],[-0.73,-8.166],[-0.674,-8.131],[-0.604,-8.124],[-0.562,-8.145],[-0.457,-8.271]]]]},"properties":{"abbr":"MNTB","name":"medial nucleus of the trapezoid body","plate":45,"ap_bregma_mm":-7.6,"area_mm2":0.4525,"traced_fraction":[1.0,1.0],"n_labels":1,"no_drawn_outline":false}},{"type":"Feature","geometry":{"type":"Polygon","coordinates":[[[2.355,-1.308],[2.39,-1.463],[2.467,-1.653],[2.537,-1.758],[2.551,-1.758],[2.558,-1.78],[2.649,-1.871],[2.663,-1.871],[2.663,-1.885],[2.677,-1.885],[2.719,-1.934],[2.733,-1.934],[2.733,-1.948],[2.747,-1.948],[2.747,-1.962],[2.761,-1.962],[2.761,-1.976],[2.775,-1.976],[2.775,-1.991],[2.789,-1.991],[2.803,-2.026],[2.831,-2.047],[2.845,-2.103],[2.824,-2.103],[2.754,-2.033],[2.74,-2.033],[2.733,-2.012],[2.712,-2.005],[2.6,-1.878],[2.586,-1.878],[2.586,-1.864],[2.523,-1.808],[2.523,-1.794],[2.502,-1.787],[2.495,-1.765],[2.481,-1.765],[2.453,-1.716],[2.369,-1.632],[2.32,-1.554],[2.313,-1.491],[2.264,-1.365],[2.27,-1.344],[2.355,-1.308]]]},"properties":{"abbr":null,"name":"unnamed sealed face","plate":45,"ap_bregma_mm":-7.6,"index":0}},{"type":"Feature","geometry":{"type":"Polygon","coordinates":[[[-1.2,-4.558],[-1.214,-4.635],[-1.207,-4.712],[-1.179,-4.804],[-1.151,-4.846],[-1.151,-4.86],[-1.193,-4.881],[-1.277,-4.881],[-1.431,-4.923],[-1.551,-4.987],[-1.621,-5.043],[-1.866,-5.149],[-2.091,-5.205],[-2.168,-5.205],[-2.189,-5.184],[-2.231,-5.134],[-2.231,-5.113],[-1.712,-4.846],[-1.537,-4.734],[-1.481,-4.712],[-1.453,-4.684],[-1.34,-4.635],[-1.277,-4.586],[-1.2,-4.558]]]},"properties":{"abbr":null,"name":"unnamed sealed face","plate":45,"ap_bregma_mm":-7.6,"index":1}},{"type":"Feature","geometry":{"type":"Polygon","coordinates":[[[1.324,-4.586],[1.401,-4.607],[1.506,-4.663],[1.555,-4.705],[1.597,-4.719],[1.976,-4.951],[2.214,-5.12],[2.214,-5.134],[2.151,-5.127],[2.053,-5.064],[1.941,-5.015],[1.759,-4.895],[1.654,-4.797],[1.534,-4.726],[1.464,-4.705],[1.387,-4.705],[1.338,-4.748],[1.345,-4.797],[1.289,-4.797],[1.331,-4.628],[1.324,-4.586]]]},"properties":{"abbr":null,"name":"unnamed sealed face","plate":45,"ap_bregma_mm":-7.6,"index":2}},{"type":"Feature","geometry":{"type":"Polygon","coordinates":[[[1.289,-4.797],[1.345,-4.797],[1.639,-4.937],[1.703,-4.98],[1.731,-5.022],[1.696,-5.022],[1.626,-4.987],[1.45,-4.937],[1.394,-4.945],[1.366,-4.959],[1.359,-4.98],[1.282,-4.973],[1.254,-5.001],[1.163,-4.973],[1.149,-4.945],[1.149,-4.93],[1.177,-4.916],[1.247,-4.825],[1.289,-4.797]]]},"properties":{"abbr":null,"name":"unnamed sealed face","plate":45,"ap_bregma_mm":-7.6,"index":3}},{"type":"Feature","geometry":{"type":"Polygon","coordinates":[[[3.168,-5.05],[3.294,-5.141],[3.308,-5.198],[3.203,-5.198],[3.175,-5.233],[3.161,-5.233],[3.14,-5.289],[3.063,-5.331],[3.049,-5.352],[3.049,-5.402],[3.077,-5.465],[3.119,-5.493],[3.119,-5.507],[3.259,-5.57],[3.273,-5.606],[3.252,-5.627],[3.189,-5.62],[2.937,-5.479],[2.902,-5.43],[2.874,-5.331],[2.874,-5.212],[2.902,-5.149],[2.937,-5.113],[3.077,-5.057],[3.168,-5.05]]]},"properties":{"abbr":null,"name":"unnamed sealed face","plate":45,"ap_bregma_mm":-7.6,"index":4}},{"type":"Feature","geometry":{"type":"Polygon","coordinates":[[[-2.806,-5.106],[-2.799,-5.127],[-2.715,-5.198],[-2.68,-5.261],[-2.666,-5.402],[-2.687,-5.479],[-2.722,-5.535],[-2.778,-5.585],[-2.911,-5.648],[-3.093,-5.669],[-3.128,-5.69],[-3.128,-5.704],[-3.156,-5.711],[-3.212,-5.789],[-3.212,-5.796],[-3.254,-5.796],[-3.262,-5.824],[-3.311,-5.852],[-3.437,-5.88],[-3.5,-5.908],[-3.619,-6.042],[-3.689,-6.07],[-3.668,-6.0],[-3.703,-5.978],[-3.724,-5.943],[-3.654,-5.88],[-3.626,-5.831],[-3.619,-5.585],[-3.577,-5.613],[-3.521,-5.774],[-3.423,-5.781],[-3.318,-5.746],[-3.191,-5.676],[-3.107,-5.57],[-3.1,-5.479],[-2.988,-5.472],[-2.988,-5.493],[-2.967,-5.514],[-2.911,-5.5],[-2.89,-5.528],[-2.855,-5.535],[-2.799,-5.437],[-2.806,-5.381],[-2.953,-5.275],[-3.03,-5.282],[-3.1,-5.381],[-3.128,-5.366],[-3.163,-5.303],[-3.163,-5.247],[-3.135,-5.198],[-3.03,-5.134],[-2.946,-5.106],[-2.806,-5.106]]]},"properties":{"abbr":null,"name":"unnamed sealed face","plate":45,"ap_bregma_mm":-7.6,"index":5}},{"type":"Feature","geometry":{"type":"Polygon","coordinates":[[[-2.042,-5.437],[-1.985,-5.437],[-1.943,-5.458],[-1.943,-5.479],[-1.915,-5.514],[-1.922,-5.535],[-1.894,-5.535],[-1.817,-5.599],[-1.824,-5.641],[-1.81,-5.718],[-1.81,-5.767],[-1.845,-5.838],[-1.859,-5.838],[-1.957,-5.929],[-2.063,-5.971],[-2.035,-5.88],[-1.992,-5.76],[-1.992,-5.662],[-2.056,-5.549],[-2.105,-5.535],[-2.301,-5.535],[-2.294,-5.514],[-2.238,-5.5],[-2.196,-5.472],[-2.042,-5.437]]]},"properties":{"abbr":null,"name":"unnamed sealed face","plate":45,"ap_bregma_mm":-7.6,"index":6}},{"type":"Feature","geometry":{"type":"Polygon","coordinates":[[[0.16,-8.152],[0.16,-8.278],[0.02,-8.278],[0.013,-8.306],[-0.015,-8.306],[-0.022,-8.278],[-0.127,-8.278],[-0.127,-8.152],[-0.036,-8.173],[-0.036,-8.138],[-0.015,-8.095],[0.02,-8.102],[0.034,-8.173],[0.16,-8.152]]]},"properties":{"abbr":null,"name":"unnamed sealed face","plate":45,"ap_bregma_mm":-7.6,"index":7}},{"type":"Feature","geometry":{"type":"MultiPolygon","coordinates":[[[[0.798,-8.939],[0.602,-8.946],[0.497,-8.932],[0.391,-8.883],[0.153,-8.728],[0.076,-8.707],[0.006,-8.714],[-0.232,-8.848],[-0.38,-8.89],[-0.646,-8.925],[-0.871,-8.925],[-1.039,-8.876],[-1.13,-8.827],[-1.263,-8.728],[-1.326,-8.7],[-1.467,-8.595],[-1.516,-8.531],[-1.642,-8.433],[-1.747,-8.327],[-1.852,-8.264],[-2.217,-7.877],[-2.343,-7.716],[-2.518,-7.441],[-2.785,-6.893],[-2.946,-6.675],[-3.135,-6.478],[-3.233,-6.393],[-3.479,-6.274],[-3.668,-6.147],[-3.703,-6.091],[-3.668,-6.0],[-3.731,-5.936],[-3.864,-5.978],[-4.054,-5.978],[-4.201,-5.943],[-4.327,-5.887],[-4.439,-5.817],[-4.531,-5.739],[-4.573,-5.683],[-4.615,-5.599],[-4.629,-5.528],[-4.594,-5.416],[-4.502,-5.317],[-4.397,-5.233],[-4.124,-5.099],[-4.054,-5.05],[-3.97,-4.951],[-4.026,-4.881],[-4.117,-4.951],[-4.376,-5.057],[-4.587,-5.205],[-4.699,-5.247],[-4.776,-5.254],[-4.867,-5.233],[-4.972,-5.141],[-5.028,-5.057],[-5.084,-4.881],[-5.084,-4.691],[-5.056,-4.565],[-4.993,-4.41],[-4.93,-4.304],[-4.811,-4.171],[-4.58,-4.009],[-4.517,-3.946],[-4.369,-3.573],[-4.215,-3.334],[-4.117,-3.249],[-4.047,-3.221],[-3.977,-3.221],[-3.942,-3.193],[-3.822,-2.574],[-3.794,-2.3],[-3.794,-2.047],[-3.766,-1.941],[-3.696,-1.794],[-3.507,-1.547],[-3.304,-1.372],[-3.121,-1.252],[-2.932,-1.154],[-2.68,-1.062],[-2.532,-1.034],[-2.399,-1.034],[-2.273,-1.083],[-2.217,-1.146],[-2.203,-1.189],[-2.119,-1.196],[-2.027,-1.09],[-1.894,-0.992],[-1.74,-0.914],[-1.6,-0.872],[-1.516,-0.858],[-1.375,-0.865],[-1.284,-0.9],[-1.242,-0.943],[-1.165,-0.978],[-0.941,-0.753],[-0.836,-0.682],[-0.66,-0.612],[-0.401,-0.598],[-0.113,-0.647],[0.104,-0.661],[0.518,-0.598],[0.707,-0.598],[0.868,-0.64],[0.987,-0.71],[1.093,-0.83],[1.205,-1.027],[1.31,-1.02],[1.31,-1.048],[1.324,-0.978],[1.38,-0.907],[1.527,-0.844],[1.639,-0.837],[1.738,-0.865],[2.06,-1.09],[2.207,-1.252],[2.256,-1.344],[2.355,-1.308],[2.355,-1.154],[2.39,-1.104],[2.439,-1.083],[2.537,-1.083],[3.007,-1.196],[3.273,-1.266],[3.462,-1.336],[3.666,-1.442],[3.806,-1.554],[3.876,-1.632],[3.967,-1.758],[4.03,-1.885],[4.08,-2.026],[4.122,-2.201],[4.157,-2.455],[4.171,-2.961],[4.143,-3.095],[4.044,-3.264],[4.086,-3.32],[4.29,-3.313],[4.416,-3.341],[4.493,-3.383],[4.577,-3.453],[5.103,-4.129],[5.32,-4.487],[5.349,-4.607],[5.341,-4.734],[5.313,-4.839],[5.243,-4.959],[5.061,-5.149],[5.019,-5.177],[4.935,-5.212],[4.788,-5.198],[4.745,-5.233],[4.753,-5.317],[4.739,-5.345],[4.612,-5.451],[4.409,-5.662],[4.353,-5.69],[4.199,-5.732],[4.107,-5.732],[4.051,-5.711],[3.988,-5.718],[3.953,-5.746],[3.897,-5.753],[3.666,-5.718],[3.406,-5.592],[3.371,-5.711],[3.357,-5.704],[3.869,-5.95],[3.925,-6.028],[3.925,-6.063],[3.897,-6.119],[3.848,-6.168],[3.792,-6.196],[3.413,-6.26],[3.266,-6.33],[2.838,-6.851],[2.004,-8.074],[1.759,-8.37],[1.436,-8.658],[1.17,-8.827],[1.001,-8.89],[0.889,-8.904],[0.826,-8.932],[0.798,-8.939]]]]},"properties":{"abbr":"brain_outline","name":"outline of the section","plate":45,"ap_bregma_mm":-7.6}}]}
