{"type":"FeatureCollection","name":"GerbilAtlas plate 59","note":"Region extents cut from the atlas drawing (METHODS.md, Region extents). Coordinates are [ML, DV] in mm, ML positive to the right of the plate as printed, DV negative below the dorsal surface; AP is the plate bregma. traced_fraction is the share of each polygon boundary the atlas actually draws; below 0.5 the boundary is an estimate. no_drawn_outline marks a feature that lies only inside boundaries the atlas draws round more than one name and prints nothing within, so the whole of its outline is where the extraction cut it. Not a segmentation.","plate":59,"ap_bregma_mm":-12.5,"features":[{"type":"Feature","geometry":{"type":"MultiPolygon","coordinates":[[[[0.574,-4.028],[0.574,-4.078],[0.51,-4.099],[0.426,-4.106],[0.412,-4.127],[0.342,-4.141],[0.307,-4.134],[0.097,-4.218],[-0.128,-4.26],[-0.303,-4.253],[-0.478,-4.197],[-0.752,-4.155],[-0.759,-4.12],[-0.702,-3.993],[-0.611,-3.902],[-0.534,-3.853],[-0.401,-3.796],[-0.226,-3.761],[-0.008,-3.761],[0.174,-3.789],[0.342,-3.838],[0.489,-3.916],[0.574,-4.028]]]]},"properties":{"abbr":"9aCb","name":"9th cerebellar lobule, a","plate":59,"ap_bregma_mm":-12.5,"area_mm2":0.4723,"traced_fraction":[1.0],"n_labels":2,"no_drawn_outline":false}},{"type":"Feature","geometry":{"type":"MultiPolygon","coordinates":[[[[0.574,-4.078],[0.609,-4.078],[0.735,-4.092],[0.826,-4.141],[0.875,-4.197],[0.91,-4.268],[0.917,-4.373],[0.896,-4.45],[0.777,-4.605],[0.665,-4.675],[0.419,-4.774],[0.132,-4.851],[-0.198,-4.893],[-0.443,-4.887],[-0.632,-4.858],[-0.794,-4.816],[-1.018,-4.718],[-1.032,-4.697],[-1.102,-4.668],[-1.179,-4.591],[-1.221,-4.514],[-1.221,-4.38],[-1.165,-4.296],[-1.137,-4.268],[-0.969,-4.183],[-0.794,-4.148],[-0.752,-4.155],[-0.478,-4.197],[-0.303,-4.253],[-0.128,-4.26],[0.097,-4.218],[0.307,-4.134],[0.342,-4.141],[0.412,-4.127],[0.426,-4.106],[0.51,-4.099],[0.574,-4.078]]]]},"properties":{"abbr":"9cCb","name":"9th cerebellar lobule, c","plate":59,"ap_bregma_mm":-12.5,"area_mm2":1.2662,"traced_fraction":[1.0],"n_labels":1,"no_drawn_outline":false}},{"type":"Feature","geometry":{"type":"MultiPolygon","coordinates":[[[[0.223,-6.638],[0.216,-6.687],[0.153,-6.785],[0.09,-6.849],[0.02,-6.884],[-0.05,-6.884],[-0.113,-6.842],[-0.198,-6.75],[-0.219,-6.68],[-0.149,-6.652],[-0.078,-6.652],[-0.043,-6.673],[-0.015,-6.729],[0.006,-6.729],[0.027,-6.715],[0.048,-6.645],[0.09,-6.617],[0.167,-6.617],[0.223,-6.638]]]]},"properties":{"abbr":"CeCv","name":"central cervical nucleus of the spinal cord","plate":59,"ap_bregma_mm":-12.5,"area_mm2":0.0725,"traced_fraction":[1.0],"n_labels":2,"no_drawn_outline":false}},{"type":"Feature","geometry":{"type":"MultiPolygon","coordinates":[[[[0.763,-5.991],[0.735,-6.068],[0.679,-6.145],[0.609,-6.195],[0.553,-6.202],[0.546,-6.216],[0.461,-6.216],[0.44,-6.23],[0.3,-6.216],[0.279,-6.195],[0.286,-6.174],[0.328,-6.152],[0.433,-6.047],[0.468,-6.033],[0.637,-5.991],[0.763,-5.991]]]]},"properties":{"abbr":"Cu","name":"cuneate nucleus","plate":59,"ap_bregma_mm":-12.5,"area_mm2":0.0689,"traced_fraction":[1.0],"n_labels":1,"no_drawn_outline":false}},{"type":"Feature","geometry":{"type":"MultiPolygon","coordinates":[[[[1.871,-6.94],[1.878,-6.891],[1.927,-6.835],[1.969,-6.722],[1.983,-6.659],[1.983,-6.504],[1.934,-6.335],[1.885,-6.237],[1.815,-6.138],[1.716,-6.04],[1.59,-5.955],[1.527,-5.941],[1.485,-5.913],[1.359,-5.878],[1.289,-5.843],[1.142,-5.815],[1.001,-5.815],[0.875,-5.843],[0.882,-5.808],[0.938,-5.752],[1.135,-5.688],[1.338,-5.73],[1.443,-5.78],[1.471,-5.78],[1.66,-5.885],[1.744,-5.948],[1.878,-6.082],[1.997,-6.286],[2.032,-6.392],[2.046,-6.539],[2.025,-6.687],[1.983,-6.821],[1.948,-6.884],[1.892,-6.94],[1.871,-6.94]]],[[[-0.997,-5.829],[-0.99,-5.871],[-1.032,-5.871],[-1.088,-5.85],[-1.235,-5.857],[-1.312,-5.878],[-1.32,-5.892],[-1.39,-5.913],[-1.474,-5.97],[-1.495,-5.97],[-1.607,-6.047],[-1.754,-6.188],[-1.754,-6.202],[-1.873,-6.328],[-1.965,-6.462],[-2.014,-6.441],[-2.021,-6.42],[-1.965,-6.3],[-1.845,-6.138],[-1.74,-6.04],[-1.628,-5.963],[-1.593,-5.92],[-1.439,-5.829],[-1.425,-5.808],[-1.291,-5.759],[-1.186,-5.752],[-1.109,-5.773],[-1.053,-5.815],[-0.997,-5.829]]]]},"properties":{"abbr":"Ge5","name":"gelatinous layer of the caudal spinal trigeminal nucleus","plate":59,"ap_bregma_mm":-12.5,"area_mm2":0.2809,"traced_fraction":[1.0,0.994],"n_labels":2,"no_drawn_outline":false}},{"type":"Feature","geometry":{"type":"MultiPolygon","coordinates":[[[[0.679,-6.145],[0.693,-6.159],[0.686,-6.195],[0.651,-6.251],[0.581,-6.307],[0.525,-6.328],[0.517,-6.349],[0.405,-6.335],[0.356,-6.314],[0.293,-6.251],[0.3,-6.23],[0.3,-6.223],[0.3,-6.216],[0.356,-6.23],[0.546,-6.216],[0.553,-6.202],[0.609,-6.195],[0.679,-6.145]]],[[[-0.639,-6.237],[-0.597,-6.237],[-0.499,-6.272],[-0.401,-6.272],[-0.345,-6.286],[-0.268,-6.279],[-0.219,-6.258],[-0.184,-6.293],[-0.212,-6.307],[-0.212,-6.349],[-0.275,-6.378],[-0.345,-6.392],[-0.492,-6.385],[-0.576,-6.328],[-0.618,-6.286],[-0.639,-6.237]]]]},"properties":{"abbr":"IB","name":"interstitial nucleus of the medulla","plate":59,"ap_bregma_mm":-12.5,"area_mm2":0.0799,"traced_fraction":[0.993,1.0],"n_labels":2,"no_drawn_outline":false}},{"type":"Feature","geometry":{"type":"MultiPolygon","coordinates":[[[[0.279,-6.195],[0.3,-6.216],[0.3,-6.223],[0.3,-6.23],[0.293,-6.251],[0.356,-6.314],[0.405,-6.335],[0.517,-6.349],[0.546,-6.37],[0.833,-6.455],[0.994,-6.539],[1.099,-6.539],[1.099,-6.567],[1.198,-6.666],[1.352,-6.764],[1.338,-6.905],[1.317,-6.912],[1.015,-6.729],[0.945,-6.694],[0.903,-6.694],[0.889,-6.659],[0.735,-6.581],[0.483,-6.483],[0.419,-6.483],[0.349,-6.455],[0.272,-6.462],[0.265,-6.392],[0.209,-6.349],[0.118,-6.342],[0.125,-6.3],[0.174,-6.279],[0.279,-6.195]]],[[[-0.275,-6.378],[-0.296,-6.434],[-0.296,-6.497],[-0.415,-6.511],[-0.731,-6.595],[-0.983,-6.694],[-1.081,-6.757],[-1.095,-6.743],[-1.102,-6.729],[-1.109,-6.715],[-1.116,-6.701],[-1.123,-6.694],[-1.137,-6.638],[-0.99,-6.539],[-0.695,-6.427],[-0.492,-6.385],[-0.345,-6.392],[-0.275,-6.378]]]]},"properties":{"abbr":"IRt","name":"intermediate reticular nucleus","plate":59,"ap_bregma_mm":-12.5,"area_mm2":0.3198,"traced_fraction":[0.911,0.951],"n_labels":2,"no_drawn_outline":false}},{"type":"Feature","geometry":{"type":"MultiPolygon","coordinates":[[[[1.513,-7.376],[1.492,-7.468],[1.457,-7.531],[1.408,-7.58],[1.401,-7.629],[1.38,-7.636],[1.261,-7.693],[1.085,-7.742],[1.085,-7.735],[1.071,-7.735],[1.015,-7.693],[1.022,-7.644],[1.127,-7.482],[1.233,-7.369],[1.317,-7.306],[1.38,-7.278],[1.464,-7.278],[1.506,-7.32],[1.513,-7.376]]],[[[-1.221,-7.397],[-1.221,-7.411],[-1.123,-7.503],[-1.046,-7.622],[-1.046,-7.686],[-1.074,-7.714],[-1.123,-7.728],[-1.172,-7.721],[-1.27,-7.679],[-1.333,-7.622],[-1.383,-7.601],[-1.474,-7.503],[-1.474,-7.482],[-1.488,-7.475],[-1.488,-7.418],[-1.439,-7.362],[-1.369,-7.334],[-1.291,-7.348],[-1.221,-7.397]]]]},"properties":{"abbr":"LRt","name":"lateral reticular nucleus","plate":59,"ap_bregma_mm":-12.5,"area_mm2":0.2358,"traced_fraction":[1.0,1.0],"n_labels":1,"no_drawn_outline":false}},{"type":"Feature","geometry":{"type":"MultiPolygon","coordinates":[[[[0.91,-6.174],[1.057,-6.209],[1.282,-6.314],[1.401,-6.399],[1.492,-6.49],[1.555,-6.589],[1.604,-6.715],[1.625,-6.828],[1.625,-6.912],[1.597,-6.919],[1.541,-6.898],[1.352,-6.764],[1.198,-6.666],[1.099,-6.567],[1.099,-6.539],[0.994,-6.539],[0.833,-6.455],[0.588,-6.385],[0.517,-6.349],[0.525,-6.328],[0.581,-6.307],[0.651,-6.251],[0.903,-6.251],[0.91,-6.174]]],[[[-0.674,-6.202],[-0.639,-6.237],[-0.618,-6.286],[-0.492,-6.385],[-0.695,-6.427],[-0.99,-6.539],[-1.137,-6.638],[-1.123,-6.694],[-1.116,-6.701],[-1.109,-6.715],[-1.109,-6.722],[-1.291,-6.729],[-1.348,-6.793],[-1.495,-6.898],[-1.614,-6.898],[-1.614,-6.856],[-1.572,-6.743],[-1.516,-6.631],[-1.439,-6.518],[-1.242,-6.342],[-1.011,-6.209],[-0.99,-6.23],[-0.71,-6.23],[-0.674,-6.202]]]]},"properties":{"abbr":"MdD","name":"medullary reticular nucleus, dorsal part","plate":59,"ap_bregma_mm":-12.5,"area_mm2":0.6156,"traced_fraction":[0.838,0.758],"n_labels":2,"no_drawn_outline":false}},{"type":"Feature","geometry":{"type":"MultiPolygon","coordinates":[[[[0.419,-6.483],[0.483,-6.483],[0.735,-6.581],[0.889,-6.659],[0.903,-6.694],[0.945,-6.694],[1.015,-6.729],[1.317,-6.912],[1.338,-6.905],[1.352,-6.764],[1.541,-6.898],[1.534,-7.01],[1.506,-7.039],[1.471,-7.025],[1.485,-7.074],[1.499,-7.081],[1.331,-7.186],[1.268,-7.25],[1.219,-7.278],[1.219,-7.292],[1.177,-7.313],[1.106,-7.383],[1.008,-7.44],[0.798,-7.454],[0.714,-7.44],[0.581,-7.383],[0.51,-7.334],[0.447,-7.257],[0.307,-7.003],[0.244,-6.94],[0.23,-6.94],[0.363,-6.687],[0.412,-6.546],[0.419,-6.483]]],[[[-0.296,-6.497],[-0.289,-6.56],[-0.275,-6.574],[-0.296,-6.574],[-0.303,-6.589],[-0.289,-6.694],[-0.247,-6.793],[-0.177,-6.891],[-0.17,-6.926],[-0.184,-6.926],[-0.275,-7.025],[-0.401,-7.257],[-0.415,-7.257],[-0.492,-7.341],[-0.583,-7.404],[-0.689,-7.454],[-0.815,-7.489],[-0.997,-7.489],[-1.102,-7.447],[-1.193,-7.376],[-1.362,-7.207],[-1.495,-7.144],[-1.474,-7.081],[-1.481,-7.067],[-1.495,-6.898],[-1.348,-6.793],[-1.291,-6.729],[-1.109,-6.722],[-1.102,-6.729],[-1.095,-6.743],[-1.095,-6.757],[-1.081,-6.757],[-0.983,-6.694],[-0.731,-6.595],[-0.415,-6.511],[-0.296,-6.497]]]]},"properties":{"abbr":"MdV","name":"medullary reticular nucleus, ventral part","plate":59,"ap_bregma_mm":-12.5,"area_mm2":1.6173,"traced_fraction":[0.944,0.901],"n_labels":2,"no_drawn_outline":false}},{"type":"Feature","geometry":{"type":"MultiPolygon","coordinates":[[[[0.251,-5.899],[0.251,-5.92],[0.279,-5.92],[0.272,-6.138],[0.286,-6.174],[0.279,-6.195],[0.174,-6.279],[0.125,-6.3],[0.069,-6.286],[0.041,-6.258],[0.013,-6.174],[-0.008,-6.174],[-0.05,-6.272],[-0.078,-6.3],[-0.121,-6.307],[-0.184,-6.293],[-0.219,-6.258],[-0.247,-6.202],[-0.261,-6.124],[-0.268,-5.927],[-0.205,-5.906],[-0.085,-5.906],[-0.015,-5.927],[0.013,-5.934],[0.013,-5.92],[0.034,-5.913],[0.104,-5.885],[0.251,-5.899]]]]},"properties":{"abbr":"MnA","name":"median accessory nucleus of the medulla","plate":59,"ap_bregma_mm":-12.5,"area_mm2":0.191,"traced_fraction":[1.0],"n_labels":1,"no_drawn_outline":false}},{"type":"Feature","geometry":{"type":"MultiPolygon","coordinates":[[[[-0.913,-5.97],[-0.801,-6.054],[-0.674,-6.202],[-0.71,-6.23],[-0.99,-6.23],[-1.011,-6.209],[-0.948,-6.124],[-0.927,-6.054],[-0.927,-5.984],[-0.913,-5.97]]],[[[0.763,-5.991],[0.798,-5.991],[0.826,-6.103],[0.868,-6.152],[0.91,-6.174],[0.903,-6.251],[0.651,-6.251],[0.686,-6.195],[0.693,-6.159],[0.679,-6.145],[0.735,-6.068],[0.763,-5.991]]]]},"properties":{"abbr":"Mx","name":"matrix region of the medulla","plate":59,"ap_bregma_mm":-12.5,"area_mm2":0.085,"traced_fraction":[0.664,0.698],"n_labels":2,"no_drawn_outline":true}},{"type":"Feature","geometry":{"type":"MultiPolygon","coordinates":[[[[1.871,-6.94],[1.836,-6.968],[1.744,-7.003],[1.667,-6.968],[1.625,-6.94],[1.625,-6.926],[1.625,-6.912],[1.625,-6.828],[1.604,-6.715],[1.576,-6.631],[1.492,-6.49],[1.401,-6.399],[1.282,-6.314],[1.057,-6.209],[0.91,-6.174],[0.868,-6.152],[0.826,-6.103],[0.798,-5.991],[0.812,-5.913],[0.875,-5.843],[1.001,-5.815],[1.142,-5.815],[1.289,-5.843],[1.359,-5.878],[1.485,-5.913],[1.527,-5.941],[1.59,-5.955],[1.716,-6.04],[1.815,-6.138],[1.885,-6.237],[1.934,-6.335],[1.983,-6.504],[1.983,-6.659],[1.969,-6.722],[1.927,-6.835],[1.878,-6.891],[1.871,-6.94]]],[[[-0.99,-5.871],[-0.962,-5.892],[-0.913,-5.97],[-0.927,-5.984],[-0.927,-6.054],[-0.948,-6.124],[-1.011,-6.209],[-1.242,-6.342],[-1.439,-6.518],[-1.516,-6.631],[-1.572,-6.743],[-1.614,-6.856],[-1.614,-6.898],[-1.635,-6.982],[-1.698,-7.046],[-1.761,-7.025],[-1.768,-7.003],[-1.845,-6.961],[-1.922,-6.884],[-1.971,-6.799],[-2.0,-6.687],[-1.986,-6.539],[-1.971,-6.525],[-1.965,-6.462],[-1.873,-6.328],[-1.754,-6.202],[-1.754,-6.188],[-1.607,-6.047],[-1.495,-5.97],[-1.474,-5.97],[-1.418,-5.927],[-1.32,-5.892],[-1.312,-5.878],[-1.235,-5.857],[-1.088,-5.85],[-1.032,-5.871],[-0.99,-5.871]]]]},"properties":{"abbr":"Sp5C","name":"spinal trigeminal nucleus, caudal part","plate":59,"ap_bregma_mm":-12.5,"area_mm2":1.252,"traced_fraction":[1.0,1.0],"n_labels":2,"no_drawn_outline":false}},{"type":"Feature","geometry":{"type":"MultiPolygon","coordinates":[[[[1.001,-5.611],[1.001,-5.653],[0.938,-5.723],[0.938,-5.752],[0.882,-5.808],[0.875,-5.843],[0.812,-5.913],[0.798,-5.991],[0.763,-5.991],[0.686,-5.984],[0.468,-6.033],[0.433,-6.047],[0.328,-6.152],[0.286,-6.174],[0.272,-6.138],[0.279,-5.92],[0.279,-5.906],[0.3,-5.906],[0.377,-5.822],[0.426,-5.801],[0.426,-5.787],[0.602,-5.695],[0.784,-5.639],[1.001,-5.611]]],[[[-1.025,-5.667],[-0.913,-5.674],[-0.702,-5.73],[-0.548,-5.787],[-0.415,-5.864],[-0.268,-5.927],[-0.261,-6.124],[-0.247,-6.202],[-0.219,-6.258],[-0.268,-6.279],[-0.345,-6.286],[-0.401,-6.272],[-0.499,-6.272],[-0.597,-6.237],[-0.639,-6.237],[-0.674,-6.202],[-0.801,-6.054],[-0.913,-5.97],[-0.962,-5.892],[-0.99,-5.871],[-0.997,-5.829],[-1.032,-5.716],[-1.025,-5.667]]]]},"properties":{"abbr":"cu","name":"cuneate fasciculus","plate":59,"ap_bregma_mm":-12.5,"area_mm2":0.4792,"traced_fraction":[1.0,1.0],"n_labels":3,"no_drawn_outline":false}},{"type":"Feature","geometry":{"type":"MultiPolygon","coordinates":[[[[1.801,-7.179],[1.765,-7.264],[1.695,-7.376],[1.513,-7.376],[1.506,-7.32],[1.464,-7.278],[1.38,-7.278],[1.317,-7.306],[1.233,-7.369],[1.219,-7.292],[1.219,-7.278],[1.268,-7.25],[1.331,-7.186],[1.499,-7.081],[1.527,-7.074],[1.583,-7.06],[1.653,-7.067],[1.66,-7.081],[1.731,-7.109],[1.744,-7.137],[1.801,-7.179]]],[[[-1.579,-7.144],[-1.495,-7.144],[-1.362,-7.207],[-1.193,-7.376],[-1.221,-7.397],[-1.291,-7.348],[-1.369,-7.334],[-1.439,-7.362],[-1.488,-7.418],[-1.684,-7.418],[-1.691,-7.433],[-1.712,-7.418],[-1.824,-7.222],[-1.747,-7.179],[-1.579,-7.144]]]]},"properties":{"abbr":"dsc","name":"dorsal spinocerebellar tract","plate":59,"ap_bregma_mm":-12.5,"area_mm2":0.2208,"traced_fraction":[0.918,0.904],"n_labels":2,"no_drawn_outline":false}},{"type":"Feature","geometry":{"type":"MultiPolygon","coordinates":[[[[-0.17,-6.926],[-0.155,-6.933],[-0.134,-6.996],[-0.113,-7.151],[-0.128,-7.257],[-0.401,-7.257],[-0.275,-7.025],[-0.184,-6.926],[-0.17,-6.926]]],[[[0.23,-6.94],[0.244,-6.94],[0.307,-7.003],[0.447,-7.257],[0.146,-7.257],[0.16,-7.123],[0.202,-6.982],[0.23,-6.94]]]]},"properties":{"abbr":"mlf","name":"medial longitudinal fasciculus","plate":59,"ap_bregma_mm":-12.5,"area_mm2":0.1167,"traced_fraction":[0.785,0.761],"n_labels":2,"no_drawn_outline":false}},{"type":"Feature","geometry":{"type":"MultiPolygon","coordinates":[[[[0.419,-6.483],[0.412,-6.546],[0.363,-6.687],[0.23,-6.94],[0.202,-6.982],[0.16,-7.123],[0.146,-7.257],[0.146,-7.397],[0.188,-7.538],[0.223,-7.594],[0.3,-7.672],[0.342,-7.7],[0.398,-7.714],[0.447,-7.721],[0.447,-7.735],[0.483,-7.763],[0.483,-7.784],[0.272,-7.798],[0.132,-7.777],[0.027,-7.721],[-0.036,-7.721],[-0.113,-7.77],[-0.198,-7.791],[-0.646,-7.805],[-0.646,-7.784],[-0.625,-7.763],[-0.534,-7.721],[-0.499,-7.679],[-0.443,-7.672],[-0.345,-7.622],[-0.219,-7.524],[-0.163,-7.425],[-0.134,-7.334],[-0.128,-7.257],[-0.113,-7.151],[-0.134,-6.996],[-0.149,-6.947],[-0.17,-6.926],[-0.177,-6.891],[-0.247,-6.793],[-0.289,-6.694],[-0.303,-6.589],[-0.296,-6.574],[-0.275,-6.574],[-0.219,-6.68],[-0.198,-6.75],[-0.113,-6.842],[-0.05,-6.884],[0.02,-6.884],[0.09,-6.849],[0.153,-6.785],[0.216,-6.687],[0.223,-6.638],[0.272,-6.462],[0.349,-6.455],[0.419,-6.483]]]]},"properties":{"abbr":"pyx","name":"pyramidal decussation","plate":59,"ap_bregma_mm":-12.5,"area_mm2":0.4826,"traced_fraction":[1.0],"n_labels":1,"no_drawn_outline":false}},{"type":"Feature","geometry":{"type":"MultiPolygon","coordinates":[[[[-1.614,-6.898],[-1.495,-6.898],[-1.481,-7.067],[-1.537,-7.116],[-1.579,-7.13],[-1.579,-7.144],[-1.747,-7.179],[-1.824,-7.222],[-1.88,-7.165],[-1.873,-7.158],[-1.831,-7.13],[-1.733,-7.109],[-1.698,-7.074],[-1.698,-7.046],[-1.635,-6.982],[-1.614,-6.898]]],[[[1.541,-6.898],[1.597,-6.919],[1.625,-6.926],[1.625,-6.94],[1.667,-6.968],[1.744,-7.003],[1.737,-7.046],[1.759,-7.067],[1.864,-7.088],[1.801,-7.179],[1.759,-7.151],[1.731,-7.109],[1.66,-7.081],[1.653,-7.067],[1.583,-7.06],[1.527,-7.074],[1.506,-7.039],[1.534,-7.01],[1.541,-6.898]]]]},"properties":{"abbr":"rs","name":"rubrospinal tract","plate":59,"ap_bregma_mm":-12.5,"area_mm2":0.0908,"traced_fraction":[0.88,0.889],"n_labels":2,"no_drawn_outline":false}},{"type":"Feature","geometry":{"type":"MultiPolygon","coordinates":[[[[1.001,-5.611],[1.324,-5.639],[1.583,-5.723],[1.709,-5.794],[1.709,-5.808],[1.744,-5.829],[1.822,-5.864],[2.011,-6.068],[2.109,-6.272],[2.137,-6.392],[2.144,-6.595],[2.088,-6.814],[2.039,-6.891],[2.018,-6.954],[1.864,-7.088],[1.759,-7.067],[1.737,-7.046],[1.744,-7.003],[1.78,-6.996],[1.871,-6.94],[1.892,-6.94],[1.948,-6.884],[1.983,-6.821],[2.025,-6.687],[2.046,-6.539],[2.032,-6.392],[1.997,-6.286],[1.878,-6.082],[1.744,-5.948],[1.66,-5.885],[1.471,-5.78],[1.443,-5.78],[1.338,-5.73],[1.135,-5.688],[0.938,-5.752],[0.938,-5.723],[1.001,-5.653],[1.001,-5.611]]],[[[-1.025,-5.667],[-1.032,-5.716],[-0.997,-5.829],[-1.039,-5.822],[-1.109,-5.773],[-1.186,-5.752],[-1.291,-5.759],[-1.425,-5.808],[-1.439,-5.829],[-1.593,-5.92],[-1.628,-5.963],[-1.74,-6.04],[-1.845,-6.138],[-1.965,-6.3],[-2.021,-6.42],[-2.014,-6.441],[-1.965,-6.462],[-1.971,-6.525],[-1.986,-6.539],[-2.049,-6.525],[-2.063,-6.56],[-2.07,-6.68],[-2.035,-6.814],[-1.979,-6.912],[-1.922,-6.968],[-1.838,-7.018],[-1.761,-7.025],[-1.698,-7.046],[-1.698,-7.074],[-1.733,-7.109],[-1.831,-7.13],[-1.873,-7.158],[-1.88,-7.165],[-2.014,-7.046],[-2.112,-6.891],[-2.189,-6.708],[-2.203,-6.504],[-2.182,-6.37],[-2.119,-6.216],[-2.007,-6.047],[-1.95,-6.005],[-1.901,-5.941],[-1.74,-5.822],[-1.635,-5.773],[-1.628,-5.759],[-1.418,-5.674],[-1.32,-5.653],[-1.088,-5.653],[-1.025,-5.667]]]]},"properties":{"abbr":"sp5","name":"spinal trigeminal tract","plate":59,"ap_bregma_mm":-12.5,"area_mm2":0.5548,"traced_fraction":[1.0,0.993],"n_labels":2,"no_drawn_outline":false}},{"type":"Feature","geometry":{"type":"MultiPolygon","coordinates":[[[[-0.401,-7.257],[-0.128,-7.257],[-0.134,-7.334],[-0.163,-7.425],[-0.219,-7.524],[-0.345,-7.622],[-0.443,-7.672],[-0.499,-7.679],[-0.534,-7.721],[-0.625,-7.763],[-0.646,-7.784],[-0.646,-7.805],[-0.773,-7.819],[-1.053,-7.819],[-1.179,-7.791],[-1.172,-7.721],[-1.123,-7.728],[-1.074,-7.714],[-1.046,-7.686],[-1.046,-7.622],[-1.123,-7.503],[-1.221,-7.411],[-1.221,-7.397],[-1.193,-7.376],[-1.102,-7.447],[-0.997,-7.489],[-0.815,-7.489],[-0.689,-7.454],[-0.583,-7.404],[-0.492,-7.341],[-0.415,-7.257],[-0.401,-7.257]]],[[[0.146,-7.257],[0.447,-7.257],[0.51,-7.334],[0.581,-7.383],[0.714,-7.44],[0.798,-7.454],[1.008,-7.44],[1.106,-7.383],[1.177,-7.313],[1.219,-7.292],[1.233,-7.369],[1.127,-7.482],[1.022,-7.644],[1.015,-7.693],[1.071,-7.735],[1.085,-7.742],[0.966,-7.784],[0.812,-7.798],[0.483,-7.784],[0.483,-7.763],[0.447,-7.735],[0.447,-7.721],[0.546,-7.693],[0.581,-7.665],[0.581,-7.636],[0.538,-7.608],[0.461,-7.608],[0.405,-7.636],[0.391,-7.658],[0.398,-7.714],[0.342,-7.7],[0.3,-7.672],[0.223,-7.594],[0.188,-7.538],[0.146,-7.397],[0.146,-7.257]]],[[[-0.52,-7.615],[-0.569,-7.644],[-0.569,-7.672],[-0.52,-7.679],[-0.485,-7.665],[-0.478,-7.629],[-0.492,-7.615],[-0.52,-7.615]]]]},"properties":{"abbr":"ts","name":"tectospinal tract","plate":59,"ap_bregma_mm":-12.5,"area_mm2":0.666,"traced_fraction":[0.924,0.926,1.0],"n_labels":2,"no_drawn_outline":false}},{"type":"Feature","geometry":{"type":"MultiPolygon","coordinates":[[[[1.513,-7.376],[1.695,-7.376],[1.667,-7.44],[1.583,-7.503],[1.562,-7.538],[1.492,-7.594],[1.401,-7.629],[1.408,-7.58],[1.436,-7.559],[1.492,-7.468],[1.513,-7.376]]],[[[-1.488,-7.418],[-1.488,-7.475],[-1.474,-7.482],[-1.474,-7.503],[-1.383,-7.601],[-1.333,-7.622],[-1.27,-7.679],[-1.172,-7.721],[-1.179,-7.791],[-1.327,-7.749],[-1.495,-7.65],[-1.635,-7.517],[-1.691,-7.433],[-1.684,-7.418],[-1.488,-7.418]]]]},"properties":{"abbr":"vsc","name":"ventral spinocerebellar tract","plate":59,"ap_bregma_mm":-12.5,"area_mm2":0.094,"traced_fraction":[0.869,0.883],"n_labels":2,"no_drawn_outline":false}},{"type":"Feature","geometry":{"type":"Polygon","coordinates":[[[0.125,-6.3],[0.118,-6.342],[0.188,-6.342],[0.265,-6.392],[0.272,-6.462],[0.223,-6.638],[0.167,-6.617],[0.09,-6.617],[0.048,-6.645],[0.034,-6.701],[0.006,-6.729],[-0.015,-6.729],[-0.043,-6.673],[-0.078,-6.652],[-0.149,-6.652],[-0.219,-6.68],[-0.275,-6.574],[-0.289,-6.56],[-0.296,-6.497],[-0.296,-6.434],[-0.275,-6.378],[-0.212,-6.349],[-0.128,-6.356],[-0.121,-6.307],[-0.092,-6.307],[-0.05,-6.272],[-0.008,-6.174],[0.013,-6.174],[0.027,-6.23],[0.069,-6.286],[0.125,-6.3]]]},"properties":{"abbr":null,"name":"unnamed sealed face","plate":59,"ap_bregma_mm":-12.5,"index":0}},{"type":"Feature","geometry":{"type":"Polygon","coordinates":[[[-1.986,-6.539],[-2.0,-6.687],[-1.971,-6.799],[-1.922,-6.884],[-1.845,-6.961],[-1.768,-7.003],[-1.761,-7.025],[-1.838,-7.018],[-1.922,-6.968],[-1.979,-6.912],[-2.035,-6.814],[-2.07,-6.68],[-2.063,-6.56],[-2.049,-6.525],[-1.986,-6.539]]]},"properties":{"abbr":null,"name":"unnamed sealed face","plate":59,"ap_bregma_mm":-12.5,"index":1}},{"type":"Feature","geometry":{"type":"MultiPolygon","coordinates":[[[[-0.1,-4.872],[-0.24,-4.887],[-0.422,-4.879],[-0.618,-4.851],[-0.787,-4.809],[-0.934,-4.753],[-1.109,-4.654],[-1.179,-4.584],[-1.221,-4.5],[-1.221,-4.387],[-1.193,-4.331],[-1.137,-4.268],[-0.962,-4.183],[-0.808,-4.155],[-0.759,-4.113],[-0.702,-3.993],[-0.618,-3.909],[-0.52,-3.845],[-0.373,-3.789],[-0.205,-3.761],[-0.036,-3.761],[0.16,-3.789],[0.349,-3.845],[0.489,-3.923],[0.609,-4.078],[0.721,-4.092],[0.819,-4.141],[0.882,-4.218],[0.903,-4.275],[0.91,-4.359],[0.882,-4.457],[0.756,-4.612],[0.686,-4.654],[0.426,-4.76],[0.118,-4.844],[-0.071,-4.865],[-0.1,-4.872]]],[[[-0.794,-7.812],[-1.032,-7.812],[-1.172,-7.791],[-1.341,-7.735],[-1.502,-7.636],[-1.621,-7.524],[-1.705,-7.418],[-1.838,-7.2],[-2.007,-7.046],[-2.119,-6.87],[-2.189,-6.694],[-2.203,-6.525],[-2.182,-6.378],[-2.126,-6.23],[-2.0,-6.04],[-1.866,-5.913],[-1.705,-5.801],[-1.565,-5.73],[-1.39,-5.667],[-1.299,-5.653],[-1.123,-5.653],[-0.934,-5.674],[-0.759,-5.716],[-0.562,-5.787],[-0.303,-5.92],[-0.261,-5.927],[-0.198,-5.906],[-0.106,-5.906],[-0.029,-5.927],[0.111,-5.885],[0.293,-5.906],[0.37,-5.829],[0.489,-5.752],[0.609,-5.695],[0.791,-5.639],[1.015,-5.611],[1.303,-5.639],[1.422,-5.667],[1.59,-5.73],[1.822,-5.871],[1.997,-6.061],[2.095,-6.251],[2.13,-6.406],[2.137,-6.574],[2.081,-6.807],[2.004,-6.954],[1.864,-7.081],[1.801,-7.172],[1.653,-7.44],[1.485,-7.587],[1.247,-7.686],[0.952,-7.777],[0.756,-7.791],[0.525,-7.777],[0.3,-7.791],[0.132,-7.77],[0.02,-7.714],[-0.029,-7.714],[-0.128,-7.763],[-0.219,-7.784],[-0.766,-7.805],[-0.794,-7.812]]]]},"properties":{"abbr":"brain_outline","name":"outline of the section","plate":59,"ap_bregma_mm":-12.5}}]}
