{"type":"FeatureCollection","name":"GerbilAtlas plate 08","note":"Region extents cut from the atlas drawing (METHODS.md, Region extents). Coordinates are [ML, DV] in mm, ML positive to the right of the plate as printed, DV negative below the dorsal surface; AP is the plate bregma. traced_fraction is the share of each polygon boundary the atlas actually draws; below 0.5 the boundary is an estimate. no_drawn_outline marks a feature that lies only inside boundaries the atlas draws round more than one name and prints nothing within, so the whole of its outline is where the extraction cut it. Not a segmentation.","plate":8,"ap_bregma_mm":5.35,"features":[{"type":"Feature","geometry":{"type":"MultiPolygon","coordinates":[[[[-0.21,-4.129],[-0.21,-4.179],[-0.182,-4.389],[-0.189,-4.523],[-0.574,-4.523],[-0.574,-4.755],[-0.757,-4.769],[-1.023,-4.826],[-1.023,-4.636],[-1.199,-4.636],[-1.191,-4.868],[-1.388,-4.959],[-1.682,-5.156],[-1.788,-5.24],[-2.082,-5.55],[-2.117,-5.564],[-2.187,-5.564],[-2.208,-5.43],[-2.187,-5.135],[-2.096,-4.622],[-2.033,-4.411],[-1.949,-4.228],[-1.83,-4.094],[-1.675,-4.003],[-1.57,-3.968],[-1.416,-3.89],[-1.163,-3.813],[-0.883,-3.757],[-0.631,-3.757],[-0.518,-3.778],[-0.413,-3.827],[-0.266,-3.975],[-0.21,-4.129]]],[[[1.964,-4.734],[1.922,-4.748],[1.718,-4.671],[1.599,-4.657],[1.276,-4.572],[0.653,-4.474],[0.575,-4.432],[0.449,-4.298],[0.435,-4.27],[0.4,-4.143],[0.407,-4.059],[0.449,-3.982],[0.554,-3.876],[0.681,-3.806],[0.786,-3.778],[0.947,-3.771],[1.185,-3.813],[1.431,-3.904],[1.606,-3.996],[1.718,-4.08],[1.795,-4.186],[1.823,-4.2],[1.894,-4.291],[1.943,-4.404],[1.985,-4.593],[1.985,-4.699],[1.964,-4.734]]]]},"properties":{"abbr":"FrA","name":"frontal association cortex","plate":8,"ap_bregma_mm":5.35,"area_mm2":2.9043,"traced_fraction":[0.827,1.0],"n_labels":2,"no_drawn_outline":false}},{"type":"Feature","geometry":{"type":"MultiPolygon","coordinates":[[[[-1.023,-4.826],[-1.191,-4.868],[-1.199,-4.636],[-1.023,-4.636],[-1.023,-4.826]]]]},"properties":{"abbr":"LO","name":"lateral orbital cortex","plate":8,"ap_bregma_mm":5.35,"area_mm2":0.0363,"traced_fraction":[0.301],"n_labels":1,"no_drawn_outline":true}},{"type":"Feature","geometry":{"type":"MultiPolygon","coordinates":[[[[-0.189,-4.523],[-0.238,-4.643],[-0.301,-4.706],[-0.385,-4.741],[-0.574,-4.755],[-0.574,-4.523],[-0.189,-4.523]]]]},"properties":{"abbr":"MO","name":"medial orbital cortex","plate":8,"ap_bregma_mm":5.35,"area_mm2":0.0719,"traced_fraction":[0.491],"n_labels":1,"no_drawn_outline":true}},{"type":"Feature","geometry":{"type":"MultiPolygon","coordinates":[[[[-0.175,-4.164],[-0.133,-4.171],[-0.126,-4.193],[-0.105,-4.2],[0.0,-4.425],[-0.007,-4.593],[-0.077,-4.734],[-0.154,-4.833],[-0.154,-4.889],[-0.161,-4.889],[-0.168,-4.882],[-0.168,-4.896],[-0.21,-4.889],[-0.28,-4.91],[-0.392,-4.91],[-0.504,-4.952],[-0.546,-4.966],[-0.617,-4.98],[-0.68,-5.015],[-0.715,-5.072],[-0.729,-5.072],[-0.813,-5.184],[-0.932,-5.297],[-1.002,-5.339],[-1.114,-5.367],[-1.199,-5.36],[-1.255,-5.339],[-1.353,-5.255],[-1.395,-5.17],[-1.402,-5.072],[-1.451,-5.079],[-1.556,-5.17],[-1.633,-5.205],[-1.696,-5.269],[-1.759,-5.304],[-1.9,-5.473],[-1.998,-5.627],[-2.054,-5.768],[-2.131,-5.958],[-2.159,-5.972],[-2.187,-5.852],[-2.187,-5.564],[-2.117,-5.564],[-2.082,-5.55],[-1.788,-5.24],[-1.682,-5.156],[-1.388,-4.959],[-1.191,-4.868],[-1.023,-4.826],[-0.757,-4.769],[-0.574,-4.755],[-0.385,-4.741],[-0.301,-4.706],[-0.238,-4.643],[-0.189,-4.523],[-0.182,-4.389],[-0.21,-4.179],[-0.175,-4.164]]],[[[0.428,-4.298],[0.449,-4.298],[0.575,-4.432],[0.653,-4.474],[1.276,-4.572],[1.41,-4.615],[1.718,-4.671],[1.922,-4.748],[1.929,-4.776],[1.95,-4.783],[1.95,-4.811],[2.069,-5.03],[2.083,-5.086],[1.985,-5.107],[1.95,-5.1],[1.837,-5.03],[1.774,-5.015],[1.739,-4.987],[1.69,-4.924],[1.599,-4.861],[1.536,-4.762],[1.515,-4.741],[1.494,-4.741],[1.459,-4.952],[1.424,-5.037],[1.34,-5.128],[1.255,-5.17],[1.059,-5.17],[0.94,-5.121],[0.877,-5.044],[0.835,-4.931],[0.814,-4.819],[0.779,-4.797],[0.695,-4.797],[0.604,-4.783],[0.533,-4.797],[0.484,-4.797],[0.386,-4.826],[0.239,-4.826],[0.225,-4.819],[0.225,-4.797],[0.204,-4.79],[0.197,-4.671],[0.211,-4.629],[0.323,-4.488],[0.358,-4.375],[0.421,-4.319],[0.428,-4.298]]]]},"properties":{"abbr":"GlA","name":"glomerular layer of the accessory olfactory bulb","plate":8,"ap_bregma_mm":5.35,"area_mm2":1.3541,"traced_fraction":[1.0,1.0],"n_labels":3,"no_drawn_outline":false}},{"type":"Feature","geometry":{"type":"MultiPolygon","coordinates":[[[[1.494,-4.741],[1.515,-4.741],[1.536,-4.762],[1.599,-4.861],[1.578,-4.875],[1.557,-4.98],[1.515,-5.065],[1.515,-5.093],[1.424,-5.24],[1.312,-5.339],[1.213,-5.388],[1.101,-5.402],[0.989,-5.36],[0.891,-5.276],[0.835,-5.163],[0.786,-4.966],[0.779,-4.797],[0.814,-4.819],[0.863,-5.015],[0.94,-5.121],[1.059,-5.17],[1.255,-5.17],[1.34,-5.128],[1.424,-5.037],[1.459,-4.952],[1.494,-4.741]]],[[[-0.715,-5.072],[-0.715,-5.198],[-0.736,-5.205],[-0.736,-5.219],[-0.75,-5.219],[-0.813,-5.283],[-0.869,-5.374],[-0.967,-5.466],[-1.093,-5.536],[-1.227,-5.557],[-1.332,-5.522],[-1.444,-5.423],[-1.521,-5.297],[-1.556,-5.17],[-1.451,-5.079],[-1.402,-5.072],[-1.395,-5.17],[-1.353,-5.255],[-1.255,-5.339],[-1.199,-5.36],[-1.114,-5.367],[-1.002,-5.339],[-0.932,-5.297],[-0.813,-5.184],[-0.729,-5.072],[-0.715,-5.072]]]]},"properties":{"abbr":"EPlA","name":"external plexiform layer of the accessory olfactory bulb","plate":8,"ap_bregma_mm":5.35,"area_mm2":0.3327,"traced_fraction":[1.0,1.0],"n_labels":2,"no_drawn_outline":false}},{"type":"Feature","geometry":{"type":"MultiPolygon","coordinates":[[[[1.599,-4.861],[1.69,-4.924],[1.739,-4.987],[1.725,-4.987],[1.711,-5.015],[1.704,-5.065],[1.662,-5.163],[1.571,-5.276],[1.557,-5.262],[1.424,-5.24],[1.515,-5.093],[1.515,-5.065],[1.557,-4.98],[1.578,-4.875],[1.599,-4.861]]]]},"properties":{"abbr":"dlo","name":"dorsal lateral olfactory tract","plate":8,"ap_bregma_mm":5.35,"area_mm2":0.0623,"traced_fraction":[0.923],"n_labels":2,"no_drawn_outline":false}},{"type":"Feature","geometry":{"type":"MultiPolygon","coordinates":[[[[0.695,-4.797],[0.779,-4.797],[0.786,-4.966],[0.835,-5.163],[0.891,-5.276],[0.989,-5.36],[1.101,-5.402],[1.213,-5.388],[1.312,-5.339],[1.424,-5.24],[1.557,-5.262],[1.571,-5.276],[1.48,-5.395],[1.382,-5.466],[1.206,-5.543],[1.08,-5.557],[0.975,-5.515],[0.87,-5.423],[0.793,-5.311],[0.793,-5.29],[0.737,-5.191],[0.709,-5.17],[0.681,-5.093],[0.681,-4.896],[0.695,-4.797]]],[[[-1.556,-5.17],[-1.521,-5.297],[-1.444,-5.423],[-1.332,-5.522],[-1.227,-5.557],[-1.093,-5.536],[-0.967,-5.466],[-0.869,-5.374],[-0.813,-5.283],[-0.75,-5.219],[-0.736,-5.219],[-0.736,-5.283],[-0.757,-5.339],[-0.862,-5.536],[-0.96,-5.627],[-1.121,-5.691],[-1.304,-5.684],[-1.451,-5.627],[-1.458,-5.599],[-1.563,-5.508],[-1.626,-5.416],[-1.696,-5.269],[-1.633,-5.205],[-1.556,-5.17]]]]},"properties":{"abbr":"MiA","name":"mitral cell layer of the accessory olfactory bulb","plate":8,"ap_bregma_mm":5.35,"area_mm2":0.3314,"traced_fraction":[0.97,1.0],"n_labels":2,"no_drawn_outline":false}},{"type":"Feature","geometry":{"type":"MultiPolygon","coordinates":[[[[1.739,-4.987],[1.774,-5.015],[1.767,-5.142],[1.739,-5.219],[1.669,-5.325],[1.522,-5.466],[1.515,-5.494],[1.242,-5.67],[1.122,-5.705],[1.038,-5.705],[0.968,-5.684],[0.835,-5.592],[0.793,-5.536],[0.702,-5.255],[0.695,-5.184],[0.709,-5.17],[0.737,-5.191],[0.793,-5.29],[0.793,-5.311],[0.87,-5.423],[0.975,-5.515],[1.08,-5.557],[1.206,-5.543],[1.382,-5.466],[1.417,-5.43],[1.466,-5.409],[1.571,-5.276],[1.662,-5.163],[1.697,-5.086],[1.711,-5.015],[1.725,-4.987],[1.739,-4.987]]],[[[-1.696,-5.269],[-1.626,-5.416],[-1.675,-5.416],[-1.696,-5.452],[-1.738,-5.452],[-1.794,-5.515],[-1.801,-5.543],[-1.816,-5.543],[-1.822,-5.578],[-1.851,-5.592],[-1.879,-5.641],[-1.928,-5.768],[-2.054,-5.768],[-1.998,-5.627],[-1.9,-5.473],[-1.78,-5.339],[-1.78,-5.325],[-1.724,-5.276],[-1.696,-5.269]]]]},"properties":{"abbr":"GrA","name":"granule cell layer of the accessory olfactory bulb","plate":8,"ap_bregma_mm":5.35,"area_mm2":0.2374,"traced_fraction":[1.0,0.935],"n_labels":2,"no_drawn_outline":false}},{"type":"Feature","geometry":{"type":"MultiPolygon","coordinates":[[[[1.515,-5.494],[1.564,-5.501],[1.599,-5.564],[1.613,-5.641],[1.599,-5.768],[1.55,-5.852],[1.466,-5.93],[1.466,-5.944],[1.361,-6.056],[1.305,-6.19],[1.276,-6.169],[1.255,-6.113],[1.263,-5.993],[1.312,-5.93],[1.417,-5.866],[1.452,-5.817],[1.263,-5.81],[1.206,-5.796],[1.199,-5.747],[1.242,-5.67],[1.515,-5.494]]],[[[-1.465,-5.726],[-1.472,-5.993],[-1.409,-6.056],[-1.395,-6.056],[-1.416,-6.085],[-1.416,-6.12],[-1.367,-6.225],[-1.801,-6.232],[-1.822,-6.176],[-1.822,-6.028],[-1.801,-5.909],[-1.773,-5.845],[-1.731,-5.796],[-1.717,-5.796],[-1.717,-5.782],[-1.647,-5.74],[-1.577,-5.719],[-1.57,-5.705],[-1.465,-5.726]]],[[[1.929,-5.789],[1.907,-5.881],[1.852,-6.007],[1.837,-6.113],[1.781,-6.295],[1.746,-6.38],[1.718,-6.408],[1.704,-6.387],[1.704,-6.281],[1.788,-5.944],[1.844,-5.831],[1.873,-5.803],[1.929,-5.789]]]]},"properties":{"abbr":"AOL","name":"anterior olfactory nucleus, lateral part","plate":8,"ap_bregma_mm":5.35,"area_mm2":0.3586,"traced_fraction":[1.0,0.633,1.0],"n_labels":3,"no_drawn_outline":false}},{"type":"Feature","geometry":{"type":"MultiPolygon","coordinates":[[[[-1.465,-5.726],[-1.318,-5.761],[-1.114,-5.838],[-1.072,-5.838],[-1.079,-5.859],[-1.051,-5.895],[-1.051,-5.93],[-1.079,-5.965],[-1.332,-6.028],[-1.395,-6.056],[-1.409,-6.056],[-1.472,-5.993],[-1.465,-5.726]]]]},"properties":{"abbr":"AOD","name":"anterior olfactory nucleus, dorsal part","plate":8,"ap_bregma_mm":5.35,"area_mm2":0.0914,"traced_fraction":[0.767],"n_labels":1,"no_drawn_outline":false}},{"type":"Feature","geometry":{"type":"MultiPolygon","coordinates":[[[[0.533,-4.797],[0.519,-4.84],[0.477,-4.882],[0.449,-4.938],[0.414,-5.044],[0.407,-5.149],[0.421,-5.325],[0.498,-5.733],[0.533,-6.056],[0.582,-6.239],[0.589,-6.324],[0.653,-6.535],[0.716,-6.661],[0.779,-6.718],[0.786,-6.739],[0.828,-6.76],[0.835,-6.781],[0.996,-6.886],[1.213,-6.978],[1.297,-6.999],[1.368,-6.999],[1.473,-6.957],[1.515,-6.914],[1.606,-6.753],[1.606,-6.732],[1.648,-6.668],[1.676,-6.654],[1.69,-6.76],[1.711,-6.774],[1.648,-6.83],[1.536,-7.055],[1.41,-7.161],[1.403,-7.161],[1.319,-7.111],[1.157,-7.118],[1.052,-7.097],[0.884,-7.048],[0.744,-6.978],[0.589,-6.957],[0.505,-6.914],[0.421,-6.795],[0.4,-6.675],[0.365,-6.591],[0.365,-6.464],[0.323,-6.387],[0.323,-6.148],[0.274,-6.049],[0.253,-5.951],[0.253,-5.874],[0.274,-5.824],[0.274,-5.768],[0.218,-5.627],[0.218,-5.43],[0.239,-5.381],[0.239,-5.311],[0.211,-5.234],[0.225,-5.184],[0.218,-5.079],[0.225,-5.051],[0.253,-5.023],[0.253,-4.854],[0.239,-4.833],[0.239,-4.826],[0.386,-4.826],[0.484,-4.797],[0.533,-4.797]]],[[[-0.28,-4.91],[-0.273,-4.959],[-0.238,-5.03],[-0.14,-5.107],[-0.126,-5.255],[-0.14,-5.381],[-0.21,-5.452],[-0.21,-5.494],[-0.168,-5.55],[-0.168,-5.606],[-0.21,-5.698],[-0.21,-5.747],[-0.196,-5.775],[-0.203,-5.852],[-0.259,-5.909],[-0.259,-5.965],[-0.245,-6.028],[-0.203,-6.106],[-0.203,-6.169],[-0.259,-6.295],[-0.273,-6.436],[-0.322,-6.478],[-0.315,-6.675],[-0.336,-6.753],[-0.336,-6.83],[-0.364,-6.872],[-0.385,-6.943],[-0.462,-6.999],[-0.589,-7.055],[-0.687,-7.161],[-0.764,-7.217],[-0.855,-7.273],[-1.03,-7.308],[-1.065,-7.329],[-1.163,-7.322],[-1.206,-7.336],[-1.227,-7.365],[-1.332,-7.315],[-1.402,-7.259],[-1.451,-7.203],[-1.528,-7.146],[-1.577,-7.069],[-1.57,-7.069],[-1.556,-7.055],[-1.528,-7.055],[-1.367,-7.133],[-1.269,-7.133],[-0.981,-7.041],[-0.841,-6.957],[-0.743,-6.851],[-0.701,-6.774],[-0.666,-6.746],[-0.631,-6.689],[-0.546,-6.422],[-0.504,-6.148],[-0.462,-5.684],[-0.392,-5.395],[-0.392,-5.234],[-0.413,-5.142],[-0.504,-4.952],[-0.392,-4.91],[-0.28,-4.91]]],[[[2.083,-5.086],[2.132,-5.198],[2.16,-5.325],[2.16,-5.655],[2.09,-5.909],[2.041,-6.345],[1.964,-6.408],[1.957,-6.366],[1.852,-6.366],[1.858,-6.303],[1.964,-6.014],[1.985,-5.902],[2.027,-5.789],[2.034,-5.655],[2.027,-5.374],[1.985,-5.107],[2.083,-5.086]]],[[[1.403,-7.161],[1.41,-7.161],[1.403,-7.168],[1.403,-7.161]]]]},"properties":{"abbr":"EPl","name":"external plexiform layer of the olfactory bulb","plate":8,"ap_bregma_mm":5.35,"area_mm2":1.6462,"traced_fraction":[1.0,1.0,0.971,1.0],"n_labels":3,"no_drawn_outline":false}},{"type":"Feature","geometry":{"type":"MultiPolygon","coordinates":[[[[-2.054,-5.768],[-1.928,-5.768],[-1.963,-5.937],[-1.963,-6.141],[-1.942,-6.239],[-1.886,-6.331],[-1.738,-6.478],[-1.738,-6.493],[-1.612,-6.633],[-1.591,-6.689],[-1.584,-6.788],[-1.535,-6.823],[-1.535,-6.929],[-1.479,-6.985],[-1.465,-7.02],[-1.542,-7.02],[-1.584,-6.999],[-1.605,-7.034],[-1.794,-6.858],[-1.851,-6.753],[-1.879,-6.732],[-1.949,-6.619],[-2.075,-6.338],[-2.145,-6.085],[-2.152,-6.007],[-2.159,-5.972],[-2.131,-5.958],[-2.054,-5.768]]],[[[1.852,-6.366],[1.957,-6.366],[1.964,-6.408],[1.929,-6.443],[1.901,-6.549],[1.816,-6.668],[1.809,-6.696],[1.711,-6.774],[1.69,-6.76],[1.676,-6.654],[1.676,-6.633],[1.704,-6.598],[1.725,-6.506],[1.802,-6.478],[1.823,-6.443],[1.83,-6.38],[1.852,-6.366]]]]},"properties":{"abbr":"lo","name":"lateral olfactory tract","plate":8,"ap_bregma_mm":5.35,"area_mm2":0.3237,"traced_fraction":[0.979,0.925],"n_labels":2,"no_drawn_outline":false}},{"type":"Feature","geometry":{"type":"MultiPolygon","coordinates":[[[[0.604,-4.783],[0.695,-4.797],[0.681,-4.896],[0.681,-5.093],[0.709,-5.17],[0.695,-5.184],[0.702,-5.255],[0.793,-5.536],[0.835,-5.592],[0.821,-5.592],[0.821,-5.627],[0.849,-5.719],[0.884,-5.782],[0.94,-5.979],[0.975,-6.007],[0.975,-6.035],[1.052,-6.239],[1.08,-6.338],[1.143,-6.436],[1.171,-6.457],[1.171,-6.57],[1.319,-6.57],[1.319,-6.422],[1.263,-6.422],[1.305,-6.19],[1.361,-6.056],[1.466,-5.944],[1.466,-5.93],[1.55,-5.852],[1.599,-5.768],[1.613,-5.698],[1.599,-5.564],[1.564,-5.501],[1.515,-5.494],[1.522,-5.466],[1.669,-5.325],[1.739,-5.219],[1.767,-5.142],[1.774,-5.015],[1.837,-5.03],[1.95,-5.1],[1.943,-5.114],[1.971,-5.198],[1.992,-5.353],[2.006,-5.655],[1.971,-5.677],[1.929,-5.789],[1.901,-5.789],[1.844,-5.831],[1.788,-5.944],[1.704,-6.281],[1.704,-6.387],[1.718,-6.408],[1.711,-6.506],[1.578,-6.696],[1.578,-6.718],[1.543,-6.76],[1.522,-6.816],[1.424,-6.914],[1.382,-6.921],[1.368,-6.907],[1.305,-6.914],[1.276,-6.914],[1.242,-6.886],[1.192,-6.886],[1.087,-6.858],[0.919,-6.76],[0.912,-6.725],[0.842,-6.668],[0.765,-6.556],[0.765,-6.535],[0.723,-6.464],[0.659,-6.239],[0.631,-6.204],[0.61,-6.056],[0.617,-6.007],[0.596,-5.979],[0.582,-5.866],[0.54,-5.705],[0.519,-5.515],[0.498,-5.452],[0.477,-5.248],[0.477,-5.1],[0.505,-4.945],[0.554,-4.861],[0.582,-4.84],[0.604,-4.783]]],[[[-0.546,-4.966],[-0.469,-5.149],[-0.448,-5.311],[-0.553,-5.852],[-0.574,-6.267],[-0.652,-6.556],[-0.729,-6.71],[-0.785,-6.788],[-0.869,-6.872],[-0.988,-6.957],[-1.086,-7.006],[-1.283,-7.062],[-1.353,-7.062],[-1.465,-7.02],[-1.479,-6.985],[-1.535,-6.929],[-1.535,-6.823],[-1.5,-6.816],[-1.472,-6.76],[-1.346,-6.76],[-1.346,-6.619],[-1.184,-6.577],[-1.121,-6.528],[-1.1,-6.478],[-1.037,-6.394],[-1.037,-6.373],[-1.023,-6.366],[-0.974,-6.26],[-0.925,-6.056],[-0.911,-6.056],[-0.89,-6.0],[-0.799,-5.691],[-0.792,-5.592],[-0.771,-5.564],[-0.729,-5.416],[-0.729,-5.374],[-0.701,-5.29],[-0.701,-5.226],[-0.715,-5.198],[-0.715,-5.072],[-0.68,-5.015],[-0.617,-4.98],[-0.546,-4.966]]]]},"properties":{"abbr":"GrO","name":"granular cell layer of the olfactory bulb","plate":8,"ap_bregma_mm":5.35,"area_mm2":2.0631,"traced_fraction":[0.953,0.958],"n_labels":2,"no_drawn_outline":false}},{"type":"Feature","geometry":{"type":"MultiPolygon","coordinates":[[[[0.043,-5.093],[0.064,-5.107],[0.064,-5.226],[0.043,-5.283],[0.043,-5.508],[0.099,-5.67],[0.099,-5.761],[0.049,-5.845],[0.049,-5.881],[0.113,-6.035],[0.099,-6.19],[0.155,-6.31],[0.155,-6.38],[0.197,-6.436],[0.204,-6.549],[0.246,-6.661],[0.267,-6.816],[0.302,-6.865],[0.491,-7.041],[0.505,-7.118],[0.526,-7.14],[0.561,-7.146],[0.625,-7.196],[0.793,-7.182],[0.891,-7.273],[0.912,-7.315],[0.947,-7.336],[1.017,-7.35],[1.024,-7.365],[1.024,-7.372],[0.961,-7.4],[0.744,-7.4],[0.659,-7.386],[0.47,-7.329],[0.337,-7.259],[0.267,-7.189],[0.253,-7.189],[0.169,-7.041],[0.113,-6.844],[0.043,-6.408],[0.036,-6.324],[0.021,-6.295],[0.0,-6.295],[-0.021,-6.394],[-0.014,-6.429],[-0.021,-7.182],[-0.056,-7.294],[-0.126,-7.358],[-0.238,-7.407],[-0.448,-7.456],[-0.61,-7.491],[-0.75,-7.498],[-0.876,-7.498],[-1.065,-7.449],[-1.227,-7.365],[-1.227,-7.35],[-1.163,-7.322],[-1.065,-7.329],[-1.03,-7.358],[-0.911,-7.365],[-0.785,-7.329],[-0.673,-7.336],[-0.603,-7.322],[-0.546,-7.301],[-0.504,-7.266],[-0.392,-7.252],[-0.336,-7.231],[-0.21,-7.14],[-0.175,-7.097],[-0.154,-7.02],[-0.161,-6.886],[-0.091,-6.739],[-0.098,-6.668],[-0.126,-6.605],[-0.126,-6.514],[-0.112,-6.485],[-0.119,-6.373],[-0.077,-6.26],[-0.077,-6.197],[-0.091,-6.113],[-0.112,-6.092],[-0.112,-6.028],[-0.098,-5.972],[-0.049,-5.902],[-0.056,-5.838],[-0.021,-5.782],[-0.021,-5.641],[-0.007,-5.641],[-0.007,-5.473],[-0.021,-5.473],[-0.028,-5.212],[-0.042,-5.184],[-0.042,-5.17],[-0.028,-5.17],[0.0,-5.163],[0.043,-5.093]]]]},"properties":{"abbr":"ON","name":"olfactory nerve layer","plate":8,"ap_bregma_mm":5.35,"area_mm2":0.7094,"traced_fraction":[0.998],"n_labels":2,"no_drawn_outline":false}},{"type":"Feature","geometry":{"type":"MultiPolygon","coordinates":[[[[0.239,-4.833],[0.253,-4.854],[0.253,-5.023],[0.225,-5.051],[0.218,-5.079],[0.225,-5.184],[0.211,-5.234],[0.239,-5.311],[0.239,-5.381],[0.225,-5.395],[0.211,-5.515],[0.218,-5.627],[0.274,-5.768],[0.274,-5.824],[0.253,-5.874],[0.253,-5.951],[0.274,-6.049],[0.323,-6.148],[0.323,-6.387],[0.365,-6.464],[0.365,-6.591],[0.4,-6.675],[0.421,-6.795],[0.505,-6.914],[0.589,-6.957],[0.744,-6.978],[0.884,-7.048],[1.052,-7.097],[1.157,-7.118],[1.319,-7.111],[1.403,-7.161],[1.403,-7.168],[1.312,-7.245],[1.129,-7.344],[1.066,-7.358],[1.045,-7.365],[1.024,-7.372],[1.024,-7.365],[1.017,-7.35],[0.947,-7.336],[0.912,-7.315],[0.891,-7.273],[0.793,-7.182],[0.625,-7.196],[0.561,-7.146],[0.526,-7.14],[0.505,-7.118],[0.491,-7.041],[0.449,-7.013],[0.267,-6.816],[0.246,-6.661],[0.204,-6.549],[0.197,-6.436],[0.155,-6.38],[0.155,-6.31],[0.099,-6.19],[0.113,-6.035],[0.049,-5.881],[0.049,-5.845],[0.099,-5.761],[0.099,-5.67],[0.043,-5.508],[0.043,-5.283],[0.064,-5.226],[0.064,-5.107],[0.043,-5.093],[0.043,-5.086],[0.078,-4.994],[0.19,-4.861],[0.239,-4.833]]],[[[-0.168,-4.896],[-0.161,-4.889],[-0.154,-4.889],[-0.154,-4.91],[-0.098,-4.959],[-0.07,-5.044],[-0.049,-5.065],[-0.056,-5.086],[-0.028,-5.17],[-0.042,-5.17],[-0.042,-5.184],[-0.028,-5.212],[-0.021,-5.473],[-0.042,-5.494],[-0.042,-5.613],[-0.021,-5.641],[-0.021,-5.782],[-0.056,-5.838],[-0.049,-5.902],[-0.091,-5.958],[-0.112,-6.028],[-0.112,-6.092],[-0.091,-6.113],[-0.077,-6.26],[-0.119,-6.373],[-0.112,-6.485],[-0.126,-6.514],[-0.126,-6.605],[-0.098,-6.668],[-0.091,-6.739],[-0.161,-6.886],[-0.154,-7.02],[-0.175,-7.097],[-0.21,-7.14],[-0.336,-7.231],[-0.392,-7.252],[-0.504,-7.266],[-0.546,-7.301],[-0.603,-7.322],[-0.673,-7.336],[-0.785,-7.329],[-0.911,-7.365],[-1.03,-7.358],[-1.065,-7.329],[-1.03,-7.308],[-0.855,-7.273],[-0.764,-7.217],[-0.687,-7.161],[-0.589,-7.055],[-0.462,-6.999],[-0.385,-6.943],[-0.364,-6.872],[-0.336,-6.83],[-0.336,-6.753],[-0.315,-6.675],[-0.322,-6.478],[-0.273,-6.436],[-0.259,-6.295],[-0.203,-6.169],[-0.203,-6.106],[-0.245,-6.028],[-0.259,-5.965],[-0.259,-5.909],[-0.203,-5.852],[-0.196,-5.775],[-0.21,-5.747],[-0.21,-5.698],[-0.168,-5.606],[-0.168,-5.55],[-0.21,-5.494],[-0.21,-5.452],[-0.14,-5.381],[-0.126,-5.255],[-0.14,-5.107],[-0.238,-5.03],[-0.273,-4.959],[-0.28,-4.91],[-0.21,-4.889],[-0.168,-4.896]]]]},"properties":{"abbr":"Gl","name":"glomerular layer of the olfactory bulb","plate":8,"ap_bregma_mm":5.35,"area_mm2":1.0288,"traced_fraction":[1.0,0.997],"n_labels":3,"no_drawn_outline":false}},{"type":"Feature","geometry":{"type":"MultiPolygon","coordinates":[[[[-0.504,-4.952],[-0.413,-5.142],[-0.392,-5.234],[-0.392,-5.395],[-0.462,-5.684],[-0.504,-6.148],[-0.546,-6.422],[-0.631,-6.689],[-0.785,-6.9],[-0.869,-6.978],[-0.981,-7.041],[-1.269,-7.133],[-1.367,-7.133],[-1.528,-7.055],[-1.556,-7.055],[-1.57,-7.069],[-1.577,-7.069],[-1.605,-7.034],[-1.584,-6.999],[-1.542,-7.02],[-1.465,-7.02],[-1.353,-7.062],[-1.283,-7.062],[-1.086,-7.006],[-0.988,-6.957],[-0.869,-6.872],[-0.785,-6.788],[-0.729,-6.71],[-0.652,-6.556],[-0.574,-6.267],[-0.553,-5.852],[-0.448,-5.311],[-0.469,-5.149],[-0.546,-4.966],[-0.504,-4.952]]]]},"properties":{"abbr":"IPl","name":"internal plexiform layer of the olfactory bulb","plate":8,"ap_bregma_mm":5.35,"area_mm2":0.1863,"traced_fraction":[1.0],"n_labels":1,"no_drawn_outline":false}},{"type":"Feature","geometry":{"type":"MultiPolygon","coordinates":[[[[0.604,-4.783],[0.582,-4.84],[0.554,-4.861],[0.505,-4.945],[0.477,-5.1],[0.477,-5.248],[0.498,-5.452],[0.519,-5.515],[0.526,-5.62],[0.596,-5.979],[0.582,-5.993],[0.582,-6.028],[0.61,-6.056],[0.631,-6.204],[0.625,-6.253],[0.646,-6.352],[0.737,-6.591],[0.814,-6.696],[0.877,-6.746],[0.919,-6.76],[1.087,-6.858],[1.192,-6.886],[1.213,-6.914],[1.276,-6.914],[1.305,-6.914],[1.319,-6.936],[1.361,-6.936],[1.382,-6.921],[1.424,-6.914],[1.522,-6.816],[1.543,-6.76],[1.578,-6.718],[1.578,-6.696],[1.711,-6.506],[1.718,-6.408],[1.746,-6.38],[1.781,-6.295],[1.837,-6.113],[1.852,-6.007],[1.907,-5.881],[1.929,-5.789],[1.971,-5.677],[2.006,-5.655],[2.034,-5.655],[2.027,-5.789],[1.985,-5.902],[1.964,-6.014],[1.858,-6.303],[1.852,-6.366],[1.83,-6.38],[1.823,-6.443],[1.802,-6.478],[1.725,-6.506],[1.718,-6.556],[1.676,-6.654],[1.648,-6.668],[1.606,-6.732],[1.606,-6.753],[1.515,-6.914],[1.473,-6.957],[1.368,-6.999],[1.297,-6.999],[1.213,-6.978],[0.996,-6.886],[0.835,-6.781],[0.835,-6.767],[0.786,-6.739],[0.779,-6.718],[0.716,-6.661],[0.653,-6.535],[0.589,-6.324],[0.582,-6.239],[0.533,-6.056],[0.498,-5.733],[0.421,-5.325],[0.407,-5.149],[0.414,-5.044],[0.449,-4.938],[0.477,-4.882],[0.519,-4.84],[0.533,-4.797],[0.604,-4.783]]],[[[-1.822,-5.578],[-1.794,-5.578],[-1.696,-5.634],[-1.675,-5.634],[-1.661,-5.655],[-1.717,-5.655],[-1.745,-5.726],[-1.816,-5.81],[-1.858,-5.888],[-1.886,-5.993],[-1.886,-6.12],[-1.865,-6.204],[-1.794,-6.331],[-1.78,-6.331],[-1.745,-6.38],[-1.668,-6.429],[-1.647,-6.457],[-1.577,-6.499],[-1.486,-6.591],[-1.472,-6.612],[-1.472,-6.76],[-1.493,-6.809],[-1.535,-6.823],[-1.584,-6.788],[-1.591,-6.689],[-1.612,-6.633],[-1.738,-6.493],[-1.738,-6.478],[-1.886,-6.331],[-1.942,-6.239],[-1.963,-6.141],[-1.963,-5.937],[-1.928,-5.768],[-1.879,-5.641],[-1.851,-5.592],[-1.822,-5.578]]]]},"properties":{"abbr":"AOE","name":"anterior olfactory nucleus, external part","plate":8,"ap_bregma_mm":5.35,"area_mm2":0.4027,"traced_fraction":[1.0,1.0],"n_labels":2,"no_drawn_outline":false}},{"type":"Feature","geometry":{"type":"MultiPolygon","coordinates":[[[[-1.367,-6.225],[-1.304,-6.324],[-1.262,-6.429],[-1.269,-6.478],[-1.311,-6.499],[-1.493,-6.471],[-1.633,-6.408],[-1.752,-6.324],[-1.794,-6.267],[-1.801,-6.232],[-1.367,-6.225]]]]},"properties":{"abbr":"AOV","name":"anterior olfactory nucleus, ventral part","plate":8,"ap_bregma_mm":5.35,"area_mm2":0.0991,"traced_fraction":[0.726],"n_labels":1,"no_drawn_outline":true}},{"type":"Feature","geometry":{"type":"MultiPolygon","coordinates":[[[[1.052,-6.239],[0.982,-6.056],[0.975,-6.007],[0.975,-5.965],[0.933,-5.824],[0.94,-5.775],[0.975,-5.754],[1.073,-5.754],[1.143,-5.796],[1.171,-5.93],[1.171,-6.26],[1.157,-6.303],[1.129,-6.303],[1.066,-6.253],[1.066,-6.239],[1.052,-6.239]]]]},"properties":{"abbr":"E","name":"ependyma and subependymal layer","plate":8,"ap_bregma_mm":5.35,"area_mm2":0.0929,"traced_fraction":[1.0],"n_labels":2,"no_drawn_outline":false}},{"type":"Feature","geometry":{"type":"MultiPolygon","coordinates":[[[[-0.925,-6.056],[-0.974,-6.26],[-1.023,-6.366],[-1.037,-6.373],[-1.037,-6.394],[-1.1,-6.478],[-1.17,-6.471],[-1.212,-6.408],[-1.233,-6.324],[-1.233,-6.232],[-1.22,-6.183],[-1.156,-6.092],[-1.093,-6.042],[-1.016,-6.007],[-0.96,-6.014],[-0.939,-6.056],[-0.925,-6.056]]]]},"properties":{"abbr":"OV","name":"olfactory ventricle (olfactory part of lateral ventricle)","plate":8,"ap_bregma_mm":5.35,"area_mm2":0.0955,"traced_fraction":[1.0],"n_labels":1,"no_drawn_outline":false}},{"type":"Feature","geometry":{"type":"Polygon","coordinates":[[[-0.715,-5.198],[-0.701,-5.226],[-0.701,-5.29],[-0.729,-5.374],[-0.729,-5.416],[-0.771,-5.564],[-0.792,-5.592],[-0.799,-5.691],[-0.862,-5.909],[-0.876,-5.923],[-0.904,-6.042],[-0.925,-6.056],[-0.939,-6.056],[-0.96,-6.014],[-1.016,-6.007],[-1.093,-6.042],[-1.156,-6.092],[-1.22,-6.183],[-1.233,-6.232],[-1.233,-6.324],[-1.212,-6.408],[-1.17,-6.471],[-1.1,-6.478],[-1.121,-6.528],[-1.184,-6.577],[-1.346,-6.619],[-1.346,-6.76],[-1.472,-6.76],[-1.472,-6.612],[-1.486,-6.591],[-1.577,-6.499],[-1.647,-6.457],[-1.668,-6.429],[-1.745,-6.38],[-1.78,-6.331],[-1.794,-6.331],[-1.865,-6.204],[-1.886,-6.12],[-1.886,-5.993],[-1.858,-5.888],[-1.816,-5.81],[-1.745,-5.726],[-1.717,-5.655],[-1.661,-5.655],[-1.675,-5.634],[-1.696,-5.634],[-1.794,-5.578],[-1.822,-5.578],[-1.816,-5.543],[-1.801,-5.543],[-1.794,-5.515],[-1.738,-5.452],[-1.696,-5.452],[-1.675,-5.416],[-1.626,-5.416],[-1.563,-5.508],[-1.458,-5.599],[-1.451,-5.627],[-1.304,-5.684],[-1.121,-5.691],[-0.96,-5.627],[-0.862,-5.536],[-0.757,-5.339],[-0.736,-5.283],[-0.736,-5.219],[-0.736,-5.205],[-0.715,-5.198]]]},"properties":{"abbr":null,"name":"unnamed sealed face","plate":8,"ap_bregma_mm":5.35,"index":0}},{"type":"Feature","geometry":{"type":"Polygon","coordinates":[[[-1.801,-6.232],[-1.794,-6.267],[-1.752,-6.324],[-1.633,-6.408],[-1.493,-6.471],[-1.311,-6.499],[-1.269,-6.478],[-1.262,-6.429],[-1.304,-6.324],[-1.367,-6.225],[-1.416,-6.12],[-1.416,-6.085],[-1.395,-6.056],[-1.332,-6.028],[-1.079,-5.965],[-1.051,-5.93],[-1.051,-5.895],[-1.079,-5.859],[-1.072,-5.838],[-1.114,-5.838],[-1.318,-5.761],[-1.465,-5.726],[-1.57,-5.705],[-1.577,-5.719],[-1.647,-5.74],[-1.717,-5.782],[-1.717,-5.796],[-1.731,-5.796],[-1.773,-5.845],[-1.801,-5.909],[-1.822,-6.028],[-1.822,-6.176],[-1.801,-6.232]]]},"properties":{"abbr":null,"name":"unnamed sealed face","plate":8,"ap_bregma_mm":5.35,"index":1}},{"type":"Feature","geometry":{"type":"Polygon","coordinates":[[[0.835,-5.592],[0.968,-5.684],[1.038,-5.705],[1.122,-5.705],[1.242,-5.67],[1.199,-5.747],[1.206,-5.796],[1.263,-5.81],[1.452,-5.817],[1.417,-5.866],[1.312,-5.93],[1.263,-5.993],[1.255,-6.113],[1.276,-6.169],[1.305,-6.19],[1.263,-6.422],[1.319,-6.422],[1.319,-6.57],[1.171,-6.57],[1.171,-6.457],[1.143,-6.436],[1.08,-6.338],[1.052,-6.239],[1.066,-6.239],[1.066,-6.253],[1.129,-6.303],[1.157,-6.303],[1.164,-6.289],[1.171,-5.93],[1.157,-5.838],[1.143,-5.796],[1.101,-5.761],[0.975,-5.754],[0.947,-5.768],[0.933,-5.824],[0.975,-5.965],[0.975,-6.007],[0.94,-5.979],[0.884,-5.782],[0.849,-5.719],[0.821,-5.627],[0.821,-5.592],[0.835,-5.592]]]},"properties":{"abbr":null,"name":"unnamed sealed face","plate":8,"ap_bregma_mm":5.35,"index":2}},{"type":"Feature","geometry":{"type":"Polygon","coordinates":[[[0.631,-6.204],[0.659,-6.239],[0.702,-6.401],[0.765,-6.556],[0.842,-6.668],[0.912,-6.725],[0.919,-6.76],[0.877,-6.746],[0.814,-6.696],[0.737,-6.591],[0.646,-6.352],[0.625,-6.253],[0.631,-6.204]]]},"properties":{"abbr":null,"name":"unnamed sealed face","plate":8,"ap_bregma_mm":5.35,"index":3}},{"type":"Feature","geometry":{"type":"MultiPolygon","coordinates":[[[[-0.638,-7.484],[-0.869,-7.491],[-1.079,-7.435],[-1.339,-7.301],[-1.521,-7.146],[-1.591,-7.048],[-1.788,-6.858],[-1.956,-6.598],[-2.075,-6.324],[-2.138,-6.099],[-2.187,-5.831],[-2.187,-5.536],[-2.208,-5.402],[-2.18,-5.093],[-2.089,-4.6],[-2.033,-4.418],[-1.963,-4.256],[-1.921,-4.186],[-1.837,-4.101],[-1.703,-4.017],[-1.374,-3.876],[-1.023,-3.778],[-0.855,-3.757],[-0.652,-3.757],[-0.504,-3.785],[-0.413,-3.834],[-0.28,-3.968],[-0.245,-4.031],[-0.224,-4.122],[-0.175,-4.164],[-0.14,-4.171],[-0.105,-4.214],[-0.007,-4.432],[-0.014,-4.579],[-0.056,-4.678],[-0.168,-4.847],[-0.161,-4.903],[-0.105,-4.959],[-0.063,-5.065],[0.043,-5.086],[0.078,-4.994],[0.19,-4.861],[0.204,-4.762],[0.197,-4.678],[0.218,-4.615],[0.323,-4.481],[0.358,-4.375],[0.421,-4.312],[0.435,-4.249],[0.4,-4.129],[0.407,-4.059],[0.456,-3.975],[0.547,-3.883],[0.681,-3.806],[0.8,-3.778],[0.926,-3.771],[1.171,-3.813],[1.438,-3.911],[1.606,-4.003],[1.718,-4.087],[1.886,-4.291],[1.936,-4.411],[1.978,-4.608],[1.978,-4.692],[1.957,-4.72],[1.943,-4.797],[2.062,-5.037],[2.125,-5.205],[2.153,-5.339],[2.153,-5.641],[2.083,-5.916],[2.034,-6.338],[1.922,-6.443],[1.886,-6.556],[1.795,-6.696],[1.641,-6.83],[1.543,-7.027],[1.487,-7.09],[1.312,-7.231],[1.136,-7.329],[0.947,-7.393],[0.765,-7.393],[0.667,-7.379],[0.477,-7.322],[0.337,-7.252],[0.239,-7.168],[0.169,-7.027],[0.106,-6.802],[0.043,-6.401],[-0.028,-6.429],[-0.028,-7.168],[-0.063,-7.287],[-0.133,-7.35],[-0.252,-7.4],[-0.595,-7.477],[-0.638,-7.484]]]]},"properties":{"abbr":"brain_outline","name":"outline of the section","plate":8,"ap_bregma_mm":5.35}}]}
