{"type":"FeatureCollection","name":"GerbilAtlas plate 16","note":"Region extents cut from the atlas drawing (METHODS.md, Region extents). Coordinates are [ML, DV] in mm, ML positive to the right of the plate as printed, DV negative below the dorsal surface; AP is the plate bregma. traced_fraction is the share of each polygon boundary the atlas actually draws; below 0.5 the boundary is an estimate. no_drawn_outline marks a feature that lies only inside boundaries the atlas draws round more than one name and prints nothing within, so the whole of its outline is where the extraction cut it. Not a segmentation.","plate":16,"ap_bregma_mm":2.55,"features":[{"type":"Feature","geometry":{"type":"MultiPolygon","coordinates":[[[[1.744,-1.808],[1.597,-3.102],[1.562,-3.749],[1.478,-3.742],[1.415,-3.756],[1.387,-3.721],[1.268,-3.453],[1.176,-3.306],[1.001,-2.961],[0.77,-2.574],[0.693,-2.412],[0.602,-2.272],[0.566,-2.187],[0.44,-1.99],[0.426,-1.948],[0.609,-1.864],[0.812,-1.822],[1.05,-1.794],[1.541,-1.786],[1.744,-1.808]]],[[[-0.289,-2.103],[-0.45,-2.293],[-0.499,-2.377],[-0.682,-2.602],[-1.081,-3.186],[-1.095,-3.228],[-1.32,-3.587],[-1.39,-3.742],[-1.411,-3.763],[-1.446,-3.861],[-1.607,-3.847],[-1.733,-1.934],[-1.228,-1.857],[-0.955,-1.857],[-0.682,-1.906],[-0.548,-1.948],[-0.324,-2.068],[-0.289,-2.103]]]]},"properties":{"abbr":"M2","name":"secondary motor cortex","plate":16,"ap_bregma_mm":2.55,"area_mm2":3.0269,"traced_fraction":[1.0,1.0],"n_labels":2,"no_drawn_outline":false}},{"type":"Feature","geometry":{"type":"MultiPolygon","coordinates":[[[[1.744,-1.808],[1.822,-1.808],[2.144,-1.857],[2.488,-1.941],[2.761,-2.047],[2.705,-2.18],[2.621,-2.307],[2.523,-2.511],[2.361,-2.778],[2.095,-3.285],[1.969,-3.489],[1.843,-3.749],[1.772,-3.847],[1.639,-3.77],[1.562,-3.749],[1.597,-3.102],[1.744,-1.808]]],[[[-1.733,-1.934],[-1.607,-3.847],[-1.782,-3.896],[-1.881,-3.946],[-1.972,-3.784],[-2.0,-3.7],[-2.126,-3.46],[-2.196,-3.292],[-2.371,-2.954],[-2.371,-2.933],[-2.736,-2.187],[-2.68,-2.159],[-2.336,-2.061],[-1.86,-1.948],[-1.733,-1.934]]]]},"properties":{"abbr":"M1","name":"primary motor cortex","plate":16,"ap_bregma_mm":2.55,"area_mm2":2.5938,"traced_fraction":[1.0,1.0],"n_labels":2,"no_drawn_outline":false}},{"type":"Feature","geometry":{"type":"MultiPolygon","coordinates":[[[[2.761,-2.047],[2.936,-2.103],[3.098,-2.194],[3.062,-2.265],[3.013,-2.314],[2.747,-2.708],[2.691,-2.764],[2.677,-2.799],[2.361,-3.214],[2.025,-3.707],[1.892,-3.882],[1.836,-3.932],[1.772,-3.847],[1.843,-3.749],[1.969,-3.489],[2.095,-3.285],[2.361,-2.778],[2.523,-2.511],[2.621,-2.307],[2.705,-2.18],[2.761,-2.047]]],[[[-2.736,-2.187],[-2.371,-2.933],[-2.371,-2.954],[-2.196,-3.292],[-2.126,-3.46],[-2.0,-3.7],[-1.972,-3.784],[-1.881,-3.946],[-1.979,-4.044],[-2.049,-3.981],[-2.14,-3.861],[-2.203,-3.749],[-2.224,-3.735],[-2.329,-3.559],[-2.54,-3.256],[-2.708,-2.968],[-3.002,-2.532],[-3.03,-2.511],[-3.108,-2.398],[-3.129,-2.342],[-2.939,-2.258],[-2.736,-2.187]]]]},"properties":{"abbr":"Fr3","name":"frontal cortex, area 3","plate":16,"ap_bregma_mm":2.55,"area_mm2":1.0764,"traced_fraction":[1.0,1.0],"n_labels":2,"no_drawn_outline":false}},{"type":"Feature","geometry":{"type":"MultiPolygon","coordinates":[[[[0.426,-1.948],[0.44,-1.99],[0.566,-2.187],[0.602,-2.272],[0.693,-2.412],[0.77,-2.574],[1.001,-2.961],[1.176,-3.306],[1.268,-3.453],[1.387,-3.721],[1.415,-3.756],[1.345,-3.812],[1.127,-3.608],[0.805,-3.383],[0.623,-3.292],[0.581,-3.256],[0.356,-3.151],[0.146,-3.024],[0.09,-2.996],[0.027,-2.989],[0.027,-2.638],[0.069,-2.363],[0.111,-2.251],[0.153,-2.159],[0.223,-2.068],[0.237,-2.068],[0.314,-1.99],[0.426,-1.948]]],[[[-0.289,-2.103],[-0.233,-2.145],[-0.149,-2.244],[-0.078,-2.391],[-0.057,-2.504],[-0.065,-2.884],[-0.078,-2.933],[-0.072,-3.01],[-0.198,-3.066],[-0.387,-3.193],[-0.555,-3.278],[-0.878,-3.474],[-1.207,-3.714],[-1.39,-3.889],[-1.411,-3.889],[-1.446,-3.861],[-1.411,-3.763],[-1.39,-3.742],[-1.32,-3.587],[-1.095,-3.228],[-1.081,-3.186],[-0.682,-2.602],[-0.562,-2.462],[-0.45,-2.293],[-0.289,-2.103]]]]},"properties":{"abbr":"Cg1","name":"cingulate cortex, area 1","plate":16,"ap_bregma_mm":2.55,"area_mm2":1.8831,"traced_fraction":[1.0,1.0],"n_labels":2,"no_drawn_outline":false}},{"type":"Feature","geometry":{"type":"MultiPolygon","coordinates":[[[[3.098,-2.194],[3.224,-2.251],[3.441,-2.405],[3.49,-2.426],[3.574,-2.511],[3.588,-2.511],[3.63,-2.567],[3.701,-2.616],[3.911,-2.87],[4.058,-3.137],[4.135,-3.446],[4.135,-3.707],[4.1,-3.904],[4.037,-4.086],[3.687,-4.079],[3.645,-4.065],[3.266,-4.072],[3.224,-4.086],[2.712,-4.1],[1.913,-4.164],[1.899,-4.157],[1.878,-4.044],[1.836,-3.932],[1.892,-3.882],[2.025,-3.707],[2.361,-3.214],[2.677,-2.799],[2.691,-2.764],[2.747,-2.708],[3.013,-2.314],[3.062,-2.265],[3.098,-2.194]]],[[[-3.129,-2.342],[-3.108,-2.398],[-3.03,-2.511],[-3.002,-2.532],[-2.708,-2.968],[-2.54,-3.256],[-2.329,-3.559],[-2.224,-3.735],[-2.203,-3.749],[-2.14,-3.861],[-2.049,-3.981],[-1.979,-4.044],[-2.028,-4.114],[-2.084,-4.234],[-2.54,-4.129],[-2.61,-4.1],[-3.262,-3.981],[-3.998,-3.889],[-4.292,-3.868],[-4.398,-3.875],[-4.405,-3.636],[-4.341,-3.369],[-4.285,-3.242],[-4.208,-3.137],[-4.18,-3.074],[-3.921,-2.799],[-3.612,-2.588],[-3.598,-2.567],[-3.206,-2.363],[-3.129,-2.342]]]]},"properties":{"abbr":"S1FL","name":"primary somatosensory cortex, forelimb region","plate":16,"ap_bregma_mm":2.55,"area_mm2":5.3279,"traced_fraction":[0.996,0.993],"n_labels":2,"no_drawn_outline":false}},{"type":"Feature","geometry":{"type":"MultiPolygon","coordinates":[[[[-2.084,-4.234],[-2.098,-4.297],[-2.532,-4.213],[-2.652,-4.206],[-2.771,-4.178],[-3.297,-4.108],[-3.472,-4.093],[-3.542,-4.093],[-3.542,-4.108],[-3.921,-4.108],[-3.921,-4.058],[-4.103,-4.044],[-4.348,-4.044],[-4.363,-4.058],[-4.398,-3.875],[-4.292,-3.868],[-3.998,-3.889],[-3.262,-3.981],[-2.61,-4.1],[-2.54,-4.129],[-2.084,-4.234]]],[[[4.037,-4.086],[4.002,-4.199],[3.967,-4.262],[3.911,-4.234],[3.771,-4.22],[3.623,-4.227],[3.266,-4.206],[2.509,-4.213],[1.913,-4.248],[1.913,-4.164],[2.712,-4.1],[3.224,-4.086],[3.266,-4.072],[3.645,-4.065],[3.687,-4.079],[4.037,-4.086]]]]},"properties":{"abbr":"S1DZ","name":"primary somatosensory cortex, dysgranular zone","plate":16,"ap_bregma_mm":2.55,"area_mm2":0.5521,"traced_fraction":[0.921,0.986],"n_labels":2,"no_drawn_outline":false}},{"type":"Feature","geometry":{"type":"MultiPolygon","coordinates":[[[[1.562,-3.749],[1.639,-3.77],[1.772,-3.847],[1.836,-3.932],[1.878,-4.044],[1.899,-4.157],[1.913,-4.164],[1.913,-4.248],[1.899,-4.417],[1.85,-4.6],[1.85,-4.663],[1.836,-4.698],[1.822,-4.698],[1.793,-4.74],[1.759,-4.818],[1.646,-4.93],[1.646,-4.951],[1.625,-4.951],[1.597,-4.98],[1.492,-5.029],[1.275,-5.198],[1.191,-5.282],[1.148,-5.373],[1.106,-5.423],[1.106,-5.444],[1.036,-5.5],[0.973,-5.613],[0.861,-5.76],[0.84,-5.795],[0.84,-5.824],[0.77,-5.88],[0.749,-5.831],[0.763,-5.788],[0.819,-5.24],[0.931,-4.698],[1.078,-4.276],[1.24,-3.953],[1.345,-3.812],[1.415,-3.756],[1.478,-3.742],[1.562,-3.749]]],[[[-1.607,-3.847],[-1.446,-3.861],[-1.411,-3.889],[-1.39,-3.889],[-1.32,-3.981],[-1.228,-4.171],[-1.179,-4.29],[-1.06,-4.677],[-1.039,-4.691],[-1.046,-4.74],[-0.955,-5.106],[-0.934,-5.289],[-0.864,-5.634],[-0.85,-5.781],[-0.829,-5.838],[-0.836,-5.901],[-0.913,-5.845],[-0.962,-5.753],[-0.99,-5.732],[-0.99,-5.718],[-1.137,-5.563],[-1.235,-5.486],[-1.256,-5.486],[-1.502,-5.233],[-1.67,-5.134],[-1.803,-5.085],[-1.817,-5.043],[-1.894,-4.987],[-2.042,-4.832],[-2.042,-4.811],[-2.077,-4.761],[-2.119,-4.6],[-2.119,-4.431],[-2.098,-4.297],[-2.084,-4.234],[-2.028,-4.114],[-1.979,-4.044],[-1.881,-3.946],[-1.782,-3.896],[-1.607,-3.847]]]]},"properties":{"abbr":"fmi","name":"forceps minor of the corpus callosum","plate":16,"ap_bregma_mm":2.55,"area_mm2":2.5702,"traced_fraction":[1.0,1.0],"n_labels":2,"no_drawn_outline":false}},{"type":"Feature","geometry":{"type":"MultiPolygon","coordinates":[[[[1.85,-4.663],[2.53,-4.783],[2.831,-4.818],[2.922,-4.846],[3.252,-4.888],[3.413,-4.93],[3.294,-5.085],[3.287,-5.078],[3.273,-5.092],[3.28,-5.099],[3.266,-5.12],[3.259,-5.113],[3.245,-5.127],[3.098,-5.078],[2.495,-4.951],[2.067,-4.839],[1.85,-4.804],[1.836,-4.698],[1.85,-4.663]]],[[[-2.077,-4.761],[-2.042,-4.811],[-2.042,-4.832],[-2.063,-4.867],[-2.112,-4.867],[-2.547,-5.008],[-3.178,-5.184],[-3.437,-5.268],[-3.465,-5.282],[-3.465,-5.296],[-3.591,-5.198],[-3.647,-5.12],[-3.647,-5.106],[-3.619,-5.092],[-3.486,-5.057],[-3.185,-5.008],[-3.15,-4.987],[-3.023,-4.959],[-2.876,-4.937],[-2.077,-4.761]]]]},"properties":{"abbr":"GI","name":"granular insular cortex","plate":16,"ap_bregma_mm":2.55,"area_mm2":0.5162,"traced_fraction":[1.0,1.0],"n_labels":2,"no_drawn_outline":false}},{"type":"Feature","geometry":{"type":"MultiPolygon","coordinates":[[[[0.931,-4.698],[0.819,-5.24],[0.763,-5.788],[0.749,-5.831],[0.461,-5.859],[0.013,-5.936],[-0.24,-5.929],[-0.667,-5.866],[-0.766,-5.838],[-0.829,-5.838],[-0.85,-5.781],[-0.864,-5.634],[-0.934,-5.289],[-0.955,-5.106],[-1.046,-4.74],[-1.039,-4.691],[-0.212,-4.565],[0.069,-4.551],[0.707,-4.649],[0.931,-4.698]]]]},"properties":{"abbr":"IL","name":"infralimbic cortex","plate":16,"ap_bregma_mm":2.55,"area_mm2":2.2569,"traced_fraction":[1.0],"n_labels":2,"no_drawn_outline":false}},{"type":"Feature","geometry":{"type":"MultiPolygon","coordinates":[[[[1.646,-4.951],[1.765,-4.951],[1.801,-4.98],[1.836,-4.987],[1.836,-4.994],[1.801,-5.106],[1.709,-5.205],[1.709,-5.219],[1.681,-5.226],[1.597,-5.296],[1.499,-5.352],[1.457,-5.395],[1.457,-5.416],[1.422,-5.43],[1.359,-5.5],[1.282,-5.648],[1.268,-5.704],[1.183,-5.795],[1.127,-5.76],[1.099,-5.697],[1.092,-5.528],[1.106,-5.444],[1.106,-5.423],[1.148,-5.373],[1.191,-5.282],[1.275,-5.198],[1.492,-5.029],[1.597,-4.98],[1.611,-4.959],[1.646,-4.951]]],[[[-1.803,-5.085],[-1.67,-5.134],[-1.502,-5.233],[-1.256,-5.486],[-1.263,-5.528],[-1.228,-5.634],[-1.235,-5.774],[-1.263,-5.845],[-1.299,-5.88],[-1.369,-5.894],[-1.418,-5.838],[-1.446,-5.725],[-1.488,-5.648],[-1.614,-5.507],[-1.656,-5.493],[-1.691,-5.451],[-1.86,-5.338],[-1.937,-5.247],[-1.979,-5.155],[-1.972,-5.134],[-1.909,-5.085],[-1.803,-5.085]]]]},"properties":{"abbr":"VCl","name":"ventral part of claustrum","plate":16,"ap_bregma_mm":2.55,"area_mm2":0.5018,"traced_fraction":[1.0,1.0],"n_labels":2,"no_drawn_outline":false}},{"type":"Feature","geometry":{"type":"MultiPolygon","coordinates":[[[[1.709,-5.219],[1.857,-5.359],[2.137,-5.577],[2.551,-5.943],[2.593,-5.964],[2.621,-5.999],[2.656,-6.006],[2.607,-6.119],[2.544,-6.168],[2.481,-6.175],[2.186,-6.056],[2.046,-6.028],[2.039,-6.006],[1.457,-5.416],[1.457,-5.395],[1.499,-5.352],[1.597,-5.296],[1.681,-5.226],[1.709,-5.219]]],[[[-1.86,-5.338],[-1.691,-5.451],[-1.656,-5.493],[-1.93,-5.753],[-1.944,-5.753],[-2.056,-5.873],[-2.07,-5.873],[-2.294,-6.098],[-2.329,-6.119],[-2.427,-6.119],[-2.532,-6.161],[-2.631,-6.175],[-2.687,-6.175],[-2.785,-6.119],[-2.848,-6.02],[-2.862,-5.999],[-2.876,-5.978],[-2.869,-5.971],[-1.86,-5.338]]]]},"properties":{"abbr":"LO","name":"lateral orbital cortex","plate":16,"ap_bregma_mm":2.55,"area_mm2":0.8387,"traced_fraction":[1.0,1.0],"n_labels":2,"no_drawn_outline":false}},{"type":"Feature","geometry":{"type":"MultiPolygon","coordinates":[[[[1.457,-5.416],[2.039,-6.006],[2.046,-6.028],[2.186,-6.056],[2.481,-6.175],[2.509,-6.239],[2.509,-6.288],[2.495,-6.316],[2.361,-6.506],[2.291,-6.632],[2.242,-6.689],[2.235,-6.689],[2.06,-6.696],[1.913,-6.766],[1.759,-6.928],[1.702,-7.026],[1.646,-7.181],[1.618,-7.167],[1.604,-7.125],[1.569,-7.083],[1.52,-7.069],[1.52,-7.054],[1.555,-7.054],[1.618,-6.991],[1.66,-6.858],[1.737,-6.71],[1.822,-6.632],[2.004,-6.52],[2.067,-6.457],[2.081,-6.457],[2.172,-6.358],[2.193,-6.323],[2.193,-6.246],[2.13,-6.182],[2.053,-6.147],[1.969,-6.147],[1.927,-6.175],[1.744,-6.203],[1.653,-6.203],[1.583,-6.224],[1.464,-6.091],[1.464,-6.077],[1.45,-6.077],[1.38,-5.999],[1.24,-5.929],[1.183,-5.852],[1.183,-5.795],[1.268,-5.704],[1.282,-5.648],[1.359,-5.5],[1.422,-5.43],[1.457,-5.416]]],[[[-1.656,-5.493],[-1.614,-5.507],[-1.488,-5.648],[-1.446,-5.725],[-1.418,-5.838],[-1.369,-5.894],[-1.397,-5.901],[-1.397,-5.95],[-1.446,-6.006],[-1.453,-6.049],[-1.558,-6.084],[-1.677,-6.147],[-1.705,-6.175],[-1.726,-6.175],[-1.86,-6.309],[-1.972,-6.309],[-2.112,-6.288],[-2.189,-6.26],[-2.224,-6.231],[-2.245,-6.231],[-2.252,-6.253],[-2.329,-6.239],[-2.392,-6.26],[-2.427,-6.295],[-2.42,-6.365],[-2.364,-6.435],[-2.252,-6.513],[-2.007,-6.632],[-1.915,-6.724],[-1.881,-6.78],[-1.838,-6.914],[-1.782,-7.026],[-1.747,-7.061],[-1.705,-7.075],[-1.698,-7.083],[-1.74,-7.132],[-1.775,-7.272],[-1.803,-7.244],[-1.803,-7.209],[-1.838,-7.146],[-1.873,-7.019],[-1.915,-6.942],[-1.965,-6.893],[-2.147,-6.808],[-2.301,-6.801],[-2.308,-6.815],[-2.462,-6.689],[-2.575,-6.541],[-2.624,-6.428],[-2.631,-6.414],[-2.673,-6.337],[-2.673,-6.253],[-2.659,-6.224],[-2.631,-6.175],[-2.532,-6.161],[-2.427,-6.119],[-2.329,-6.119],[-2.294,-6.098],[-2.07,-5.873],[-2.056,-5.873],[-1.944,-5.753],[-1.93,-5.753],[-1.656,-5.493]]]]},"properties":{"abbr":"VO","name":"ventral orbital cortex","plate":16,"ap_bregma_mm":2.55,"area_mm2":1.3765,"traced_fraction":[1.0,0.992],"n_labels":2,"no_drawn_outline":false}},{"type":"Feature","geometry":{"type":"MultiPolygon","coordinates":[[[[0.749,-5.831],[0.77,-5.88],[0.756,-5.929],[0.756,-5.943],[0.735,-6.028],[0.658,-6.006],[0.447,-6.196],[0.293,-6.302],[0.23,-6.33],[0.167,-6.393],[0.097,-6.414],[-0.078,-6.443],[-0.191,-6.407],[-0.24,-6.407],[-0.303,-6.379],[-0.52,-6.253],[-0.674,-6.133],[-0.808,-5.999],[-0.836,-5.901],[-0.829,-5.838],[-0.766,-5.838],[-0.667,-5.866],[-0.24,-5.929],[0.013,-5.936],[0.412,-5.866],[0.749,-5.831]]]]},"properties":{"abbr":"DP","name":"dorsal peduncular cortex","plate":16,"ap_bregma_mm":2.55,"area_mm2":0.5842,"traced_fraction":[0.994],"n_labels":2,"no_drawn_outline":false}},{"type":"Feature","geometry":{"type":"MultiPolygon","coordinates":[[[[1.106,-5.444],[1.092,-5.528],[1.099,-5.697],[1.127,-5.76],[1.183,-5.795],[1.183,-5.852],[1.24,-5.929],[1.219,-5.978],[1.219,-6.042],[1.268,-6.217],[1.24,-6.217],[1.155,-6.154],[0.917,-5.922],[0.91,-5.915],[0.903,-5.908],[0.861,-5.831],[0.84,-5.824],[0.84,-5.795],[0.861,-5.76],[0.973,-5.613],[1.036,-5.5],[1.106,-5.444]]],[[[-1.256,-5.486],[-1.235,-5.486],[-1.137,-5.563],[-1.039,-5.662],[-0.99,-5.732],[-1.018,-5.746],[-1.039,-5.838],[-1.067,-5.859],[-1.095,-5.957],[-1.151,-6.049],[-1.256,-6.147],[-1.263,-6.168],[-1.39,-6.26],[-1.425,-6.302],[-1.495,-6.295],[-1.411,-6.133],[-1.411,-6.07],[-1.453,-6.049],[-1.446,-6.006],[-1.397,-5.95],[-1.397,-5.901],[-1.369,-5.894],[-1.299,-5.88],[-1.263,-5.845],[-1.235,-5.774],[-1.228,-5.634],[-1.263,-5.528],[-1.256,-5.486]]]]},"properties":{"abbr":"AcbC","name":"accumbens nucleus, core","plate":16,"ap_bregma_mm":2.55,"area_mm2":0.2981,"traced_fraction":[1.0,0.983],"n_labels":2,"no_drawn_outline":false}},{"type":"Feature","geometry":{"type":"MultiPolygon","coordinates":[[[[0.735,-6.028],[0.693,-6.147],[0.7,-6.196],[0.587,-6.45],[0.545,-6.611],[0.447,-6.604],[0.447,-6.569],[0.23,-6.569],[0.23,-6.555],[0.307,-6.555],[0.307,-6.435],[0.195,-6.435],[0.167,-6.393],[0.23,-6.33],[0.293,-6.302],[0.447,-6.196],[0.658,-6.006],[0.735,-6.028]]],[[[-0.674,-6.133],[-0.52,-6.253],[-0.303,-6.379],[-0.345,-6.443],[-0.359,-6.562],[-0.366,-6.618],[-0.345,-6.766],[-0.401,-6.858],[-0.457,-6.787],[-0.541,-6.717],[-0.646,-6.689],[-0.752,-6.696],[-0.752,-6.485],[-0.829,-6.281],[-0.836,-6.217],[-0.71,-6.217],[-0.71,-6.189],[-0.674,-6.133]]],[[[-1.86,-6.309],[-1.866,-6.407],[-1.852,-6.443],[-1.845,-6.45],[-1.845,-6.506],[-1.881,-6.534],[-1.881,-6.562],[-2.105,-6.428],[-2.168,-6.365],[-2.217,-6.281],[-2.252,-6.253],[-2.245,-6.231],[-2.224,-6.231],[-2.203,-6.253],[-2.112,-6.288],[-1.972,-6.309],[-1.86,-6.309]]]]},"properties":{"abbr":"3","name":"layer 3 of cortex","plate":16,"ap_bregma_mm":2.55,"area_mm2":0.4338,"traced_fraction":[0.749,0.917,0.988],"n_labels":2,"no_drawn_outline":false}},{"type":"Feature","geometry":{"type":"MultiPolygon","coordinates":[[[[1.24,-5.929],[1.38,-5.999],[1.45,-6.077],[1.464,-6.077],[1.464,-6.091],[1.583,-6.224],[1.611,-6.365],[1.569,-6.407],[1.513,-6.428],[1.436,-6.435],[1.38,-6.386],[1.324,-6.288],[1.275,-6.274],[1.268,-6.217],[1.219,-6.042],[1.219,-5.978],[1.24,-5.929]]],[[[-1.453,-6.049],[-1.411,-6.07],[-1.411,-6.133],[-1.495,-6.295],[-1.593,-6.386],[-1.593,-6.4],[-1.656,-6.457],[-1.845,-6.443],[-1.852,-6.443],[-1.866,-6.407],[-1.86,-6.309],[-1.726,-6.175],[-1.705,-6.175],[-1.677,-6.147],[-1.558,-6.084],[-1.453,-6.049]]]]},"properties":{"abbr":"DEn","name":"dorsal endopiriform nucleus","plate":16,"ap_bregma_mm":2.55,"area_mm2":0.2184,"traced_fraction":[1.0,0.995],"n_labels":2,"no_drawn_outline":false}},{"type":"Feature","geometry":{"type":"MultiPolygon","coordinates":[[[[2.067,-6.457],[2.053,-6.457],[2.053,-6.414],[2.039,-6.393],[1.997,-6.386],[2.025,-6.358],[2.025,-6.316],[1.997,-6.267],[1.934,-6.203],[1.927,-6.175],[1.969,-6.147],[2.053,-6.147],[2.13,-6.182],[2.193,-6.246],[2.193,-6.323],[2.158,-6.379],[2.081,-6.457],[2.067,-6.457]]],[[[-2.252,-6.253],[-2.217,-6.281],[-2.168,-6.365],[-2.105,-6.428],[-1.881,-6.562],[-1.831,-6.632],[-1.796,-6.654],[-1.789,-6.689],[-1.733,-6.773],[-1.74,-6.794],[-1.719,-6.836],[-1.691,-6.97],[-1.705,-7.075],[-1.747,-7.061],[-1.782,-7.026],[-1.824,-6.949],[-1.881,-6.78],[-1.915,-6.724],[-2.007,-6.632],[-2.252,-6.513],[-2.364,-6.435],[-2.406,-6.386],[-2.427,-6.344],[-2.427,-6.295],[-2.392,-6.26],[-2.329,-6.239],[-2.252,-6.253]]]]},"properties":{"abbr":"Pir","name":"piriform cortex","plate":16,"ap_bregma_mm":2.55,"area_mm2":0.2004,"traced_fraction":[0.948,1.0],"n_labels":2,"no_drawn_outline":false}},{"type":"Feature","geometry":{"type":"MultiPolygon","coordinates":[[[[-1.039,-5.838],[-1.018,-5.873],[-0.99,-6.006],[-0.955,-6.063],[-0.92,-6.168],[-0.871,-6.253],[-0.829,-6.281],[-0.752,-6.485],[-0.752,-6.696],[-0.836,-6.914],[-0.857,-6.914],[-0.934,-6.97],[-0.934,-6.984],[-1.004,-7.026],[-1.123,-7.047],[-1.327,-7.019],[-1.397,-6.977],[-1.453,-6.921],[-1.446,-6.893],[-1.376,-6.886],[-1.32,-6.843],[-1.292,-6.787],[-1.277,-6.689],[-1.284,-6.569],[-1.299,-6.555],[-1.327,-6.443],[-1.369,-6.365],[-1.425,-6.316],[-1.425,-6.302],[-1.39,-6.26],[-1.263,-6.168],[-1.256,-6.147],[-1.151,-6.049],[-1.095,-5.957],[-1.067,-5.859],[-1.039,-5.838]]],[[[0.917,-5.922],[1.155,-6.154],[1.24,-6.217],[1.268,-6.217],[1.275,-6.274],[1.24,-6.267],[1.183,-6.288],[1.134,-6.337],[1.078,-6.464],[1.085,-6.485],[1.057,-6.59],[1.057,-6.675],[1.106,-6.808],[1.057,-6.85],[1.057,-6.865],[1.036,-6.871],[1.029,-6.871],[1.022,-6.879],[1.015,-6.871],[0.882,-6.879],[0.882,-6.914],[0.805,-6.907],[0.714,-6.865],[0.623,-6.843],[0.566,-6.752],[0.545,-6.611],[0.587,-6.45],[0.7,-6.196],[0.714,-6.196],[0.812,-6.091],[0.819,-6.063],[0.889,-5.971],[0.896,-5.936],[0.917,-5.922]]]]},"properties":{"abbr":"AcbSh","name":"accumbens nucleus, shell","plate":16,"ap_bregma_mm":2.55,"area_mm2":0.9178,"traced_fraction":[1.0,0.99],"n_labels":2,"no_drawn_outline":false}},{"type":"Feature","geometry":{"type":"MultiPolygon","coordinates":[[[[1.927,-6.175],[1.934,-6.203],[2.018,-6.295],[2.025,-6.358],[1.997,-6.386],[1.801,-6.478],[1.66,-6.632],[1.604,-6.597],[1.576,-6.597],[1.569,-6.625],[1.639,-6.661],[1.527,-6.879],[1.506,-6.97],[1.52,-7.054],[1.471,-7.04],[1.415,-6.977],[1.401,-6.942],[1.408,-6.787],[1.352,-6.745],[1.38,-6.632],[1.38,-6.506],[1.415,-6.513],[1.429,-6.499],[1.436,-6.435],[1.513,-6.428],[1.569,-6.407],[1.597,-6.457],[1.625,-6.471],[1.632,-6.393],[1.611,-6.365],[1.583,-6.224],[1.653,-6.203],[1.744,-6.203],[1.927,-6.175]]],[[[-1.845,-6.443],[-1.656,-6.457],[-1.649,-6.527],[-1.614,-6.541],[-1.607,-6.682],[-1.586,-6.752],[-1.516,-6.843],[-1.446,-6.893],[-1.453,-6.921],[-1.467,-6.921],[-1.481,-6.956],[-1.579,-7.04],[-1.579,-7.061],[-1.635,-7.061],[-1.67,-7.083],[-1.698,-7.083],[-1.705,-7.075],[-1.691,-6.97],[-1.719,-6.836],[-1.74,-6.794],[-1.733,-6.773],[-1.691,-6.759],[-1.712,-6.71],[-1.726,-6.71],[-1.754,-6.646],[-1.796,-6.654],[-1.831,-6.632],[-1.881,-6.562],[-1.881,-6.534],[-1.845,-6.506],[-1.845,-6.45],[-1.845,-6.443]]],[[[-1.6,-6.808],[-1.614,-6.836],[-1.586,-6.829],[-1.586,-6.808],[-1.6,-6.808]]]]},"properties":{"abbr":"IEn","name":"intermediate endopiriform nucleus","plate":16,"ap_bregma_mm":2.55,"area_mm2":0.342,"traced_fraction":[0.968,0.989,1.0],"n_labels":2,"no_drawn_outline":false}},{"type":"Feature","geometry":{"type":"MultiPolygon","coordinates":[[[[1.275,-6.274],[1.324,-6.288],[1.38,-6.386],[1.38,-6.506],[1.38,-6.632],[1.352,-6.745],[1.331,-6.752],[1.296,-6.815],[1.24,-6.865],[1.176,-6.865],[1.106,-6.808],[1.057,-6.675],[1.057,-6.59],[1.085,-6.485],[1.078,-6.464],[1.134,-6.337],[1.183,-6.288],[1.24,-6.267],[1.275,-6.274]]],[[[-1.495,-6.295],[-1.425,-6.302],[-1.425,-6.316],[-1.369,-6.365],[-1.327,-6.443],[-1.299,-6.555],[-1.284,-6.569],[-1.277,-6.689],[-1.292,-6.787],[-1.32,-6.843],[-1.376,-6.886],[-1.446,-6.893],[-1.481,-6.879],[-1.586,-6.752],[-1.607,-6.682],[-1.614,-6.541],[-1.586,-6.45],[-1.593,-6.4],[-1.593,-6.386],[-1.495,-6.295]]]]},"properties":{"abbr":"aca","name":"anterior commissure, anterior part","plate":16,"ap_bregma_mm":2.55,"area_mm2":0.3046,"traced_fraction":[1.0,1.0],"n_labels":2,"no_drawn_outline":false}},{"type":"Feature","geometry":{"type":"MultiPolygon","coordinates":[[[[2.235,-6.689],[2.242,-6.689],[2.032,-6.963],[1.962,-7.019],[1.843,-7.153],[1.653,-7.279],[1.639,-7.251],[1.646,-7.181],[1.716,-6.998],[1.793,-6.879],[1.871,-6.801],[1.955,-6.738],[2.032,-6.703],[2.095,-6.689],[2.235,-6.689]]],[[[-1.775,-7.272],[-1.768,-7.329],[-1.782,-7.343],[-1.845,-7.315],[-1.93,-7.209],[-2.098,-7.04],[-2.098,-7.026],[-2.308,-6.815],[-2.301,-6.801],[-2.147,-6.808],[-1.965,-6.893],[-1.902,-6.963],[-1.852,-7.075],[-1.838,-7.146],[-1.803,-7.209],[-1.803,-7.244],[-1.775,-7.272]]]]},"properties":{"abbr":"lo","name":"lateral olfactory tract","plate":16,"ap_bregma_mm":2.55,"area_mm2":0.23,"traced_fraction":[1.0,1.0],"n_labels":2,"no_drawn_outline":false}},{"type":"Feature","geometry":{"type":"MultiPolygon","coordinates":[[[[0.027,-2.989],[0.09,-2.996],[0.146,-3.024],[0.356,-3.151],[0.581,-3.256],[0.623,-3.292],[0.805,-3.383],[1.127,-3.608],[1.345,-3.812],[1.24,-3.953],[1.078,-4.276],[0.931,-4.698],[0.707,-4.649],[0.069,-4.551],[-0.212,-4.565],[-1.039,-4.691],[-1.06,-4.677],[-1.137,-4.417],[-1.228,-4.171],[-1.32,-3.981],[-1.39,-3.889],[-1.207,-3.714],[-0.878,-3.474],[-0.604,-3.306],[-0.387,-3.193],[-0.198,-3.066],[-0.072,-3.01],[-0.065,-3.031],[-0.078,-3.348],[-0.044,-3.854],[-0.023,-3.91],[-0.001,-3.91],[0.013,-3.861],[0.027,-3.573],[0.027,-3.038],[0.027,-2.989]]]]},"properties":{"abbr":"PrL","name":"prelimbic cortex","plate":16,"ap_bregma_mm":2.55,"area_mm2":3.0454,"traced_fraction":[1.0],"n_labels":2,"no_drawn_outline":false}},{"type":"Feature","geometry":{"type":"MultiPolygon","coordinates":[[[[-2.098,-4.297],[-2.119,-4.431],[-2.119,-4.6],[-2.077,-4.761],[-2.876,-4.937],[-3.023,-4.959],[-3.15,-4.987],[-3.185,-5.008],[-3.486,-5.057],[-3.619,-5.092],[-3.647,-5.106],[-3.647,-5.12],[-3.837,-4.951],[-3.837,-4.937],[-3.935,-4.839],[-4.103,-4.628],[-4.166,-4.508],[-4.18,-4.508],[-4.222,-4.438],[-4.313,-4.255],[-4.363,-4.058],[-4.348,-4.044],[-3.921,-4.058],[-3.921,-4.108],[-3.542,-4.108],[-3.542,-4.093],[-3.297,-4.108],[-2.771,-4.178],[-2.652,-4.206],[-2.532,-4.213],[-2.098,-4.297]]],[[[3.967,-4.262],[3.904,-4.389],[3.757,-4.6],[3.413,-4.93],[3.252,-4.888],[2.922,-4.846],[2.831,-4.818],[2.53,-4.783],[1.85,-4.663],[1.85,-4.6],[1.899,-4.417],[1.913,-4.248],[2.509,-4.213],[3.266,-4.206],[3.623,-4.227],[3.771,-4.22],[3.911,-4.234],[3.967,-4.262]]]]},"properties":{"abbr":"S1J","name":"primary somatosensory cortex, jaw region","plate":16,"ap_bregma_mm":2.55,"area_mm2":2.7432,"traced_fraction":[0.937,0.993],"n_labels":1,"no_drawn_outline":false}},{"type":"Feature","geometry":{"type":"MultiPolygon","coordinates":[[[[1.836,-4.698],[1.85,-4.804],[1.85,-4.937],[1.836,-4.951],[1.836,-4.987],[1.814,-4.987],[1.765,-4.951],[1.646,-4.951],[1.646,-4.93],[1.759,-4.818],[1.793,-4.74],[1.822,-4.698],[1.836,-4.698]]],[[[-2.042,-4.832],[-1.894,-4.987],[-1.817,-5.043],[-1.803,-5.085],[-1.909,-5.085],[-1.972,-5.134],[-2.028,-5.085],[-2.028,-5.022],[-2.049,-4.987],[-2.063,-4.867],[-2.042,-4.832]]]]},"properties":{"abbr":"DCl","name":"dorsal part of claustrum","plate":16,"ap_bregma_mm":2.55,"area_mm2":0.0647,"traced_fraction":[1.0,0.991],"n_labels":2,"no_drawn_outline":false}},{"type":"Feature","geometry":{"type":"MultiPolygon","coordinates":[[[[1.85,-4.804],[2.067,-4.839],[2.495,-4.951],[3.098,-5.078],[3.245,-5.127],[3.245,-5.141],[3.238,-5.155],[3.035,-5.402],[2.943,-5.359],[2.649,-5.275],[2.291,-5.141],[2.088,-5.085],[1.836,-4.994],[1.836,-4.987],[1.836,-4.951],[1.85,-4.937],[1.85,-4.804]]],[[[-2.063,-4.867],[-2.049,-4.987],[-2.028,-5.022],[-2.028,-5.085],[-2.673,-5.388],[-2.757,-5.416],[-2.96,-5.521],[-3.079,-5.563],[-3.136,-5.591],[-3.157,-5.62],[-3.465,-5.296],[-3.465,-5.282],[-3.437,-5.268],[-3.178,-5.184],[-2.547,-5.008],[-2.112,-4.867],[-2.063,-4.867]]]]},"properties":{"abbr":"DI","name":"dysgranular insular cortex","plate":16,"ap_bregma_mm":2.55,"area_mm2":0.7941,"traced_fraction":[1.0,0.998],"n_labels":2,"no_drawn_outline":false}},{"type":"Feature","geometry":{"type":"MultiPolygon","coordinates":[[[[1.836,-4.994],[2.088,-5.085],[2.291,-5.141],[2.649,-5.275],[2.943,-5.359],[3.035,-5.402],[2.656,-6.006],[2.621,-5.999],[2.593,-5.964],[2.551,-5.943],[2.403,-5.803],[2.312,-5.739],[1.906,-5.388],[1.857,-5.359],[1.709,-5.219],[1.709,-5.205],[1.801,-5.106],[1.836,-4.994]]],[[[-2.028,-5.085],[-1.972,-5.134],[-1.979,-5.155],[-1.937,-5.247],[-1.86,-5.338],[-2.869,-5.971],[-2.876,-5.978],[-2.981,-5.824],[-3.157,-5.62],[-3.136,-5.591],[-3.079,-5.563],[-2.96,-5.521],[-2.757,-5.416],[-2.673,-5.388],[-2.028,-5.085]]]]},"properties":{"abbr":"AI","name":"agranular insular cortex","plate":16,"ap_bregma_mm":2.55,"area_mm2":1.0685,"traced_fraction":[1.0,1.0],"n_labels":2,"no_drawn_outline":false}},{"type":"Feature","geometry":{"type":"MultiPolygon","coordinates":[[[[-0.99,-5.732],[-0.962,-5.753],[-0.913,-5.845],[-0.92,-5.894],[-0.878,-5.992],[-0.836,-6.217],[-0.829,-6.281],[-0.871,-6.253],[-0.92,-6.168],[-0.955,-6.063],[-0.99,-6.006],[-1.018,-5.873],[-1.039,-5.838],[-1.018,-5.746],[-0.99,-5.732]]],[[[0.84,-5.824],[0.861,-5.831],[0.903,-5.908],[0.91,-5.915],[0.917,-5.922],[0.896,-5.936],[0.889,-5.971],[0.819,-6.063],[0.812,-6.091],[0.714,-6.196],[0.7,-6.196],[0.693,-6.147],[0.735,-6.028],[0.756,-5.943],[0.756,-5.929],[0.77,-5.88],[0.84,-5.824]]]]},"properties":{"abbr":"E","name":"ependyma and subependymal layer","plate":16,"ap_bregma_mm":2.55,"area_mm2":0.0828,"traced_fraction":[1.0,1.0],"n_labels":2,"no_drawn_outline":false}},{"type":"Feature","geometry":{"type":"MultiPolygon","coordinates":[[[[-0.913,-5.845],[-0.836,-5.901],[-0.808,-5.999],[-0.674,-6.133],[-0.71,-6.189],[-0.71,-6.217],[-0.836,-6.217],[-0.878,-5.992],[-0.92,-5.894],[-0.913,-5.845]]]]},"properties":{"abbr":"OV","name":"olfactory ventricle (olfactory part of lateral ventricle)","plate":16,"ap_bregma_mm":2.55,"area_mm2":0.0384,"traced_fraction":[0.824],"n_labels":1,"no_drawn_outline":false}},{"type":"Feature","geometry":{"type":"MultiPolygon","coordinates":[[[[-0.303,-6.379],[-0.24,-6.407],[-0.226,-6.464],[-0.233,-6.562],[-0.359,-6.562],[-0.345,-6.443],[-0.303,-6.379]]],[[[1.997,-6.386],[2.039,-6.393],[2.053,-6.414],[2.053,-6.457],[2.067,-6.457],[2.004,-6.52],[1.822,-6.632],[1.737,-6.71],[1.66,-6.858],[1.618,-6.991],[1.555,-7.054],[1.52,-7.054],[1.506,-6.97],[1.527,-6.879],[1.639,-6.661],[1.66,-6.632],[1.801,-6.478],[1.997,-6.386]]],[[[0.167,-6.393],[0.195,-6.435],[0.307,-6.435],[0.307,-6.555],[0.23,-6.555],[0.083,-6.555],[0.076,-6.527],[0.097,-6.414],[0.167,-6.393]]]]},"properties":{"abbr":"2","name":"layer 2 of cortex","plate":16,"ap_bregma_mm":2.55,"area_mm2":0.1458,"traced_fraction":[0.864,0.971,0.523],"n_labels":3,"no_drawn_outline":false}},{"type":"Feature","geometry":{"type":"MultiPolygon","coordinates":[[[[0.23,-6.555],[0.23,-6.569],[0.447,-6.569],[0.447,-6.604],[0.307,-6.682],[0.286,-6.71],[0.251,-6.724],[0.23,-6.759],[0.209,-6.759],[0.181,-6.787],[0.118,-6.815],[0.104,-6.801],[0.083,-6.71],[0.083,-6.555],[0.23,-6.555]]],[[[-0.359,-6.562],[-0.233,-6.562],[-0.226,-6.654],[-0.254,-6.787],[-0.345,-6.766],[-0.366,-6.618],[-0.359,-6.562]]]]},"properties":{"abbr":"DTT","name":"dorsal tenia tecta","plate":16,"ap_bregma_mm":2.55,"area_mm2":0.0817,"traced_fraction":[0.725,0.888],"n_labels":2,"no_drawn_outline":false}},{"type":"Feature","geometry":{"type":"MultiPolygon","coordinates":[[[[0.623,-6.843],[0.714,-6.865],[0.805,-6.907],[0.798,-6.956],[0.826,-6.991],[0.861,-7.005],[0.917,-6.998],[0.903,-6.914],[0.882,-6.914],[0.882,-6.879],[1.015,-6.871],[1.022,-6.879],[1.022,-6.921],[1.036,-6.921],[1.036,-6.935],[1.071,-6.963],[1.071,-6.977],[1.05,-6.984],[1.05,-7.033],[1.071,-7.061],[1.057,-7.111],[0.994,-7.111],[0.861,-7.097],[0.763,-7.04],[0.672,-6.956],[0.63,-6.893],[0.623,-6.843]]]]},"properties":{"abbr":"VP","name":"ventral pallidum","plate":16,"ap_bregma_mm":2.55,"area_mm2":0.065,"traced_fraction":[0.96],"n_labels":1,"no_drawn_outline":false}},{"type":"Feature","geometry":{"type":"MultiPolygon","coordinates":[[[[0.447,-6.604],[0.545,-6.611],[0.553,-6.71],[0.623,-6.843],[0.63,-6.893],[0.672,-6.956],[0.763,-7.04],[0.861,-7.097],[0.994,-7.111],[0.973,-7.132],[0.973,-7.16],[1.029,-7.237],[0.994,-7.279],[0.987,-7.336],[0.861,-7.371],[0.7,-7.336],[0.587,-7.265],[0.56,-7.23],[0.51,-7.202],[0.482,-7.16],[0.461,-7.09],[0.363,-6.998],[0.356,-6.977],[0.342,-6.977],[0.293,-6.9],[0.265,-6.879],[0.237,-6.822],[0.23,-6.759],[0.23,-6.745],[0.307,-6.682],[0.447,-6.604]]],[[[-0.401,-6.858],[-0.478,-7.019],[-0.52,-7.054],[-0.52,-7.069],[-0.555,-7.083],[-0.555,-7.097],[-0.689,-7.181],[-0.716,-7.223],[-0.716,-7.251],[-0.731,-7.251],[-0.759,-7.301],[-0.836,-7.378],[-0.934,-7.441],[-0.997,-7.455],[-1.109,-7.441],[-1.137,-7.364],[-1.137,-7.315],[-1.109,-7.251],[-1.011,-7.146],[-1.011,-7.132],[-0.997,-7.132],[-0.99,-7.111],[-0.976,-7.111],[-0.969,-7.09],[-0.955,-7.09],[-0.955,-7.075],[-0.941,-7.075],[-0.857,-6.984],[-0.836,-6.914],[-0.752,-6.696],[-0.646,-6.689],[-0.541,-6.717],[-0.485,-6.759],[-0.401,-6.858]]]]},"properties":{"abbr":"AOP","name":"anterior olfactory nucleus, posterior part","plate":16,"ap_bregma_mm":2.55,"area_mm2":0.5336,"traced_fraction":[0.997,1.0],"n_labels":2,"no_drawn_outline":false}},{"type":"Feature","geometry":{"type":"MultiPolygon","coordinates":[[[[-0.24,-6.407],[-0.191,-6.407],[-0.078,-6.443],[0.097,-6.414],[0.076,-6.527],[0.083,-6.555],[0.083,-6.71],[0.097,-6.78],[0.118,-6.815],[0.118,-6.85],[0.167,-6.963],[0.293,-7.111],[0.384,-7.16],[0.482,-7.16],[0.496,-7.188],[0.587,-7.265],[0.7,-7.336],[0.84,-7.371],[0.987,-7.336],[1.113,-7.35],[1.155,-7.329],[1.212,-7.329],[1.247,-7.364],[1.254,-7.42],[1.275,-7.441],[0.917,-7.54],[0.707,-7.54],[0.623,-7.519],[0.496,-7.483],[0.16,-7.336],[0.034,-7.237],[-0.029,-7.104],[-0.057,-7.019],[-0.065,-6.942],[-0.078,-6.928],[-0.1,-6.928],[-0.121,-7.069],[-0.114,-7.097],[-0.142,-7.132],[-0.191,-7.258],[-0.261,-7.336],[-0.296,-7.35],[-0.296,-7.364],[-0.443,-7.441],[-0.653,-7.505],[-0.794,-7.582],[-1.039,-7.624],[-1.172,-7.624],[-1.334,-7.568],[-1.313,-7.561],[-1.242,-7.483],[-1.109,-7.441],[-1.046,-7.455],[-0.934,-7.441],[-0.836,-7.378],[-0.759,-7.301],[-0.731,-7.251],[-0.716,-7.251],[-0.695,-7.265],[-0.583,-7.251],[-0.422,-7.132],[-0.338,-7.04],[-0.282,-6.942],[-0.254,-6.843],[-0.254,-6.787],[-0.226,-6.654],[-0.233,-6.562],[-0.226,-6.464],[-0.24,-6.407]]]]},"properties":{"abbr":"VTT","name":"ventral tenia tecta","plate":16,"ap_bregma_mm":2.55,"area_mm2":0.7603,"traced_fraction":[0.998],"n_labels":2,"no_drawn_outline":false}},{"type":"Feature","geometry":{"type":"MultiPolygon","coordinates":[[[[1.352,-6.745],[1.408,-6.787],[1.401,-6.942],[1.415,-6.977],[1.471,-7.04],[1.52,-7.054],[1.52,-7.069],[1.478,-7.075],[1.408,-7.244],[1.352,-7.286],[1.289,-7.286],[1.204,-7.244],[1.085,-7.23],[1.092,-7.146],[1.057,-7.111],[1.071,-7.061],[1.113,-7.061],[1.127,-7.047],[1.127,-6.998],[1.155,-6.977],[1.155,-6.935],[1.127,-6.893],[1.057,-6.865],[1.057,-6.85],[1.106,-6.808],[1.176,-6.865],[1.24,-6.865],[1.296,-6.815],[1.331,-6.752],[1.352,-6.745]]]]},"properties":{"abbr":"Tu","name":"olfactory tubercle","plate":16,"ap_bregma_mm":2.55,"area_mm2":0.146,"traced_fraction":[0.993],"n_labels":1,"no_drawn_outline":false}},{"type":"Feature","geometry":{"type":"Polygon","coordinates":[[[-0.065,-3.031],[0.027,-3.038],[0.027,-3.573],[0.013,-3.861],[-0.001,-3.91],[-0.023,-3.91],[-0.044,-3.854],[-0.078,-3.348],[-0.065,-3.031]]]},"properties":{"abbr":null,"name":"unnamed sealed face","plate":16,"ap_bregma_mm":2.55,"index":0}},{"type":"Feature","geometry":{"type":"Polygon","coordinates":[[[0.23,-6.759],[0.237,-6.822],[0.265,-6.879],[0.293,-6.9],[0.342,-6.977],[0.356,-6.977],[0.363,-6.998],[0.461,-7.09],[0.482,-7.16],[0.384,-7.16],[0.293,-7.111],[0.167,-6.963],[0.118,-6.85],[0.118,-6.815],[0.181,-6.787],[0.209,-6.759],[0.23,-6.759]]]},"properties":{"abbr":null,"name":"unnamed sealed face","plate":16,"ap_bregma_mm":2.55,"index":1}},{"type":"Feature","geometry":{"type":"Polygon","coordinates":[[[-0.345,-6.766],[-0.254,-6.787],[-0.254,-6.843],[-0.282,-6.942],[-0.359,-7.069],[-0.373,-7.069],[-0.422,-7.132],[-0.478,-7.167],[-0.485,-7.188],[-0.583,-7.251],[-0.625,-7.265],[-0.695,-7.265],[-0.716,-7.251],[-0.716,-7.223],[-0.689,-7.181],[-0.555,-7.097],[-0.555,-7.083],[-0.52,-7.069],[-0.52,-7.054],[-0.478,-7.019],[-0.401,-6.858],[-0.345,-6.766]]]},"properties":{"abbr":null,"name":"unnamed sealed face","plate":16,"ap_bregma_mm":2.55,"index":2}},{"type":"Feature","geometry":{"type":"Polygon","coordinates":[[[-0.836,-6.914],[-0.857,-6.984],[-0.941,-7.075],[-0.955,-7.075],[-0.955,-7.09],[-0.969,-7.09],[-0.976,-7.111],[-0.99,-7.111],[-0.997,-7.132],[-1.011,-7.132],[-1.011,-7.146],[-1.109,-7.251],[-1.137,-7.315],[-1.137,-7.364],[-1.109,-7.441],[-1.242,-7.483],[-1.313,-7.561],[-1.334,-7.568],[-1.495,-7.519],[-1.677,-7.427],[-1.782,-7.343],[-1.768,-7.329],[-1.775,-7.272],[-1.74,-7.132],[-1.698,-7.083],[-1.67,-7.083],[-1.635,-7.061],[-1.579,-7.061],[-1.579,-7.04],[-1.481,-6.956],[-1.467,-6.921],[-1.453,-6.921],[-1.397,-6.977],[-1.327,-7.019],[-1.123,-7.047],[-1.004,-7.026],[-0.934,-6.984],[-0.934,-6.97],[-0.899,-6.942],[-0.836,-6.914]]]},"properties":{"abbr":null,"name":"unnamed sealed face","plate":16,"ap_bregma_mm":2.55,"index":3}},{"type":"Feature","geometry":{"type":"Polygon","coordinates":[[[1.52,-7.069],[1.569,-7.083],[1.604,-7.125],[1.618,-7.167],[1.646,-7.181],[1.639,-7.251],[1.653,-7.279],[1.611,-7.315],[1.499,-7.357],[1.478,-7.378],[1.373,-7.42],[1.275,-7.441],[1.254,-7.42],[1.247,-7.364],[1.212,-7.329],[1.155,-7.329],[1.113,-7.35],[0.987,-7.336],[0.994,-7.279],[1.029,-7.237],[1.085,-7.23],[1.204,-7.244],[1.289,-7.286],[1.352,-7.286],[1.408,-7.244],[1.478,-7.075],[1.52,-7.069]]]},"properties":{"abbr":null,"name":"unnamed sealed face","plate":16,"ap_bregma_mm":2.55,"index":4}},{"type":"Feature","geometry":{"type":"MultiPolygon","coordinates":[[[[-0.969,-7.603],[-1.067,-7.617],[-1.165,-7.617],[-1.221,-7.603],[-1.509,-7.505],[-1.684,-7.413],[-1.761,-7.35],[-1.845,-7.308],[-2.126,-6.998],[-2.329,-6.794],[-2.448,-6.696],[-2.575,-6.534],[-2.673,-6.323],[-2.673,-6.26],[-2.659,-6.224],[-2.694,-6.161],[-2.792,-6.105],[-2.946,-5.873],[-3.121,-5.655],[-3.479,-5.282],[-3.605,-5.176],[-3.654,-5.113],[-3.809,-4.973],[-4.005,-4.748],[-4.11,-4.607],[-4.236,-4.403],[-4.313,-4.241],[-4.363,-4.079],[-4.405,-3.826],[-4.405,-3.65],[-4.341,-3.376],[-4.299,-3.27],[-4.173,-3.066],[-3.928,-2.806],[-3.584,-2.56],[-3.234,-2.377],[-2.694,-2.166],[-2.301,-2.054],[-1.845,-1.948],[-1.207,-1.857],[-0.99,-1.857],[-0.871,-1.871],[-0.667,-1.913],[-0.541,-1.955],[-0.324,-2.075],[-0.226,-2.159],[-0.142,-2.265],[-0.093,-2.37],[-0.065,-2.518],[-0.072,-2.855],[-0.086,-2.961],[-0.078,-3.031],[0.027,-3.038],[0.027,-2.659],[0.069,-2.37],[0.132,-2.201],[0.195,-2.096],[0.314,-1.99],[0.587,-1.871],[0.826,-1.822],[1.078,-1.794],[1.485,-1.786],[1.793,-1.808],[2.123,-1.857],[2.474,-1.941],[2.922,-2.103],[3.203,-2.244],[3.49,-2.434],[3.722,-2.645],[3.897,-2.863],[3.974,-2.982],[4.051,-3.144],[4.107,-3.341],[4.128,-3.46],[4.128,-3.678],[4.093,-3.889],[3.995,-4.185],[3.89,-4.389],[3.743,-4.6],[3.413,-4.923],[3.035,-5.395],[2.747,-5.838],[2.642,-6.014],[2.6,-6.112],[2.544,-6.161],[2.502,-6.239],[2.502,-6.281],[2.291,-6.611],[2.088,-6.886],[1.843,-7.139],[1.59,-7.315],[1.38,-7.406],[0.98,-7.519],[0.889,-7.533],[0.714,-7.533],[0.503,-7.476],[0.174,-7.336],[0.041,-7.237],[-0.029,-7.097],[-0.128,-7.09],[-0.198,-7.251],[-0.261,-7.322],[-0.338,-7.378],[-0.457,-7.434],[-0.667,-7.505],[-0.801,-7.575],[-0.941,-7.596],[-0.969,-7.603]]]]},"properties":{"abbr":"brain_outline","name":"outline of the section","plate":16,"ap_bregma_mm":2.55}}]}
